{"type":"FeatureCollection","features":[{"type":"Feature","id":"110032-196","properties":{"id":"110032-196","name":"Кировский район","name_ru":"Кировский район","subject_id":"110032","subject_name":"Северная Осетия - Алания","source_gid":196,"source_fid":248,"names_rosstat":"Кировский муниципальный район","population":27797,"area_km2":407.7754042182203,"density_km2":68.16742675613776,"source":"Актуализированный объединённый GeoJSON, предоставленный преподавателем","name_en":"Kirovskii District","name_zh":"Kirovskii区","subject_name_en":"North Ossetia–Alania","subject_name_zh":"北奥塞梯—阿兰共和国"},"geometry":{"type":"Polygon","coordinates":[[[44.037443,43.352576],[44.088395,43.292675],[44.093242,43.280516],[44.109944,43.283013],[44.165156,43.282626],[44.166515,43.29796],[44.17433,43.305872],[44.17433,43.311064],[44.184523,43.316009],[44.190299,43.31502],[44.193357,43.318481],[44.209109,43.321492],[44.21094,43.322555],[44.221898,43.314031],[44.224276,43.303894],[44.229246,43.298144],[44.232329,43.296288],[44.2369,43.291161],[44.249088,43.281705],[44.251215,43.276852],[44.251195,43.274892],[44.252984,43.271978],[44.258253,43.26902],[44.262024,43.265376],[44.26931,43.26556],[44.271625,43.266396],[44.272633,43.265844],[44.273477,43.262209],[44.276274,43.258763],[44.279834,43.256624],[44.284693,43.256094],[44.288209,43.254036],[44.298346,43.250215],[44.305427,43.243856],[44.311716,43.244342],[44.313742,43.246007],[44.316782,43.244001],[44.32145,43.244027],[44.326207,43.254917],[44.341467,43.249512],[44.368125,43.24173],[44.375389,43.250033],[44.379646,43.249038],[44.392625,43.263486],[44.394411,43.26311],[44.39671,43.26428],[44.399576,43.26389],[44.400931,43.262894],[44.407584,43.280677],[44.398016,43.283843],[44.404539,43.311222],[44.410193,43.313754],[44.398886,43.32024],[44.393667,43.317235],[44.391388,43.318857],[44.380254,43.312246],[44.375711,43.31782],[44.366957,43.323782],[44.372868,43.331209],[44.349441,43.346153],[44.345611,43.346477],[44.3457,43.348291],[44.353218,43.347676],[44.354368,43.349083],[44.349434,43.351639],[44.336519,43.35125],[44.335647,43.354965],[44.340308,43.357844],[44.347677,43.359722],[44.36569,43.362195],[44.366383,43.364118],[44.369119,43.366078],[44.372241,43.365996],[44.376429,43.36904],[44.381877,43.369521],[44.381877,43.367369],[44.38383,43.366499],[44.38616,43.368376],[44.387861,43.36714],[44.387042,43.366499],[44.387924,43.365675],[44.391892,43.369063],[44.393655,43.369155],[44.392774,43.367232],[44.403124,43.365583],[44.402347,43.368788],[44.400458,43.368468],[44.400773,43.369155],[44.397497,43.369887],[44.397309,43.372314],[44.401213,43.372634],[44.402725,43.375427],[44.404867,43.373046],[44.410409,43.374649],[44.411606,43.373184],[44.414108,43.373266],[44.411652,43.376127],[44.408062,43.376379],[44.410077,43.378302],[44.412093,43.377455],[44.417824,43.380041],[44.422422,43.380224],[44.425445,43.378302],[44.429099,43.37821],[44.430736,43.380842],[44.434011,43.381666],[44.43968,43.381025],[44.444593,43.378759],[44.448909,43.378954],[44.453666,43.38351],[44.45946,43.38454],[44.460972,43.386325],[44.463113,43.385546],[44.464027,43.387882],[44.478261,43.387973],[44.480119,43.391406],[44.494141,43.394794],[44.465121,43.41587],[44.452378,43.417906],[44.449025,43.421247],[44.443179,43.423503],[44.442242,43.427733],[44.384058,43.402977],[44.381388,43.399588],[44.381491,43.396508],[44.355254,43.3924],[44.353085,43.394028],[44.355356,43.397226],[44.355852,43.408351],[44.345562,43.417259],[44.344962,43.418998],[44.343631,43.420153],[44.343238,43.421769],[44.344211,43.423752],[44.343889,43.424515],[44.341249,43.426806],[44.341457,43.428185],[44.338931,43.430971],[44.338925,43.437481],[44.333482,43.444053],[44.32359,43.449134],[44.322753,43.448931],[44.321252,43.4505],[44.267263,43.408633],[44.176388,43.348297],[44.17605,43.356389],[44.172061,43.368193],[44.172773,43.374272],[44.170308,43.392962],[44.170308,43.401152],[44.165584,43.411524],[44.156342,43.41635],[44.154801,43.424154],[44.152542,43.427954],[44.147921,43.433191],[44.146346,43.437676],[44.105683,43.431065],[44.108334,43.426926],[44.105972,43.422716],[44.103816,43.416144],[44.08487,43.39789],[44.077784,43.39522],[44.076552,43.392756],[44.06779,43.383156],[44.061835,43.374846],[44.042668,43.359026],[44.040508,43.355404],[44.037443,43.352576]]]}},{"type":"Feature","id":"110032-1665","properties":{"id":"110032-1665","name":"Ардонский район","name_ru":"Ардонский район","subject_id":"110032","subject_name":"Северная Осетия - Алания","source_gid":1665,"source_fid":1775,"names_rosstat":"Ардонский муниципальный район","population":31295,"area_km2":376.01349944967296,"density_km2":83.22839484700107,"source":"Актуализированный объединённый GeoJSON, предоставленный преподавателем","name_en":"Ardonskii District","name_zh":"Ardonskii区","subject_name_en":"North Ossetia–Alania","subject_name_zh":"北奥塞梯—阿兰共和国"},"geometry":{"type":"Polygon","coordinates":[[[44.173345,43.13385],[44.209775,43.139095],[44.208905,43.143379],[44.246742,43.148774],[44.249568,43.137826],[44.259933,43.138832],[44.259768,43.138232],[44.261681,43.138528],[44.261768,43.137724],[44.263528,43.137951],[44.256961,43.120694],[44.253188,43.106193],[44.275365,43.09901],[44.277398,43.102177],[44.277706,43.105556],[44.279865,43.111579],[44.279904,43.113887],[44.281215,43.115688],[44.280868,43.117855],[44.282725,43.119624],[44.309322,43.11047],[44.322326,43.103963],[44.323334,43.101134],[44.323755,43.09848],[44.322616,43.097568],[44.32269,43.096521],[44.323829,43.095529],[44.321856,43.095201],[44.321514,43.094026],[44.324453,43.092174],[44.323094,43.090672],[44.323645,43.090028],[44.321421,43.087451],[44.321703,43.085573],[44.320159,43.085036],[44.320821,43.08407],[44.322048,43.083812],[44.321996,43.082274],[44.320866,43.082975],[44.319827,43.082519],[44.319515,43.08066],[44.318616,43.080507],[44.318744,43.079289],[44.335147,43.071002],[44.338724,43.067333],[44.339376,43.063043],[44.35286,43.058216],[44.397212,43.038842],[44.398523,43.041008],[44.409851,43.036546],[44.413356,43.040385],[44.420664,43.039875],[44.420921,43.042387],[44.422622,43.044323],[44.422769,43.045532],[44.424974,43.046633],[44.425341,43.047949],[44.426407,43.047976],[44.42652,43.051317],[44.43028,43.049943],[44.43383,43.053507],[44.436108,43.054823],[44.43712,43.054573],[44.439926,43.058237],[44.445896,43.056459],[44.459316,43.065971],[44.46828,43.07319],[44.467774,43.081138],[44.465996,43.084106],[44.465511,43.087969],[44.460293,43.096265],[44.456575,43.098457],[44.454524,43.101772],[44.466127,43.118209],[44.464075,43.119539],[44.477825,43.139006],[44.472713,43.144314],[44.46101,43.150499],[44.456783,43.154371],[44.455501,43.156662],[44.473187,43.183761],[44.481359,43.197718],[44.476173,43.198893],[44.468515,43.202184],[44.464082,43.202177],[44.456216,43.205279],[44.434397,43.207667],[44.437606,43.211329],[44.446001,43.218574],[44.427064,43.224655],[44.341467,43.249512],[44.326207,43.254917],[44.32145,43.244027],[44.316782,43.244001],[44.313742,43.246007],[44.311716,43.244342],[44.305427,43.243856],[44.298346,43.250215],[44.288209,43.254036],[44.284693,43.256094],[44.279834,43.256624],[44.276274,43.258763],[44.273477,43.262209],[44.272633,43.265844],[44.271625,43.266396],[44.26931,43.26556],[44.263908,43.26509],[44.262024,43.265376],[44.260317,43.266486],[44.25917,43.268346],[44.252984,43.271978],[44.251195,43.274892],[44.250243,43.279875],[44.249088,43.281705],[44.245598,43.284368],[44.241624,43.277947],[44.244018,43.276084],[44.24501,43.272445],[44.244209,43.268037],[44.241446,43.26498],[44.238068,43.263093],[44.237872,43.260555],[44.233623,43.259816],[44.235117,43.256484],[44.230708,43.253927],[44.230055,43.249806],[44.232957,43.246996],[44.232825,43.241513],[44.221798,43.222451],[44.219566,43.219558],[44.217624,43.2191],[44.216426,43.217221],[44.216411,43.215179],[44.209697,43.212297],[44.207165,43.209981],[44.205999,43.207003],[44.207027,43.198851],[44.205222,43.195923],[44.201789,43.193341],[44.193608,43.189938],[44.191668,43.187462],[44.190359,43.179144],[44.183461,43.170853],[44.179272,43.16434],[44.179053,43.160253],[44.176529,43.156317],[44.175524,43.153163],[44.176663,43.149302],[44.176626,43.146836],[44.178336,43.142568],[44.173345,43.13385]]]}},{"type":"Feature","id":"110032-1666","properties":{"id":"110032-1666","name":"Пригородный район","name_ru":"Пригородный район","subject_id":"110032","subject_name":"Северная Осетия - Алания","source_gid":1666,"source_fid":1776,"names_rosstat":"Пригородный муниципальный район","population":100205,"area_km2":1416.4550088789128,"density_km2":70.743510645855,"source":"Актуализированный объединённый GeoJSON, предоставленный преподавателем","name_en":"Prigorodnyi District","name_zh":"Prigorodnyi区","subject_name_en":"North Ossetia–Alania","subject_name_zh":"北奥塞梯—阿兰共和国"},"geometry":{"type":"Polygon","coordinates":[[[44.311051,42.856206],[44.321924,42.84967],[44.332796,42.84951],[44.335841,42.842495],[44.347583,42.841379],[44.375195,42.818239],[44.36157,42.812413],[44.363371,42.810838],[44.368707,42.809508],[44.370851,42.809642],[44.377794,42.813469],[44.381566,42.813139],[44.381629,42.81199],[44.380418,42.809801],[44.377102,42.805967],[44.376271,42.802793],[44.373734,42.800353],[44.373521,42.798882],[44.371285,42.79608],[44.371112,42.789354],[44.366785,42.778296],[44.365996,42.774118],[44.362841,42.769971],[44.360656,42.760152],[44.355804,42.753609],[44.354135,42.746439],[44.353982,42.739384],[44.349556,42.73416],[44.34803,42.730513],[44.348508,42.724061],[44.350445,42.718672],[44.34939,42.717655],[44.350559,42.716966],[44.350639,42.715263],[44.34931,42.713502],[44.350812,42.712526],[44.350627,42.711378],[44.352558,42.710999],[44.360057,42.714888],[44.363619,42.715922],[44.3794,42.715584],[44.383507,42.714732],[44.386868,42.713037],[44.392555,42.704365],[44.394207,42.706399],[44.397608,42.707901],[44.403155,42.7088],[44.407456,42.707693],[44.410515,42.70908],[44.413068,42.712801],[44.415021,42.718106],[44.418433,42.718342],[44.427767,42.717255],[44.469631,42.708568],[44.493599,42.701887],[44.50129,42.700947],[44.509181,42.697569],[44.518111,42.696941],[44.521128,42.699878],[44.519144,42.705231],[44.511023,42.715859],[44.511635,42.718847],[44.512514,42.719848],[44.512095,42.722291],[44.50469,42.73014],[44.5001,42.733924],[44.499928,42.736198],[44.502187,42.738258],[44.504762,42.739464],[44.505567,42.740701],[44.507879,42.741008],[44.508028,42.745307],[44.509156,42.74691],[44.509102,42.750502],[44.510073,42.752559],[44.511414,42.753453],[44.513951,42.754225],[44.518817,42.753374],[44.523178,42.754552],[44.529895,42.752874],[44.534373,42.753418],[44.535431,42.755418],[44.543788,42.757648],[44.546181,42.758983],[44.548101,42.762945],[44.547383,42.7643],[44.549845,42.765847],[44.552487,42.766391],[44.551914,42.76966],[44.554286,42.772251],[44.555907,42.77645],[44.557929,42.779787],[44.558766,42.78011],[44.558232,42.786123],[44.561224,42.789082],[44.561007,42.792998],[44.563176,42.794844],[44.564564,42.797391],[44.563508,42.802582],[44.570334,42.807895],[44.570855,42.810027],[44.574943,42.817963],[44.568469,42.824824],[44.567991,42.830169],[44.566332,42.833911],[44.568683,42.84641],[44.564317,42.851929],[44.566014,42.855511],[44.563328,42.863034],[44.567208,42.866161],[44.568806,42.868367],[44.567709,42.871124],[44.570023,42.875763],[44.569396,42.878438],[44.560145,42.879414],[44.573842,42.892959],[44.58075,42.894851],[44.58332,42.897316],[44.584566,42.904942],[44.583294,42.910107],[44.583204,42.913246],[44.585071,42.917802],[44.589425,42.92475],[44.594777,42.928181],[44.595436,42.93362],[44.599316,42.936291],[44.599343,42.938215],[44.590115,42.940079],[44.588694,42.946265],[44.57998,42.956361],[44.580143,42.962232],[44.586154,42.966054],[44.592362,42.96868],[44.597307,42.971813],[44.614701,42.97827],[44.617291,42.978662],[44.619134,42.980516],[44.619024,42.982628],[44.620921,42.983453],[44.620729,42.985122],[44.621664,42.985323],[44.622104,42.986812],[44.623506,42.987556],[44.623341,42.989165],[44.622711,42.989491],[44.624166,42.990653],[44.623533,42.992222],[44.624468,42.993589],[44.623258,42.994896],[44.624496,42.995922],[44.623258,42.998687],[44.623973,42.999582],[44.624128,43.002198],[44.623525,43.00314],[44.620328,43.004531],[44.622131,43.007544],[44.622184,43.008992],[44.623894,43.010022],[44.623725,43.010762],[44.625244,43.013711],[44.62397,43.014865],[44.628785,43.033273],[44.626778,43.032772],[44.624549,43.033807],[44.622876,43.035556],[44.620729,43.03326],[44.619673,43.030937],[44.615108,43.0324],[44.618579,43.035204],[44.615229,43.03718],[44.619151,43.040144],[44.618214,43.042393],[44.604781,43.048605],[44.607005,43.053449],[44.604336,43.054785],[44.606359,43.056051],[44.608193,43.055136],[44.62778,43.065943],[44.631344,43.064464],[44.636248,43.065711],[44.639042,43.065692],[44.644666,43.062922],[44.646341,43.06282],[44.646418,43.062338],[44.652543,43.062446],[44.658719,43.06443],[44.657437,43.068913],[44.651173,43.078577],[44.641463,43.084494],[44.644688,43.086783],[44.651966,43.086168],[44.647359,43.095477],[44.644811,43.097935],[44.642701,43.09634],[44.637293,43.100287],[44.631039,43.1021],[44.631423,43.102714],[44.633522,43.103164],[44.632961,43.106117],[44.634247,43.111334],[44.647156,43.110754],[44.653422,43.109239],[44.652836,43.107826],[44.670913,43.101969],[44.672271,43.112485],[44.686804,43.111396],[44.686054,43.099883],[44.688313,43.092162],[44.692702,43.083829],[44.694969,43.082212],[44.69451,43.075736],[44.704606,43.067717],[44.710068,43.062099],[44.714641,43.061842],[44.716234,43.058952],[44.721763,43.055404],[44.72222,43.053157],[44.723314,43.052288],[44.728241,43.052334],[44.737222,43.054437],[44.738641,43.055506],[44.74191,43.056285],[44.742347,43.055754],[44.740529,43.050932],[44.740006,43.047217],[44.72561,43.043891],[44.729985,43.015903],[44.737426,42.977539],[44.72638,42.974743],[44.731282,42.964462],[44.720845,42.964708],[44.713674,42.965836],[44.709429,42.965287],[44.70445,42.968275],[44.701889,42.968181],[44.697404,42.966973],[44.69571,42.96545],[44.696255,42.964141],[44.694622,42.963145],[44.693066,42.960584],[44.688741,42.96121],[44.685251,42.956173],[44.685329,42.954978],[44.683929,42.952389],[44.679263,42.946697],[44.676693,42.94494],[44.676794,42.942512],[44.675511,42.942754],[44.675068,42.9441],[44.668767,42.940808],[44.6728,42.936732],[44.671947,42.934639],[44.674554,42.932286],[44.674477,42.929526],[44.675522,42.927835],[44.676852,42.92091],[44.675945,42.916461],[44.676302,42.915877],[44.670858,42.912071],[44.670363,42.913561],[44.654431,42.914179],[44.646241,42.916762],[44.642504,42.913343],[44.641921,42.911609],[44.64534,42.908828],[44.640742,42.909747],[44.638403,42.903315],[44.637076,42.901646],[44.63694,42.896436],[44.634406,42.892749],[44.631861,42.891994],[44.637103,42.89069],[44.640269,42.887851],[44.640789,42.88524],[44.64701,42.88114],[44.648968,42.881702],[44.652601,42.881398],[44.663866,42.878641],[44.673564,42.873077],[44.67454,42.870229],[44.67898,42.868978],[44.681591,42.86926],[44.693849,42.866067],[44.696983,42.86782],[44.701686,42.867934],[44.703674,42.866348],[44.70278,42.865234],[44.704157,42.864471],[44.703621,42.863705],[44.701999,42.863277],[44.700513,42.859648],[44.701882,42.85706],[44.702797,42.856581],[44.706916,42.85689],[44.716536,42.855407],[44.724093,42.852596],[44.73389,42.852037],[44.736908,42.849572],[44.739118,42.848817],[44.740827,42.846393],[44.750836,42.842615],[44.753472,42.84332],[44.754391,42.849899],[44.766696,42.850744],[44.773398,42.855212],[44.777044,42.859798],[44.783753,42.859866],[44.790207,42.858313],[44.795798,42.860386],[44.805793,42.856506],[44.807918,42.855063],[44.810034,42.85493],[44.812658,42.851368],[44.816494,42.848275],[44.824372,42.844865],[44.828018,42.842514],[44.830134,42.840044],[44.853651,42.835576],[44.854827,42.836752],[44.854711,42.839395],[44.859564,42.844704],[44.859858,42.8471],[44.857529,42.852214],[44.859631,42.856113],[44.856564,42.856686],[44.860674,42.860325],[44.863087,42.859857],[44.865723,42.860607],[44.868814,42.858638],[44.870055,42.861107],[44.864931,42.8639],[44.863881,42.874733],[44.862469,42.877555],[44.859528,42.88054],[44.859931,42.883509],[44.863459,42.884805],[44.87885,42.882526],[44.881718,42.915109],[44.902569,42.922201],[44.905318,42.924266],[44.905328,42.936994],[44.925847,42.930763],[44.927611,42.931116],[44.942897,42.939641],[44.943014,42.940935],[44.942074,42.942698],[44.942426,42.946696],[44.94031,42.948225],[44.941015,42.948813],[44.94713,42.945873],[44.947953,42.945991],[44.948188,42.947167],[44.953859,42.946579],[44.946218,42.979138],[44.942073,42.97915],[44.941838,42.980326],[44.940897,42.980914],[44.934782,42.980914],[44.930667,42.979621],[44.92808,42.977739],[44.926199,42.977504],[44.925493,42.979503],[44.937487,42.984912],[44.943837,42.984794],[44.937722,42.994436],[44.937369,42.9962],[44.935723,42.996906],[44.934664,42.99961],[44.934194,43.001492],[44.935252,43.010987],[44.932243,43.016166],[44.934194,43.02251],[44.937588,43.026559],[44.956413,43.032145],[44.956272,43.035901],[44.957149,43.037383],[44.960431,43.037694],[44.960024,43.041069],[44.958358,43.043152],[44.958836,43.045599],[44.957475,43.048967],[44.955464,43.050321],[44.953887,43.052554],[44.947957,43.054838],[44.94597,43.057544],[44.940424,43.059305],[44.937637,43.061381],[44.9324,43.063231],[44.932786,43.064943],[44.930968,43.070046],[44.931195,43.071261],[44.927905,43.071891],[44.921983,43.074283],[44.921276,43.077432],[44.91822,43.07934],[44.914512,43.078884],[44.910102,43.08292],[44.909368,43.084954],[44.909558,43.086418],[44.908617,43.088064],[44.905511,43.090428],[44.901748,43.096072],[44.898544,43.097717],[44.897035,43.09785],[44.894188,43.096135],[44.88851,43.097236],[44.870542,43.098236],[44.86622,43.105108],[44.855233,43.107465],[44.851646,43.108935],[44.834126,43.118695],[44.835419,43.120223],[44.840358,43.119165],[44.846708,43.119636],[44.844826,43.125397],[44.842121,43.130101],[44.842121,43.131159],[44.845179,43.132452],[44.84365,43.133863],[44.831421,43.13986],[44.807551,43.145739],[44.798251,43.146351],[44.800613,43.149972],[44.800767,43.151841],[44.797917,43.152225],[44.797829,43.153058],[44.800212,43.154753],[44.79947,43.156845],[44.797186,43.158944],[44.798432,43.163057],[44.796256,43.165436],[44.773407,43.157729],[44.763021,43.173862],[44.748827,43.189635],[44.750267,43.192144],[44.745868,43.198264],[44.745029,43.199287],[44.742701,43.199934],[44.742688,43.202363],[44.738865,43.202823],[44.741585,43.205027],[44.697001,43.270951],[44.682319,43.275906],[44.68227,43.277312],[44.680317,43.27823],[44.669618,43.278164],[44.668721,43.234416],[44.681987,43.233699],[44.681201,43.210885],[44.701538,43.205588],[44.703772,43.198885],[44.705386,43.189151],[44.706731,43.185798],[44.706069,43.1844],[44.703843,43.18358],[44.706753,43.180589],[44.703674,43.179816],[44.700824,43.176746],[44.700164,43.173462],[44.697869,43.172163],[44.697256,43.167576],[44.694926,43.166195],[44.694481,43.165268],[44.69596,43.163663],[44.695583,43.162499],[44.697532,43.16133],[44.69796,43.159715],[44.698423,43.15687],[44.695758,43.154131],[44.697499,43.153407],[44.69754,43.150206],[44.69853,43.149289],[44.699017,43.145096],[44.702489,43.140582],[44.704055,43.140165],[44.704662,43.140912],[44.70649,43.140661],[44.705093,43.138963],[44.705428,43.137703],[44.703574,43.136048],[44.704469,43.134806],[44.707576,43.135113],[44.707683,43.133821],[44.706049,43.131826],[44.704709,43.131184],[44.697577,43.123336],[44.685434,43.119971],[44.685834,43.126677],[44.640593,43.128923],[44.643794,43.148116],[44.641943,43.14823],[44.639924,43.149478],[44.640311,43.156141],[44.63745,43.156758],[44.637414,43.157595],[44.629408,43.155666],[44.626228,43.153521],[44.614723,43.148018],[44.616739,43.175182],[44.586518,43.176465],[44.586039,43.16777],[44.588128,43.167702],[44.587832,43.158825],[44.581568,43.158966],[44.575935,43.155057],[44.589184,43.145083],[44.591371,43.140464],[44.58436,43.139543],[44.581789,43.143467],[44.578227,43.146252],[44.578239,43.148458],[44.576046,43.149653],[44.574225,43.151863],[44.568099,43.1551],[44.565413,43.154543],[44.558739,43.156024],[44.550003,43.159443],[44.548609,43.161203],[44.541916,43.164739],[44.531726,43.173503],[44.532063,43.174115],[44.526029,43.178105],[44.499542,43.157728],[44.477825,43.139006],[44.464075,43.119539],[44.466127,43.118209],[44.454524,43.101772],[44.456575,43.098457],[44.460293,43.096265],[44.465511,43.087969],[44.465996,43.084106],[44.467774,43.081138],[44.46828,43.07319],[44.470669,43.068867],[44.47372,43.067091],[44.473435,43.064334],[44.474621,43.062491],[44.476024,43.057952],[44.477727,43.05765],[44.48208,43.059776],[44.487212,43.054222],[44.484761,43.052994],[44.494141,43.049787],[44.490716,43.044529],[44.492366,43.043719],[44.49296,43.042483],[44.502482,43.039996],[44.508719,43.040945],[44.508507,43.032262],[44.508043,43.032256],[44.508734,43.0261],[44.496846,43.025729],[44.485665,43.020493],[44.486786,43.015187],[44.489992,43.010827],[44.481316,43.007615],[44.474295,43.011282],[44.471638,43.017491],[44.46566,43.019698],[44.459429,43.016723],[44.457858,43.014279],[44.453495,43.01091],[44.453794,43.00977],[44.452806,43.008838],[44.447856,43.007537],[44.446063,43.005004],[44.444453,43.004508],[44.44302,43.004911],[44.443843,43.010306],[44.424126,43.013975],[44.410909,43.013066],[44.402816,43.013657],[44.402114,43.008024],[44.396613,43.004626],[44.392201,42.997741],[44.390739,42.997938],[44.39038,42.996908],[44.388665,42.996907],[44.39071,42.993509],[44.389944,42.990816],[44.386978,42.987265],[44.38617,42.984559],[44.383954,42.981643],[44.379889,42.973242],[44.372117,42.964876],[44.371818,42.962333],[44.368493,42.95714],[44.370895,42.951292],[44.371606,42.94526],[44.367618,42.939495],[44.367169,42.934756],[44.365709,42.93147],[44.366929,42.92963],[44.366271,42.925045],[44.368241,42.919457],[44.369838,42.917209],[44.3696,42.908579],[44.367341,42.9069],[44.351497,42.889194],[44.328012,42.884414],[44.327143,42.88059],[44.318445,42.879315],[44.313008,42.875331],[44.311051,42.856206]]]}},{"type":"Feature","id":"110032-1670","properties":{"id":"110032-1670","name":"Моздокский район","name_ru":"Моздокский район","subject_id":"110032","subject_name":"Северная Осетия - Алания","source_gid":1670,"source_fid":1780,"names_rosstat":"Моздокский муниципальный район","population":81353,"area_km2":1075.3409247204772,"density_km2":75.65321669604158,"source":"Актуализированный объединённый GeoJSON, предоставленный преподавателем","name_en":"Mozdokskii District","name_zh":"Mozdokskii区","subject_name_en":"North Ossetia–Alania","subject_name_zh":"北奥塞梯—阿兰共和国"},"geometry":{"type":"Polygon","coordinates":[[[44.267435,43.745323],[44.272537,43.741609],[44.273389,43.736839],[44.275078,43.734994],[44.274326,43.726041],[44.277715,43.721856],[44.281617,43.711073],[44.284163,43.709062],[44.289357,43.709716],[44.29349,43.697191],[44.294659,43.696183],[44.297178,43.689459],[44.310371,43.685709],[44.318997,43.679137],[44.326473,43.681222],[44.333271,43.676673],[44.338546,43.683496],[44.345286,43.681499],[44.358584,43.680473],[44.362281,43.681808],[44.370496,43.691461],[44.374193,43.693001],[44.380046,43.691666],[44.401714,43.690948],[44.404487,43.688997],[44.408081,43.684992],[44.410751,43.683965],[44.416379,43.683725],[44.426886,43.685841],[44.429341,43.685155],[44.430211,43.683811],[44.4298,43.678471],[44.431238,43.677033],[44.430827,43.662965],[44.427439,43.66163],[44.427952,43.661014],[44.426617,43.660295],[44.426206,43.659165],[44.426925,43.659268],[44.427439,43.658549],[44.426412,43.657317],[44.431238,43.651566],[44.42939,43.651155],[44.428877,43.650128],[44.431957,43.647664],[44.433806,43.647561],[44.43473,43.64561],[44.433703,43.644583],[44.435757,43.640065],[44.435757,43.637703],[44.434525,43.636265],[44.435347,43.635033],[44.435757,43.631131],[44.436476,43.629282],[44.4374,43.628666],[44.4374,43.627742],[44.436271,43.626818],[44.437503,43.62538],[44.436579,43.624969],[44.436066,43.623018],[44.438826,43.623462],[44.441419,43.621662],[44.440749,43.620943],[44.441285,43.619223],[44.43966,43.610413],[44.437606,43.608667],[44.435655,43.608462],[44.435036,43.606879],[44.461569,43.593902],[44.475368,43.582943],[44.466348,43.572525],[44.444515,43.542723],[44.445785,43.535258],[44.443767,43.522002],[44.440587,43.507799],[44.443359,43.502357],[44.44798,43.497633],[44.441143,43.492955],[44.435234,43.490354],[44.430421,43.480894],[44.413879,43.452715],[44.418575,43.446666],[44.421046,43.44667],[44.421787,43.4451],[44.423597,43.444187],[44.426713,43.444392],[44.429395,43.440665],[44.430833,43.437174],[44.433166,43.434322],[44.442242,43.427733],[44.443179,43.423503],[44.449025,43.421247],[44.452378,43.417906],[44.465121,43.41587],[44.494141,43.394794],[44.497376,43.395817],[44.499269,43.400523],[44.51247,43.405754],[44.493482,43.430525],[44.489596,43.434471],[44.488745,43.436292],[44.492245,43.437969],[44.491231,43.43886],[44.491604,43.440762],[44.493314,43.442878],[44.49015,43.444827],[44.491609,43.448298],[44.486262,43.448247],[44.483186,43.45187],[44.481681,43.452698],[44.48286,43.453538],[44.481498,43.458164],[44.482216,43.460329],[44.484815,43.461364],[44.482262,43.461705],[44.480498,43.463451],[44.480988,43.465703],[44.479337,43.465029],[44.478436,43.467693],[44.481705,43.470538],[44.482412,43.475518],[44.494609,43.473269],[44.49706,43.475792],[44.491634,43.477366],[44.493923,43.479832],[44.488073,43.484953],[44.490339,43.486619],[44.492194,43.489416],[44.491778,43.492094],[44.489552,43.495349],[44.490516,43.498004],[44.489135,43.499331],[44.485631,43.499342],[44.483495,43.501722],[44.485004,43.504542],[44.482579,43.509155],[44.48301,43.510446],[44.480817,43.51294],[44.480739,43.515844],[44.500231,43.528801],[44.507492,43.542611],[44.500061,43.561494],[44.503346,43.587919],[44.631067,43.614089],[44.630559,43.604306],[44.62187,43.54732],[44.628114,43.548016],[44.633804,43.546608],[44.640761,43.543509],[44.648705,43.541663],[44.654681,43.542144],[44.663353,43.548543],[44.669085,43.550938],[44.675587,43.550835],[44.684392,43.547965],[44.698609,43.547919],[44.705925,43.5517],[44.702505,43.55987],[44.701772,43.570388],[44.695502,43.594965],[44.795215,43.596742],[44.798957,43.592714],[44.799545,43.590245],[44.798195,43.587065],[44.802416,43.587057],[44.802461,43.581922],[44.797611,43.581293],[44.798945,43.569757],[44.789316,43.557122],[44.792769,43.555693],[44.801129,43.555762],[44.800154,43.558237],[44.811992,43.558285],[44.815627,43.55479],[44.827732,43.553176],[44.847401,43.564661],[44.847639,43.569759],[44.844025,43.573518],[44.848336,43.57874],[44.84733,43.581334],[44.845593,43.591897],[44.832273,43.682138],[44.827013,43.683473],[44.824879,43.685948],[44.825165,43.68729],[44.836488,43.690899],[44.838479,43.694017],[44.838593,43.697641],[44.840585,43.699777],[44.844853,43.702253],[44.847499,43.704728],[44.848523,43.70763],[44.84784,43.710106],[44.844814,43.713384],[44.839446,43.714439],[44.83555,43.713568],[44.830997,43.707215],[44.826273,43.706757],[44.820435,43.708922],[44.816086,43.713093],[44.811135,43.714459],[44.80294,43.71941],[44.803485,43.743824],[44.803393,43.807049],[44.796335,43.808826],[44.794371,43.811997],[44.793728,43.816997],[44.702297,43.817425],[44.703065,43.834604],[44.666359,43.835116],[44.666445,43.82658],[44.616471,43.827286],[44.615999,43.824989],[44.603541,43.824915],[44.603449,43.82757],[44.598628,43.827762],[44.596925,43.828694],[44.590973,43.826342],[44.584288,43.822099],[44.581696,43.821507],[44.567287,43.819278],[44.553631,43.819742],[44.553524,43.814151],[44.504615,43.814516],[44.504539,43.807299],[44.472801,43.807387],[44.472547,43.801184],[44.379605,43.801463],[44.379733,43.813443],[44.359429,43.811859],[44.359336,43.81124],[44.353414,43.810492],[44.35483,43.808306],[44.351477,43.807887],[44.314622,43.806592],[44.304625,43.807019],[44.292523,43.809673],[44.283147,43.810958],[44.268032,43.810898],[44.267435,43.745323]]]}},{"type":"Feature","id":"110032-1671","properties":{"id":"110032-1671","name":"городской округ Владикавказ","name_ru":"городской округ Владикавказ","subject_id":"110032","subject_name":"Северная Осетия - Алания","source_gid":1671,"source_fid":1781,"names_rosstat":"Городской округ город Владикавказ","population":309971,"area_km2":295.19738995583924,"density_km2":1050.0465469778403,"source":"Актуализированный объединённый GeoJSON, предоставленный преподавателем","name_en":"Vladikavkaz Urban Okrug","name_zh":"Vladikavkaz城市辖区","subject_name_en":"North Ossetia–Alania","subject_name_zh":"北奥塞梯—阿兰共和国"},"geometry":{"type":"Polygon","coordinates":[[[44.551914,42.76966],[44.552487,42.766391],[44.555112,42.764674],[44.556373,42.762445],[44.562972,42.755492],[44.569023,42.750852],[44.576453,42.747467],[44.580175,42.744751],[44.585266,42.744997],[44.597123,42.748679],[44.617035,42.747951],[44.629392,42.745945],[44.637881,42.745517],[44.650307,42.746403],[44.665638,42.749013],[44.670568,42.750506],[44.675024,42.754272],[44.679969,42.75591],[44.678349,42.765261],[44.666699,42.773231],[44.668001,42.775367],[44.668707,42.77858],[44.667839,42.784082],[44.668001,42.797575],[44.663163,42.803267],[44.662174,42.806926],[44.658577,42.811263],[44.664204,42.824631],[44.664887,42.828772],[44.666215,42.831799],[44.663918,42.832886],[44.662796,42.835024],[44.65446,42.841747],[44.647586,42.842955],[44.646508,42.844795],[44.647728,42.84758],[44.647287,42.853388],[44.647892,42.858971],[44.63981,42.868253],[44.633697,42.877254],[44.631735,42.884182],[44.631861,42.891994],[44.634406,42.892749],[44.63694,42.896436],[44.637076,42.901646],[44.638403,42.903315],[44.640742,42.909747],[44.64534,42.908828],[44.641921,42.911609],[44.642504,42.913343],[44.646241,42.916762],[44.654431,42.914179],[44.670363,42.913561],[44.670858,42.912071],[44.676302,42.915877],[44.675945,42.916461],[44.676852,42.92091],[44.675522,42.927835],[44.674477,42.929526],[44.674554,42.932286],[44.671947,42.934639],[44.6728,42.936732],[44.668767,42.940808],[44.675068,42.9441],[44.675511,42.942754],[44.676794,42.942512],[44.676693,42.94494],[44.679263,42.946697],[44.683929,42.952389],[44.685329,42.954978],[44.685251,42.956173],[44.688741,42.96121],[44.693066,42.960584],[44.694622,42.963145],[44.696255,42.964141],[44.69571,42.96545],[44.697404,42.966973],[44.701889,42.968181],[44.70445,42.968275],[44.709429,42.965287],[44.713674,42.965836],[44.720845,42.964708],[44.731282,42.964462],[44.72638,42.974743],[44.737426,42.977539],[44.729985,43.015903],[44.72561,43.043891],[44.740006,43.047217],[44.740529,43.050932],[44.742347,43.055754],[44.74191,43.056285],[44.738641,43.055506],[44.737222,43.054437],[44.728241,43.052334],[44.723314,43.052288],[44.72222,43.053157],[44.721763,43.055404],[44.716234,43.058952],[44.714641,43.061842],[44.710068,43.062099],[44.704606,43.067717],[44.69451,43.075736],[44.694969,43.082212],[44.692702,43.083829],[44.688313,43.092162],[44.686054,43.099883],[44.686804,43.111396],[44.672271,43.112485],[44.670913,43.101969],[44.652836,43.107826],[44.653422,43.109239],[44.647156,43.110754],[44.634247,43.111334],[44.632961,43.106117],[44.633522,43.103164],[44.631423,43.102714],[44.631039,43.1021],[44.637293,43.100287],[44.642701,43.09634],[44.644811,43.097935],[44.647359,43.095477],[44.651966,43.086168],[44.644688,43.086783],[44.641463,43.084494],[44.651173,43.078577],[44.657437,43.068913],[44.658719,43.06443],[44.652543,43.062446],[44.646418,43.062338],[44.646341,43.06282],[44.644666,43.062922],[44.639042,43.065692],[44.636248,43.065711],[44.631344,43.064464],[44.62778,43.065943],[44.608193,43.055136],[44.606359,43.056051],[44.604336,43.054785],[44.607005,43.053449],[44.604781,43.048605],[44.618214,43.042393],[44.619151,43.040144],[44.615229,43.03718],[44.618579,43.035204],[44.615108,43.0324],[44.619673,43.030937],[44.620729,43.03326],[44.622876,43.035556],[44.624549,43.033807],[44.626778,43.032772],[44.628785,43.033273],[44.62397,43.014865],[44.625244,43.013711],[44.623725,43.010762],[44.623894,43.010022],[44.622184,43.008992],[44.622131,43.007544],[44.620328,43.004531],[44.623525,43.00314],[44.624128,43.002198],[44.623973,42.999582],[44.623258,42.998687],[44.624496,42.995922],[44.623258,42.994896],[44.624468,42.993589],[44.623533,42.992222],[44.624166,42.990653],[44.622711,42.989491],[44.623341,42.989165],[44.623506,42.987556],[44.622104,42.986812],[44.621664,42.985323],[44.620729,42.985122],[44.620921,42.983453],[44.619024,42.982628],[44.619134,42.980516],[44.617291,42.978662],[44.614701,42.97827],[44.597307,42.971813],[44.592362,42.96868],[44.586154,42.966054],[44.580143,42.962232],[44.57998,42.956361],[44.588694,42.946265],[44.590115,42.940079],[44.599343,42.938215],[44.599316,42.936291],[44.595436,42.93362],[44.594777,42.928181],[44.589425,42.92475],[44.585071,42.917802],[44.583204,42.913246],[44.583294,42.910107],[44.584566,42.904942],[44.58332,42.897316],[44.58075,42.894851],[44.573842,42.892959],[44.560145,42.879414],[44.569396,42.878438],[44.570023,42.875763],[44.567709,42.871124],[44.568806,42.868367],[44.567208,42.866161],[44.563328,42.863034],[44.566014,42.855511],[44.564317,42.851929],[44.568683,42.84641],[44.566332,42.833911],[44.567991,42.830169],[44.568469,42.824824],[44.574943,42.817963],[44.570855,42.810027],[44.570334,42.807895],[44.563508,42.802582],[44.564564,42.797391],[44.563176,42.794844],[44.561007,42.792998],[44.561224,42.789082],[44.558232,42.786123],[44.558766,42.78011],[44.557929,42.779787],[44.555907,42.77645],[44.554286,42.772251],[44.551914,42.76966]]]}},{"type":"Feature","id":"110032-1672","properties":{"id":"110032-1672","name":"Правобережный район","name_ru":"Правобережный район","subject_id":"110032","subject_name":"Северная Осетия - Алания","source_gid":1672,"source_fid":1782,"names_rosstat":"Правобережный муниципальный район","population":55684,"area_km2":445.53338703348237,"density_km2":124.98277709503122,"source":"Актуализированный объединённый GeoJSON, предоставленный преподавателем","name_en":"Pravoberezhnyi District","name_zh":"Pravoberezhnyi区","subject_name_en":"North Ossetia–Alania","subject_name_zh":"北奥塞梯—阿兰共和国"},"geometry":{"type":"Polygon","coordinates":[[[44.335647,43.354965],[44.336519,43.35125],[44.349434,43.351639],[44.354368,43.349083],[44.353218,43.347676],[44.3457,43.348291],[44.345611,43.346477],[44.349441,43.346153],[44.372868,43.331209],[44.366957,43.323782],[44.375711,43.31782],[44.380254,43.312246],[44.391388,43.318857],[44.393667,43.317235],[44.398886,43.32024],[44.410193,43.313754],[44.404539,43.311222],[44.398016,43.283843],[44.407584,43.280677],[44.400931,43.262894],[44.399576,43.26389],[44.39671,43.26428],[44.394411,43.26311],[44.392625,43.263486],[44.379646,43.249038],[44.375389,43.250033],[44.368125,43.24173],[44.427064,43.224655],[44.446001,43.218574],[44.437606,43.211329],[44.434397,43.207667],[44.456216,43.205279],[44.464082,43.202177],[44.468515,43.202184],[44.476173,43.198893],[44.481359,43.197718],[44.473187,43.183761],[44.455501,43.156662],[44.456783,43.154371],[44.46101,43.150499],[44.472713,43.144314],[44.477825,43.139006],[44.499542,43.157728],[44.526029,43.178105],[44.532063,43.174115],[44.531726,43.173503],[44.541916,43.164739],[44.548609,43.161203],[44.550003,43.159443],[44.558739,43.156024],[44.565413,43.154543],[44.568099,43.1551],[44.574225,43.151863],[44.576046,43.149653],[44.578239,43.148458],[44.578227,43.146252],[44.581789,43.143467],[44.58436,43.139543],[44.591371,43.140464],[44.589184,43.145083],[44.575935,43.155057],[44.581568,43.158966],[44.587832,43.158825],[44.588128,43.167702],[44.586039,43.16777],[44.586518,43.176465],[44.616739,43.175182],[44.614723,43.148018],[44.626228,43.153521],[44.629408,43.155666],[44.637414,43.157595],[44.63745,43.156758],[44.640311,43.156141],[44.639924,43.149478],[44.641943,43.14823],[44.643794,43.148116],[44.640593,43.128923],[44.685834,43.126677],[44.685434,43.119971],[44.697577,43.123336],[44.707683,43.133821],[44.707576,43.135113],[44.704469,43.134806],[44.703574,43.136048],[44.705428,43.137703],[44.705093,43.138963],[44.70649,43.140661],[44.704662,43.140912],[44.704055,43.140165],[44.702489,43.140582],[44.699017,43.145096],[44.69853,43.149289],[44.69754,43.150206],[44.697499,43.153407],[44.695758,43.154131],[44.698423,43.15687],[44.69796,43.159715],[44.697532,43.16133],[44.695583,43.162499],[44.69596,43.163663],[44.694481,43.165268],[44.694926,43.166195],[44.697256,43.167576],[44.697869,43.172163],[44.700164,43.173462],[44.700824,43.176746],[44.703674,43.179816],[44.706753,43.180589],[44.703843,43.18358],[44.706069,43.1844],[44.70672,43.186203],[44.705386,43.189151],[44.703772,43.198885],[44.701538,43.205588],[44.681201,43.210885],[44.677734,43.209705],[44.675735,43.210252],[44.674854,43.210787],[44.674324,43.213467],[44.671973,43.212762],[44.670679,43.213232],[44.671032,43.214878],[44.667798,43.214643],[44.665329,43.215936],[44.664271,43.21382],[44.663095,43.213702],[44.662389,43.216289],[44.65945,43.214996],[44.659097,43.215466],[44.65992,43.21676],[44.656039,43.218171],[44.654276,43.218171],[44.653688,43.219464],[44.649337,43.219581],[44.645574,43.218876],[44.645339,43.217582],[44.643928,43.216995],[44.642752,43.217582],[44.644516,43.220993],[44.637461,43.220169],[44.635932,43.218523],[44.634639,43.218758],[44.635344,43.220992],[44.63311,43.221227],[44.632405,43.221933],[44.630171,43.22064],[44.627584,43.220992],[44.625653,43.220106],[44.623939,43.220404],[44.623586,43.221933],[44.624174,43.222991],[44.621822,43.222521],[44.620764,43.220757],[44.619823,43.22158],[44.619823,43.222756],[44.617118,43.222403],[44.614767,43.223109],[44.609377,43.226578],[44.606771,43.226283],[44.596776,43.228518],[44.588685,43.231844],[44.57892,43.233734],[44.570721,43.236097],[44.573146,43.272015],[44.57338,43.308791],[44.57535,43.341488],[44.577704,43.413603],[44.572983,43.414442],[44.571726,43.416597],[44.56199,43.419265],[44.557836,43.418146],[44.557346,43.416257],[44.555569,43.415448],[44.553139,43.415826],[44.549809,43.417365],[44.533853,43.416972],[44.530356,43.412546],[44.525635,43.414806],[44.519777,43.412109],[44.515142,43.410784],[44.51247,43.405754],[44.499269,43.400523],[44.497376,43.395817],[44.480119,43.391406],[44.478261,43.387973],[44.464027,43.387882],[44.463113,43.385546],[44.460972,43.386325],[44.45946,43.38454],[44.453666,43.38351],[44.448909,43.378954],[44.444593,43.378759],[44.43968,43.381025],[44.434011,43.381666],[44.430736,43.380842],[44.429099,43.37821],[44.425445,43.378302],[44.422422,43.380224],[44.417824,43.380041],[44.412093,43.377455],[44.410077,43.378302],[44.408062,43.376379],[44.411652,43.376127],[44.414108,43.373266],[44.411606,43.373184],[44.410409,43.374649],[44.404867,43.373046],[44.402725,43.375427],[44.401213,43.372634],[44.397309,43.372314],[44.397497,43.369887],[44.400773,43.369155],[44.400458,43.368468],[44.402347,43.368788],[44.403124,43.365583],[44.392774,43.367232],[44.393655,43.369155],[44.391892,43.369063],[44.387924,43.365675],[44.387042,43.366499],[44.387861,43.36714],[44.38616,43.368376],[44.38383,43.366499],[44.381877,43.367369],[44.381877,43.369521],[44.376429,43.36904],[44.372241,43.365996],[44.369119,43.366078],[44.366383,43.364118],[44.36569,43.362195],[44.347677,43.359722],[44.340308,43.357844],[44.335647,43.354965]]]}},{"type":"Feature","id":"110032-1673","properties":{"id":"110032-1673","name":"Ирафский район","name_ru":"Ирафский район","subject_id":"110032","subject_name":"Северная Осетия - Алания","source_gid":1673,"source_fid":1783,"names_rosstat":"Ирафский муниципальный район","population":15561,"area_km2":1377.3301359602265,"density_km2":11.297944910754032,"source":"Актуализированный объединённый GeoJSON, предоставленный преподавателем","name_en":"Irafskii District","name_zh":"Irafskii区","subject_name_en":"North Ossetia–Alania","subject_name_zh":"北奥塞梯—阿兰共和国"},"geometry":{"type":"Polygon","coordinates":[[[43.797865,42.770749],[43.794276,42.765025],[43.789506,42.765399],[43.783436,42.76428],[43.783844,42.762484],[43.778323,42.758262],[43.776871,42.758099],[43.771051,42.760679],[43.769376,42.75989],[43.767895,42.760355],[43.763214,42.760058],[43.762288,42.760299],[43.761813,42.761714],[43.762678,42.762548],[43.761998,42.763346],[43.754595,42.766229],[43.751435,42.766013],[43.749504,42.766614],[43.743342,42.765739],[43.740862,42.768384],[43.738163,42.769239],[43.728624,42.770104],[43.723216,42.771372],[43.714495,42.775002],[43.70935,42.776147],[43.708177,42.777439],[43.704171,42.779228],[43.702712,42.780614],[43.698292,42.782142],[43.698696,42.783366],[43.698163,42.784205],[43.689773,42.786819],[43.689312,42.790921],[43.691522,42.79459],[43.691382,42.795306],[43.689258,42.799746],[43.687241,42.800801],[43.685323,42.800663],[43.684868,42.801874],[43.677487,42.801936],[43.677103,42.801093],[43.675809,42.801109],[43.671415,42.798248],[43.65855,42.796795],[43.653874,42.795308],[43.652305,42.795172],[43.645778,42.797159],[43.644369,42.79773],[43.643464,42.799145],[43.644276,42.801988],[43.643767,42.802784],[43.639191,42.806481],[43.639562,42.808893],[43.638285,42.811081],[43.638307,42.812482],[43.636408,42.81308],[43.627875,42.813102],[43.627145,42.812272],[43.625507,42.811899],[43.623715,42.812755],[43.621537,42.811043],[43.616907,42.812896],[43.60891,42.813681],[43.608294,42.818924],[43.610448,42.825192],[43.611603,42.831522],[43.610651,42.833934],[43.606379,42.837554],[43.601862,42.838747],[43.597612,42.841339],[43.590054,42.84455],[43.58913,42.845714],[43.58906,42.848797],[43.587312,42.851034],[43.576377,42.857802],[43.571562,42.863176],[43.565165,42.863536],[43.561047,42.867706],[43.550748,42.865338],[43.532653,42.866429],[43.52289,42.865569],[43.514774,42.866786],[43.507072,42.86947],[43.504592,42.868965],[43.502437,42.870111],[43.498014,42.870528],[43.49438,42.873802],[43.491826,42.87473],[43.486832,42.875272],[43.486923,42.877104],[43.487759,42.877613],[43.485587,42.8801],[43.478211,42.885791],[43.477562,42.890603],[43.472879,42.890115],[43.460511,42.887035],[43.458801,42.887526],[43.457046,42.889852],[43.454611,42.891361],[43.44707,42.893389],[43.442468,42.893693],[43.425826,42.892217],[43.418431,42.892409],[43.415157,42.891556],[43.409461,42.892567],[43.406897,42.891781],[43.406146,42.893369],[43.404375,42.894705],[43.398487,42.896923],[43.400656,42.903504],[43.407449,42.908274],[43.408081,42.91189],[43.414214,42.920952],[43.416317,42.921643],[43.417941,42.923153],[43.420594,42.923316],[43.426665,42.926952],[43.426887,42.931216],[43.425334,42.935951],[43.427239,42.944973],[43.425137,42.948205],[43.429293,42.949923],[43.429104,42.951712],[43.431695,42.954502],[43.432092,42.957984],[43.435208,42.959174],[43.433751,42.961915],[43.434024,42.96325],[43.432473,42.964163],[43.435215,42.964358],[43.439373,42.966009],[43.442963,42.96938],[43.457633,42.968113],[43.467976,42.960518],[43.474748,42.960394],[43.479182,42.961799],[43.485421,42.962174],[43.48894,42.961196],[43.490751,42.959803],[43.499682,42.963121],[43.506095,42.962692],[43.507871,42.963222],[43.510283,42.961817],[43.513376,42.957125],[43.519252,42.955224],[43.521792,42.951829],[43.525225,42.953289],[43.526491,42.952795],[43.528197,42.950745],[43.528486,42.949151],[43.530166,42.949017],[43.533819,42.944745],[43.538657,42.944038],[43.542543,42.945233],[43.545476,42.945385],[43.556805,42.944723],[43.560707,42.942065],[43.563162,42.941603],[43.571792,42.943063],[43.572355,42.947223],[43.577261,42.950552],[43.576954,42.954605],[43.578671,42.958464],[43.578515,42.961102],[43.582001,42.964662],[43.58875,42.96489],[43.591094,42.965814],[43.593576,42.967897],[43.59507,42.973279],[43.594276,42.978114],[43.601572,42.979712],[43.602762,42.983624],[43.601582,42.987227],[43.610884,42.989777],[43.61163,42.991633],[43.611649,42.994515],[43.613389,42.995945],[43.612879,42.997962],[43.616356,43.001383],[43.617933,43.004357],[43.623172,43.010576],[43.623982,43.013869],[43.619993,43.015866],[43.617381,43.018905],[43.618511,43.022063],[43.617792,43.025143],[43.613581,43.029354],[43.609884,43.030791],[43.609268,43.032229],[43.609987,43.037672],[43.612041,43.041266],[43.618613,43.045682],[43.623028,43.046914],[43.632681,43.047427],[43.635957,43.049196],[43.635463,43.051561],[43.638275,43.054041],[43.63761,43.056707],[43.639356,43.060469],[43.643977,43.063037],[43.646031,43.067247],[43.648381,43.069781],[43.647845,43.071944],[43.643682,43.075518],[43.645291,43.079076],[43.643575,43.083245],[43.646793,43.08967],[43.6468,43.093099],[43.649367,43.096796],[43.649881,43.099158],[43.652037,43.101212],[43.657069,43.103676],[43.66703,43.107682],[43.672575,43.109119],[43.687362,43.119594],[43.697015,43.123086],[43.699685,43.127398],[43.703382,43.131198],[43.708516,43.13202],[43.710262,43.131506],[43.724022,43.131609],[43.734497,43.134074],[43.739426,43.134279],[43.742199,43.133458],[43.744971,43.135717],[43.744971,43.137566],[43.746101,43.140133],[43.744355,43.143085],[43.744252,43.147809],[43.7461,43.152225],[43.750105,43.155613],[43.75068,43.15681],[43.726281,43.16619],[43.725871,43.167337],[43.726486,43.169476],[43.732237,43.175638],[43.736241,43.182826],[43.737884,43.183751],[43.741992,43.188885],[43.744354,43.190015],[43.745072,43.192017],[43.745175,43.197049],[43.746921,43.199411],[43.747023,43.205264],[43.749077,43.210501],[43.751028,43.21235],[43.750378,43.222031],[43.756368,43.229191],[43.760475,43.232683],[43.763042,43.234018],[43.765006,43.237487],[43.766571,43.237602],[43.770296,43.241206],[43.771827,43.243849],[43.772163,43.245795],[43.774638,43.248907],[43.778289,43.251049],[43.786624,43.271813],[43.789615,43.277205],[43.80892,43.300186],[43.829875,43.323265],[43.859672,43.298817],[43.861928,43.292537],[43.861027,43.291356],[43.861778,43.291037],[43.861703,43.289702],[43.862679,43.289428],[43.8621,43.288476],[43.862671,43.287551],[43.861727,43.283721],[43.861111,43.274171],[43.860392,43.273041],[43.861111,43.272015],[43.860728,43.270372],[43.867613,43.268807],[43.879271,43.264648],[43.912174,43.255867],[43.912753,43.250762],[43.919844,43.241262],[43.926211,43.24381],[43.919358,43.249555],[43.920928,43.256586],[43.923701,43.262029],[43.932224,43.273659],[43.940236,43.286538],[43.944854,43.28629],[44.004707,43.271067],[43.999783,43.267134],[43.994557,43.26167],[43.985248,43.247822],[43.975466,43.245874],[43.971744,43.243398],[44.002279,43.211956],[44.031453,43.229067],[44.042042,43.242659],[44.054196,43.252592],[44.063052,43.252326],[44.072704,43.256331],[44.076504,43.256639],[44.080021,43.247104],[44.085587,43.241629],[44.07334,43.241528],[44.072784,43.231085],[44.068191,43.230172],[44.061511,43.230375],[44.054831,43.234938],[44.048151,43.236459],[44.04829,43.224696],[44.041749,43.22064],[44.04161,43.217902],[44.035765,43.217902],[44.035347,43.199948],[44.017393,43.19982],[44.017255,43.180973],[44.023935,43.180973],[44.023657,43.154786],[43.999024,43.154989],[43.998885,43.152044],[43.985246,43.154887],[43.974391,43.131837],[43.955186,43.140266],[43.948088,43.141484],[43.91928,43.119241],[43.913296,43.112841],[43.880174,43.096482],[43.882818,43.090385],[43.892977,43.081745],[43.87739,43.068123],[43.869597,43.065683],[43.867648,43.066903],[43.853731,43.054396],[43.854706,43.047481],[43.845938,43.042396],[43.846715,43.032345],[43.846169,43.030446],[43.844407,43.028154],[43.849556,43.027747],[43.847191,43.022559],[43.849835,43.021134],[43.856237,43.024186],[43.866118,43.026628],[43.866118,43.021338],[43.874746,43.018183],[43.877808,43.01279],[43.87405,43.005565],[43.874468,43.001901],[43.878921,43.003835],[43.885462,43.002003],[43.900214,42.995081],[43.927352,42.996608],[43.944748,42.98877],[43.936537,42.983273],[43.935285,42.978589],[43.945722,42.980422],[43.957412,42.971971],[43.968407,42.97472],[43.974948,42.975026],[43.947974,42.957577],[43.945468,42.954419],[43.946999,42.950549],[43.940041,42.946881],[43.936005,42.931701],[43.929464,42.923956],[43.94018,42.914886],[43.931412,42.899698],[43.923619,42.899596],[43.919444,42.896231],[43.920418,42.891337],[43.913599,42.884607],[43.916243,42.883078],[43.916094,42.875821],[43.908909,42.865574],[43.916782,42.862265],[43.917055,42.858631],[43.91165,42.856865],[43.9033,42.852171],[43.899682,42.845743],[43.900859,42.839385],[43.90279,42.839019],[43.903852,42.833459],[43.905141,42.830656],[43.903805,42.828894],[43.901969,42.827813],[43.904172,42.821004],[43.90178,42.819156],[43.899298,42.818884],[43.8981,42.81771],[43.897948,42.816671],[43.892273,42.813483],[43.88979,42.813675],[43.885772,42.811959],[43.881987,42.811446],[43.880616,42.810429],[43.871809,42.809965],[43.867214,42.810674],[43.865989,42.811524],[43.858012,42.808537],[43.852138,42.807783],[43.851982,42.806288],[43.848947,42.805673],[43.847943,42.804293],[43.848097,42.803215],[43.845487,42.801058],[43.844938,42.798685],[43.842354,42.797388],[43.841377,42.795353],[43.831819,42.792864],[43.832245,42.789663],[43.830231,42.788443],[43.824259,42.788164],[43.822058,42.788872],[43.815793,42.785505],[43.813745,42.782654],[43.811357,42.782194],[43.811087,42.781161],[43.807511,42.780074],[43.80627,42.777089],[43.807569,42.775951],[43.807355,42.775131],[43.806178,42.773929],[43.80061,42.77356],[43.797865,42.770749]]]}},{"type":"Feature","id":"110032-1674","properties":{"id":"110032-1674","name":"Дигорский район","name_ru":"Дигорский район","subject_id":"110032","subject_name":"Северная Осетия - Алания","source_gid":1674,"source_fid":1784,"names_rosstat":"Дигорский муниципальный район","population":18652,"area_km2":586.4572709183226,"density_km2":31.804533637707618,"source":"Актуализированный объединённый GeoJSON, предоставленный преподавателем","name_en":"Digorskii District","name_zh":"Digorskii区","subject_name_en":"North Ossetia–Alania","subject_name_zh":"北奥塞梯—阿兰共和国"},"geometry":{"type":"Polygon","coordinates":[[[43.844407,43.028154],[43.849556,43.027747],[43.847191,43.022559],[43.849835,43.021134],[43.856237,43.024186],[43.866118,43.026628],[43.866118,43.021338],[43.874746,43.018183],[43.877808,43.01279],[43.87405,43.005565],[43.874468,43.001901],[43.878921,43.003835],[43.885462,43.002003],[43.900214,42.995081],[43.927352,42.996608],[43.944748,42.98877],[43.936537,42.983273],[43.935285,42.978589],[43.945722,42.980422],[43.957412,42.971971],[43.968407,42.97472],[43.974948,42.975026],[43.982324,42.972582],[44.013498,42.972378],[44.013776,42.958019],[44.017951,42.950176],[44.038131,42.948749],[44.037991,42.946407],[44.056223,42.945388],[44.080855,42.947731],[44.084056,42.951296],[44.080855,42.954861],[44.082526,42.961685],[44.092546,42.972785],[44.091015,42.977877],[44.093381,42.982356],[44.093102,42.987549],[44.096303,42.991112],[44.080577,42.999255],[44.075985,43.004242],[44.07849,43.017166],[44.076541,43.024797],[44.077515,43.035682],[44.076402,43.048091],[44.072088,43.057854],[44.110081,43.057345],[44.12205,43.041277],[44.129943,43.06189],[44.130765,43.07953],[44.131673,43.082485],[44.135432,43.085395],[44.139349,43.085659],[44.148208,43.08942],[44.14877,43.096686],[44.153363,43.105628],[44.152945,43.113654],[44.16394,43.127457],[44.171985,43.129837],[44.173345,43.13385],[44.178336,43.142568],[44.176626,43.146836],[44.176663,43.149302],[44.175524,43.153163],[44.176529,43.156317],[44.179053,43.160253],[44.179272,43.16434],[44.183461,43.170853],[44.190359,43.179144],[44.191668,43.187462],[44.193608,43.189938],[44.201789,43.193341],[44.205222,43.195923],[44.207027,43.198851],[44.205999,43.207003],[44.207165,43.209981],[44.209697,43.212297],[44.216411,43.215179],[44.216426,43.217221],[44.217624,43.2191],[44.219566,43.219558],[44.221798,43.222451],[44.232825,43.241513],[44.232957,43.246996],[44.230055,43.249806],[44.230708,43.253927],[44.235117,43.256484],[44.233623,43.259816],[44.237872,43.260555],[44.238068,43.263093],[44.241446,43.26498],[44.244209,43.268037],[44.24501,43.272445],[44.244018,43.276084],[44.241624,43.277947],[44.245598,43.284368],[44.2369,43.291161],[44.232329,43.296288],[44.229246,43.298144],[44.224276,43.303894],[44.221898,43.314031],[44.21094,43.322555],[44.209109,43.321492],[44.193357,43.318481],[44.190299,43.31502],[44.184523,43.316009],[44.17433,43.311064],[44.17433,43.305872],[44.166515,43.29796],[44.165156,43.282626],[44.109944,43.283013],[44.093242,43.280516],[44.093653,43.277126],[44.09776,43.270657],[44.098232,43.26719],[44.094885,43.263571],[44.082973,43.254996],[44.076504,43.256639],[44.080021,43.247104],[44.085587,43.241629],[44.07334,43.241528],[44.072784,43.231085],[44.068191,43.230172],[44.061511,43.230375],[44.054831,43.234938],[44.048151,43.236459],[44.04829,43.224696],[44.041749,43.22064],[44.04161,43.217902],[44.035765,43.217902],[44.035347,43.199948],[44.017393,43.19982],[44.017255,43.180973],[44.023935,43.180973],[44.023657,43.154786],[43.999024,43.154989],[43.998885,43.152044],[43.985246,43.154887],[43.974391,43.131837],[43.955186,43.140266],[43.948088,43.141484],[43.91928,43.119241],[43.913296,43.112841],[43.880174,43.096482],[43.882818,43.090385],[43.892977,43.081745],[43.87739,43.068123],[43.869597,43.065683],[43.867648,43.066903],[43.853731,43.054396],[43.854706,43.047481],[43.845938,43.042396],[43.846715,43.032345],[43.846169,43.030446],[43.844407,43.028154]]]}},{"type":"Feature","id":"110032-1681","properties":{"id":"110032-1681","name":"Алагирский район","name_ru":"Алагирский район","subject_id":"110032","subject_name":"Северная Осетия - Алания","source_gid":1681,"source_fid":1791,"names_rosstat":"Алагирский муниципальный район","population":38308,"area_km2":2017.713415161216,"density_km2":18.985847897006312,"source":"Актуализированный объединённый GeoJSON, предоставленный преподавателем","name_en":"Alagirskii District","name_zh":"Alagirskii区","subject_name_en":"North Ossetia–Alania","subject_name_zh":"北奥塞梯—阿兰共和国"},"geometry":{"type":"Polygon","coordinates":[[[43.799015,42.598904],[43.792792,42.596711],[43.789315,42.596595],[43.785867,42.590973],[43.775629,42.588664],[43.771633,42.588667],[43.766756,42.590346],[43.764136,42.593488],[43.751933,42.600645],[43.753317,42.601879],[43.75424,42.60489],[43.752789,42.607021],[43.75535,42.609882],[43.755045,42.610753],[43.755718,42.611973],[43.75473,42.6139],[43.754482,42.61638],[43.752997,42.617123],[43.743685,42.618548],[43.728186,42.629578],[43.722342,42.629404],[43.716829,42.631119],[43.715047,42.632096],[43.71429,42.634205],[43.714407,42.637028],[43.718157,42.637804],[43.719109,42.639942],[43.722142,42.640778],[43.723449,42.641906],[43.729623,42.643888],[43.732361,42.643772],[43.73333,42.645677],[43.736981,42.648953],[43.738534,42.64956],[43.743176,42.648865],[43.7522,42.651187],[43.75914,42.654754],[43.759259,42.656294],[43.763236,42.661225],[43.764427,42.663774],[43.766968,42.666035],[43.771077,42.673598],[43.774203,42.675892],[43.778251,42.677261],[43.77956,42.681539],[43.78218,42.684837],[43.782432,42.688382],[43.785916,42.691747],[43.785649,42.692539],[43.787588,42.69623],[43.786968,42.698261],[43.78769,42.69928],[43.792067,42.701954],[43.794277,42.706416],[43.79585,42.707461],[43.798573,42.710868],[43.802309,42.713066],[43.807798,42.721376],[43.807876,42.722065],[43.805526,42.724351],[43.805169,42.725825],[43.807419,42.731544],[43.807101,42.733001],[43.808321,42.735479],[43.808379,42.737491],[43.804778,42.743422],[43.800929,42.74345],[43.79709,42.744946],[43.793668,42.744734],[43.788208,42.751063],[43.785525,42.752014],[43.782495,42.75209],[43.781151,42.752864],[43.779533,42.754593],[43.778323,42.758262],[43.783844,42.762484],[43.783436,42.76428],[43.789506,42.765399],[43.794276,42.765025],[43.79689,42.769444],[43.80061,42.77356],[43.806178,42.773929],[43.807569,42.775951],[43.80627,42.777089],[43.807511,42.780074],[43.811087,42.781161],[43.811357,42.782194],[43.813745,42.782654],[43.815793,42.785505],[43.822058,42.788872],[43.824259,42.788164],[43.830231,42.788443],[43.832245,42.789663],[43.831819,42.792864],[43.841377,42.795353],[43.842354,42.797388],[43.844938,42.798685],[43.845487,42.801058],[43.848097,42.803215],[43.847943,42.804293],[43.848947,42.805673],[43.851982,42.806288],[43.852138,42.807783],[43.858012,42.808537],[43.865989,42.811524],[43.867214,42.810674],[43.871809,42.809965],[43.880616,42.810429],[43.881987,42.811446],[43.885772,42.811959],[43.88979,42.813675],[43.892273,42.813483],[43.897948,42.816671],[43.8981,42.81771],[43.899298,42.818884],[43.90178,42.819156],[43.904172,42.821004],[43.901969,42.827813],[43.903805,42.828894],[43.905141,42.830656],[43.903852,42.833459],[43.90279,42.839019],[43.900859,42.839385],[43.899682,42.845743],[43.9033,42.852171],[43.91165,42.856865],[43.917055,42.858631],[43.916782,42.862265],[43.908909,42.865574],[43.916094,42.875821],[43.916243,42.883078],[43.913599,42.884607],[43.920418,42.891337],[43.919444,42.896231],[43.923619,42.899596],[43.931412,42.899698],[43.94018,42.914886],[43.929464,42.923956],[43.936005,42.931701],[43.940041,42.946881],[43.946999,42.950549],[43.945468,42.954419],[43.947974,42.957577],[43.974948,42.975026],[43.982324,42.972582],[44.013498,42.972378],[44.013776,42.958019],[44.017951,42.950176],[44.038131,42.948749],[44.037991,42.946407],[44.056223,42.945388],[44.080855,42.947731],[44.084056,42.951296],[44.080855,42.954861],[44.082526,42.961685],[44.092546,42.972785],[44.091015,42.977877],[44.093381,42.982356],[44.093102,42.987549],[44.096303,42.991112],[44.080577,42.999255],[44.075985,43.004242],[44.07849,43.017166],[44.076541,43.024797],[44.077515,43.035682],[44.076402,43.048091],[44.072088,43.057854],[44.110081,43.057345],[44.12205,43.041277],[44.129943,43.06189],[44.130765,43.07953],[44.131673,43.082485],[44.135432,43.085395],[44.139349,43.085659],[44.148208,43.08942],[44.14877,43.096686],[44.153363,43.105628],[44.152945,43.113654],[44.16394,43.127457],[44.171985,43.129837],[44.173345,43.13385],[44.209775,43.139095],[44.208905,43.143379],[44.246742,43.148774],[44.249568,43.137826],[44.259933,43.138832],[44.259768,43.138232],[44.261681,43.138528],[44.261768,43.137724],[44.263528,43.137951],[44.256961,43.120694],[44.253188,43.106193],[44.275365,43.09901],[44.277398,43.102177],[44.277706,43.105556],[44.279865,43.111579],[44.279904,43.113887],[44.281215,43.115688],[44.280868,43.117855],[44.282725,43.119624],[44.309322,43.11047],[44.316647,43.107205],[44.322326,43.103963],[44.323755,43.09848],[44.322616,43.097568],[44.32269,43.096521],[44.323829,43.095529],[44.321856,43.095201],[44.321514,43.094026],[44.324453,43.092174],[44.323094,43.090672],[44.323645,43.090028],[44.321421,43.087451],[44.321703,43.085573],[44.320159,43.085036],[44.320821,43.08407],[44.322048,43.083812],[44.321996,43.082274],[44.320866,43.082975],[44.319827,43.082519],[44.319515,43.08066],[44.318616,43.080507],[44.318744,43.079289],[44.335147,43.071002],[44.338724,43.067333],[44.339376,43.063043],[44.35286,43.058216],[44.397212,43.038842],[44.398523,43.041008],[44.409851,43.036546],[44.413356,43.040385],[44.420664,43.039875],[44.420921,43.042387],[44.422622,43.044323],[44.422769,43.045532],[44.424974,43.046633],[44.425341,43.047949],[44.426407,43.047976],[44.42652,43.051317],[44.43028,43.049943],[44.43383,43.053507],[44.436108,43.054823],[44.43712,43.054573],[44.439926,43.058237],[44.445896,43.056459],[44.459316,43.065971],[44.46828,43.07319],[44.470669,43.068867],[44.47372,43.067091],[44.473435,43.064334],[44.474621,43.062491],[44.476024,43.057952],[44.477727,43.05765],[44.48208,43.059776],[44.487212,43.054222],[44.484761,43.052994],[44.494141,43.049787],[44.490716,43.044529],[44.492366,43.043719],[44.49296,43.042483],[44.502482,43.039996],[44.508719,43.040945],[44.508507,43.032262],[44.508043,43.032256],[44.508734,43.0261],[44.496846,43.025729],[44.485665,43.020493],[44.486786,43.015187],[44.489992,43.010827],[44.481316,43.007615],[44.474295,43.011282],[44.471638,43.017491],[44.46566,43.019698],[44.459429,43.016723],[44.457858,43.014279],[44.453495,43.01091],[44.453794,43.00977],[44.452806,43.008838],[44.447856,43.007537],[44.446063,43.005004],[44.444453,43.004508],[44.44302,43.004911],[44.443843,43.010306],[44.424126,43.013975],[44.410909,43.013066],[44.402816,43.013657],[44.402114,43.008024],[44.396613,43.004626],[44.392201,42.997741],[44.390739,42.997938],[44.39038,42.996908],[44.388665,42.996907],[44.39071,42.993509],[44.389944,42.990816],[44.386978,42.987265],[44.38617,42.984559],[44.383954,42.981643],[44.379889,42.973242],[44.372117,42.964876],[44.371818,42.962333],[44.368493,42.95714],[44.370895,42.951292],[44.371606,42.94526],[44.367618,42.939495],[44.367169,42.934756],[44.365709,42.93147],[44.366929,42.92963],[44.366271,42.925045],[44.368241,42.919457],[44.369838,42.917209],[44.3696,42.908579],[44.367341,42.9069],[44.351497,42.889194],[44.328012,42.884414],[44.327143,42.88059],[44.318445,42.879315],[44.313008,42.875331],[44.311051,42.856206],[44.321924,42.84967],[44.332796,42.84951],[44.335841,42.842495],[44.347583,42.841379],[44.375195,42.818239],[44.36157,42.812413],[44.363371,42.810838],[44.368707,42.809508],[44.370851,42.809642],[44.377794,42.813469],[44.381566,42.813139],[44.381629,42.81199],[44.380418,42.809801],[44.377102,42.805967],[44.376271,42.802793],[44.373734,42.800353],[44.373521,42.798882],[44.371285,42.79608],[44.371112,42.789354],[44.366785,42.778296],[44.365996,42.774118],[44.362841,42.769971],[44.360656,42.760152],[44.355804,42.753609],[44.354135,42.746439],[44.353982,42.739384],[44.349556,42.73416],[44.34803,42.730513],[44.348508,42.724061],[44.350445,42.718672],[44.34939,42.717655],[44.350559,42.716966],[44.350639,42.715263],[44.34931,42.713502],[44.350812,42.712526],[44.350627,42.711378],[44.344637,42.714573],[44.339395,42.715041],[44.336841,42.715976],[44.335028,42.718953],[44.327127,42.720507],[44.320669,42.720077],[44.319465,42.722842],[44.316867,42.722771],[44.311897,42.721153],[44.309176,42.719263],[44.305759,42.713347],[44.305655,42.711159],[44.301612,42.706745],[44.290589,42.701009],[44.288786,42.699246],[44.284651,42.698897],[44.279983,42.69665],[44.275005,42.696466],[44.273121,42.69572],[44.273399,42.693775],[44.27232,42.692012],[44.264526,42.688901],[44.257785,42.684527],[44.249476,42.680815],[44.243846,42.66887],[44.240912,42.666621],[44.241082,42.662695],[44.239821,42.658469],[44.240542,42.654215],[44.239085,42.649127],[44.23673,42.645371],[44.234318,42.644819],[44.231054,42.64131],[44.230969,42.638692],[44.2332,42.636984],[44.2335,42.635895],[44.232764,42.629322],[44.233154,42.627573],[44.232011,42.626702],[44.230301,42.629702],[44.22575,42.630541],[44.219837,42.630044],[44.216537,42.631158],[44.213073,42.631442],[44.208827,42.630729],[44.207421,42.629638],[44.20336,42.630458],[44.202119,42.632159],[44.19855,42.631053],[44.192678,42.63538],[44.192586,42.633382],[44.189424,42.632165],[44.185265,42.627492],[44.185179,42.623252],[44.184485,42.621716],[44.181216,42.620414],[44.178249,42.617254],[44.175554,42.616083],[44.173177,42.613447],[44.170715,42.612323],[44.167181,42.61182],[44.165726,42.608571],[44.162769,42.606206],[44.155165,42.607025],[44.149096,42.604273],[44.14604,42.606772],[44.140534,42.607385],[44.138386,42.610632],[44.134794,42.611631],[44.131898,42.613242],[44.130315,42.612445],[44.126364,42.612987],[44.122202,42.61561],[44.116321,42.618072],[44.109981,42.61582],[44.108245,42.616289],[44.105084,42.615556],[44.101145,42.612375],[44.091893,42.609275],[44.090546,42.60729],[44.090073,42.604975],[44.085731,42.605154],[44.076772,42.602723],[44.070054,42.602243],[44.065917,42.600756],[44.062095,42.6011],[44.057323,42.603241],[44.052576,42.603819],[44.042591,42.60247],[44.038972,42.598997],[44.033265,42.599287],[44.02746,42.597532],[44.021778,42.597196],[44.02012,42.594078],[44.017132,42.593641],[44.010016,42.590275],[44.007197,42.587934],[43.999685,42.579111],[43.999302,42.576182],[43.993939,42.573425],[43.992648,42.57217],[43.991558,42.569692],[43.991369,42.567061],[43.986445,42.567083],[43.983731,42.56372],[43.979174,42.563532],[43.979094,42.562548],[43.976058,42.561358],[43.973825,42.559296],[43.973414,42.556435],[43.972624,42.555996],[43.973561,42.552233],[43.966538,42.549456],[43.965135,42.547701],[43.963716,42.547111],[43.961002,42.548815],[43.959424,42.551045],[43.956934,42.552003],[43.954071,42.55193],[43.952493,42.552777],[43.946104,42.550129],[43.944297,42.550336],[43.942844,42.552826],[43.943045,42.553502],[43.94592,42.555236],[43.946971,42.556675],[43.945823,42.560429],[43.946335,42.561282],[43.944925,42.565466],[43.941045,42.561972],[43.93867,42.561142],[43.926542,42.564693],[43.919724,42.565908],[43.912334,42.569829],[43.91005,42.575317],[43.902414,42.575962],[43.898146,42.578111],[43.892598,42.576538],[43.888821,42.57773],[43.88411,42.577532],[43.882804,42.578327],[43.882007,42.580577],[43.877442,42.579909],[43.874739,42.580874],[43.873787,42.581931],[43.872797,42.585189],[43.865799,42.589984],[43.853231,42.592429],[43.839218,42.59834],[43.834596,42.598133],[43.830426,42.594769],[43.826513,42.59327],[43.815063,42.593438],[43.813152,42.596159],[43.808819,42.599271],[43.804355,42.598463],[43.799015,42.598904]]]}}],"metadata":{"source_en":"Updated consolidated GeoJSON supplied by the instructor","source_zh":"教师提供的更新版合并GeoJSON","license_en":"Source-dataset terms were not specified; use within the author-created educational platform","license_zh":"原始数据集未注明许可条款；仅用于本作者教育平台"}}