{"type":"FeatureCollection","features":[{"type":"Feature","id":"108083-43","properties":{"id":"108083-43","name":"Юстинский район","name_ru":"Юстинский район","subject_id":"108083","subject_name":"Калмыкия","source_gid":43,"source_fid":43,"names_rosstat":"Юстинский муниципальный район","population":8962,"area_km2":7563.8939480528325,"density_km2":1.1848394572357908,"source":"Актуализированный объединённый GeoJSON, предоставленный преподавателем","name_en":"Iustinskii District","name_zh":"Iustinskii区","subject_name_en":"Kalmykia","subject_name_zh":"卡尔梅克共和国"},"geometry":{"type":"Polygon","coordinates":[[[46.715966,46.481675],[46.578607,46.488187],[46.551231,46.614074],[46.630048,46.620526],[46.638037,46.677067],[46.369501,46.713827],[46.389747,46.738652],[46.241985,46.752509],[46.163868,46.662714],[46.119977,46.665611],[46.112772,46.663138],[46.087326,46.668624],[45.961421,46.68073],[45.907665,46.67684],[45.885533,46.851628],[45.886413,46.912294],[45.77445,46.901396],[45.803193,47.178717],[45.808139,47.253359],[45.700008,47.257183],[45.719237,47.362105],[45.707128,47.362313],[45.712857,47.389578],[45.699117,47.408687],[45.698606,47.438572],[45.690431,47.441836],[45.700533,47.483127],[45.724032,47.532726],[45.732746,47.55642],[45.751992,47.557512],[45.752913,47.571872],[45.82258,47.574736],[45.856087,47.593888],[45.851377,47.655794],[45.854683,47.719397],[45.899871,47.716952],[45.921678,47.64468],[46.00797,47.564758],[46.095072,47.510581],[46.267207,47.420745],[46.398887,47.413302],[46.538238,47.507858],[46.546822,47.516954],[46.685458,47.601655],[46.703802,47.602073],[46.703368,47.607171],[46.716873,47.609206],[46.748561,47.606435],[46.761097,47.607575],[46.777416,47.594627],[46.873143,47.548898],[46.873214,47.547339],[46.842226,47.539199],[46.787227,47.526391],[46.669314,47.481976],[46.536258,47.403407],[46.739231,47.073858],[46.778304,47.054431],[46.817065,46.992215],[46.899687,46.987153],[46.962178,46.97422],[46.973401,46.892003],[46.978834,46.874193],[46.964836,46.831982],[46.95724,46.71537],[46.866208,46.61963],[46.950327,46.524452],[46.964673,46.44547],[46.864724,46.45718],[46.719923,46.445582],[46.715966,46.481675]]]}},{"type":"Feature","id":"108083-46","properties":{"id":"108083-46","name":"Лаганский район","name_ru":"Лаганский район","subject_id":"108083","subject_name":"Калмыкия","source_gid":46,"source_fid":46,"names_rosstat":"Лаганский муниципальный район","population":18398,"area_km2":4732.1794438546385,"density_km2":3.8878491862543885,"source":"Актуализированный объединённый GeoJSON, предоставленный преподавателем","name_en":"Laganskii District","name_zh":"Laganskii区","subject_name_en":"Kalmykia","subject_name_zh":"卡尔梅克共和国"},"geometry":{"type":"MultiPolygon","coordinates":[[[[46.728552,44.838205],[46.718701,44.838577],[46.712381,44.842852],[46.707735,44.841922],[46.690077,44.846569],[46.677066,44.858836],[46.657736,44.859207],[46.651974,44.862367],[46.639335,44.864226],[46.63506,44.861066],[46.627856,44.866578],[46.650543,44.929421],[46.691136,44.918675],[46.719492,44.986132],[46.677406,44.998668],[46.806648,45.339832],[46.800977,45.343115],[46.821274,45.399229],[46.810529,45.400722],[46.821207,45.454137],[46.827933,45.45005],[46.855161,45.45052],[46.909494,45.587343],[46.948795,45.596445],[46.969002,45.618867],[47.076708,45.612147],[47.152825,45.609931],[47.183393,45.613104],[47.198242,45.617879],[47.21238,45.618206],[47.21834,45.625675],[47.242607,45.639587],[47.271098,45.648736],[47.284105,45.647343],[47.29351,45.660198],[47.293282,45.669431],[47.295991,45.676783],[47.339762,45.668504],[47.396386,45.665863],[47.40119,45.663994],[47.401007,45.654926],[47.439309,45.65227],[47.449019,45.649316],[47.46503,45.651004],[47.479616,45.645917],[47.489127,45.645325],[47.519644,45.659261],[47.533971,45.648572],[47.54763,45.646245],[47.554792,45.642024],[47.556813,45.634151],[47.564493,45.627631],[47.552301,45.626805],[47.53162,45.615408],[47.498041,45.618386],[47.491574,45.609431],[47.503411,45.594941],[47.500111,45.571243],[47.505296,45.548823],[47.509981,45.538623],[47.51949,45.529638],[47.526598,45.517676],[47.563943,45.495454],[47.566882,45.449269],[47.564589,45.441226],[47.556407,45.428113],[47.554752,45.415876],[47.548656,45.408032],[47.54179,45.40755],[47.530374,45.430262],[47.530632,45.432792],[47.53325,45.433575],[47.52162,45.435924],[47.519088,45.430985],[47.520976,45.429329],[47.512479,45.427221],[47.512436,45.42448],[47.506084,45.421287],[47.514753,45.41008],[47.504797,45.391037],[47.500505,45.386877],[47.497501,45.377684],[47.49527,45.376749],[47.492437,45.37901],[47.494712,45.380759],[47.492223,45.38748],[47.496428,45.390343],[47.493896,45.392965],[47.496257,45.394472],[47.493596,45.396521],[47.49424,45.400288],[47.497416,45.401433],[47.497845,45.406314],[47.50175,45.404235],[47.500591,45.407429],[47.504797,45.410593],[47.503338,45.412159],[47.498617,45.408484],[47.495527,45.409056],[47.488511,45.391986],[47.496139,45.3629],[47.489283,45.343621],[47.489833,45.338128],[47.485571,45.329499],[47.47672,45.333135],[47.470014,45.344477],[47.471092,45.336523],[47.468716,45.336498],[47.469199,45.331456],[47.46274,45.350984],[47.459972,45.355342],[47.457161,45.354483],[47.460315,45.349913],[47.458556,45.344092],[47.461774,45.341046],[47.456303,45.338542],[47.459414,45.333768],[47.46068,45.323548],[47.449093,45.292762],[47.437591,45.245767],[47.441025,45.230899],[47.438106,45.222798],[47.42094,45.2023],[47.423301,45.178921],[47.426348,45.172568],[47.424288,45.160374],[47.429953,45.140187],[47.429523,45.124322],[47.421756,45.122415],[47.419567,45.116479],[47.416778,45.117994],[47.397079,45.165518],[47.397423,45.185667],[47.388153,45.187239],[47.379398,45.177862],[47.377081,45.149843],[47.384376,45.120295],[47.339144,45.09049],[47.330217,45.052545],[47.313309,45.040901],[47.306442,45.019306],[47.283611,45.014817],[47.274513,45.000617],[47.27623,44.966134],[47.270222,44.947245],[47.244472,44.940744],[47.249377,44.929052],[47.261821,44.926572],[47.200978,44.93675],[47.261586,44.926133],[47.248391,44.927768],[47.235203,44.872659],[47.234859,44.847472],[47.258034,44.8381],[47.244472,44.810096],[47.209367,44.820295],[47.188867,44.795151],[47.181998,44.732142],[47.100304,44.741878],[47.052212,44.798038],[46.989512,44.760646],[46.995821,44.757354],[46.994973,44.75388],[46.991315,44.753515],[46.984191,44.746916],[46.996679,44.737223],[47.026119,44.75161],[47.041069,44.748943],[47.033962,44.746994],[47.03637,44.741662],[47.025994,44.740119],[47.012484,44.741671],[46.994145,44.733936],[46.984013,44.734968],[46.976775,44.74133],[46.966937,44.741162],[46.949153,44.733845],[46.934075,44.734871],[46.931162,44.753872],[46.932962,44.791387],[46.901224,44.808654],[46.898436,44.812],[46.886913,44.810513],[46.872787,44.801405],[46.86498,44.79936],[46.82316,44.808653],[46.809065,44.805373],[46.809168,44.796028],[46.825192,44.790525],[46.827047,44.787589],[46.822485,44.781153],[46.828459,44.773918],[46.838114,44.769385],[46.83498,44.766548],[46.830585,44.766541],[46.831252,44.76296],[46.820741,44.760495],[46.813211,44.764384],[46.813179,44.771817],[46.805447,44.772432],[46.805866,44.776563],[46.797979,44.779737],[46.798685,44.783898],[46.787011,44.789059],[46.773865,44.790518],[46.765727,44.796943],[46.755171,44.799929],[46.762009,44.810697],[46.771302,44.816831],[46.77186,44.824637],[46.728552,44.838205]]],[[[47.47959,45.135869],[47.465926,45.162375],[47.463448,45.163154],[47.462509,45.168922],[47.470797,45.17534],[47.476757,45.17573],[47.475727,45.173218],[47.477701,45.170855],[47.477803,45.174175],[47.480958,45.17531],[47.484466,45.172905],[47.484482,45.167931],[47.489632,45.163378],[47.489562,45.161127],[47.486284,45.159762],[47.490318,45.159936],[47.49159,45.156486],[47.489616,45.148768],[47.492357,45.148613],[47.49248,45.146245],[47.489787,45.14775],[47.488806,45.145333],[47.49211,45.143233],[47.490308,45.143365],[47.492373,45.140191],[47.490243,45.132796],[47.484396,45.132104],[47.485131,45.129243],[47.480389,45.129186],[47.47959,45.135869]]],[[[47.471146,45.336479],[47.470626,45.335714],[47.469885,45.336182],[47.471146,45.336479]]],[[[47.573247,45.392031],[47.572597,45.393794],[47.574748,45.392682],[47.573247,45.392031]]],[[[47.722984,45.24381],[47.726186,45.244044],[47.724239,45.246869],[47.725843,45.247413],[47.733128,45.247043],[47.731369,45.241612],[47.726358,45.243296],[47.722984,45.24381]]],[[[47.722549,45.242817],[47.731438,45.240864],[47.730337,45.23679],[47.726991,45.235906],[47.726809,45.240365],[47.722549,45.242817]]],[[[47.725779,45.24943],[47.732699,45.252043],[47.725991,45.254736],[47.73492,45.2526],[47.733772,45.249048],[47.727742,45.248342],[47.725779,45.24943]]],[[[47.728,45.254472],[47.733772,45.255374],[47.727222,45.257904],[47.728236,45.259112],[47.737055,45.257566],[47.735075,45.252916],[47.728,45.254472]]],[[[47.729866,45.258946],[47.73169,45.260555],[47.730532,45.264844],[47.739367,45.265192],[47.73758,45.258395],[47.729866,45.258946]]],[[[47.731015,45.264984],[47.732227,45.267653],[47.73684,45.268763],[47.733782,45.271183],[47.741035,45.270235],[47.739753,45.265871],[47.731015,45.264984]]],[[[47.740723,45.239533],[47.734636,45.237925],[47.736325,45.240501],[47.740723,45.239533]]],[[[47.736711,45.276117],[47.743406,45.276106],[47.741733,45.271587],[47.734888,45.271489],[47.738557,45.272123],[47.736711,45.276117]]],[[[47.737146,45.242148],[47.740662,45.255708],[47.743884,45.253932],[47.750369,45.251477],[47.744361,45.25111],[47.741786,45.244003],[47.737146,45.242148]]],[[[47.741486,45.281953],[47.739201,45.284652],[47.745236,45.2835],[47.744173,45.280145],[47.739496,45.280998],[47.741486,45.281953]]],[[[47.740636,45.278091],[47.740813,45.278897],[47.74155,45.278261],[47.740636,45.278091]]],[[[47.740228,45.279369],[47.739957,45.279073],[47.739925,45.279222],[47.740228,45.279369]]],[[[47.740845,45.280652],[47.741405,45.279582],[47.740279,45.280622],[47.740845,45.280652]]],[[[47.74199,45.26083],[47.745938,45.263258],[47.752783,45.259331],[47.741202,45.257326],[47.74199,45.26083]]],[[[47.742848,45.243096],[47.741263,45.24025],[47.737414,45.241472],[47.742848,45.243096]]],[[[47.742307,45.279694],[47.742427,45.279235],[47.741843,45.279503],[47.742307,45.279694]]],[[[47.742704,45.280133],[47.742615,45.27962],[47.742229,45.279962],[47.742704,45.280133]]],[[[47.742907,45.240433],[47.741446,45.240218],[47.741458,45.24035],[47.742907,45.240433]]],[[[47.747494,45.290226],[47.746067,45.284919],[47.742355,45.284942],[47.744136,45.287554],[47.742419,45.290196],[47.747494,45.290226]]],[[[47.747698,45.302543],[47.746711,45.300883],[47.747355,45.299185],[47.74552,45.300686],[47.746376,45.303912],[47.748923,45.302593],[47.747698,45.302543]]],[[[47.750568,45.252055],[47.741373,45.255823],[47.741067,45.256986],[47.747644,45.255699],[47.750568,45.252055]]],[[[47.754146,45.261978],[47.743321,45.264474],[47.747542,45.275528],[47.758802,45.269714],[47.746196,45.267827],[47.74994,45.265739],[47.749511,45.263387],[47.754146,45.261978]]],[[[47.748524,45.291773],[47.742773,45.290445],[47.742312,45.291917],[47.74376,45.293403],[47.748524,45.291773]]],[[[47.749291,45.27882],[47.752459,45.278388],[47.764606,45.279816],[47.75847,45.278291],[47.760165,45.275045],[47.755342,45.27643],[47.748444,45.275879],[47.749291,45.27882]]],[[[47.751097,45.301468],[47.748503,45.292551],[47.744211,45.293653],[47.748288,45.296528],[47.747966,45.302369],[47.751097,45.301468]]],[[[47.750608,45.261463],[47.751949,45.261754],[47.753926,45.261703],[47.750608,45.261463]]],[[[47.752311,45.289229],[47.760744,45.286437],[47.766087,45.285772],[47.757268,45.284821],[47.752783,45.281938],[47.763083,45.280186],[47.748835,45.27916],[47.752311,45.289229]]],[[[47.760637,45.271074],[47.759017,45.270088],[47.750887,45.275449],[47.759671,45.274728],[47.760884,45.272267],[47.756356,45.272323],[47.760637,45.271074]]],[[[47.759886,45.296173],[47.75774,45.293034],[47.766066,45.290467],[47.761173,45.28926],[47.767482,45.286542],[47.752118,45.289622],[47.754311,45.299804],[47.759886,45.296173]]]]}},{"type":"Feature","id":"108083-197","properties":{"id":"108083-197","name":"Ики-Бурульский район","name_ru":"Ики-Бурульский район","subject_id":"108083","subject_name":"Калмыкия","source_gid":197,"source_fid":250,"names_rosstat":"Ики-Бурульский муниципальный район","population":10147,"area_km2":6375.124767876277,"density_km2":1.5916551235404661,"source":"Актуализированный объединённый GeoJSON, предоставленный преподавателем","name_en":"Iki-Burul'skii District","name_zh":"Iki-Burul'skii区","subject_name_en":"Kalmykia","subject_name_zh":"卡尔梅克共和国"},"geometry":{"type":"Polygon","coordinates":[[[44.088585,45.78642],[44.093249,45.775162],[44.093249,45.767443],[44.098044,45.752172],[44.103703,45.748466],[44.105955,45.738173],[44.115122,45.733831],[44.119303,45.734796],[44.121555,45.731097],[44.124377,45.690484],[44.139116,45.673777],[44.14942,45.663403],[44.162244,45.656638],[44.171572,45.647953],[44.171411,45.644255],[44.181222,45.63541],[44.200681,45.623027],[44.207114,45.616111],[44.214191,45.614664],[44.234615,45.599225],[44.249411,45.594079],[44.252387,45.589942],[44.269838,45.586053],[44.278841,45.580892],[44.278038,45.574942],[44.297336,45.569313],[44.319047,45.551302],[44.324194,45.552588],[44.334647,45.549854],[44.352981,45.553071],[44.364238,45.551945],[44.365847,45.544708],[44.381929,45.539723],[44.409751,45.524124],[44.438538,45.513993],[44.451726,45.507077],[44.470864,45.503379],[44.497721,45.501771],[44.514607,45.510455],[44.533906,45.504827],[44.536157,45.503058],[44.534067,45.499037],[44.5368,45.498877],[44.547575,45.501128],[44.547575,45.503219],[44.554008,45.499359],[44.574915,45.506114],[44.586494,45.495178],[44.590193,45.487137],[44.598396,45.478292],[44.632812,45.46414],[44.700357,45.449024],[44.715014,45.448662],[44.742814,45.434872],[44.761308,45.430852],[44.788005,45.430209],[44.793312,45.429244],[44.797011,45.425706],[44.805856,45.431335],[44.829657,45.437607],[44.837377,45.42828],[44.871555,45.411718],[44.87757,45.405308],[44.885792,45.405856],[44.893182,45.403514],[44.895113,45.387432],[45.136346,45.306059],[45.35246,45.219523],[45.45398,45.315216],[45.439879,45.324122],[45.350498,45.404081],[45.342726,45.403652],[45.364416,45.499065],[45.257782,45.544331],[45.283791,45.588088],[45.310324,45.61433],[45.34043,45.635841],[45.34902,45.653557],[45.359717,45.658824],[45.366986,45.679593],[45.382366,45.69356],[45.396166,45.727114],[45.39339,45.745793],[45.393912,45.774194],[45.366668,45.804322],[45.366061,45.834498],[45.357996,45.830454],[45.351114,45.831924],[45.349166,45.830244],[45.347411,45.831592],[45.349074,45.832736],[45.343094,45.833751],[45.342957,45.835747],[45.332046,45.834418],[45.332579,45.837203],[45.330622,45.836166],[45.32866,45.839231],[45.327092,45.837528],[45.324645,45.839776],[45.314462,45.837247],[45.301398,45.839114],[45.296414,45.835721],[45.268551,45.836211],[45.266962,45.833347],[45.264803,45.834354],[45.259806,45.830917],[45.250008,45.829289],[45.248526,45.826836],[45.227064,45.828627],[45.224033,45.826972],[45.222102,45.830199],[45.212437,45.82765],[45.211208,45.830478],[45.20424,45.830057],[45.201714,45.833416],[45.194122,45.832397],[45.189305,45.829017],[45.188622,45.832421],[45.184428,45.832619],[45.185318,45.830353],[45.183499,45.829217],[45.169139,45.834968],[45.165965,45.834182],[45.158723,45.838453],[45.147218,45.837269],[45.128217,45.84355],[45.12616,45.844993],[45.213963,45.916411],[45.157525,45.940804],[45.111599,45.981045],[45.108351,45.999645],[45.109856,46.012476],[45.102816,46.01812],[45.098281,46.014793],[45.100031,46.011609],[45.096447,46.010647],[45.086263,46.011668],[45.073844,46.009386],[45.0659,46.010032],[45.06143,46.01309],[45.057016,46.010888],[45.057957,46.009324],[45.04998,46.008576],[45.049095,46.007176],[45.051246,46.006063],[45.037868,46.004514],[45.037454,46.001923],[45.033398,46.001658],[45.03565,45.998179],[45.032345,45.998288],[45.032636,45.996428],[45.024558,45.994965],[45.022037,45.998125],[45.004989,45.99364],[45.003234,45.990929],[44.997095,45.992078],[44.989754,45.989783],[44.981386,45.992329],[44.97567,45.997223],[44.961074,45.998444],[44.953643,46.003394],[44.942795,46.001915],[44.94221,45.99987],[44.938566,46.001324],[44.934809,45.999809],[44.934234,46.001884],[44.930478,45.999926],[44.928028,46.001986],[44.918207,46.001633],[44.91455,46.003785],[44.916316,46.005905],[44.913707,46.007533],[44.906267,46.010615],[44.898606,46.009656],[44.892422,46.012612],[44.885495,46.020447],[44.875397,46.019678],[44.858217,46.024364],[44.85705,46.027626],[44.852783,46.029543],[44.804372,46.17749],[44.798357,46.17949],[44.786905,46.178814],[44.785039,46.182025],[44.779361,46.182985],[44.77934,46.185539],[44.773263,46.187672],[44.74787,46.188189],[44.740771,46.192304],[44.717062,46.196209],[44.716358,46.198909],[44.702952,46.199743],[44.679468,46.206311],[44.67858,46.204525],[44.624314,46.211044],[44.531406,46.218239],[44.479062,46.148172],[44.450546,46.149956],[44.441404,46.154847],[44.410664,46.163389],[44.30534,46.163833],[44.302088,46.143571],[44.327639,46.127273],[44.329416,46.120396],[44.328064,46.10381],[44.316584,46.096519],[44.315493,46.082109],[44.393923,46.037075],[44.429175,46.021355],[44.418187,46.021295],[44.408365,46.018428],[44.368226,46.018273],[44.364749,46.020002],[44.364964,46.014011],[44.358264,46.017453],[44.355711,46.014934],[44.348523,46.015396],[44.346441,46.013131],[44.342772,46.015188],[44.340455,46.009957],[44.336657,46.010583],[44.335712,46.013548],[44.33303,46.010195],[44.331121,46.013116],[44.327816,46.012595],[44.330992,46.009555],[44.32846,46.008794],[44.324919,46.012028],[44.320842,46.011924],[44.321872,46.010374],[44.320027,46.010121],[44.322623,46.008511],[44.31904,46.006872],[44.321958,46.006291],[44.318525,46.002684],[44.321229,46.001119],[44.319254,45.999494],[44.326207,45.994262],[44.321422,45.991712],[44.324426,45.988254],[44.31919,45.987598],[44.320563,45.985168],[44.317001,45.984944],[44.321937,45.978816],[44.333803,45.97382],[44.334404,45.971255],[44.297633,45.971452],[44.298148,45.958592],[44.247124,45.958484],[44.244407,45.919522],[44.249189,45.910326],[44.249557,45.884947],[44.211671,45.861038],[44.208361,45.834187],[44.219763,45.815796],[44.088585,45.78642]]]}},{"type":"Feature","id":"108083-209","properties":{"id":"108083-209","name":"Кетченеровский район","name_ru":"Кетченеровский район","subject_id":"108083","subject_name":"Калмыкия","source_gid":209,"source_fid":263,"names_rosstat":"Кетченеровский муниципальный район","population":8597,"area_km2":6555.252145850065,"density_km2":1.31146747809579,"source":"Актуализированный объединённый GeoJSON, предоставленный преподавателем","name_en":"Ketchenerovskii District","name_zh":"Ketchenerovskii区","subject_name_en":"Kalmykia","subject_name_zh":"卡尔梅克共和国"},"geometry":{"type":"Polygon","coordinates":[[[44.270203,46.979298],[44.261624,46.911322],[44.265948,46.909466],[44.444576,46.90688],[44.510509,46.887541],[44.528854,46.888183],[44.550626,46.882994],[44.563114,46.886325],[44.583404,46.879821],[44.591037,46.88226],[44.610784,46.882813],[44.622886,46.886714],[44.642498,46.887755],[44.645853,46.889998],[44.647429,46.887784],[44.655879,46.88809],[44.657057,46.885761],[44.664622,46.889248],[44.682527,46.887543],[44.682806,46.889962],[44.689254,46.8892],[44.695885,46.893342],[44.697967,46.89075],[44.711869,46.887978],[44.712128,46.823286],[44.693342,46.767354],[44.923045,46.745164],[44.928953,46.762918],[45.070824,46.751705],[45.073267,46.758159],[45.074657,46.788876],[45.05644,46.826897],[45.029063,46.862482],[45.239361,46.836153],[45.418481,46.861139],[45.496353,46.861551],[45.566558,46.858151],[45.621977,46.844636],[45.769149,46.848734],[45.803193,47.178717],[45.529524,47.170223],[45.45748,47.174518],[45.448513,47.183525],[45.309649,47.206431],[45.347557,47.290964],[45.34559,47.30402],[45.314319,47.323413],[45.233707,47.348601],[45.207717,47.359084],[45.186133,47.374896],[45.147974,47.39432],[45.097702,47.432699],[45.097041,47.436796],[45.046714,47.48895],[45.041428,47.51536],[45.024668,47.532823],[45.010085,47.532312],[44.932942,47.559603],[44.897886,47.580181],[44.875836,47.568785],[44.840757,47.556726],[44.841502,47.533303],[44.827483,47.534476],[44.777735,47.525346],[44.776194,47.504914],[44.771761,47.488284],[44.75309,47.456234],[44.705941,47.412996],[44.619931,47.429566],[44.515604,47.456558],[44.481164,47.469912],[44.470909,47.412667],[44.318444,47.413209],[44.32368,47.254803],[44.324152,47.142394],[44.270203,46.979298]]]}},{"type":"Feature","id":"108083-221","properties":{"id":"108083-221","name":"Октябрьский район","name_ru":"Октябрьский район","subject_id":"108083","subject_name":"Калмыкия","source_gid":221,"source_fid":277,"names_rosstat":"Октябрьский муниципальный район","population":7587,"area_km2":3627.5876786807894,"density_km2":2.091472535478203,"source":"Актуализированный объединённый GeoJSON, предоставленный преподавателем","name_en":"Oktiabr'skii District","name_zh":"Oktiabr'skii区","subject_name_en":"Kalmykia","subject_name_zh":"卡尔梅克共和国"},"geometry":{"type":"Polygon","coordinates":[[[45.024668,47.532823],[45.041428,47.51536],[45.046714,47.48895],[45.097041,47.436796],[45.097702,47.432699],[45.147974,47.39432],[45.186133,47.374896],[45.207717,47.359084],[45.233707,47.348601],[45.314319,47.323413],[45.34559,47.30402],[45.347557,47.290964],[45.309649,47.206431],[45.448513,47.183525],[45.45748,47.174518],[45.529524,47.170223],[45.803193,47.178717],[45.808139,47.253359],[45.700008,47.257183],[45.719237,47.362105],[45.707128,47.362313],[45.712857,47.389578],[45.699117,47.408687],[45.698606,47.438572],[45.690431,47.441836],[45.700533,47.483127],[45.724032,47.532726],[45.732746,47.55642],[45.751992,47.557512],[45.752913,47.571872],[45.82258,47.574736],[45.856087,47.593888],[45.851377,47.655794],[45.854683,47.719397],[45.841256,47.720167],[45.78396,47.814407],[45.740172,47.830262],[45.721722,47.901184],[45.541817,47.866042],[45.516121,47.864682],[45.514691,47.883455],[45.506514,47.883494],[45.504928,47.897475],[45.464476,47.897635],[45.45897,47.93528],[45.388824,47.95867],[45.368293,47.981242],[45.24262,47.990556],[45.141978,47.984525],[45.194652,47.926306],[45.135385,47.903741],[45.226837,47.791255],[45.22449,47.780361],[45.207749,47.759761],[45.176489,47.680493],[45.141767,47.661698],[45.188692,47.596336],[45.122495,47.568282],[45.024668,47.532823]]]}},{"type":"Feature","id":"108083-314","properties":{"id":"108083-314","name":"Яшкульский район","name_ru":"Яшкульский район","subject_id":"108083","subject_name":"Калмыкия","source_gid":314,"source_fid":386,"names_rosstat":"Яшкульский муниципальный район","population":15075,"area_km2":11774.12677007411,"density_km2":1.2803497273628484,"source":"Актуализированный объединённый GeoJSON, предоставленный преподавателем","name_en":"Iashkul'skii District","name_zh":"Iashkul'skii区","subject_name_en":"Kalmykia","subject_name_zh":"卡尔梅克共和国"},"geometry":{"type":"Polygon","coordinates":[[[44.679468,46.206311],[44.702952,46.199743],[44.716358,46.198909],[44.717062,46.196209],[44.740771,46.192304],[44.74787,46.188189],[44.773263,46.187672],[44.77934,46.185539],[44.779361,46.182985],[44.785039,46.182025],[44.786905,46.178814],[44.798357,46.17949],[44.804652,46.177343],[44.852783,46.029543],[44.862029,46.022543],[44.875397,46.019678],[44.885495,46.020447],[44.892422,46.012612],[44.898606,46.009656],[44.906267,46.010615],[44.913707,46.007533],[44.916316,46.005905],[44.91455,46.003785],[44.918207,46.001633],[44.928028,46.001986],[44.930478,45.999926],[44.934234,46.001884],[44.934809,45.999809],[44.938566,46.001324],[44.94221,45.99987],[44.942795,46.001915],[44.953643,46.003394],[44.961074,45.998444],[44.97567,45.997223],[44.981386,45.992329],[44.989754,45.989783],[44.997095,45.992078],[45.003234,45.990929],[45.004989,45.99364],[45.022037,45.998125],[45.024558,45.994965],[45.032636,45.996428],[45.032345,45.998288],[45.03565,45.998179],[45.033398,46.001658],[45.037454,46.001923],[45.037868,46.004514],[45.051246,46.006063],[45.049095,46.007176],[45.04998,46.008576],[45.057957,46.009324],[45.057016,46.010888],[45.06143,46.01309],[45.0659,46.010032],[45.073844,46.009386],[45.086263,46.011668],[45.096447,46.010647],[45.100031,46.011609],[45.098281,46.014793],[45.102816,46.01812],[45.109856,46.012476],[45.108351,45.999645],[45.111599,45.981045],[45.157525,45.940804],[45.213963,45.916411],[45.12616,45.844993],[45.147218,45.837269],[45.158723,45.838453],[45.165965,45.834182],[45.169139,45.834968],[45.183499,45.829217],[45.185318,45.830353],[45.184428,45.832619],[45.188622,45.832421],[45.189305,45.829017],[45.194122,45.832397],[45.201714,45.833416],[45.20424,45.830057],[45.211208,45.830478],[45.212437,45.82765],[45.221476,45.830326],[45.224033,45.826972],[45.241742,45.828542],[45.248279,45.826801],[45.250008,45.829289],[45.259806,45.830917],[45.264803,45.834354],[45.266962,45.833347],[45.268749,45.836256],[45.296414,45.835721],[45.301113,45.839077],[45.315111,45.837255],[45.324645,45.839776],[45.326773,45.837557],[45.328991,45.839108],[45.330622,45.836166],[45.332579,45.837203],[45.331341,45.83499],[45.33307,45.834036],[45.342957,45.835747],[45.343094,45.833751],[45.349074,45.832736],[45.347411,45.831592],[45.349166,45.830244],[45.351114,45.831924],[45.357996,45.830454],[45.365579,45.834594],[45.367075,45.832433],[45.365982,45.834914],[45.362484,45.834331],[45.347736,45.840231],[45.34622,45.982061],[45.41656,45.976841],[45.546873,45.947896],[46.454929,45.965448],[46.449329,46.177632],[46.501244,46.280949],[46.405095,46.308061],[46.400832,46.320618],[46.504665,46.375777],[46.560863,46.354266],[46.662967,46.440919],[46.719923,46.445582],[46.715966,46.481675],[46.578607,46.488187],[46.551231,46.614074],[46.630048,46.620526],[46.638037,46.677067],[46.369501,46.713827],[46.389747,46.738652],[46.241985,46.752509],[46.163868,46.662714],[46.119977,46.665611],[46.112772,46.663138],[46.087326,46.668624],[45.961421,46.68073],[45.907665,46.67684],[45.885533,46.851628],[45.886413,46.912294],[45.77445,46.901396],[45.769149,46.848734],[45.621977,46.844636],[45.566558,46.858151],[45.496353,46.861551],[45.418481,46.861139],[45.239361,46.836153],[45.029063,46.862482],[45.05644,46.826897],[45.074657,46.788876],[45.073267,46.758159],[45.040303,46.680472],[45.039845,46.667206],[45.027658,46.617483],[45.025508,46.594665],[44.956831,46.476589],[44.771,46.467557],[44.797712,46.381481],[44.790508,46.318557],[44.792452,46.316582],[44.793997,46.318744],[44.801183,46.316676],[44.801119,46.311848],[44.805311,46.312322],[44.805669,46.316081],[44.808751,46.31541],[44.810545,46.310648],[44.813548,46.312482],[44.81816,46.310689],[44.816991,46.306289],[44.821527,46.307677],[44.824617,46.30415],[44.812079,46.300916],[44.807864,46.301738],[44.808321,46.304797],[44.804802,46.30413],[44.805152,46.302459],[44.801494,46.300882],[44.803064,46.298571],[44.801112,46.296874],[44.784121,46.292259],[44.776431,46.283479],[44.770774,46.281112],[44.757024,46.283135],[44.745007,46.281006],[44.71627,46.28654],[44.712426,46.263876],[44.679468,46.206311]]]}},{"type":"Feature","id":"108083-1857","properties":{"id":"108083-1857","name":"Малодербетовский район","name_ru":"Малодербетовский район","subject_id":"108083","subject_name":"Калмыкия","source_gid":1857,"source_fid":1967,"names_rosstat":"Малодербетовский муниципальный район","population":9260,"area_km2":3666.74774800875,"density_km2":2.52539870107746,"source":"Актуализированный объединённый GeoJSON, предоставленный преподавателем","name_en":"Maloderbetovskii District","name_zh":"Maloderbetovskii区","subject_name_en":"Kalmykia","subject_name_zh":"卡尔梅克共和国"},"geometry":{"type":"Polygon","coordinates":[[[45.238505,48.164878],[45.266053,48.105472],[45.379406,48.099755],[45.550385,47.99378],[45.594703,48.011714],[45.698544,48.032274],[45.756631,48.001333],[45.713866,47.931219],[45.721722,47.901184],[45.541817,47.866042],[45.516121,47.864682],[45.514691,47.883455],[45.506514,47.883494],[45.504928,47.897475],[45.464476,47.897635],[45.45897,47.93528],[45.388824,47.95867],[45.368293,47.981242],[45.24262,47.990556],[45.141978,47.984525],[45.194652,47.926306],[45.135385,47.903741],[45.226837,47.791255],[45.22449,47.780361],[45.207749,47.759761],[45.176489,47.680493],[45.141767,47.661698],[45.188692,47.596336],[45.122495,47.568282],[45.024668,47.532823],[45.010085,47.532312],[44.932942,47.559603],[44.897886,47.580181],[44.89916,47.596498],[44.888378,47.620866],[44.806582,47.65112],[44.809378,47.682634],[44.827713,47.710073],[44.811887,47.738306],[44.736201,47.74042],[44.674606,47.763952],[44.633016,47.830953],[44.627582,47.847143],[44.375437,47.847947],[44.359057,47.85165],[44.392012,47.889483],[44.392937,47.918343],[44.423235,47.955672],[44.423856,48.042363],[44.375782,48.043737],[44.325132,48.041328],[44.327921,48.213596],[44.326409,48.238797],[44.381122,48.25045],[44.382409,48.233604],[44.437292,48.229747],[44.435767,48.20623],[44.478019,48.201998],[44.50462,48.184844],[44.544157,48.188073],[44.541061,48.050487],[44.580117,48.050922],[44.59171,48.054258],[44.648204,48.053999],[44.662957,48.057993],[44.663061,48.086332],[44.809767,48.050632],[44.818794,48.057873],[44.925662,48.120248],[44.914374,48.171373],[44.937474,48.194732],[44.909748,48.219389],[44.960978,48.270856],[45.167631,48.222017],[45.145672,48.187713],[45.238505,48.164878]]]}},{"type":"Feature","id":"108083-1882","properties":{"id":"108083-1882","name":"Сарпинский район","name_ru":"Сарпинский район","subject_id":"108083","subject_name":"Калмыкия","source_gid":1882,"source_fid":1992,"names_rosstat":"Сарпинский муниципальный район","population":11633,"area_km2":3736.4085698491335,"density_km2":3.1134175458948032,"source":"Актуализированный объединённый GeoJSON, предоставленный преподавателем","name_en":"Sarpinskii District","name_zh":"Sarpinskii区","subject_name_en":"Kalmykia","subject_name_zh":"卡尔梅克共和国"},"geometry":{"type":"Polygon","coordinates":[[[43.795946,47.268761],[43.787875,47.355427],[43.711218,47.474226],[43.667597,47.548888],[43.715125,47.717807],[43.752131,47.733121],[43.781057,47.733121],[43.791043,47.736048],[43.806195,47.745863],[43.87145,47.760843],[43.945831,47.753096],[44.030212,47.823385],[44.013732,47.839932],[44.08259,47.899435],[44.157281,47.887503],[44.152961,47.874477],[44.167754,47.87494],[44.171389,47.884153],[44.307907,47.859683],[44.338051,47.856064],[44.375437,47.847947],[44.627582,47.847143],[44.633016,47.830953],[44.674606,47.763952],[44.736201,47.74042],[44.811887,47.738306],[44.827713,47.710073],[44.809378,47.682634],[44.806582,47.65112],[44.888378,47.620866],[44.89916,47.596498],[44.897886,47.580181],[44.875836,47.568785],[44.840757,47.556726],[44.841502,47.533303],[44.827483,47.534476],[44.777735,47.525346],[44.776194,47.504914],[44.771761,47.488284],[44.75309,47.456234],[44.705941,47.412996],[44.619931,47.429566],[44.515604,47.456558],[44.481164,47.469912],[44.470909,47.412667],[44.311064,47.413311],[44.312238,47.477871],[44.232894,47.478544],[44.234102,47.549054],[44.187736,47.551575],[44.187719,47.536132],[44.135132,47.544901],[44.132611,47.413516],[44.109608,47.414056],[43.964133,47.40023],[43.925687,47.328734],[43.939513,47.25875],[43.795946,47.268761]]]}},{"type":"Feature","id":"108083-1951","properties":{"id":"108083-1951","name":"Приютненский район","name_ru":"Приютненский район","subject_id":"108083","subject_name":"Калмыкия","source_gid":1951,"source_fid":2061,"names_rosstat":"Приютненский муниципальный район","population":9410,"area_km2":3135.784080783187,"density_km2":3.0008443686115585,"source":"Актуализированный объединённый GeoJSON, предоставленный преподавателем","name_en":"Priiutnenskii District","name_zh":"Priiutnenskii区","subject_name_en":"Kalmykia","subject_name_zh":"卡尔梅克共和国"},"geometry":{"type":"Polygon","coordinates":[[[43.810038,45.956404],[43.786663,45.963144],[43.784093,45.966375],[43.785638,45.967812],[43.778987,45.9686],[43.779834,45.970777],[43.776398,45.972932],[43.771693,45.973817],[43.766295,45.97136],[43.748604,45.978919],[43.733004,45.978275],[43.723194,45.982617],[43.705343,45.982295],[43.691834,45.979239],[43.6772,45.98326],[43.665781,45.982938],[43.645357,45.981008],[43.645357,45.9794],[43.638442,45.980847],[43.639406,45.983903],[43.635225,45.982294],[43.636029,45.987762],[43.629918,45.986476],[43.628953,45.984385],[43.623163,45.985993],[43.621555,45.98728],[43.624772,45.989853],[43.622681,45.991139],[43.619304,45.990496],[43.61464,45.982616],[43.607081,45.981812],[43.60676,45.978917],[43.603865,45.978917],[43.598558,45.986797],[43.594216,45.988888],[43.59116,45.988727],[43.588684,45.982491],[43.584771,45.982307],[43.540707,45.986347],[43.536329,45.989418],[43.513249,45.994828],[43.505272,45.993762],[43.492727,45.996813],[43.481655,45.993593],[43.455176,45.992877],[43.450368,45.998953],[43.444919,46.001225],[43.433461,45.999943],[43.426638,46.004116],[43.404965,46.008945],[43.383564,46.027393],[43.349372,46.050134],[43.310364,46.08988],[43.281737,46.104032],[43.257453,46.110464],[43.218374,46.112233],[43.192642,46.117539],[43.164443,46.128765],[43.069935,46.151471],[43.033267,46.163693],[43.001746,46.169322],[42.978588,46.182509],[42.961862,46.1965],[42.931787,46.236062],[42.926799,46.236517],[42.921961,46.249177],[42.890535,46.29038],[42.855617,46.323901],[42.831873,46.328091],[42.786479,46.344153],[42.769106,46.368682],[42.79086,46.382572],[42.781082,46.402784],[42.931714,46.446891],[43.333073,46.169188],[43.339229,46.167136],[43.538323,46.15715],[43.600795,46.172753],[43.630337,46.175384],[43.68693,46.284048],[43.750957,46.361154],[43.72929,46.392458],[43.738835,46.408047],[43.809704,46.381054],[43.81841,46.381962],[43.829365,46.349855],[43.847153,46.332537],[43.889661,46.313822],[43.847869,46.28676],[43.849114,46.28321],[43.85433,46.282551],[43.853165,46.280429],[43.855803,46.28017],[43.852897,46.276712],[43.856295,46.274959],[43.858392,46.276194],[43.857212,46.274059],[43.860142,46.271218],[43.85915,46.270009],[43.862428,46.270766],[43.865892,46.262311],[43.870675,46.259806],[43.868218,46.259197],[43.864528,46.246263],[43.865827,46.24492],[43.867205,46.246829],[43.869431,46.24389],[43.871469,46.245079],[43.869757,46.24299],[43.871987,46.242546],[43.868793,46.241591],[43.869334,46.238725],[43.864516,46.240648],[43.863263,46.235267],[43.859881,46.23623],[43.860481,46.233885],[43.857242,46.234103],[43.863052,46.231918],[43.860482,46.230373],[43.855866,46.232012],[43.854076,46.229195],[43.848764,46.232711],[43.846157,46.23043],[43.847228,46.228108],[43.842458,46.23009],[43.841384,46.225381],[43.844327,46.223938],[43.839792,46.223768],[43.840109,46.221104],[43.835044,46.223567],[43.833922,46.220418],[43.829026,46.223387],[43.826993,46.218884],[43.825167,46.220495],[43.827319,46.222871],[43.824955,46.223589],[43.822736,46.221694],[43.823724,46.219282],[43.820347,46.220825],[43.817487,46.219351],[43.819323,46.216406],[43.813286,46.218966],[43.807248,46.215986],[43.807763,46.213117],[43.804477,46.213621],[43.805548,46.210882],[43.777863,46.204521],[43.786032,46.193262],[43.83181,46.173584],[43.95163,46.236416],[44.008514,46.249416],[44.017677,46.268629],[44.049799,46.281903],[44.075655,46.277661],[44.121682,46.294418],[44.142351,46.298885],[44.133827,46.271744],[44.211289,46.253496],[44.232944,46.25193],[44.230536,46.265686],[44.24251,46.265475],[44.244074,46.251345],[44.268366,46.249683],[44.283086,46.244653],[44.274547,46.231222],[44.268061,46.201642],[44.262467,46.201705],[44.2447,46.191279],[44.228027,46.204007],[44.203329,46.206146],[44.212038,46.114393],[44.216986,46.116155],[44.219321,46.113941],[44.218611,46.11769],[44.223406,46.115919],[44.226536,46.116255],[44.226703,46.118217],[44.248176,46.117389],[44.268217,46.121226],[44.275084,46.119382],[44.274845,46.096809],[44.252359,46.096698],[44.244407,45.919522],[44.249189,45.910326],[44.249557,45.884947],[44.211671,45.861038],[44.208361,45.834187],[44.219763,45.815796],[44.088694,45.787457],[44.091319,45.793496],[44.089067,45.797838],[44.071859,45.800733],[44.063818,45.810542],[44.060762,45.809899],[44.059315,45.804431],[44.042107,45.819548],[44.032778,45.840616],[44.035512,45.849461],[44.016856,45.87085],[43.982762,45.890148],[43.973595,45.889022],[43.944969,45.894812],[43.922936,45.903013],[43.93146,45.908159],[43.931459,45.910572],[43.927117,45.925207],[43.920684,45.931157],[43.91811,45.944987],[43.903154,45.948364],[43.893183,45.944183],[43.882408,45.949168],[43.874689,45.948686],[43.863592,45.953832],[43.847027,45.95737],[43.824512,45.959139],[43.817919,45.956726],[43.81438,45.959299],[43.810038,45.956404]]]}},{"type":"Feature","id":"108083-1958","properties":{"id":"108083-1958","name":"городской округ Элиста","name_ru":"городской округ Элиста","subject_id":"108083","subject_name":"Калмыкия","source_gid":1958,"source_fid":2068,"names_rosstat":"Городской округ город Элиста","population":108451,"area_km2":398.102790117555,"density_km2":272.41959285936105,"source":"Актуализированный объединённый GeoJSON, предоставленный преподавателем","name_en":"Elista Urban Okrug","name_zh":"Elista城市辖区","subject_name_en":"Kalmykia","subject_name_zh":"卡尔梅克共和国"},"geometry":{"type":"MultiPolygon","coordinates":[[[[44.133827,46.271744],[44.211289,46.253496],[44.232944,46.25193],[44.230536,46.265686],[44.24251,46.265475],[44.244074,46.251345],[44.268366,46.249683],[44.303106,46.237871],[44.305295,46.251271],[44.308943,46.257191],[44.324146,46.279137],[44.328759,46.279137],[44.337085,46.31371],[44.367705,46.316349],[44.401973,46.311739],[44.401029,46.322536],[44.397316,46.328967],[44.391952,46.331293],[44.361353,46.338612],[44.372297,46.352743],[44.338243,46.35489],[44.338168,46.364486],[44.344303,46.37025],[44.358339,46.370142],[44.360098,46.373207],[44.298729,46.378314],[44.298343,46.375531],[44.314822,46.372999],[44.31332,46.37066],[44.171614,46.388365],[44.133827,46.271744]]],[[[44.203329,46.206146],[44.212038,46.114393],[44.216986,46.116155],[44.219321,46.113941],[44.218611,46.11769],[44.223406,46.115919],[44.226536,46.116255],[44.226703,46.118217],[44.248176,46.117389],[44.268217,46.121226],[44.275084,46.119382],[44.274845,46.096809],[44.252359,46.096698],[44.247124,45.958484],[44.298148,45.958592],[44.297633,45.971452],[44.334404,45.971255],[44.333803,45.97382],[44.321937,45.978816],[44.317001,45.984944],[44.320563,45.985168],[44.31919,45.987598],[44.324426,45.988254],[44.321422,45.991712],[44.326207,45.994262],[44.319254,45.999494],[44.321229,46.001119],[44.318525,46.002684],[44.321958,46.006291],[44.31904,46.006872],[44.322623,46.008511],[44.320027,46.010121],[44.321872,46.010374],[44.320842,46.011924],[44.324919,46.012028],[44.32846,46.008794],[44.330992,46.009555],[44.327816,46.012595],[44.331121,46.013116],[44.33303,46.010195],[44.335712,46.013548],[44.336657,46.010583],[44.340455,46.009957],[44.342772,46.015188],[44.346441,46.013131],[44.348523,46.015396],[44.355711,46.014934],[44.358264,46.017453],[44.364964,46.014011],[44.364749,46.020002],[44.368226,46.018273],[44.408365,46.018428],[44.418187,46.021295],[44.429175,46.021355],[44.393923,46.037075],[44.315493,46.082109],[44.316584,46.096519],[44.328064,46.10381],[44.329416,46.120396],[44.327639,46.127273],[44.302088,46.143571],[44.306413,46.169837],[44.276972,46.193566],[44.276822,46.197755],[44.25609,46.197881],[44.2447,46.191279],[44.228027,46.204007],[44.203329,46.206146]]]]}},{"type":"Feature","id":"108083-2032","properties":{"id":"108083-2032","name":"Городовиковский район","name_ru":"Городовиковский район","subject_id":"108083","subject_name":"Калмыкия","source_gid":2032,"source_fid":2142,"names_rosstat":"Городовиковский муниципальный район","population":13600,"area_km2":1104.4185336809935,"density_km2":12.314172195817479,"source":"Актуализированный объединённый GeoJSON, предоставленный преподавателем","name_en":"Gorodovikovskii District","name_zh":"Gorodovikovskii区","subject_name_en":"Kalmykia","subject_name_zh":"卡尔梅克共和国"},"geometry":{"type":"Polygon","coordinates":[[[41.634308,46.18049],[41.636828,46.176566],[41.64777,46.173527],[41.65419,46.168131],[41.640898,46.156548],[41.642108,46.153466],[41.647994,46.152741],[41.65053,46.15017],[41.644775,46.142005],[41.648689,46.138508],[41.702087,46.05172],[41.71441,45.982428],[41.750501,45.981528],[41.79473,45.976837],[41.809889,45.978956],[41.819695,45.975362],[41.904712,45.967817],[41.927289,45.974519],[42.082948,45.966352],[42.080094,45.933754],[42.0833,45.932227],[42.151569,45.94308],[42.163635,46.038768],[42.17623,46.04063],[42.180276,46.071371],[42.167571,46.069923],[42.17069,46.111465],[42.193844,46.115601],[42.186247,46.15016],[42.177407,46.175559],[42.177557,46.240016],[42.141644,46.240099],[42.128861,46.297553],[41.962324,46.298008],[41.962787,46.255098],[41.911139,46.255088],[41.910646,46.203357],[41.962434,46.203224],[41.96265,46.1764],[41.886404,46.175805],[41.862568,46.14423],[41.738479,46.185796],[41.743986,46.193995],[41.726107,46.19992],[41.709152,46.210945],[41.711403,46.212816],[41.707749,46.215861],[41.703178,46.21695],[41.697356,46.215097],[41.692818,46.204251],[41.687328,46.203776],[41.67732,46.198025],[41.678363,46.193787],[41.685702,46.191775],[41.688451,46.186322],[41.658501,46.177847],[41.654352,46.187941],[41.645429,46.190531],[41.635672,46.186534],[41.634308,46.18049]]]}},{"type":"Feature","id":"108083-2042","properties":{"id":"108083-2042","name":"Яшалтинский район","name_ru":"Яшалтинский район","subject_id":"108083","subject_name":"Калмыкия","source_gid":2042,"source_fid":2152,"names_rosstat":"Яшалтинский муниципальный район","population":14527,"area_km2":2419.7354450994276,"density_km2":6.003548871187892,"source":"Актуализированный объединённый GeoJSON, предоставленный преподавателем","name_en":"Iashaltinskii District","name_zh":"Iashaltinskii区","subject_name_en":"Kalmykia","subject_name_zh":"卡尔梅克共和国"},"geometry":{"type":"Polygon","coordinates":[[[42.044103,46.535377],[42.049683,46.528166],[42.056179,46.525239],[42.049533,46.51734],[42.050924,46.508609],[42.066334,46.48333],[42.100658,46.37446],[42.164222,46.382688],[42.175025,46.361071],[42.17037,46.297814],[42.128861,46.297553],[42.141644,46.240099],[42.177557,46.240016],[42.177407,46.175559],[42.186247,46.15016],[42.193844,46.115601],[42.321287,46.136054],[42.332037,46.135382],[42.319547,46.041621],[42.318035,45.969724],[42.556789,46.008041],[42.672044,46.089891],[42.738487,46.091548],[42.821845,46.151572],[42.862964,46.177846],[42.855052,46.178106],[42.853983,46.180283],[42.857803,46.181571],[42.857052,46.184156],[42.84819,46.188984],[42.839378,46.190603],[42.845038,46.192166],[42.844895,46.195319],[42.849609,46.199393],[42.848703,46.200981],[42.852038,46.202276],[42.856623,46.199114],[42.866144,46.205192],[42.868261,46.203995],[42.868922,46.206994],[42.871891,46.208187],[42.876006,46.204961],[42.875121,46.209023],[42.881606,46.208258],[42.913775,46.236222],[42.926799,46.236517],[42.921961,46.249177],[42.890535,46.29038],[42.855617,46.323901],[42.831873,46.328091],[42.786479,46.344153],[42.769106,46.368682],[42.679887,46.368331],[42.598456,46.383882],[42.57394,46.392414],[42.560547,46.399325],[42.551475,46.413797],[42.515511,46.440689],[42.503306,46.456672],[42.488942,46.464124],[42.471122,46.462828],[42.44369,46.466932],[42.42425,46.475031],[42.415718,46.482267],[42.416798,46.498683],[42.397084,46.511122],[42.37403,46.514127],[42.332558,46.527086],[42.279098,46.530757],[42.252638,46.543177],[42.215054,46.556352],[42.200366,46.558404],[42.12995,46.556351],[42.062775,46.544362],[42.049723,46.546164],[42.049305,46.53875],[42.044103,46.535377]]]}},{"type":"Feature","id":"108083-2043","properties":{"id":"108083-2043","name":"Целинный район","name_ru":"Целинный район","subject_id":"108083","subject_name":"Калмыкия","source_gid":2043,"source_fid":2153,"names_rosstat":"Целинный муниципальный район","population":20181,"area_km2":5065.332248224053,"density_km2":3.984141416799584,"source":"Актуализированный объединённый GeoJSON, предоставленный преподавателем","name_en":"Tselinnyi District","name_zh":"Tselinnyi区","subject_name_en":"Kalmykia","subject_name_zh":"卡尔梅克共和国"},"geometry":{"type":"Polygon","coordinates":[[[43.777863,46.204521],[43.805548,46.210882],[43.804477,46.213621],[43.807763,46.213117],[43.807248,46.215986],[43.813286,46.218966],[43.819323,46.216406],[43.817487,46.219351],[43.820347,46.220825],[43.823724,46.219282],[43.822736,46.221694],[43.824955,46.223589],[43.827319,46.222871],[43.825167,46.220495],[43.826993,46.218884],[43.829026,46.223387],[43.833922,46.220418],[43.835044,46.223567],[43.840109,46.221104],[43.839792,46.223768],[43.844327,46.223938],[43.841384,46.225381],[43.842458,46.23009],[43.847228,46.228108],[43.846157,46.23043],[43.848764,46.232711],[43.853444,46.229284],[43.855866,46.232012],[43.861531,46.230482],[43.862567,46.232509],[43.85986,46.23232],[43.857242,46.234103],[43.860481,46.233885],[43.859881,46.23623],[43.863263,46.235267],[43.864516,46.240648],[43.869334,46.238725],[43.868793,46.241591],[43.871987,46.242546],[43.869757,46.24299],[43.871469,46.245079],[43.869431,46.24389],[43.867205,46.246829],[43.865827,46.24492],[43.864528,46.246263],[43.868218,46.259197],[43.870675,46.259806],[43.865892,46.262311],[43.862428,46.270766],[43.89569,46.300466],[43.958735,46.319102],[43.972456,46.358082],[43.968016,46.3646],[43.958747,46.370354],[43.941245,46.373494],[43.940806,46.378882],[43.92394,46.38727],[43.93198,46.418714],[43.915544,46.42004],[43.915342,46.446917],[43.929891,46.485474],[43.930569,46.535045],[43.812758,46.571864],[43.827157,46.596416],[43.882026,46.623488],[43.912624,46.675773],[43.900708,46.686872],[43.913091,46.715921],[43.946242,46.730786],[43.961235,46.734412],[43.982419,46.745835],[44.034023,46.764957],[44.048389,46.800077],[44.086836,46.835502],[44.156879,46.823232],[44.24846,46.889673],[44.250971,46.895699],[44.265948,46.909466],[44.444576,46.90688],[44.510509,46.887541],[44.528854,46.888183],[44.550626,46.882994],[44.563114,46.886325],[44.583404,46.879821],[44.591037,46.88226],[44.610784,46.882813],[44.622886,46.886714],[44.642498,46.887755],[44.645853,46.889998],[44.647429,46.887784],[44.655879,46.88809],[44.657057,46.885761],[44.664622,46.889248],[44.682527,46.887543],[44.682806,46.889962],[44.689254,46.8892],[44.695885,46.893342],[44.697967,46.89075],[44.711869,46.887978],[44.712128,46.823286],[44.693342,46.767354],[44.923045,46.745164],[44.928953,46.762918],[45.070824,46.751705],[45.040303,46.680472],[45.039845,46.667206],[45.027658,46.617483],[45.025508,46.594665],[44.956831,46.476589],[44.771,46.467557],[44.797712,46.381481],[44.790508,46.318557],[44.792452,46.316582],[44.793997,46.318744],[44.801183,46.316676],[44.801119,46.311848],[44.805311,46.312322],[44.805669,46.316081],[44.808751,46.31541],[44.810545,46.310648],[44.813548,46.312482],[44.81816,46.310689],[44.816991,46.306289],[44.821527,46.307677],[44.824617,46.30415],[44.812079,46.300916],[44.807864,46.301738],[44.808321,46.304797],[44.804802,46.30413],[44.805152,46.302459],[44.801494,46.300882],[44.803064,46.298571],[44.801112,46.296874],[44.784121,46.292259],[44.776431,46.283479],[44.770774,46.281112],[44.757024,46.283135],[44.745007,46.281006],[44.71627,46.28654],[44.712426,46.263876],[44.67858,46.204525],[44.624314,46.211044],[44.531406,46.218239],[44.479062,46.148172],[44.450546,46.149956],[44.441404,46.154847],[44.410664,46.163389],[44.30534,46.163833],[44.306413,46.169837],[44.276972,46.193566],[44.276822,46.197755],[44.25609,46.197881],[44.262467,46.201705],[44.268061,46.201642],[44.274547,46.231222],[44.283086,46.244653],[44.303106,46.237871],[44.305295,46.251271],[44.308943,46.257191],[44.324146,46.279137],[44.328759,46.279137],[44.337085,46.31371],[44.367705,46.316349],[44.401973,46.311739],[44.401029,46.322536],[44.397316,46.328967],[44.361353,46.338612],[44.372297,46.352743],[44.338243,46.35489],[44.338168,46.364486],[44.344303,46.37025],[44.358339,46.370142],[44.360098,46.373207],[44.298729,46.378314],[44.298343,46.375531],[44.314822,46.372999],[44.31332,46.37066],[44.171614,46.388365],[44.142351,46.298885],[44.121682,46.294418],[44.075655,46.277661],[44.049799,46.281903],[44.017677,46.268629],[44.008514,46.249416],[43.95163,46.236416],[43.83181,46.173584],[43.786032,46.193262],[43.777863,46.204521]]]}},{"type":"Feature","id":"108083-2054","properties":{"id":"108083-2054","name":"Черноземельский район","name_ru":"Черноземельский район","subject_id":"108083","subject_name":"Калмыкия","source_gid":2054,"source_fid":2164,"names_rosstat":"Черноземельский муниципальный район","population":11760,"area_km2":10757.320497089016,"density_km2":1.0932090387362088,"source":"Актуализированный объединённый GeoJSON, предоставленный преподавателем","name_en":"Chernozemel'skii District","name_zh":"Chernozemel'skii区","subject_name_en":"Kalmykia","subject_name_zh":"卡尔梅克共和国"},"geometry":{"type":"MultiPolygon","coordinates":[[[[46.806648,45.339832],[46.677406,44.998668],[46.719492,44.986132],[46.691136,44.918675],[46.650543,44.929421],[46.627856,44.866578],[46.584875,44.889875],[46.570563,44.907346],[46.511642,44.92965],[46.504579,44.934297],[46.484505,44.930393],[46.470751,44.935783],[46.449376,44.939128],[46.431024,44.938776],[46.430874,44.93553],[46.427072,44.934481],[46.383207,44.947306],[46.368895,44.946562],[46.358672,44.9408],[46.347334,44.951023],[46.325959,44.949721],[46.248823,44.965705],[46.239881,44.97093],[46.226147,44.972954],[46.200312,44.958456],[46.161465,44.963102],[46.159793,44.958455],[46.117415,44.969793],[46.083029,44.968677],[46.076709,44.964774],[46.066673,44.971279],[46.031915,44.980758],[46.016302,44.979642],[45.999388,44.987263],[45.982474,44.989121],[45.969277,44.980757],[45.949018,44.986333],[45.930803,44.98466],[45.881362,44.988005],[45.874113,44.985403],[45.86928,44.987447],[45.846047,44.985774],[45.82969,44.990235],[45.813705,44.991721],[45.801461,44.987511],[45.793632,44.987632],[45.797349,44.976852],[45.783409,44.968488],[45.748838,44.975364],[45.734712,44.972762],[45.714267,44.974249],[45.70962,44.977594],[45.705116,44.977363],[45.715953,44.995841],[45.586328,45.12112],[45.590027,45.125784],[45.35246,45.219523],[45.45398,45.315216],[45.439879,45.324122],[45.350498,45.404081],[45.342726,45.403652],[45.364416,45.499065],[45.257782,45.544331],[45.283791,45.588088],[45.310324,45.61433],[45.34043,45.635841],[45.34902,45.653557],[45.359717,45.658824],[45.366986,45.679593],[45.382366,45.69356],[45.396166,45.727114],[45.39339,45.745793],[45.393912,45.774194],[45.366668,45.804322],[45.36654,45.83457],[45.347736,45.840231],[45.34622,45.982061],[45.41656,45.976841],[45.546873,45.947896],[46.310636,45.963011],[46.295432,45.914425],[46.411932,45.815958],[46.549815,45.798013],[46.539673,45.763953],[46.535787,45.757517],[46.477718,45.70046],[46.693884,45.64847],[46.683401,45.619475],[46.69252,45.614394],[46.749669,45.615088],[46.762472,45.598162],[46.769149,45.577237],[46.814059,45.565388],[46.854357,45.568859],[46.876733,45.579508],[46.909494,45.587343],[46.88463,45.523654],[46.772184,45.528587],[46.771074,45.549681],[46.733465,45.552636],[46.660055,45.547385],[46.646373,45.504598],[46.457276,45.482867],[46.444047,45.452655],[46.504318,45.446511],[46.577567,45.443239],[46.577223,45.429923],[46.625217,45.43882],[46.638665,45.480541],[46.664268,45.477547],[46.699131,45.477203],[46.737626,45.480026],[46.790637,45.474425],[46.821207,45.454137],[46.810529,45.400722],[46.821274,45.399229],[46.800977,45.343115],[46.806648,45.339832]]],[[[46.961402,45.720346],[46.937732,45.719035],[46.937644,45.769034],[46.98459,45.780855],[46.961402,45.720346]]],[[[47.015105,46.092902],[47.034711,46.101464],[47.077027,46.10062],[47.088361,46.108007],[47.110873,46.110064],[47.115159,46.114283],[47.1244,46.114442],[47.128939,46.112512],[47.132728,46.094183],[47.12909,46.068962],[47.116645,46.053704],[47.103884,46.052972],[47.008101,46.055658],[47.006272,46.074497],[47.015105,46.092902]]]]}}],"metadata":{"source_en":"Updated consolidated GeoJSON supplied by the instructor","source_zh":"教师提供的更新版合并GeoJSON","license_en":"Source-dataset terms were not specified; use within the author-created educational platform","license_zh":"原始数据集未注明许可条款；仅用于本作者教育平台"}}