{"type":"FeatureCollection","features":[{"type":"Feature","id":"147167-849","properties":{"id":"147167-849","name":"городской округ Биробиджан","name_ru":"городской округ Биробиджан","subject_id":"147167","subject_name":"Еврейская автономная область","source_gid":849,"source_fid":951,"names_rosstat":"Городской округ г Биробиджан","population":67212,"area_km2":169.36854907939917,"density_km2":396.8387304805412,"source":"Актуализированный объединённый GeoJSON, предоставленный преподавателем","name_en":"Birobidzhan Urban Okrug","name_zh":"Birobidzhan城市辖区","subject_name_en":"Jewish Autonomous Oblast","subject_name_zh":"犹太自治州"},"geometry":{"type":"Polygon","coordinates":[[[132.778214,48.736631],[132.786352,48.729783],[132.791411,48.729285],[132.804406,48.730792],[132.821778,48.728073],[132.840846,48.731399],[132.840393,48.734097],[132.841947,48.735412],[132.849729,48.736681],[132.853746,48.734875],[132.854447,48.737036],[132.857448,48.737631],[132.858864,48.735402],[132.864567,48.732761],[132.876837,48.729846],[132.881387,48.731402],[132.88278,48.728436],[132.889262,48.725913],[132.88776,48.72389],[132.889656,48.721807],[132.895857,48.719676],[132.895333,48.716736],[132.896926,48.716167],[132.894204,48.714679],[132.900249,48.711711],[132.902085,48.704789],[132.904895,48.70684],[132.906384,48.706535],[132.905596,48.704838],[132.909539,48.705087],[132.914782,48.709679],[132.917371,48.708588],[132.916373,48.706029],[132.920336,48.699577],[132.925046,48.698111],[132.929744,48.701329],[132.930375,48.707553],[132.928814,48.71114],[132.930978,48.712368],[132.926668,48.714473],[132.92664,48.717707],[132.930368,48.71941],[132.935839,48.716573],[132.937963,48.718013],[132.939377,48.722247],[132.936631,48.72576],[132.936499,48.729304],[132.938666,48.731037],[132.935094,48.732273],[132.938854,48.73437],[132.939243,48.736573],[132.935884,48.740601],[132.935834,48.745058],[132.933395,48.745213],[132.935558,48.758298],[132.944793,48.762209],[132.946618,48.765116],[132.953849,48.754707],[132.956658,48.756],[132.957876,48.754438],[132.971942,48.755581],[132.99315,48.74932],[132.996077,48.747222],[132.995188,48.745662],[132.996221,48.746017],[132.996878,48.743362],[133.000234,48.743647],[133.008103,48.740773],[133.009007,48.738864],[133.005159,48.738726],[133.006192,48.73674],[133.013118,48.738116],[133.014373,48.736206],[133.016169,48.737083],[133.022365,48.733504],[133.020745,48.732146],[133.018113,48.733722],[133.016304,48.732106],[133.019605,48.729479],[133.022649,48.72951],[133.021474,48.727609],[133.019395,48.727435],[133.020995,48.725311],[133.027023,48.727154],[133.037425,48.72617],[133.042178,48.72466],[133.042671,48.722564],[133.046107,48.723002],[133.048267,48.719889],[133.052002,48.718402],[133.053418,48.719485],[133.060739,48.718646],[133.061278,48.714479],[133.066559,48.714794],[133.073518,48.71832],[133.081312,48.726932],[133.082608,48.730579],[133.070995,48.731386],[133.050386,48.735882],[133.01893,48.751901],[133.046606,48.770357],[132.953019,48.817091],[132.935568,48.822134],[132.890028,48.867317],[132.87944,48.864655],[132.865649,48.85852],[132.862433,48.860504],[132.863849,48.858511],[132.861384,48.853718],[132.864446,48.849971],[132.854196,48.841513],[132.841922,48.836583],[132.843509,48.834042],[132.839028,48.828424],[132.836716,48.820227],[132.842388,48.817299],[132.840705,48.814443],[132.823787,48.806076],[132.825762,48.781726],[132.79836,48.781288],[132.799154,48.768133],[132.809415,48.762064],[132.800734,48.755345],[132.805298,48.754766],[132.810597,48.74086],[132.803313,48.738565],[132.791118,48.743363],[132.778214,48.736631]]]}},{"type":"Feature","id":"147167-850","properties":{"id":"147167-850","name":"Смидовичский район","name_ru":"Смидовичский район","subject_id":"147167","subject_name":"Еврейская автономная область","source_gid":850,"source_fid":952,"names_rosstat":"Смидовичский муниципальный район","population":21911,"area_km2":5633.489069936567,"density_km2":3.889419102085294,"source":"Актуализированный объединённый GeoJSON, предоставленный преподавателем","name_en":"Smidovichskii District","name_zh":"Smidovichskii区","subject_name_en":"Jewish Autonomous Oblast","subject_name_zh":"犹太自治州"},"geometry":{"type":"Polygon","coordinates":[[[133.092938,48.728196],[133.099044,48.700428],[133.115862,48.667694],[133.200014,48.621587],[133.216778,48.575372],[133.22918,48.532567],[133.24643,48.488626],[133.331529,48.356656],[133.341864,48.326563],[133.3494,48.30941],[133.3496,48.300328],[133.342583,48.265052],[133.298176,48.19691],[133.287177,48.177713],[133.2907,48.174309],[133.296306,48.146],[133.309762,48.098054],[133.348221,48.115211],[133.391526,48.123559],[133.412565,48.12124],[133.442829,48.110286],[133.464488,48.10912],[133.491746,48.117416],[133.522473,48.121542],[133.556634,48.13025],[133.565485,48.137375],[133.571691,48.154864],[133.574009,48.171123],[133.580243,48.188551],[133.586111,48.194358],[133.593398,48.198251],[133.603411,48.200848],[133.613649,48.199858],[133.677616,48.182179],[133.694331,48.182179],[133.703184,48.184287],[133.711626,48.187386],[133.716702,48.191525],[133.719342,48.196622],[133.721332,48.208216],[133.734334,48.227203],[133.738627,48.240824],[133.746404,48.256754],[133.767941,48.260289],[133.797835,48.259968],[133.806835,48.262218],[133.833836,48.275719],[133.877552,48.283112],[133.913553,48.292434],[133.936376,48.301755],[133.949555,48.304327],[133.972377,48.299827],[133.994119,48.30217],[134.007414,48.308827],[134.012878,48.321042],[134.01437,48.331248],[134.023847,48.339592],[134.034025,48.345081],[134.045048,48.346752],[134.055569,48.345818],[134.080925,48.337025],[134.096849,48.333223],[134.123154,48.33189],[134.139979,48.338244],[134.161603,48.36273],[134.188314,48.383718],[134.22234,48.385944],[134.270308,48.37903],[134.336819,48.378948],[134.384165,48.385913],[134.397562,48.386328],[134.408687,48.38817],[134.434445,48.398028],[134.470697,48.421878],[134.501258,48.425293],[134.510818,48.424763],[134.525912,48.417357],[134.544822,48.412629],[134.580724,48.40725],[134.620473,48.413928],[134.653368,48.413247],[134.688099,48.408073],[134.712604,48.398718],[134.727461,48.384513],[134.758197,48.366065],[134.766202,48.364045],[134.774359,48.374814],[134.808127,48.379386],[134.837656,48.388995],[134.851227,48.396609],[134.869694,48.410223],[134.874881,48.415745],[134.887813,48.432522],[134.885094,48.435657],[134.898232,48.442948],[134.901901,48.45308],[134.901528,48.46235],[134.909475,48.471529],[134.911123,48.47684],[134.917273,48.482477],[134.921925,48.494287],[134.937784,48.504154],[134.937478,48.51038],[134.939412,48.51347],[134.948433,48.51559],[134.954264,48.518665],[134.955899,48.517896],[134.955894,48.512365],[134.966521,48.512331],[134.982206,48.520712],[134.983655,48.523931],[134.988978,48.524074],[134.992891,48.526971],[134.987263,48.542036],[134.986605,48.550833],[134.978931,48.567945],[134.980393,48.577784],[134.977354,48.594614],[134.979368,48.60312],[134.965637,48.605388],[134.954015,48.62263],[134.948531,48.627114],[134.94324,48.626463],[134.924002,48.617156],[134.91921,48.618416],[134.90236,48.628692],[134.868725,48.636074],[134.865839,48.635209],[134.862829,48.631731],[134.863383,48.619495],[134.857751,48.613531],[134.840336,48.60894],[134.827705,48.602973],[134.820665,48.602028],[134.810842,48.603113],[134.808333,48.600556],[134.807142,48.595143],[134.802957,48.59214],[134.797878,48.59186],[134.789232,48.594389],[134.781573,48.59292],[134.778064,48.590454],[134.775726,48.578658],[134.768858,48.574008],[134.750997,48.573597],[134.735734,48.570419],[134.725795,48.572511],[134.716113,48.578061],[134.708451,48.584787],[134.691181,48.591956],[134.687492,48.594943],[134.6824,48.603079],[134.681023,48.612818],[134.676741,48.619738],[134.661374,48.625722],[134.655858,48.624829],[134.651721,48.621967],[134.651166,48.619944],[134.654334,48.61249],[134.650784,48.609345],[134.635423,48.608748],[134.622259,48.612266],[134.614063,48.612707],[134.585144,48.609069],[134.569247,48.600088],[134.564036,48.598476],[134.556261,48.599196],[134.552566,48.601805],[134.551954,48.607142],[134.558645,48.61385],[134.572387,48.617832],[134.579505,48.621498],[134.581126,48.627265],[134.578629,48.63086],[134.569846,48.633648],[134.555407,48.632205],[134.54804,48.634199],[134.538149,48.649521],[134.525614,48.654105],[134.522481,48.660185],[134.519477,48.662141],[134.511323,48.661376],[134.505777,48.652352],[134.501257,48.649327],[134.493687,48.65089],[134.493288,48.655478],[134.502321,48.662908],[134.50228,48.667078],[134.499018,48.670361],[134.490247,48.674517],[134.465017,48.677411],[134.461017,48.680864],[134.460446,48.687977],[134.462588,48.695108],[134.461388,48.699673],[134.45976,48.701768],[134.451817,48.704692],[134.450218,48.708012],[134.45116,48.710786],[134.458789,48.716804],[134.457504,48.721992],[134.449132,48.728426],[134.442502,48.729256],[134.435245,48.7262],[134.426929,48.71739],[134.420873,48.716426],[134.414815,48.718163],[134.411729,48.721955],[134.411502,48.725992],[134.416844,48.739689],[134.413673,48.743217],[134.407908,48.746204],[134.399825,48.745325],[134.374271,48.737973],[134.362283,48.727697],[134.356616,48.727724],[134.347005,48.730434],[134.342468,48.724155],[134.33986,48.723324],[134.336195,48.723554],[134.329024,48.727221],[134.31256,48.722785],[134.306392,48.723218],[134.301338,48.728178],[134.302512,48.734419],[134.300734,48.738752],[134.29562,48.741081],[134.289434,48.740384],[134.285888,48.735723],[134.285268,48.727742],[134.282982,48.723274],[134.261188,48.720523],[134.256129,48.718611],[134.252861,48.714891],[134.254173,48.712806],[134.252242,48.708965],[134.259972,48.705456],[134.261244,48.70385],[134.25794,48.701501],[134.258263,48.700295],[134.261949,48.699412],[134.254444,48.695588],[134.25495,48.691814],[134.263911,48.688069],[134.273305,48.676445],[134.273886,48.672548],[134.272697,48.670638],[134.265952,48.666304],[134.257715,48.666621],[134.256324,48.667935],[134.25651,48.67144],[134.258643,48.67551],[134.249523,48.675986],[134.24324,48.683001],[134.240562,48.683183],[134.236606,48.681458],[134.233262,48.676966],[134.221168,48.676505],[134.215738,48.674429],[134.214809,48.670661],[134.216695,48.668909],[134.228753,48.663835],[134.22774,48.660131],[134.224029,48.659883],[134.220983,48.662581],[134.217214,48.662633],[134.217266,48.657928],[134.208932,48.65902],[134.204652,48.653261],[134.199143,48.653867],[134.202414,48.659435],[134.201739,48.661609],[134.196799,48.66338],[134.187511,48.657846],[134.184279,48.657873],[134.180217,48.660319],[134.171669,48.656715],[134.168353,48.660317],[134.166261,48.660947],[134.159905,48.658554],[134.154352,48.662256],[134.139756,48.657492],[134.128004,48.655934],[134.128091,48.653251],[134.137718,48.649844],[134.139302,48.647749],[134.138971,48.645382],[134.136972,48.644281],[134.123085,48.644663],[134.115052,48.651391],[134.109231,48.650697],[134.107879,48.648778],[134.110153,48.642877],[134.1147,48.640531],[134.116644,48.635344],[134.114455,48.632552],[134.09588,48.633703],[134.094643,48.637906],[134.088058,48.638539],[134.068721,48.649932],[134.066932,48.649118],[134.066563,48.643657],[134.064762,48.641831],[134.056028,48.639834],[134.054293,48.637768],[134.046514,48.63543],[134.039693,48.635492],[134.036394,48.638435],[134.037388,48.641189],[134.047064,48.642729],[134.048775,48.644559],[134.047384,48.647716],[134.042959,48.647494],[134.035037,48.64284],[134.031251,48.642708],[134.027642,48.644355],[134.023278,48.649249],[134.00428,48.647042],[134.003048,48.640963],[134.000889,48.639886],[133.995872,48.641243],[133.992061,48.646505],[133.984749,48.647318],[133.977848,48.644747],[133.97177,48.638379],[133.96242,48.637447],[133.959035,48.639474],[133.959348,48.641143],[133.968758,48.644942],[133.970832,48.646288],[133.970774,48.647973],[133.966456,48.650386],[133.967889,48.659627],[133.966576,48.661466],[133.961223,48.662489],[133.95884,48.6618],[133.956756,48.658079],[133.957783,48.65561],[133.964184,48.650831],[133.962172,48.646316],[133.955625,48.645806],[133.952542,48.653956],[133.948899,48.655647],[133.943471,48.655138],[133.94019,48.652904],[133.940698,48.648181],[133.934109,48.639607],[133.925349,48.635529],[133.923106,48.636268],[133.922383,48.639566],[133.929485,48.641191],[133.931235,48.643046],[133.930965,48.64563],[133.927019,48.647284],[133.913223,48.642877],[133.912074,48.644114],[133.914523,48.647028],[133.913847,48.649283],[133.902883,48.650197],[133.902578,48.652437],[133.905969,48.658131],[133.902691,48.66129],[133.890114,48.661776],[133.876354,48.669338],[133.871333,48.669947],[133.8706,48.667009],[133.877261,48.665588],[133.875534,48.658536],[133.873985,48.656424],[133.866082,48.655027],[133.864912,48.657601],[133.87184,48.659732],[133.871843,48.661315],[133.865028,48.661901],[133.853577,48.665552],[133.856429,48.680425],[133.85362,48.680742],[133.848251,48.677752],[133.834238,48.679678],[133.832125,48.681796],[133.831045,48.68768],[133.825917,48.69032],[133.822588,48.689124],[133.821389,48.685958],[133.816857,48.682338],[133.811196,48.682525],[133.809811,48.683672],[133.810625,48.687498],[133.819544,48.694794],[133.82053,48.698068],[133.809582,48.70006],[133.805635,48.704135],[133.804587,48.708038],[133.805456,48.711664],[133.817164,48.716023],[133.816716,48.719159],[133.813603,48.72023],[133.808642,48.717617],[133.799982,48.716989],[133.798017,48.715983],[133.796649,48.711833],[133.789141,48.711503],[133.788244,48.713866],[133.794726,48.715971],[133.796413,48.717979],[133.786736,48.720807],[133.792819,48.725007],[133.793287,48.727561],[133.782968,48.726011],[133.782303,48.728464],[133.786601,48.735113],[133.78372,48.737856],[133.769491,48.736121],[133.763488,48.737508],[133.761956,48.741085],[133.763685,48.742745],[133.767919,48.743213],[133.767901,48.744599],[133.762801,48.749215],[133.759577,48.748359],[133.759073,48.741452],[133.755086,48.734887],[133.751682,48.733692],[133.748924,48.735389],[133.748743,48.732675],[133.746456,48.732225],[133.744677,48.734773],[133.738935,48.734169],[133.733717,48.738342],[133.729248,48.745701],[133.72911,48.750605],[133.727344,48.750926],[133.731615,48.753372],[133.728042,48.754361],[133.726694,48.757533],[133.719069,48.760024],[133.711828,48.760222],[133.70826,48.753292],[133.710267,48.748361],[133.715098,48.743214],[133.717763,48.734941],[133.716346,48.730199],[133.713349,48.727749],[133.70584,48.72583],[133.701954,48.718665],[133.691806,48.717299],[133.686337,48.7196],[133.683841,48.723314],[133.687066,48.728229],[133.69379,48.728945],[133.701455,48.733332],[133.702957,48.735795],[133.703995,48.740502],[133.697165,48.74667],[133.690419,48.74655],[133.680013,48.740046],[133.66474,48.742349],[133.658952,48.746097],[133.647514,48.744581],[133.644682,48.74227],[133.644678,48.739797],[133.643011,48.739567],[133.639523,48.741489],[133.633746,48.739693],[133.625282,48.743646],[133.621809,48.740867],[133.623019,48.736117],[133.621995,48.733932],[133.610732,48.732652],[133.603916,48.736636],[133.597152,48.733839],[133.59898,48.731737],[133.598253,48.730331],[133.593551,48.731262],[133.589277,48.729503],[133.577812,48.735848],[133.576965,48.739692],[133.58018,48.742137],[133.577718,48.7455],[133.574078,48.745794],[133.570692,48.743108],[133.565438,48.742921],[133.559187,48.747424],[133.557102,48.745874],[133.551192,48.747543],[133.553586,48.750021],[133.558711,48.751253],[133.558288,48.757306],[133.556654,48.759103],[133.546739,48.761178],[133.545023,48.76372],[133.538783,48.766737],[133.525895,48.764919],[133.522163,48.765858],[133.520611,48.771906],[133.532072,48.778629],[133.528844,48.784348],[133.50623,48.783504],[133.503208,48.785701],[133.500902,48.791325],[133.493759,48.797081],[133.494142,48.802364],[133.486642,48.808193],[133.487188,48.811268],[133.486016,48.81429],[133.482106,48.816942],[133.482393,48.820146],[133.477991,48.822341],[133.469937,48.823011],[133.463447,48.829097],[133.404043,48.833351],[133.281351,48.848458],[133.282003,48.850815],[133.27956,48.854954],[133.279634,48.857927],[133.282273,48.859258],[133.280488,48.861586],[133.282279,48.863543],[133.279644,48.866499],[133.280081,48.868447],[133.285002,48.871121],[133.285287,48.874444],[133.279632,48.876916],[133.27972,48.878996],[133.253603,48.911513],[133.223593,48.961117],[133.222158,48.960684],[133.223819,48.959257],[133.221119,48.956824],[133.221833,48.95495],[133.218276,48.95328],[133.216345,48.955519],[133.211793,48.953318],[133.210814,48.95078],[133.203641,48.949095],[133.203188,48.9481],[133.205476,48.947558],[133.20325,48.946699],[133.205033,48.946002],[133.203445,48.943802],[133.200189,48.943754],[133.201539,48.940884],[133.200343,48.939821],[133.199077,48.941828],[133.198684,48.940194],[133.196994,48.940187],[133.199643,48.937608],[133.194057,48.937012],[133.19418,48.938684],[133.193026,48.938447],[133.18737,48.9307],[133.183567,48.929509],[133.182515,48.926171],[133.17965,48.925866],[133.181174,48.927297],[133.178914,48.927785],[133.178426,48.925832],[133.180503,48.924118],[133.177114,48.923691],[133.182412,48.922092],[133.176349,48.92146],[133.179308,48.920119],[133.177536,48.917975],[133.175442,48.919669],[133.17449,48.918547],[133.176273,48.914466],[133.17312,48.913186],[133.179352,48.912909],[133.175133,48.909592],[133.172229,48.909859],[133.173129,48.907363],[133.170199,48.907875],[133.170301,48.904254],[133.172422,48.902802],[133.169864,48.899919],[133.175891,48.900508],[133.178259,48.897911],[133.176743,48.895822],[133.180438,48.897174],[133.178223,48.892723],[133.182671,48.890188],[133.180001,48.888006],[133.172117,48.888561],[133.171262,48.887409],[133.175838,48.883214],[133.177713,48.883763],[133.178126,48.885735],[133.17995,48.884163],[133.182114,48.885735],[133.185751,48.884783],[133.183,48.883075],[133.182917,48.879741],[133.188967,48.874711],[133.180949,48.873342],[133.181463,48.871591],[133.184182,48.870937],[133.183745,48.869729],[133.175714,48.867687],[133.179999,48.866738],[133.180305,48.864446],[133.177739,48.863228],[133.177507,48.861244],[133.174418,48.862942],[133.170518,48.859379],[133.172441,48.856818],[133.181537,48.85515],[133.177387,48.852885],[133.168282,48.853764],[133.171684,48.848907],[133.172296,48.845127],[133.179179,48.842965],[133.18005,48.840312],[133.182367,48.839295],[133.179323,48.837427],[133.178214,48.840629],[133.174429,48.840743],[133.171903,48.842758],[133.171072,48.840878],[133.177019,48.837981],[133.176756,48.836475],[133.164831,48.835059],[133.170391,48.832439],[133.165773,48.831518],[133.167302,48.828647],[133.164054,48.826833],[133.16407,48.825395],[133.167887,48.824873],[133.167907,48.823075],[133.169801,48.824163],[133.16955,48.822184],[133.17487,48.82104],[133.170108,48.820927],[133.17109,48.818234],[133.166591,48.818932],[133.166777,48.814347],[133.16145,48.81612],[133.163527,48.812893],[133.15808,48.813226],[133.157029,48.809894],[133.160457,48.807482],[133.158568,48.806035],[133.160892,48.805057],[133.157911,48.803963],[133.155042,48.805028],[133.152339,48.803396],[133.158633,48.80019],[133.155113,48.798644],[133.155262,48.797476],[133.159619,48.797137],[133.158965,48.794796],[133.162767,48.795444],[133.161566,48.79328],[133.15872,48.792367],[133.166123,48.787097],[133.165195,48.784934],[133.171887,48.782358],[133.164315,48.778276],[133.162855,48.775031],[133.165726,48.773696],[133.147811,48.770642],[133.110722,48.745543],[133.115692,48.739005],[133.095707,48.731134],[133.092938,48.728196]]]}},{"type":"Feature","id":"147167-851","properties":{"id":"147167-851","name":"Октябрьский район","name_ru":"Октябрьский район","subject_id":"147167","subject_name":"Еврейская автономная область","source_gid":851,"source_fid":953,"names_rosstat":"Октябрьский муниципальный район","population":7351,"area_km2":6354.908223971994,"density_km2":1.1567436917925182,"source":"Актуализированный объединённый GeoJSON, предоставленный преподавателем","name_en":"Oktiabr'skii District","name_zh":"Oktiabr'skii区","subject_name_en":"Jewish Autonomous Oblast","subject_name_zh":"犹太自治州"},"geometry":{"type":"Polygon","coordinates":[[[131.701854,48.133212],[131.705838,48.132026],[131.70787,48.129704],[131.709637,48.123438],[131.708471,48.122759],[131.710747,48.121152],[131.71036,48.119568],[131.713929,48.118708],[131.711887,48.117223],[131.715258,48.116927],[131.715807,48.113859],[131.718852,48.111978],[131.725448,48.111499],[131.726465,48.109875],[131.724664,48.108963],[131.725987,48.106901],[131.733921,48.107351],[131.736759,48.10984],[131.74114,48.107694],[131.738161,48.105472],[131.743523,48.104174],[131.744407,48.102214],[131.752289,48.103281],[131.753818,48.10109],[131.750213,48.099043],[131.751696,48.096683],[131.750197,48.096149],[131.753346,48.095348],[131.753189,48.093776],[131.755737,48.092292],[131.755682,48.089553],[131.759197,48.086107],[131.758155,48.085372],[131.759428,48.084082],[131.758339,48.08412],[131.764074,48.081708],[131.761159,48.079501],[131.762598,48.077127],[131.760087,48.076223],[131.762551,48.074768],[131.756449,48.071437],[131.757547,48.070809],[131.756551,48.069217],[131.753286,48.069372],[131.752897,48.06776],[131.755054,48.066631],[131.750729,48.065125],[131.751452,48.063601],[131.749425,48.062776],[131.750788,48.060769],[131.753515,48.060955],[131.754407,48.058418],[131.752052,48.056908],[131.758686,48.054558],[131.756914,48.053956],[131.758344,48.052145],[131.752545,48.051214],[131.75173,48.052331],[131.74999,48.050141],[131.75146,48.049327],[131.749009,48.047172],[131.746164,48.048406],[131.743839,48.046263],[131.73997,48.046536],[131.742105,48.045393],[131.740273,48.043822],[131.742552,48.043689],[131.738923,48.042303],[131.739509,48.041216],[131.737609,48.0415],[131.737183,48.038989],[131.739163,48.038564],[131.737695,48.037354],[131.733993,48.038624],[131.734453,48.03751],[131.732185,48.037193],[131.732986,48.036385],[131.728484,48.036368],[131.725527,48.033964],[131.721126,48.035927],[131.721272,48.033706],[131.719089,48.03343],[131.718532,48.031693],[131.720475,48.031465],[131.717951,48.029801],[131.718853,48.026632],[131.712744,48.025716],[131.714353,48.025604],[131.713282,48.024321],[131.714275,48.022626],[131.71261,48.022065],[131.713883,48.021815],[131.711666,48.021918],[131.711325,48.020545],[131.706777,48.02241],[131.706879,48.021187],[131.70425,48.020493],[131.705441,48.019275],[131.702326,48.018388],[131.704164,48.016012],[131.700489,48.017533],[131.697568,48.01472],[131.703412,48.012774],[131.701423,48.008351],[131.704871,48.008055],[131.702023,48.006871],[131.703008,48.004727],[131.700857,48.003874],[131.704491,48.003534],[131.702225,48.002093],[131.70473,48.000708],[131.704121,47.999449],[131.707911,47.999613],[131.709556,47.995974],[131.70932,47.994543],[131.708524,47.995604],[131.706321,47.994134],[131.708409,47.992837],[131.707119,47.991022],[131.705155,47.992275],[131.706583,47.990366],[131.703588,47.987976],[131.706123,47.987069],[131.707753,47.988095],[131.706624,47.985899],[131.707862,47.985017],[131.705075,47.98365],[131.707503,47.98155],[131.70564,47.97929],[131.705394,47.980641],[131.703319,47.980434],[131.703983,47.977942],[131.702734,47.977179],[131.70629,47.978315],[131.707204,47.97686],[131.705425,47.976805],[131.705456,47.975133],[131.70381,47.976538],[131.704032,47.975005],[131.701673,47.975222],[131.697745,47.972108],[131.697363,47.969583],[131.699216,47.970284],[131.699717,47.96806],[131.698604,47.967774],[131.699999,47.967467],[131.696999,47.965849],[131.697059,47.963502],[131.694582,47.962961],[131.696661,47.961244],[131.694249,47.961911],[131.696209,47.959435],[131.69457,47.958972],[131.696535,47.957887],[131.696544,47.956117],[131.699994,47.956158],[131.698911,47.957502],[131.70362,47.95888],[131.702632,47.956388],[131.704574,47.956259],[131.705003,47.957955],[131.706781,47.9569],[131.705977,47.95421],[131.707261,47.953567],[131.705257,47.95371],[131.708106,47.951845],[131.718717,47.89404],[131.723808,47.887392],[131.720612,47.884546],[131.727152,47.867146],[131.735953,47.834839],[131.742875,47.824185],[131.746544,47.814626],[131.757658,47.799044],[131.772542,47.783734],[131.788434,47.771308],[131.806712,47.769759],[131.813984,47.765896],[131.819752,47.764844],[131.829598,47.766519],[131.846792,47.766028],[131.855683,47.762118],[131.858733,47.758688],[131.859373,47.754621],[131.858336,47.753873],[131.860075,47.753406],[131.859235,47.750253],[131.856941,47.74911],[131.859302,47.747569],[131.857023,47.747128],[131.85817,47.74626],[131.856199,47.74472],[131.858059,47.745024],[131.85604,47.74312],[131.857196,47.741731],[131.853213,47.742375],[131.852445,47.740556],[131.855381,47.736776],[131.864962,47.733224],[131.870232,47.728662],[131.87049,47.7262],[131.866992,47.71855],[131.869619,47.711218],[131.875783,47.707742],[131.895129,47.709413],[131.90417,47.707527],[131.907967,47.700566],[131.909865,47.688885],[131.900303,47.69],[131.866933,47.673412],[131.828313,47.666687],[131.812213,47.667169],[131.788539,47.673],[131.76482,47.682039],[131.736017,47.703348],[131.71014,47.708472],[131.689611,47.705262],[131.676651,47.701445],[131.662741,47.689571],[131.645113,47.66827],[131.621976,47.656885],[131.594433,47.656518],[131.582297,47.658624],[131.566598,47.665221],[131.552229,47.682538],[131.55467,47.697043],[131.554115,47.71401],[131.547516,47.72664],[131.521356,47.736519],[131.489583,47.736832],[131.452666,47.74309],[131.424849,47.743379],[131.386791,47.730836],[131.36602,47.726682],[131.318419,47.728207],[131.254649,47.734781],[131.207315,47.720318],[131.175101,47.695335],[131.089526,47.683168],[131.059057,47.686695],[131.026469,47.687943],[130.993733,47.696167],[130.967455,47.708645],[130.957495,47.720318],[130.951578,47.750559],[130.951578,47.814986],[130.949798,47.825461],[130.942503,47.833553],[130.880451,47.91782],[130.863971,47.936225],[130.740977,48.005559],[130.732756,48.022625],[130.723829,48.032068],[130.690656,48.040189],[130.681708,48.047189],[130.676174,48.062232],[130.678092,48.074488],[130.676022,48.081376],[130.656152,48.095251],[130.653706,48.107718],[130.667267,48.131726],[130.691299,48.146446],[130.723847,48.171703],[130.746774,48.181241],[130.752248,48.190111],[130.749618,48.214304],[130.76224,48.234816],[130.76487,48.247438],[130.777493,48.255327],[130.796952,48.258483],[130.806945,48.266898],[130.814308,48.283202],[130.830086,48.293195],[130.835647,48.301678],[130.819682,48.319717],[130.819854,48.335125],[130.809554,48.343911],[130.776767,48.351783],[130.76632,48.358488],[130.748531,48.405803],[130.73206,48.430258],[130.729765,48.437463],[130.730648,48.443788],[130.733803,48.448871],[130.741688,48.445794],[130.753981,48.450285],[130.773581,48.45289],[130.781169,48.457747],[130.787507,48.458459],[130.798065,48.45702],[130.805911,48.462675],[130.817002,48.463214],[130.825518,48.467348],[130.831332,48.466712],[130.837416,48.468234],[130.839179,48.471017],[130.837839,48.476146],[130.842705,48.478571],[130.857151,48.469029],[130.857543,48.464885],[130.865222,48.454368],[130.880506,48.453447],[130.887931,48.449392],[130.894539,48.44875],[130.899401,48.445061],[130.90086,48.438949],[130.905435,48.431384],[130.903389,48.426274],[130.904597,48.421945],[130.91079,48.415287],[130.918843,48.415261],[130.925227,48.406329],[130.935517,48.405101],[130.943553,48.413575],[130.943786,48.415611],[130.941272,48.418915],[130.955448,48.421441],[130.954332,48.426388],[130.956346,48.428899],[130.954117,48.430101],[130.953909,48.431994],[130.963019,48.43407],[130.965804,48.436959],[130.97722,48.430448],[130.976756,48.42749],[130.97956,48.420382],[130.98319,48.416419],[130.991295,48.416492],[131.006634,48.427001],[131.00171,48.43724],[131.008697,48.444457],[131.018875,48.437281],[131.028199,48.435949],[131.038722,48.440823],[131.042621,48.446319],[131.048166,48.444983],[131.054876,48.453799],[131.068122,48.454279],[131.075274,48.45923],[131.081897,48.460853],[131.089187,48.461223],[131.086507,48.455739],[131.087188,48.453587],[131.089623,48.452597],[131.09637,48.455124],[131.106503,48.456305],[131.118666,48.456499],[131.129895,48.454353],[131.139056,48.465422],[131.148249,48.467587],[131.166371,48.460323],[131.171778,48.461223],[131.189334,48.476335],[131.195336,48.483326],[131.197384,48.483398],[131.196562,48.485998],[131.200996,48.492373],[131.208404,48.495064],[131.212029,48.498968],[131.215139,48.498759],[131.215422,48.500318],[131.221708,48.500377],[131.221446,48.501891],[131.226128,48.503195],[131.227636,48.506123],[131.235002,48.504375],[131.239184,48.505818],[131.240137,48.508507],[131.242233,48.508866],[131.242253,48.510748],[131.257492,48.515932],[131.25786,48.51882],[131.26041,48.52027],[131.265253,48.520373],[131.267218,48.522108],[131.26641,48.525738],[131.272183,48.530821],[131.270573,48.533177],[131.27571,48.536128],[131.275829,48.53992],[131.289742,48.544514],[131.289273,48.545908],[131.292251,48.549197],[131.29717,48.551728],[131.298432,48.551595],[131.298864,48.548462],[131.302612,48.54865],[131.304976,48.546531],[131.31021,48.547138],[131.308855,48.548958],[131.304855,48.548696],[131.306752,48.553349],[131.305315,48.559313],[131.309942,48.562057],[131.311395,48.564829],[131.30585,48.568847],[131.310807,48.57075],[131.307721,48.576394],[131.309478,48.577064],[131.31016,48.582862],[131.317203,48.588949],[131.31741,48.592528],[131.321011,48.596066],[131.320973,48.597822],[131.314153,48.604965],[131.315194,48.608793],[131.3334,48.609739],[131.336666,48.611954],[131.341912,48.610827],[131.343857,48.612531],[131.345244,48.611217],[131.35835,48.612382],[131.371752,48.618246],[131.372957,48.61699],[131.374968,48.619748],[131.385126,48.621795],[131.392914,48.618447],[131.396592,48.614183],[131.402499,48.612663],[131.405871,48.612868],[131.40558,48.616282],[131.425692,48.618169],[131.443334,48.611498],[131.452928,48.617025],[131.454499,48.619024],[131.454309,48.622006],[131.458145,48.624761],[131.466434,48.620944],[131.478219,48.620925],[131.478848,48.623614],[131.484023,48.623608],[131.482947,48.62529],[131.490543,48.628974],[131.498908,48.626754],[131.496609,48.625981],[131.496621,48.624047],[131.503693,48.625161],[131.503061,48.622991],[131.505422,48.622077],[131.511751,48.624444],[131.512172,48.622606],[131.514753,48.622531],[131.514646,48.624004],[131.517012,48.623412],[131.51636,48.622254],[131.518732,48.623665],[131.521503,48.623059],[131.522925,48.620856],[131.521431,48.617413],[131.522652,48.616841],[131.524775,48.617373],[131.524383,48.618797],[131.527925,48.618168],[131.528633,48.621184],[131.532874,48.622501],[131.548178,48.623389],[131.562781,48.631135],[131.564825,48.634196],[131.569962,48.63465],[131.584561,48.644639],[131.589984,48.643373],[131.586883,48.641992],[131.589066,48.639892],[131.588744,48.638306],[131.615393,48.633996],[131.617971,48.632374],[131.614993,48.631751],[131.615262,48.630218],[131.625053,48.625463],[131.636573,48.626201],[131.649877,48.62018],[131.653392,48.622343],[131.658814,48.622172],[131.66167,48.619648],[131.661136,48.617138],[131.669267,48.613839],[131.668679,48.612313],[131.672494,48.61253],[131.673083,48.610637],[131.678993,48.608406],[131.676422,48.608531],[131.676478,48.607316],[131.682434,48.6071],[131.684689,48.603604],[131.692715,48.602046],[131.690275,48.600841],[131.69209,48.599248],[131.695306,48.601462],[131.702887,48.598105],[131.703305,48.59459],[131.707237,48.590918],[131.720352,48.588663],[131.716726,48.587446],[131.720894,48.586258],[131.719941,48.585357],[131.720959,48.58475],[131.726006,48.586421],[131.725458,48.588308],[131.727088,48.588042],[131.727912,48.586438],[131.726429,48.585047],[131.731158,48.584891],[131.729906,48.583071],[131.734423,48.57846],[131.732332,48.576661],[131.734856,48.57558],[131.734847,48.572973],[131.739079,48.568444],[131.747334,48.57052],[131.768872,48.566912],[131.767232,48.563317],[131.77334,48.553429],[131.773746,48.549562],[131.704568,48.426417],[131.670409,48.348289],[131.670952,48.34577],[131.682236,48.344355],[131.691734,48.282337],[131.692315,48.270813],[131.696435,48.251967],[131.700119,48.200575],[131.696182,48.186827],[131.698563,48.185051],[131.69545,48.182605],[131.698266,48.180516],[131.696973,48.178757],[131.701774,48.177297],[131.699695,48.171808],[131.696428,48.169981],[131.698302,48.168069],[131.697713,48.165812],[131.694781,48.165036],[131.693347,48.162506],[131.695851,48.159478],[131.694605,48.158014],[131.696561,48.157112],[131.694611,48.155007],[131.701084,48.15217],[131.702091,48.149984],[131.700664,48.148887],[131.703276,48.147206],[131.699526,48.146409],[131.698253,48.14458],[131.701585,48.142205],[131.699568,48.142026],[131.699411,48.140384],[131.702168,48.137551],[131.701854,48.133212]]]}},{"type":"Feature","id":"147167-852","properties":{"id":"147167-852","name":"Облученский район","name_ru":"Облученский район","subject_id":"147167","subject_name":"Еврейская автономная область","source_gid":852,"source_fid":954,"names_rosstat":"Облученский муниципальный район","population":23045,"area_km2":13257.807996877984,"density_km2":1.7382209793222796,"source":"Актуализированный объединённый GeoJSON, предоставленный преподавателем","name_en":"Obluchenskii District","name_zh":"Obluchenskii区","subject_name_en":"Jewish Autonomous Oblast","subject_name_zh":"犹太自治州"},"geometry":{"type":"Polygon","coordinates":[[[132.624036,48.860366],[132.615628,48.856779],[132.616463,48.852826],[132.613525,48.8462],[132.604183,48.844504],[132.601776,48.841648],[132.608832,48.836196],[132.609419,48.833173],[132.615026,48.827776],[132.6179,48.821914],[132.617128,48.819047],[132.621388,48.817022],[132.630317,48.816612],[132.632496,48.809129],[132.641255,48.807389],[132.648629,48.799338],[132.652543,48.792654],[132.651625,48.789897],[132.660614,48.786397],[132.662226,48.783206],[132.668677,48.779249],[132.669361,48.773629],[132.668205,48.77044],[132.669581,48.764968],[132.666351,48.762389],[132.67073,48.759802],[132.672107,48.757218],[132.669318,48.750443],[132.670328,48.74598],[132.673308,48.742259],[132.672085,48.735246],[132.674302,48.731828],[132.672467,48.728756],[132.679739,48.722162],[132.674835,48.719208],[132.678943,48.716813],[132.682001,48.706798],[132.676077,48.705788],[132.672324,48.702991],[132.682283,48.692378],[132.680471,48.687381],[132.690398,48.683124],[132.690373,48.678893],[132.683769,48.674902],[132.678706,48.675101],[132.671495,48.66987],[132.666798,48.671047],[132.657926,48.670444],[132.651756,48.666478],[132.645122,48.665084],[132.638266,48.657807],[132.631507,48.64693],[132.631579,48.643851],[132.628205,48.643215],[132.620006,48.637627],[132.60866,48.640589],[132.603331,48.637892],[132.59413,48.630753],[132.594628,48.62641],[132.591011,48.61905],[132.591908,48.617202],[132.582342,48.610023],[132.577264,48.609187],[132.577536,48.606589],[132.56537,48.606333],[132.558687,48.60298],[132.557557,48.595991],[132.551867,48.588464],[132.547778,48.589326],[132.545354,48.587475],[132.539563,48.586915],[132.538091,48.584955],[132.533153,48.584912],[132.532554,48.587795],[132.527156,48.591304],[132.51367,48.587501],[132.503507,48.591679],[132.482996,48.592504],[132.477422,48.598642],[132.472742,48.610294],[132.464787,48.609618],[132.460016,48.610523],[132.459348,48.61354],[132.457275,48.614192],[132.431637,48.617889],[132.419927,48.618152],[132.404907,48.61282],[132.416145,48.60199],[132.416506,48.597001],[132.409465,48.594741],[132.405791,48.590972],[132.397089,48.589874],[132.394154,48.587871],[132.383706,48.588749],[132.377768,48.585755],[132.363579,48.587094],[132.355995,48.590117],[132.335803,48.587019],[132.338047,48.582569],[132.316303,48.570768],[132.308642,48.570912],[132.303391,48.5669],[132.302853,48.564683],[132.304389,48.556018],[132.31343,48.548823],[132.315843,48.537583],[132.316601,48.528557],[132.314632,48.523123],[132.313898,48.513065],[132.318253,48.499509],[132.31607,48.493589],[132.325818,48.47676],[132.327103,48.466863],[132.341995,48.452669],[132.326734,48.442497],[132.314922,48.441803],[132.309543,48.436413],[132.303922,48.437815],[132.303851,48.43974],[132.299757,48.443052],[132.283315,48.442217],[132.258693,48.434701],[132.248823,48.433083],[132.242607,48.43441],[132.232863,48.433046],[132.220819,48.422165],[132.199047,48.430199],[132.190877,48.455225],[132.18392,48.465668],[132.17924,48.469679],[132.171997,48.471313],[132.158871,48.470951],[132.139765,48.462081],[132.121532,48.458557],[132.107089,48.452877],[132.094932,48.451783],[132.087762,48.454469],[132.06916,48.479606],[132.03394,48.49188],[132.031912,48.495987],[132.027301,48.499034],[132.028931,48.499956],[132.02135,48.497677],[132.005223,48.507476],[131.974352,48.493251],[131.954244,48.48791],[131.953642,48.489603],[131.955212,48.490958],[131.953597,48.493613],[131.949914,48.494947],[131.947695,48.50053],[131.949328,48.502155],[131.948695,48.503352],[131.942316,48.500171],[131.939325,48.50607],[131.935686,48.504395],[131.929187,48.505301],[131.931292,48.508074],[131.929041,48.509488],[131.922653,48.506675],[131.922625,48.503962],[131.916116,48.505815],[131.923278,48.512595],[131.918072,48.512781],[131.917945,48.514222],[131.913071,48.516332],[131.906294,48.515248],[131.907951,48.518142],[131.906425,48.51956],[131.899988,48.517131],[131.900966,48.516816],[131.899213,48.516903],[131.897617,48.518185],[131.896797,48.516404],[131.893059,48.517188],[131.8897,48.512907],[131.887018,48.512348],[131.886975,48.515084],[131.87843,48.51719],[131.873443,48.523438],[131.874996,48.525518],[131.872086,48.524954],[131.870288,48.52804],[131.86711,48.527565],[131.867969,48.525744],[131.864868,48.525153],[131.863871,48.52701],[131.859421,48.52683],[131.858561,48.53012],[131.854416,48.530851],[131.854451,48.534684],[131.845036,48.534213],[131.844051,48.535793],[131.845867,48.538901],[131.838017,48.541493],[131.835614,48.547928],[131.830178,48.550565],[131.823369,48.552253],[131.822113,48.550982],[131.823564,48.548074],[131.819623,48.547567],[131.81327,48.554672],[131.795266,48.557378],[131.793097,48.554593],[131.789441,48.554684],[131.77496,48.564037],[131.767532,48.562975],[131.768872,48.566912],[131.747334,48.57052],[131.739079,48.568444],[131.734847,48.572973],[131.734856,48.57558],[131.732332,48.576661],[131.734423,48.57846],[131.729906,48.583071],[131.731158,48.584891],[131.726429,48.585047],[131.727912,48.586438],[131.727088,48.588042],[131.725458,48.588308],[131.726006,48.586421],[131.720959,48.58475],[131.719941,48.585357],[131.720894,48.586258],[131.716726,48.587446],[131.720352,48.588663],[131.707237,48.590918],[131.703305,48.59459],[131.702887,48.598105],[131.695306,48.601462],[131.69209,48.599248],[131.690275,48.600841],[131.692715,48.602046],[131.684689,48.603604],[131.682434,48.6071],[131.676478,48.607316],[131.676422,48.608531],[131.678993,48.608406],[131.673083,48.610637],[131.672494,48.61253],[131.668679,48.612313],[131.669267,48.613839],[131.661136,48.617138],[131.66167,48.619648],[131.658814,48.622172],[131.653392,48.622343],[131.649877,48.62018],[131.636573,48.626201],[131.625053,48.625463],[131.615262,48.630218],[131.614993,48.631751],[131.617971,48.632374],[131.615393,48.633996],[131.588744,48.638306],[131.589066,48.639892],[131.586883,48.641992],[131.589984,48.643373],[131.584561,48.644639],[131.569962,48.63465],[131.564825,48.634196],[131.562781,48.631135],[131.548178,48.623389],[131.532874,48.622501],[131.528633,48.621184],[131.527925,48.618168],[131.524383,48.618797],[131.524775,48.617373],[131.522652,48.616841],[131.521431,48.617413],[131.522925,48.620856],[131.521503,48.623059],[131.518732,48.623665],[131.51636,48.622254],[131.517012,48.623412],[131.514646,48.624004],[131.514753,48.622531],[131.512172,48.622606],[131.511751,48.624444],[131.505422,48.622077],[131.503061,48.622991],[131.503693,48.625161],[131.496621,48.624047],[131.496609,48.625981],[131.498908,48.626754],[131.490543,48.628974],[131.482947,48.62529],[131.484023,48.623608],[131.478848,48.623614],[131.478219,48.620925],[131.466434,48.620944],[131.458145,48.624761],[131.454309,48.622006],[131.454499,48.619024],[131.452928,48.617025],[131.443334,48.611498],[131.425692,48.618169],[131.40558,48.616282],[131.405871,48.612868],[131.402499,48.612663],[131.396592,48.614183],[131.392914,48.618447],[131.385126,48.621795],[131.374968,48.619748],[131.372957,48.61699],[131.371752,48.618246],[131.35835,48.612382],[131.345244,48.611217],[131.343857,48.612531],[131.341912,48.610827],[131.336666,48.611954],[131.3334,48.609739],[131.315194,48.608793],[131.314153,48.604965],[131.320973,48.597822],[131.321011,48.596066],[131.31741,48.592528],[131.317203,48.588949],[131.31016,48.582862],[131.309478,48.577064],[131.307721,48.576394],[131.310807,48.57075],[131.30585,48.568847],[131.311395,48.564829],[131.309942,48.562057],[131.305315,48.559313],[131.306752,48.553349],[131.304855,48.548696],[131.308855,48.548958],[131.31021,48.547138],[131.304976,48.546531],[131.302612,48.54865],[131.298864,48.548462],[131.298432,48.551595],[131.29717,48.551728],[131.292251,48.549197],[131.289273,48.545908],[131.289742,48.544514],[131.275829,48.53992],[131.27571,48.536128],[131.270573,48.533177],[131.272183,48.530821],[131.26641,48.525738],[131.267218,48.522108],[131.265253,48.520373],[131.26041,48.52027],[131.25786,48.51882],[131.257492,48.515932],[131.242253,48.510748],[131.242233,48.508866],[131.240137,48.508507],[131.239184,48.505818],[131.235002,48.504375],[131.227636,48.506123],[131.226128,48.503195],[131.221446,48.501891],[131.221708,48.500377],[131.215422,48.500318],[131.215139,48.498759],[131.212029,48.498968],[131.208404,48.495064],[131.200996,48.492373],[131.196562,48.485998],[131.197384,48.483398],[131.195336,48.483326],[131.189334,48.476335],[131.171778,48.461223],[131.166371,48.460323],[131.148249,48.467587],[131.139056,48.465422],[131.129895,48.454353],[131.118666,48.456499],[131.106503,48.456305],[131.09637,48.455124],[131.089623,48.452597],[131.087188,48.453587],[131.086507,48.455739],[131.089187,48.461223],[131.081897,48.460853],[131.075274,48.45923],[131.068122,48.454279],[131.054876,48.453799],[131.048166,48.444983],[131.042621,48.446319],[131.038722,48.440823],[131.028199,48.435949],[131.018875,48.437281],[131.008697,48.444457],[131.00171,48.43724],[131.006634,48.427001],[130.991295,48.416492],[130.98319,48.416419],[130.97956,48.420382],[130.976756,48.42749],[130.97722,48.430448],[130.965804,48.436959],[130.963019,48.43407],[130.953909,48.431994],[130.954117,48.430101],[130.956346,48.428899],[130.954332,48.426388],[130.955448,48.421441],[130.941611,48.419138],[130.943786,48.415611],[130.941996,48.410567],[130.935517,48.405101],[130.928995,48.405469],[130.923541,48.407569],[130.918843,48.415261],[130.91079,48.415287],[130.904597,48.421945],[130.903389,48.426274],[130.905435,48.431384],[130.90086,48.438949],[130.899401,48.445061],[130.894539,48.44875],[130.887931,48.449392],[130.880506,48.453447],[130.865222,48.454368],[130.857543,48.464885],[130.857151,48.469029],[130.842705,48.478571],[130.837839,48.476146],[130.839179,48.471017],[130.837416,48.468234],[130.831332,48.466712],[130.825518,48.467348],[130.817002,48.463214],[130.805911,48.462675],[130.798065,48.45702],[130.787507,48.458459],[130.781169,48.457747],[130.773581,48.45289],[130.753981,48.450285],[130.741688,48.445794],[130.733803,48.448871],[130.759882,48.47603],[130.762489,48.483149],[130.762598,48.488236],[130.758197,48.497286],[130.743231,48.508674],[130.73473,48.512397],[130.717134,48.512425],[130.696955,48.505729],[130.660133,48.490332],[130.634596,48.487226],[130.625571,48.488468],[130.618044,48.492353],[130.610867,48.497452],[130.608368,48.501915],[130.606371,48.537442],[130.607408,48.565944],[130.60637,48.573684],[130.599435,48.585015],[130.594236,48.590277],[130.585213,48.595343],[130.532985,48.604695],[130.522792,48.612058],[130.521526,48.619889],[130.522084,48.625846],[130.525646,48.633618],[130.552407,48.669705],[130.563299,48.687722],[130.574497,48.707794],[130.5922,48.74512],[130.600231,48.758009],[130.606754,48.775045],[130.615715,48.788411],[130.640816,48.817453],[130.667608,48.837582],[130.681226,48.852384],[130.682053,48.865344],[130.675342,48.872916],[130.669346,48.877103],[130.653932,48.881827],[130.640159,48.88324],[130.629948,48.881976],[130.629907,48.8924],[130.627552,48.893993],[130.627539,48.896565],[130.629854,48.897804],[130.6306,48.89495],[130.633192,48.897565],[130.634743,48.897313],[130.635661,48.900675],[130.638021,48.902006],[130.63612,48.902965],[130.640526,48.90515],[130.640358,48.90656],[130.643548,48.906504],[130.643413,48.909243],[130.647175,48.91122],[130.653137,48.911229],[130.65438,48.91409],[130.651544,48.916546],[130.655118,48.916387],[130.655403,48.91881],[130.658105,48.918655],[130.660569,48.921045],[130.662532,48.919596],[130.67035,48.921326],[130.672682,48.925597],[130.679272,48.927412],[130.681312,48.927044],[130.68216,48.925002],[130.686265,48.926361],[130.698087,48.925633],[130.705593,48.929322],[130.705086,48.934577],[130.709489,48.936528],[130.70819,48.938508],[130.71207,48.940511],[130.715306,48.939233],[130.715131,48.941311],[130.723006,48.941547],[130.726155,48.945333],[130.733376,48.944348],[130.734677,48.946829],[130.748789,48.947487],[130.749778,48.948664],[130.746022,48.951727],[130.74151,48.960852],[130.759119,48.966011],[130.781291,48.97839],[130.782803,48.971627],[130.779984,48.969483],[130.785611,48.965058],[130.791823,48.964445],[130.805302,48.968222],[130.809074,48.97463],[130.814469,48.975288],[130.815155,48.978095],[130.819858,48.981636],[130.827251,48.982228],[130.827643,48.985652],[130.831855,48.987628],[130.837568,48.985642],[130.844404,48.986291],[130.846813,48.989833],[130.853726,48.989359],[130.863168,48.994055],[130.873304,48.98873],[130.884463,48.992288],[130.897532,48.992429],[130.900904,48.990559],[130.907662,48.989944],[130.909842,48.987915],[130.916101,48.987996],[130.931309,48.980245],[130.942474,48.982619],[130.94623,48.981443],[130.94705,48.979496],[130.954138,48.977928],[130.961567,48.979996],[130.973108,48.975476],[130.977803,48.977152],[130.983666,48.973651],[130.98538,48.97424],[130.984371,48.974869],[130.98539,48.976018],[130.987747,48.976156],[130.997723,48.97162],[131.00035,48.968719],[131.024864,48.968104],[131.03097,48.970303],[131.034735,48.973602],[131.045471,48.975405],[131.047321,48.977814],[131.04507,48.980918],[131.048943,48.989957],[131.04039,48.993313],[131.039352,48.998906],[131.02664,48.999281],[131.023171,49.003298],[131.023364,49.011954],[131.017819,49.019475],[131.022329,49.022708],[131.017543,49.030087],[131.018201,49.033492],[131.016445,49.036564],[131.025878,49.038847],[131.028715,49.041055],[131.022822,49.044697],[131.0221,49.046822],[131.027422,49.049547],[131.029685,49.0535],[131.030947,49.059719],[131.0299,49.06425],[131.033138,49.072943],[131.036194,49.074977],[131.040391,49.074793],[131.047684,49.078835],[131.045049,49.083757],[131.045751,49.090891],[131.049121,49.097633],[131.047524,49.104807],[131.060758,49.1156],[131.061113,49.120168],[131.059397,49.122694],[131.065541,49.136194],[131.065061,49.14401],[131.075885,49.15254],[131.073527,49.156035],[131.075272,49.161077],[131.069102,49.169405],[131.078877,49.181172],[131.079507,49.188047],[131.092556,49.194785],[131.106715,49.208538],[131.108041,49.214386],[131.1164,49.225596],[131.110254,49.231326],[131.110786,49.233218],[131.12415,49.23587],[131.133932,49.240975],[131.155179,49.243698],[131.160471,49.242861],[131.164085,49.236983],[131.172783,49.230722],[131.180486,49.228004],[131.205713,49.229874],[131.213422,49.235918],[131.224445,49.238915],[131.23846,49.246685],[131.239942,49.250775],[131.242893,49.25182],[131.268077,49.250081],[131.272375,49.255441],[131.27477,49.25612],[131.292132,49.255575],[131.290932,49.24811],[131.292185,49.244334],[131.29399,49.240971],[131.301218,49.235635],[131.308744,49.239244],[131.314233,49.238986],[131.317923,49.241649],[131.322223,49.24817],[131.329002,49.249895],[131.338734,49.257583],[131.351591,49.263008],[131.358617,49.260541],[131.361964,49.261507],[131.368514,49.257016],[131.379589,49.254289],[131.399686,49.257446],[131.409155,49.253643],[131.421342,49.255279],[131.437927,49.247862],[131.449622,49.244785],[131.457933,49.244282],[131.46155,49.236272],[131.46838,49.229667],[131.464212,49.224848],[131.466861,49.217402],[131.471936,49.214888],[131.473238,49.211134],[131.48737,49.209786],[131.490419,49.213655],[131.490998,49.223722],[131.497804,49.230416],[131.506616,49.232364],[131.504872,49.242964],[131.514306,49.24904],[131.52105,49.249909],[131.522838,49.24649],[131.531656,49.245438],[131.557165,49.248063],[131.573191,49.256883],[131.575111,49.260782],[131.56981,49.265373],[131.570603,49.266593],[131.582584,49.269565],[131.601379,49.265539],[131.610358,49.269447],[131.617127,49.276161],[131.616279,49.282176],[131.618082,49.288584],[131.63694,49.292027],[131.650368,49.300815],[131.651979,49.306063],[131.66176,49.309441],[131.66476,49.312416],[131.668489,49.312172],[131.675276,49.306931],[131.68425,49.308922],[131.702869,49.303735],[131.71161,49.308534],[131.721714,49.305932],[131.736064,49.316343],[131.737163,49.31207],[131.745252,49.308165],[131.75345,49.31239],[131.763123,49.312356],[131.773617,49.317013],[131.775577,49.315372],[131.780808,49.318731],[131.78811,49.327227],[131.796049,49.330945],[131.796524,49.33379],[131.801549,49.33883],[131.807075,49.335895],[131.811215,49.336644],[131.818782,49.333798],[131.81954,49.328002],[131.834036,49.323074],[131.834513,49.319663],[131.846651,49.311298],[131.846566,49.308358],[131.854301,49.302769],[131.860226,49.301445],[131.861826,49.295778],[131.873091,49.292218],[131.87379,49.289075],[131.879459,49.282884],[131.879689,49.279238],[131.885146,49.27569],[131.884429,49.273229],[131.891617,49.271619],[131.898044,49.278632],[131.904088,49.278398],[131.907174,49.275298],[131.91289,49.27528],[131.917108,49.271806],[131.918529,49.273581],[131.940399,49.278542],[131.956978,49.274032],[131.965537,49.264565],[131.968379,49.263798],[131.966465,49.262414],[131.988628,49.255894],[131.991604,49.256932],[131.994284,49.261466],[131.998336,49.263026],[132.00077,49.266861],[132.004307,49.268842],[132.002821,49.272484],[132.003711,49.276997],[132.001925,49.279543],[132.003151,49.284819],[131.98178,49.287385],[131.977798,49.298587],[131.974879,49.301266],[131.974214,49.308283],[131.983691,49.313284],[131.985027,49.319462],[131.997888,49.326076],[132.022771,49.32922],[132.022114,49.334817],[132.023558,49.33792],[132.016526,49.342269],[132.014135,49.345634],[132.005562,49.349004],[132.001923,49.357493],[131.998877,49.359063],[132.001345,49.367047],[131.999061,49.370554],[131.994062,49.373515],[131.993181,49.376857],[132.001195,49.380515],[132.008955,49.381165],[132.018699,49.374668],[132.022674,49.374249],[132.030155,49.378003],[132.05328,49.37745],[132.059978,49.384019],[132.079065,49.383715],[132.081419,49.38485],[132.092878,49.383655],[132.094925,49.38481],[132.094545,49.389606],[132.089249,49.392664],[132.08653,49.39711],[132.075813,49.401403],[132.063248,49.410936],[132.064245,49.416484],[132.062141,49.426459],[132.066637,49.432092],[132.067217,49.435889],[132.074747,49.440951],[132.072581,49.447071],[132.068181,49.448838],[132.067675,49.454155],[132.070492,49.455659],[132.065366,49.456731],[132.064459,49.459648],[132.066607,49.463709],[132.082029,49.470647],[132.081938,49.476247],[132.083638,49.478736],[132.088702,49.481053],[132.092981,49.485226],[132.111371,49.494104],[132.118603,49.489482],[132.129505,49.492641],[132.133793,49.491483],[132.141155,49.493856],[132.145755,49.493143],[132.147224,49.489085],[132.156952,49.485799],[132.17038,49.48932],[132.179387,49.480563],[132.191084,49.473417],[132.198645,49.475657],[132.224739,49.473334],[132.23619,49.482426],[132.239991,49.489271],[132.245385,49.488043],[132.249544,49.482319],[132.259469,49.479949],[132.2673,49.468012],[132.273798,49.463626],[132.274865,49.449737],[132.270379,49.443294],[132.274432,49.436886],[132.277447,49.434762],[132.290098,49.433141],[132.300747,49.426573],[132.304955,49.420518],[132.317727,49.417632],[132.323825,49.414555],[132.328392,49.413915],[132.335756,49.416155],[132.345241,49.415147],[132.354664,49.40988],[132.357777,49.411344],[132.36347,49.409928],[132.36837,49.412718],[132.384629,49.413906],[132.38665,49.407558],[132.392759,49.402613],[132.391961,49.394677],[132.404829,49.379273],[132.407594,49.369087],[132.399415,49.35883],[132.400134,49.346918],[132.39245,49.344348],[132.387415,49.344968],[132.379444,49.342228],[132.376206,49.342948],[132.366526,49.334253],[132.366877,49.328211],[132.371167,49.322958],[132.369969,49.318953],[132.370852,49.315924],[132.36934,49.313282],[132.371703,49.311164],[132.371253,49.308495],[132.379515,49.30467],[132.385011,49.295993],[132.390381,49.299222],[132.400423,49.301634],[132.402952,49.299703],[132.410319,49.298924],[132.418221,49.295126],[132.424477,49.294362],[132.429958,49.291368],[132.432262,49.287553],[132.445921,49.282694],[132.453899,49.28461],[132.460277,49.282884],[132.467212,49.283509],[132.473149,49.279025],[132.472025,49.275934],[132.472942,49.27278],[132.47721,49.269542],[132.482024,49.268234],[132.483242,49.266148],[132.487764,49.26492],[132.49747,49.268161],[132.505948,49.267769],[132.507065,49.269227],[132.505423,49.275195],[132.509569,49.27715],[132.519811,49.277204],[132.524416,49.280132],[132.529343,49.279562],[132.53,49.283327],[132.525765,49.288587],[132.527528,49.2925],[132.539806,49.297416],[132.54943,49.298012],[132.558178,49.301489],[132.563694,49.309618],[132.567466,49.309931],[132.577099,49.306559],[132.587563,49.311355],[132.595775,49.311468],[132.633181,49.28649],[132.650574,49.288419],[132.658931,49.282505],[132.674615,49.292134],[132.676655,49.296784],[132.673603,49.301561],[132.680683,49.304509],[132.696526,49.307056],[132.712926,49.299819],[132.716746,49.307975],[132.710285,49.313584],[132.70662,49.320458],[132.711749,49.326738],[132.734351,49.331572],[132.744307,49.327068],[132.752092,49.326064],[132.76479,49.333077],[132.773413,49.334822],[132.783293,49.330111],[132.784817,49.325662],[132.781822,49.317368],[132.784166,49.313235],[132.781035,49.311197],[132.779394,49.306084],[132.78708,49.29893],[132.78477,49.292056],[132.78034,49.287605],[132.790706,49.284117],[132.791178,49.282566],[132.788513,49.279142],[132.7932,49.272708],[132.802788,49.272405],[132.80685,49.267685],[132.803788,49.262829],[132.806102,49.251488],[132.800328,49.243636],[132.806723,49.241136],[132.810863,49.236399],[132.82417,49.237208],[132.835408,49.243431],[132.842355,49.240274],[132.850775,49.241592],[132.87045,49.24],[132.875071,49.243129],[132.876218,49.246981],[132.88172,49.248328],[132.887537,49.252607],[132.897724,49.255963],[132.908532,49.255511],[132.911732,49.253596],[132.910253,49.250444],[132.910554,49.24322],[132.915619,49.238873],[132.918089,49.23234],[132.925404,49.232673],[132.93604,49.227015],[132.945314,49.226942],[132.951235,49.222964],[132.956105,49.222634],[132.966085,49.229325],[132.973703,49.228293],[132.977179,49.230164],[132.985869,49.228437],[132.993917,49.218151],[133.003321,49.221474],[133.014213,49.220972],[133.024676,49.218031],[133.04017,49.218949],[133.055227,49.214639],[133.057885,49.210765],[133.057319,49.207316],[133.060899,49.202395],[133.05827,49.198705],[133.064926,49.189057],[133.071362,49.185978],[133.077488,49.177219],[133.079213,49.171978],[133.103625,49.173034],[133.115894,49.166281],[133.136104,49.161911],[133.137765,49.156947],[133.147404,49.157187],[133.158784,49.152941],[133.158534,49.148281],[133.164674,49.143781],[133.156094,49.138681],[133.160414,49.132781],[133.159134,49.129911],[133.155904,49.127781],[133.156469,49.1203],[133.232075,49.080681],[133.260575,49.055482],[133.269876,49.042319],[133.268955,49.041006],[133.274105,49.036791],[133.273286,49.03391],[133.275221,49.031794],[133.280309,49.031731],[133.277662,49.028505],[133.277107,49.025128],[133.275493,49.024978],[133.275563,49.020001],[133.273465,49.019714],[133.275779,49.017705],[133.274396,49.016285],[133.276439,49.011687],[133.27445,49.011632],[133.271763,49.009747],[133.272264,49.0083],[133.27025,49.007998],[133.272746,49.005616],[133.27022,49.000617],[133.275719,48.998912],[133.276095,48.997549],[133.271824,48.994627],[133.274059,48.991711],[133.276885,48.99312],[133.276065,48.991559],[133.272897,48.990977],[133.274944,48.989395],[133.273405,48.98865],[133.274586,48.98723],[133.273155,48.985999],[133.274601,48.984127],[133.267019,48.98421],[133.265929,48.985428],[133.263232,48.984113],[133.263885,48.981703],[133.262785,48.980872],[133.257496,48.979685],[133.254544,48.980888],[133.2534,48.979988],[133.254379,48.978305],[133.249367,48.978847],[133.247687,48.974158],[133.242464,48.975994],[133.241139,48.974065],[133.245345,48.972799],[133.245919,48.97061],[133.239685,48.968749],[133.237274,48.965775],[133.235313,48.966125],[133.235842,48.963681],[133.232841,48.962925],[133.232914,48.961495],[133.228984,48.962291],[133.228985,48.959459],[133.225543,48.962176],[133.163817,48.954705],[133.086583,48.939921],[132.985225,48.916932],[132.968435,48.921775],[132.842833,48.924198],[132.796285,48.92703],[132.779478,48.924988],[132.765899,48.922386],[132.757296,48.916551],[132.755476,48.913303],[132.714263,48.895256],[132.707986,48.900917],[132.70103,48.902532],[132.693667,48.902619],[132.689583,48.898302],[132.683155,48.899349],[132.682923,48.900528],[132.655649,48.888137],[132.656212,48.884205],[132.64105,48.877447],[132.639529,48.873108],[132.641645,48.869087],[132.634065,48.861966],[132.624036,48.860366]]]}},{"type":"Feature","id":"147167-853","properties":{"id":"147167-853","name":"Ленинский район","name_ru":"Ленинский район","subject_id":"147167","subject_name":"Еврейская автономная область","source_gid":853,"source_fid":955,"names_rosstat":"Ленинский муниципальный район","population":15091,"area_km2":5942.207990891536,"density_km2":2.5396283709914083,"source":"Актуализированный объединённый GeoJSON, предоставленный преподавателем","name_en":"Leninskii District","name_zh":"Leninskii区","subject_name_en":"Jewish Autonomous Oblast","subject_name_zh":"犹太自治州"},"geometry":{"type":"Polygon","coordinates":[[[131.701674,48.133663],[131.702761,48.134539],[131.701179,48.135185],[131.702168,48.137551],[131.699411,48.140384],[131.699568,48.142026],[131.701585,48.142205],[131.698253,48.14458],[131.699526,48.146409],[131.703276,48.147206],[131.700664,48.148887],[131.702091,48.149984],[131.701084,48.15217],[131.694611,48.155007],[131.696561,48.157112],[131.694605,48.158014],[131.695851,48.159478],[131.693347,48.162506],[131.694781,48.165036],[131.697713,48.165812],[131.698302,48.168069],[131.696428,48.169981],[131.699695,48.171808],[131.701774,48.177297],[131.696973,48.178757],[131.698266,48.180516],[131.69545,48.182605],[131.698563,48.185051],[131.696182,48.186827],[131.700119,48.200575],[131.696435,48.251967],[131.692315,48.270813],[131.691734,48.282337],[131.682236,48.344355],[131.670952,48.34577],[131.670409,48.348289],[131.704568,48.426417],[131.773746,48.549562],[131.77322,48.553781],[131.767532,48.562975],[131.774419,48.564217],[131.789441,48.554684],[131.793097,48.554593],[131.794725,48.557378],[131.799193,48.557376],[131.81327,48.554672],[131.819623,48.547567],[131.823564,48.548074],[131.822113,48.550982],[131.823674,48.552303],[131.83331,48.549418],[131.836128,48.547255],[131.835817,48.544898],[131.838017,48.541493],[131.845867,48.538901],[131.844051,48.535793],[131.845036,48.534213],[131.854451,48.534684],[131.854416,48.530851],[131.858561,48.53012],[131.859421,48.52683],[131.863871,48.52701],[131.864868,48.525153],[131.867969,48.525744],[131.86711,48.527565],[131.870288,48.52804],[131.872086,48.524954],[131.874996,48.525518],[131.873443,48.523438],[131.87843,48.51719],[131.886975,48.515084],[131.887527,48.51216],[131.893023,48.515666],[131.893059,48.517188],[131.896797,48.516404],[131.897617,48.518185],[131.899213,48.516903],[131.900966,48.516816],[131.899988,48.517131],[131.906425,48.51956],[131.907951,48.518142],[131.906294,48.515248],[131.913071,48.516332],[131.917945,48.514222],[131.918072,48.512781],[131.923278,48.512595],[131.916116,48.505815],[131.922625,48.503962],[131.922653,48.506675],[131.929041,48.509488],[131.931292,48.508074],[131.929187,48.505301],[131.935686,48.504395],[131.939325,48.50607],[131.942316,48.500171],[131.948695,48.503352],[131.949328,48.502155],[131.947695,48.50053],[131.949914,48.494947],[131.953597,48.493613],[131.955212,48.490958],[131.953642,48.489603],[131.954244,48.48791],[131.974352,48.493251],[132.004517,48.507425],[132.02135,48.497677],[132.028931,48.499956],[132.027301,48.499034],[132.031912,48.495987],[132.03394,48.49188],[132.06916,48.479606],[132.085999,48.456533],[132.092364,48.452048],[132.107089,48.452877],[132.121532,48.458557],[132.139765,48.462081],[132.160513,48.471289],[132.171997,48.471313],[132.17924,48.469679],[132.18392,48.465668],[132.190877,48.455225],[132.199047,48.430199],[132.220819,48.422165],[132.232863,48.433046],[132.242607,48.43441],[132.248823,48.433083],[132.258693,48.434701],[132.283315,48.442217],[132.299757,48.443052],[132.303851,48.43974],[132.303922,48.437815],[132.309543,48.436413],[132.314922,48.441803],[132.326734,48.442497],[132.341995,48.452669],[132.363269,48.461812],[132.396008,48.448318],[132.395037,48.444398],[132.397823,48.443398],[132.399225,48.440436],[132.406297,48.43833],[132.408415,48.436206],[132.406785,48.432451],[132.411152,48.429661],[132.411109,48.425002],[132.406144,48.42034],[132.403615,48.419997],[132.40413,48.417927],[132.401885,48.415053],[132.403173,48.41351],[132.399891,48.408419],[132.400333,48.406016],[132.396142,48.400966],[132.398147,48.399042],[132.396707,48.396313],[132.393477,48.394836],[132.393677,48.392601],[132.389693,48.386778],[132.390262,48.384434],[132.385887,48.382051],[132.387947,48.380803],[132.387748,48.379374],[132.385733,48.379336],[132.384759,48.378355],[132.385823,48.377836],[132.379113,48.377172],[132.374743,48.370855],[132.368942,48.369414],[132.36856,48.366341],[132.364396,48.365571],[132.364222,48.363992],[132.365568,48.363903],[132.363279,48.36246],[132.365409,48.361291],[132.36234,48.360117],[132.364127,48.358629],[132.361827,48.358795],[132.358021,48.353951],[132.355987,48.354527],[132.358014,48.351457],[132.352137,48.351599],[132.355247,48.350052],[132.352723,48.348507],[132.351924,48.350165],[132.34904,48.348659],[132.348674,48.350386],[132.34511,48.349598],[132.346823,48.347243],[132.345778,48.345822],[132.348384,48.346156],[132.349766,48.344504],[132.344549,48.34377],[132.424144,48.338074],[132.483252,48.331188],[132.478069,48.329089],[132.47626,48.325915],[132.470705,48.323298],[132.472005,48.320467],[132.471195,48.31619],[132.468501,48.314191],[132.469892,48.312407],[132.465539,48.306439],[132.465458,48.303079],[132.469094,48.301189],[132.472307,48.295659],[132.476014,48.293317],[132.474223,48.289759],[132.476572,48.286156],[132.474788,48.282782],[132.475096,48.278453],[132.478336,48.275266],[132.479116,48.265291],[132.482066,48.258412],[132.487227,48.250625],[132.496081,48.241644],[132.520214,48.2255],[132.521089,48.220127],[132.528625,48.217197],[132.53593,48.211156],[132.553477,48.207533],[132.558261,48.204583],[132.564726,48.206536],[132.574185,48.20419],[132.577694,48.206238],[132.579952,48.211831],[132.604071,48.220703],[132.624075,48.216686],[132.628556,48.21772],[132.638564,48.216873],[132.642459,48.211715],[132.651299,48.206941],[132.658401,48.208176],[132.675456,48.202666],[132.681262,48.194804],[132.684231,48.187546],[132.690852,48.185807],[132.699013,48.187768],[132.700442,48.183464],[132.706402,48.181088],[132.707553,48.177231],[132.711648,48.174029],[132.714161,48.169195],[132.733377,48.162076],[132.747868,48.163099],[132.759606,48.167694],[132.765504,48.168462],[132.795372,48.158813],[132.802378,48.154754],[132.825886,48.164462],[132.835579,48.164273],[132.842921,48.166355],[132.850824,48.164049],[132.8647,48.164395],[132.875248,48.162394],[132.876574,48.163483],[132.881075,48.162418],[132.887724,48.1552],[132.890131,48.155633],[132.898339,48.147991],[132.908155,48.145887],[132.920202,48.138836],[132.927741,48.13672],[132.956935,48.137262],[132.964571,48.138678],[132.967696,48.142459],[132.974349,48.144705],[132.989423,48.145542],[132.989198,48.143267],[132.990334,48.143064],[132.988902,48.138981],[132.995801,48.13928],[132.995674,48.136096],[133.000402,48.137514],[133.000194,48.135887],[133.002273,48.135849],[133.001356,48.133779],[133.005676,48.135604],[133.006591,48.131574],[133.011666,48.135191],[133.015263,48.135282],[133.016409,48.136724],[133.014847,48.137448],[133.018394,48.136484],[133.018353,48.134757],[133.021516,48.136798],[133.02884,48.131759],[133.035165,48.131081],[133.034352,48.126839],[133.038006,48.124216],[133.042178,48.125895],[133.04786,48.125033],[133.047404,48.129962],[133.058912,48.13508],[133.06377,48.130233],[133.065269,48.124748],[133.063938,48.121237],[133.065945,48.115845],[133.065261,48.107219],[133.049023,48.10251],[133.029975,48.082127],[133.007818,48.040472],[132.98448,48.030723],[132.913873,48.013883],[132.86306,47.991726],[132.815792,47.935005],[132.801746,47.93104],[132.792838,47.926647],[132.78052,47.925051],[132.763502,47.930278],[132.719188,47.961889],[132.682851,47.961002],[132.666225,47.955878],[132.657149,47.947413],[132.652127,47.935596],[132.673411,47.902499],[132.68226,47.885374],[132.680488,47.872079],[132.628788,47.836629],[132.598655,47.810336],[132.589792,47.784338],[132.590088,47.771635],[132.601905,47.75775],[132.603677,47.742092],[132.589792,47.729685],[132.548728,47.714323],[132.523261,47.719197],[132.495837,47.714793],[132.484826,47.715794],[132.460604,47.730207],[132.427975,47.730207],[132.408906,47.735865],[132.396919,47.746066],[132.384422,47.750657],[132.343616,47.757798],[132.309187,47.756778],[132.292864,47.750657],[132.282918,47.741986],[132.277562,47.720053],[132.252824,47.708066],[132.232421,47.709596],[132.206662,47.714697],[132.1554,47.702965],[132.133898,47.701373],[132.110632,47.703693],[132.098782,47.702965],[132.075533,47.698018],[132.045418,47.699854],[132.015654,47.714536],[131.999512,47.711239],[131.989196,47.700762],[131.985189,47.675615],[131.982799,47.669797],[131.972801,47.665833],[131.942725,47.661386],[131.926625,47.66586],[131.915981,47.675568],[131.91558,47.684458],[131.909865,47.688885],[131.907967,47.700566],[131.90417,47.707527],[131.895129,47.709413],[131.875783,47.707742],[131.869619,47.711218],[131.866992,47.71855],[131.87049,47.7262],[131.870232,47.728662],[131.864962,47.733224],[131.855381,47.736776],[131.852445,47.740556],[131.853213,47.742375],[131.857196,47.741731],[131.85604,47.74312],[131.858059,47.745024],[131.856199,47.74472],[131.85817,47.74626],[131.857023,47.747128],[131.859302,47.747569],[131.856941,47.74911],[131.859235,47.750253],[131.860075,47.753406],[131.858336,47.753873],[131.859373,47.754621],[131.858733,47.758688],[131.855683,47.762118],[131.846792,47.766028],[131.829598,47.766519],[131.819752,47.764844],[131.813984,47.765896],[131.806712,47.769759],[131.788434,47.771308],[131.772542,47.783734],[131.757658,47.799044],[131.746544,47.814626],[131.742875,47.824185],[131.735953,47.834839],[131.727152,47.867146],[131.720612,47.884546],[131.723808,47.887392],[131.718717,47.89404],[131.708106,47.951845],[131.705257,47.95371],[131.707261,47.953567],[131.705977,47.95421],[131.706781,47.9569],[131.705003,47.957955],[131.704574,47.956259],[131.702632,47.956388],[131.70413,47.958216],[131.70362,47.95888],[131.698911,47.957502],[131.699994,47.956158],[131.696544,47.956117],[131.696535,47.957887],[131.69457,47.958972],[131.696209,47.959435],[131.694249,47.961911],[131.696661,47.961244],[131.694582,47.962961],[131.697059,47.963502],[131.696999,47.965849],[131.699999,47.967467],[131.698604,47.967774],[131.699717,47.96806],[131.699216,47.970284],[131.697363,47.969583],[131.697745,47.972108],[131.701673,47.975222],[131.704032,47.975005],[131.70381,47.976538],[131.705456,47.975133],[131.705425,47.976805],[131.707204,47.97686],[131.70629,47.978315],[131.702734,47.977179],[131.703983,47.977942],[131.703319,47.980434],[131.705394,47.980641],[131.70564,47.97929],[131.707503,47.98155],[131.705075,47.98365],[131.707862,47.985017],[131.706624,47.985899],[131.707753,47.988095],[131.706123,47.987069],[131.703588,47.987976],[131.706583,47.990366],[131.705155,47.992275],[131.707119,47.991022],[131.708409,47.992837],[131.706321,47.994134],[131.708524,47.995604],[131.70932,47.994543],[131.709556,47.995974],[131.707911,47.999613],[131.704121,47.999449],[131.70473,48.000708],[131.702225,48.002093],[131.704491,48.003534],[131.700857,48.003874],[131.703008,48.004727],[131.702023,48.006871],[131.704871,48.008055],[131.701423,48.008351],[131.703412,48.012774],[131.697568,48.01472],[131.700489,48.017533],[131.704164,48.016012],[131.702326,48.018388],[131.705441,48.019275],[131.70425,48.020493],[131.706879,48.021187],[131.706777,48.02241],[131.711325,48.020545],[131.711666,48.021918],[131.713883,48.021815],[131.71261,48.022065],[131.714275,48.022626],[131.713282,48.024321],[131.714353,48.025604],[131.712744,48.025716],[131.718853,48.026632],[131.717951,48.029801],[131.720475,48.031465],[131.718532,48.031693],[131.719089,48.03343],[131.721272,48.033706],[131.720287,48.03474],[131.721126,48.035927],[131.725527,48.033964],[131.728484,48.036368],[131.732986,48.036385],[131.732185,48.037193],[131.734453,48.03751],[131.733993,48.038624],[131.737695,48.037354],[131.739163,48.038564],[131.737183,48.038989],[131.737609,48.0415],[131.739509,48.041216],[131.738923,48.042303],[131.742552,48.043689],[131.740273,48.043822],[131.742105,48.045393],[131.73997,48.046536],[131.743839,48.046263],[131.746164,48.048406],[131.749009,48.047172],[131.75146,48.049327],[131.74999,48.050141],[131.75173,48.052331],[131.752545,48.051214],[131.758344,48.052145],[131.756914,48.053956],[131.758686,48.054558],[131.752052,48.056908],[131.754407,48.058418],[131.753515,48.060955],[131.750788,48.060769],[131.749425,48.062776],[131.751452,48.063601],[131.750729,48.065125],[131.755054,48.066631],[131.752897,48.06776],[131.753286,48.069372],[131.756551,48.069217],[131.757547,48.070809],[131.756449,48.071437],[131.762551,48.074768],[131.760087,48.076223],[131.762598,48.077127],[131.761159,48.079501],[131.764074,48.081708],[131.758339,48.08412],[131.759428,48.084082],[131.758155,48.085372],[131.759197,48.086107],[131.755682,48.089553],[131.755737,48.092292],[131.753189,48.093776],[131.753346,48.095348],[131.750197,48.096149],[131.751696,48.096683],[131.750213,48.099043],[131.753818,48.10109],[131.752289,48.103281],[131.744407,48.102214],[131.743523,48.104174],[131.738161,48.105472],[131.74114,48.107694],[131.736759,48.10984],[131.733921,48.107351],[131.725987,48.106901],[131.724664,48.108963],[131.726465,48.109875],[131.725448,48.111499],[131.718852,48.111978],[131.715807,48.113859],[131.715258,48.116927],[131.711887,48.117223],[131.711768,48.117561],[131.713775,48.118358],[131.713929,48.118708],[131.71036,48.119568],[131.710747,48.121152],[131.708471,48.122759],[131.709637,48.123438],[131.70787,48.129704],[131.701674,48.133663]]]}},{"type":"Feature","id":"147167-854","properties":{"id":"147167-854","name":"Биробиджанский район","name_ru":"Биробиджанский район","subject_id":"147167","subject_name":"Еврейская автономная область","source_gid":854,"source_fid":956,"names_rosstat":"Биробиджанский муниципальный район","population":9818,"area_km2":4430.660632847891,"density_km2":2.2159223676965065,"source":"Актуализированный объединённый GeoJSON, предоставленный преподавателем","name_en":"Birobidzhanskii District","name_zh":"Birobidzhanskii区","subject_name_en":"Jewish Autonomous Oblast","subject_name_zh":"犹太自治州"},"geometry":{"type":"Polygon","coordinates":[[[132.615184,48.217881],[132.605018,48.220795],[132.600193,48.219676],[132.579952,48.211831],[132.577694,48.206238],[132.572995,48.204147],[132.564726,48.206536],[132.558261,48.204583],[132.553477,48.207533],[132.53665,48.21085],[132.528625,48.217197],[132.521089,48.220127],[132.520655,48.225104],[132.496081,48.241644],[132.485514,48.253028],[132.479116,48.265291],[132.478336,48.275266],[132.47517,48.278109],[132.474788,48.282782],[132.476572,48.286156],[132.474223,48.289759],[132.476014,48.293317],[132.472307,48.295659],[132.469094,48.301189],[132.46552,48.302765],[132.465539,48.306439],[132.469892,48.312407],[132.468501,48.314191],[132.471195,48.31619],[132.472005,48.320467],[132.470705,48.323298],[132.47626,48.325915],[132.478069,48.329089],[132.483252,48.331188],[132.424144,48.338074],[132.344549,48.34377],[132.349766,48.344504],[132.348384,48.346156],[132.345778,48.345822],[132.346823,48.347243],[132.34511,48.349598],[132.348674,48.350386],[132.34904,48.348659],[132.351924,48.350165],[132.352723,48.348507],[132.355247,48.350052],[132.352137,48.351599],[132.358014,48.351457],[132.355987,48.354527],[132.358021,48.353951],[132.361827,48.358795],[132.364127,48.358629],[132.36234,48.360117],[132.365409,48.361291],[132.363279,48.36246],[132.365568,48.363903],[132.364222,48.363992],[132.364396,48.365571],[132.36856,48.366341],[132.368942,48.369414],[132.374743,48.370855],[132.379113,48.377172],[132.385823,48.377836],[132.384759,48.378355],[132.385733,48.379336],[132.387748,48.379374],[132.387947,48.380803],[132.385887,48.382051],[132.390262,48.384434],[132.389693,48.386778],[132.393677,48.392601],[132.393477,48.394836],[132.396819,48.396498],[132.398158,48.39931],[132.396142,48.400966],[132.400333,48.406016],[132.399891,48.408419],[132.403173,48.41351],[132.401885,48.415053],[132.40413,48.417927],[132.403615,48.419997],[132.406144,48.42034],[132.411109,48.425002],[132.411152,48.429661],[132.406785,48.432451],[132.408415,48.436206],[132.406297,48.43833],[132.399225,48.440436],[132.397823,48.443398],[132.395037,48.444398],[132.396008,48.448318],[132.392914,48.449746],[132.363269,48.461812],[132.341995,48.452669],[132.327103,48.466863],[132.325818,48.47676],[132.31607,48.493589],[132.318253,48.499509],[132.313898,48.513065],[132.314632,48.523123],[132.316601,48.528557],[132.31343,48.548823],[132.304389,48.556018],[132.303391,48.5669],[132.309274,48.571134],[132.316303,48.570768],[132.338047,48.582569],[132.335803,48.587019],[132.355995,48.590117],[132.363579,48.587094],[132.377768,48.585755],[132.383706,48.588749],[132.394154,48.587871],[132.397089,48.589874],[132.405791,48.590972],[132.409465,48.594741],[132.416506,48.597001],[132.416145,48.60199],[132.404907,48.61282],[132.418995,48.618127],[132.431637,48.617889],[132.457275,48.614192],[132.459348,48.61354],[132.460016,48.610523],[132.464787,48.609618],[132.472742,48.610294],[132.477422,48.598642],[132.482996,48.592504],[132.503507,48.591679],[132.51367,48.587501],[132.527156,48.591304],[132.532554,48.587795],[132.533153,48.584912],[132.538091,48.584955],[132.539563,48.586915],[132.545354,48.587475],[132.547778,48.589326],[132.55207,48.588518],[132.557557,48.595991],[132.558687,48.60298],[132.56537,48.606333],[132.577536,48.606589],[132.577264,48.609187],[132.582342,48.610023],[132.591908,48.617202],[132.591011,48.61905],[132.594628,48.62641],[132.59413,48.630753],[132.603331,48.637892],[132.60866,48.640589],[132.620006,48.637627],[132.628205,48.643215],[132.631579,48.643851],[132.631507,48.64693],[132.638266,48.657807],[132.645122,48.665084],[132.651756,48.666478],[132.657926,48.670444],[132.666798,48.671047],[132.671495,48.66987],[132.678706,48.675101],[132.683769,48.674902],[132.690373,48.678893],[132.690398,48.683124],[132.680471,48.687381],[132.682283,48.692378],[132.672324,48.702991],[132.676077,48.705788],[132.682001,48.706798],[132.678943,48.716813],[132.674835,48.719208],[132.679739,48.722162],[132.672467,48.728756],[132.674302,48.731828],[132.672085,48.735246],[132.673308,48.742259],[132.670328,48.74598],[132.669318,48.750443],[132.672107,48.757218],[132.67073,48.759802],[132.666351,48.762389],[132.669581,48.764968],[132.668205,48.77044],[132.669361,48.773629],[132.668677,48.779249],[132.662226,48.783206],[132.660614,48.786397],[132.651625,48.789897],[132.652543,48.792654],[132.648629,48.799338],[132.641255,48.807389],[132.632496,48.809129],[132.630317,48.816612],[132.621388,48.817022],[132.617128,48.819047],[132.6179,48.821914],[132.615026,48.827776],[132.609419,48.833173],[132.608832,48.836196],[132.601742,48.8418],[132.604183,48.844504],[132.613525,48.8462],[132.616463,48.852826],[132.615628,48.856779],[132.619916,48.859583],[132.634065,48.861966],[132.641645,48.869087],[132.639529,48.873108],[132.64105,48.877447],[132.656212,48.884205],[132.655649,48.888137],[132.682014,48.90015],[132.689583,48.898302],[132.692577,48.902079],[132.697757,48.90307],[132.707986,48.900917],[132.714263,48.895256],[132.755476,48.913303],[132.757296,48.916551],[132.765899,48.922386],[132.796285,48.92703],[132.842833,48.924198],[132.968435,48.921775],[132.985225,48.916932],[133.086583,48.939921],[133.163817,48.954705],[133.223593,48.961117],[133.222158,48.960684],[133.223819,48.959257],[133.221119,48.956824],[133.221833,48.95495],[133.218276,48.95328],[133.216345,48.955519],[133.211793,48.953318],[133.210814,48.95078],[133.203641,48.949095],[133.203188,48.9481],[133.205476,48.947558],[133.20325,48.946699],[133.205033,48.946002],[133.203445,48.943802],[133.200189,48.943754],[133.201539,48.940884],[133.200343,48.939821],[133.199077,48.941828],[133.198684,48.940194],[133.196994,48.940187],[133.199643,48.937608],[133.194057,48.937012],[133.19418,48.938684],[133.193026,48.938447],[133.18737,48.9307],[133.183567,48.929509],[133.182515,48.926171],[133.17965,48.925866],[133.181174,48.927297],[133.178914,48.927785],[133.178426,48.925832],[133.180503,48.924118],[133.177114,48.923691],[133.182412,48.922092],[133.176349,48.92146],[133.179308,48.920119],[133.177536,48.917975],[133.175442,48.919669],[133.17449,48.918547],[133.176273,48.914466],[133.17312,48.913186],[133.179352,48.912909],[133.175133,48.909592],[133.172229,48.909859],[133.173129,48.907363],[133.170199,48.907875],[133.170301,48.904254],[133.172422,48.902802],[133.169864,48.899919],[133.175891,48.900508],[133.178259,48.897911],[133.176743,48.895822],[133.180438,48.897174],[133.178223,48.892723],[133.182671,48.890188],[133.180001,48.888006],[133.172117,48.888561],[133.171262,48.887409],[133.175838,48.883214],[133.177713,48.883763],[133.178126,48.885735],[133.17995,48.884163],[133.182114,48.885735],[133.185751,48.884783],[133.183,48.883075],[133.182917,48.879741],[133.188967,48.874711],[133.180949,48.873342],[133.181463,48.871591],[133.184182,48.870937],[133.183745,48.869729],[133.175714,48.867687],[133.179999,48.866738],[133.180305,48.864446],[133.177739,48.863228],[133.177507,48.861244],[133.174418,48.862942],[133.170518,48.859379],[133.172441,48.856818],[133.181537,48.85515],[133.177387,48.852885],[133.168282,48.853764],[133.171684,48.848907],[133.172296,48.845127],[133.179179,48.842965],[133.18005,48.840312],[133.182367,48.839295],[133.179323,48.837427],[133.178214,48.840629],[133.174429,48.840743],[133.171903,48.842758],[133.171072,48.840878],[133.177019,48.837981],[133.176756,48.836475],[133.164831,48.835059],[133.170391,48.832439],[133.165773,48.831518],[133.167302,48.828647],[133.164054,48.826833],[133.16407,48.825395],[133.167887,48.824873],[133.167907,48.823075],[133.169801,48.824163],[133.16955,48.822184],[133.17487,48.82104],[133.170108,48.820927],[133.17109,48.818234],[133.166591,48.818932],[133.166777,48.814347],[133.16145,48.81612],[133.163527,48.812893],[133.15808,48.813226],[133.157029,48.809894],[133.160457,48.807482],[133.158568,48.806035],[133.160892,48.805057],[133.157911,48.803963],[133.155042,48.805028],[133.152339,48.803396],[133.158633,48.80019],[133.155113,48.798644],[133.155262,48.797476],[133.159619,48.797137],[133.158965,48.794796],[133.162767,48.795444],[133.161566,48.79328],[133.15872,48.792367],[133.166123,48.787097],[133.165195,48.784934],[133.171887,48.782358],[133.164315,48.778276],[133.162855,48.775031],[133.165726,48.773696],[133.147811,48.770642],[133.110722,48.745543],[133.115692,48.739005],[133.095336,48.730954],[133.093009,48.727284],[133.099044,48.700428],[133.115862,48.667694],[133.200014,48.621587],[133.216778,48.575372],[133.22918,48.532567],[133.24643,48.488626],[133.331529,48.356656],[133.341864,48.326563],[133.3494,48.30941],[133.3496,48.300328],[133.342583,48.265052],[133.298176,48.19691],[133.287177,48.177713],[133.2907,48.174309],[133.296306,48.146],[133.309762,48.098054],[133.286699,48.092762],[133.26602,48.092762],[133.239727,48.101625],[133.181824,48.108715],[133.121557,48.106942],[133.097923,48.104283],[133.065261,48.107219],[133.065945,48.115845],[133.063933,48.122496],[133.065269,48.124748],[133.06269,48.132029],[133.058912,48.13508],[133.047404,48.129962],[133.04786,48.125033],[133.042178,48.125895],[133.038006,48.124216],[133.034352,48.126839],[133.035165,48.131081],[133.02884,48.131759],[133.021516,48.136798],[133.018353,48.134757],[133.018394,48.136484],[133.014847,48.137448],[133.016409,48.136724],[133.015263,48.135282],[133.011666,48.135191],[133.006591,48.131574],[133.005676,48.135604],[133.001356,48.133779],[133.002273,48.135849],[133.000194,48.135887],[133.000402,48.137514],[132.995674,48.136096],[132.995801,48.13928],[132.988902,48.138981],[132.990334,48.143064],[132.989198,48.143267],[132.989423,48.145542],[132.974349,48.144705],[132.967696,48.142459],[132.964571,48.138678],[132.956935,48.137262],[132.927741,48.13672],[132.920202,48.138836],[132.908155,48.145887],[132.898339,48.147991],[132.890131,48.155633],[132.887724,48.1552],[132.881075,48.162418],[132.8647,48.164395],[132.850824,48.164049],[132.842921,48.166355],[132.835579,48.164273],[132.825886,48.164462],[132.802378,48.154754],[132.795372,48.158813],[132.765504,48.168462],[132.759606,48.167694],[132.747868,48.163099],[132.733377,48.162076],[132.714161,48.169195],[132.711648,48.174029],[132.707553,48.177231],[132.706402,48.181088],[132.700442,48.183464],[132.699013,48.187768],[132.690852,48.185807],[132.684231,48.187546],[132.681262,48.194804],[132.675456,48.202666],[132.658401,48.208176],[132.651299,48.206941],[132.642459,48.211715],[132.638564,48.216873],[132.615184,48.217881]],[[132.786982,48.729588],[132.804406,48.730792],[132.821778,48.728073],[132.840846,48.731399],[132.840393,48.734097],[132.841947,48.735412],[132.849729,48.736681],[132.853746,48.734875],[132.854447,48.737036],[132.857448,48.737631],[132.858864,48.735402],[132.864567,48.732761],[132.876837,48.729846],[132.881387,48.731402],[132.88278,48.728436],[132.889262,48.725913],[132.88776,48.72389],[132.889656,48.721807],[132.895857,48.719676],[132.895333,48.716736],[132.896926,48.716167],[132.894204,48.714679],[132.900249,48.711711],[132.902085,48.704789],[132.904895,48.70684],[132.906384,48.706535],[132.905596,48.704838],[132.909539,48.705087],[132.914782,48.709679],[132.917371,48.708588],[132.916373,48.706029],[132.920336,48.699577],[132.925709,48.698229],[132.929744,48.701329],[132.930375,48.707553],[132.928814,48.71114],[132.930978,48.712368],[132.926668,48.714473],[132.92664,48.717707],[132.930368,48.71941],[132.935839,48.716573],[132.937963,48.718013],[132.939377,48.722247],[132.936631,48.72576],[132.936499,48.729304],[132.938666,48.731037],[132.935094,48.732273],[132.938854,48.73437],[132.939243,48.736573],[132.935884,48.740601],[132.935834,48.745058],[132.933395,48.745213],[132.935558,48.758298],[132.944793,48.762209],[132.946618,48.765116],[132.953849,48.754707],[132.956658,48.756],[132.957876,48.754438],[132.971942,48.755581],[132.99315,48.74932],[132.996077,48.747222],[132.995188,48.745662],[132.996221,48.746017],[132.996878,48.743362],[133.000234,48.743647],[133.008103,48.740773],[133.009007,48.738864],[133.005159,48.738726],[133.006192,48.73674],[133.013118,48.738116],[133.014373,48.736206],[133.016169,48.737083],[133.022365,48.733504],[133.020745,48.732146],[133.018113,48.733722],[133.016304,48.732106],[133.019605,48.729479],[133.022649,48.72951],[133.021474,48.727609],[133.019395,48.727435],[133.020995,48.725311],[133.027023,48.727154],[133.037425,48.72617],[133.042178,48.72466],[133.042671,48.722564],[133.046107,48.723002],[133.048267,48.719889],[133.052002,48.718402],[133.053418,48.719485],[133.060739,48.718646],[133.061278,48.714479],[133.066559,48.714794],[133.073518,48.71832],[133.081312,48.726932],[133.082608,48.730579],[133.070995,48.731386],[133.050386,48.735882],[133.01893,48.751901],[133.046606,48.770357],[132.953019,48.817091],[132.935568,48.822134],[132.890028,48.867317],[132.87944,48.864655],[132.865649,48.85852],[132.862433,48.860504],[132.863849,48.858511],[132.861384,48.853718],[132.864446,48.849971],[132.854196,48.841513],[132.841922,48.836583],[132.843509,48.834042],[132.839028,48.828424],[132.836716,48.820227],[132.842388,48.817299],[132.840705,48.814443],[132.823787,48.806076],[132.825762,48.781726],[132.79836,48.781288],[132.799154,48.768133],[132.809415,48.762064],[132.800734,48.755345],[132.805298,48.754766],[132.810597,48.74086],[132.803313,48.738565],[132.791118,48.743363],[132.778214,48.736631],[132.786982,48.729588]]]}}],"metadata":{"source_en":"Updated consolidated GeoJSON supplied by the instructor","source_zh":"教师提供的更新版合并GeoJSON","license_en":"Source-dataset terms were not specified; use within the author-created educational platform","license_zh":"原始数据集未注明许可条款；仅用于本作者教育平台"}}