{"type":"FeatureCollection","features":[{"type":"Feature","id":"3788485-2371","properties":{"id":"3788485-2371","name":"Терновский округ","name_ru":"Терновский округ","subject_id":"3788485","subject_name":"Севастополь","source_gid":2371,"source_fid":2481,"names_rosstat":"Терновский муниципальный округ","population":5051,"area_km2":73.49613581962518,"density_km2":68.72470155976914,"source":"Актуализированный объединённый GeoJSON, предоставленный преподавателем","name_en":"Ternovskii Okrug","name_zh":"Ternovskii专区","subject_name_en":"Sevastopol","subject_name_zh":"塞瓦斯托波尔市"},"geometry":{"type":"Polygon","coordinates":[[[33.741105,44.512011],[33.694046,44.544769],[33.689946,44.550042],[33.735653,44.600925],[33.741913,44.605384],[33.74962,44.60791],[33.754217,44.608756],[33.758133,44.608511],[33.765167,44.609102],[33.77958,44.61311],[33.78142,44.611135],[33.782831,44.605983],[33.782714,44.603414],[33.782075,44.602547],[33.781362,44.599739],[33.781845,44.597104],[33.784123,44.59205],[33.786486,44.589348],[33.787271,44.58693],[33.787211,44.58566],[33.792009,44.584862],[33.792509,44.583382],[33.795199,44.580297],[33.799416,44.581772],[33.800438,44.581422],[33.803946,44.577798],[33.805684,44.575319],[33.807046,44.575557],[33.807292,44.576945],[33.809385,44.576997],[33.810396,44.573999],[33.811446,44.573811],[33.812063,44.574121],[33.813904,44.577117],[33.81733,44.577274],[33.821204,44.576027],[33.823393,44.57444],[33.827211,44.571264],[33.827339,44.563316],[33.82891,44.560419],[33.831082,44.554841],[33.833534,44.551156],[33.834555,44.54994],[33.837215,44.548782],[33.836808,44.547275],[33.834759,44.544057],[33.80351,44.534327],[33.741105,44.512011]]]}},{"type":"Feature","id":"3788485-2372","properties":{"id":"3788485-2372","name":"Инкерман","name_ru":"Инкерман","subject_id":"3788485","subject_name":"Севастополь","source_gid":2372,"source_fid":2482,"names_rosstat":"Внутригородское муниципальное образование города Севастополя город Инкерман","population":13604,"area_km2":80.75006127306308,"density_km2":168.4704603999858,"source":"Актуализированный объединённый GeoJSON, предоставленный преподавателем","name_en":"Inkerman Municipality","name_zh":"Inkerman市政实体","subject_name_en":"Sevastopol","subject_name_zh":"塞瓦斯托波尔市"},"geometry":{"type":"Polygon","coordinates":[[[33.57069,44.614958],[33.567229,44.608897],[33.567385,44.60741],[33.568953,44.607056],[33.57068,44.607658],[33.573887,44.606603],[33.576855,44.603707],[33.576377,44.603314],[33.581265,44.60054],[33.584279,44.599651],[33.591335,44.59248],[33.627099,44.584017],[33.631035,44.585842],[33.646523,44.590561],[33.657708,44.586833],[33.655785,44.583785],[33.65556,44.581297],[33.658376,44.579131],[33.660629,44.579853],[33.663558,44.582902],[33.666241,44.582592],[33.676963,44.593091],[33.68406,44.602877],[33.684849,44.606406],[33.686847,44.609678],[33.706676,44.603688],[33.715995,44.59864],[33.719399,44.60027],[33.724223,44.598301],[33.733163,44.602505],[33.728693,44.604681],[33.727217,44.60855],[33.720686,44.616277],[33.71627,44.620438],[33.717491,44.624278],[33.719267,44.627734],[33.721876,44.631584],[33.720394,44.632584],[33.716867,44.633216],[33.717682,44.637591],[33.722548,44.638466],[33.724427,44.639377],[33.726749,44.641591],[33.727657,44.643833],[33.712516,44.658251],[33.688856,44.670624],[33.681201,44.678707],[33.664036,44.6665],[33.659397,44.655611],[33.604191,44.662529],[33.607049,44.645437],[33.60459,44.640821],[33.600355,44.635718],[33.597276,44.636791],[33.59102,44.628484],[33.590132,44.628571],[33.58684,44.624863],[33.586679,44.623442],[33.587792,44.621315],[33.585952,44.618518],[33.585675,44.617274],[33.583544,44.615088],[33.582828,44.613215],[33.57069,44.614958]]]}},{"type":"Feature","id":"3788485-2373","properties":{"id":"3788485-2373","name":"Орлиновский округ","name_ru":"Орлиновский округ","subject_id":"3788485","subject_name":"Севастополь","source_gid":2373,"source_fid":2483,"names_rosstat":"Орлиновский муниципальный округ","population":7207,"area_km2":241.0667824652534,"density_km2":29.896279886835067,"source":"Актуализированный объединённый GeoJSON, предоставленный преподавателем","name_en":"Orlinovskii Okrug","name_zh":"Orlinovskii专区","subject_name_en":"Sevastopol","subject_name_zh":"塞瓦斯托波尔市"},"geometry":{"type":"Polygon","coordinates":[[[33.845585,44.519667],[33.845657,44.519124],[33.848571,44.51816],[33.85315,44.515402],[33.860357,44.506757],[33.862553,44.50675],[33.867785,44.507758],[33.868911,44.507397],[33.870758,44.505411],[33.868581,44.504009],[33.867348,44.502542],[33.867249,44.500352],[33.868518,44.497962],[33.873629,44.492694],[33.886909,44.48221],[33.88852,44.481388],[33.894965,44.480062],[33.897154,44.478787],[33.89733,44.47731],[33.894219,44.474791],[33.89349,44.473225],[33.895591,44.471418],[33.89722,44.469225],[33.897904,44.467],[33.899932,44.463108],[33.902863,44.459132],[33.907295,44.451611],[33.907783,44.451341],[33.912192,44.443315],[33.913665,44.441427],[33.914795,44.438875],[33.920816,44.429531],[33.923996,44.423848],[33.926203,44.421325],[33.922308,44.420253],[33.90941,44.418885],[33.904467,44.418938],[33.902481,44.419368],[33.898057,44.421473],[33.8864,44.420449],[33.882805,44.421057],[33.879293,44.420694],[33.877544,44.419784],[33.873829,44.419035],[33.870628,44.418847],[33.860982,44.419882],[33.857325,44.419681],[33.853582,44.418185],[33.851082,44.418042],[33.846962,44.417129],[33.829279,44.408916],[33.824573,44.411664],[33.814092,44.410026],[33.80979,44.407919],[33.804764,44.406416],[33.803394,44.405338],[33.797829,44.404125],[33.794923,44.404255],[33.793938,44.405405],[33.790515,44.405793],[33.781585,44.405744],[33.784002,44.402866],[33.785076,44.399354],[33.785994,44.397658],[33.785557,44.396878],[33.777797,44.39422],[33.766188,44.392241],[33.762308,44.390086],[33.761784,44.389357],[33.759564,44.3906],[33.757835,44.39097],[33.755256,44.390625],[33.753814,44.389864],[33.74997,44.389958],[33.749154,44.388925],[33.747795,44.389056],[33.745584,44.388051],[33.743555,44.388577],[33.742189,44.388197],[33.741487,44.387415],[33.738355,44.387306],[33.736946,44.388152],[33.736463,44.388069],[33.736298,44.388647],[33.734179,44.389605],[33.734139,44.389937],[33.732161,44.390055],[33.730923,44.390709],[33.729971,44.392018],[33.727671,44.392387],[33.726727,44.393251],[33.726167,44.394429],[33.724766,44.395666],[33.724734,44.396596],[33.723774,44.39788],[33.723574,44.399005],[33.723024,44.399389],[33.723247,44.400405],[33.722101,44.40177],[33.721888,44.402515],[33.722216,44.40302],[33.721506,44.404763],[33.721022,44.405061],[33.721103,44.406043],[33.719666,44.406378],[33.719339,44.407828],[33.717136,44.408774],[33.716735,44.410732],[33.715757,44.412522],[33.713485,44.412171],[33.711658,44.412759],[33.711037,44.412468],[33.711199,44.413124],[33.709293,44.414883],[33.708864,44.415939],[33.709957,44.419179],[33.708264,44.420643],[33.704954,44.421829],[33.704335,44.421762],[33.703908,44.421224],[33.701108,44.42143],[33.70046,44.420732],[33.696694,44.420259],[33.695563,44.418981],[33.69407,44.418829],[33.692519,44.419477],[33.68959,44.418646],[33.688369,44.4189],[33.685721,44.417063],[33.684572,44.416784],[33.681224,44.417447],[33.677151,44.417138],[33.670329,44.417523],[33.665611,44.41898],[33.66099,44.421661],[33.65715,44.422862],[33.6557,44.423942],[33.651582,44.42562],[33.64948,44.427073],[33.648827,44.428184],[33.647031,44.429539],[33.646374,44.431733],[33.645282,44.433621],[33.645462,44.436394],[33.64276,44.43998],[33.64328,44.441966],[33.642668,44.44379],[33.64255,44.448136],[33.641631,44.449177],[33.642615,44.451017],[33.642733,44.452755],[33.641496,44.456595],[33.640592,44.4576],[33.640521,44.45866],[33.639242,44.46031],[33.638738,44.462813],[33.637603,44.46395],[33.637694,44.466212],[33.636742,44.468812],[33.635189,44.471286],[33.632874,44.472501],[33.632169,44.47335],[33.630488,44.477812],[33.628927,44.47963],[33.622649,44.483462],[33.618815,44.485097],[33.617134,44.487183],[33.614786,44.48841],[33.741105,44.512011],[33.80351,44.534327],[33.834759,44.544057],[33.833824,44.542535],[33.833731,44.541679],[33.838671,44.539728],[33.840126,44.537222],[33.840573,44.534952],[33.840148,44.530431],[33.84041,44.530106],[33.849498,44.53062],[33.852077,44.529477],[33.85727,44.525876],[33.845585,44.519667]]]}},{"type":"Feature","id":"3788485-2374","properties":{"id":"3788485-2374","name":"Ленинский округ","name_ru":"Ленинский округ","subject_id":"3788485","subject_name":"Севастополь","source_gid":2374,"source_fid":2484,"names_rosstat":"Ленинский муниципальный округ","population":137952,"area_km2":19.070173996611985,"density_km2":7233.914070448891,"source":"Актуализированный объединённый GeoJSON, предоставленный преподавателем","name_en":"Leninskii Okrug","name_zh":"Leninskii专区","subject_name_en":"Sevastopol","subject_name_zh":"塞瓦斯托波尔市"},"geometry":{"type":"Polygon","coordinates":[[[33.561276,44.559677],[33.560858,44.55859],[33.565698,44.556409],[33.56932,44.556917],[33.567406,44.555062],[33.564885,44.550139],[33.562927,44.548826],[33.56117,44.54895],[33.55879,44.550195],[33.557861,44.549503],[33.553977,44.551549],[33.551128,44.550962],[33.551254,44.550511],[33.548743,44.549744],[33.547751,44.551083],[33.548088,44.551233],[33.547835,44.551609],[33.550069,44.552564],[33.548524,44.554409],[33.538061,44.549783],[33.53724,44.548495],[33.537602,44.547009],[33.542912,44.539517],[33.539569,44.539262],[33.528083,44.545553],[33.526473,44.545894],[33.526781,44.551488],[33.521625,44.558465],[33.521134,44.560672],[33.519539,44.563432],[33.519066,44.568346],[33.515248,44.573545],[33.51155,44.571337],[33.510778,44.572103],[33.506975,44.573036],[33.505949,44.572524],[33.504066,44.573423],[33.503341,44.574433],[33.50443,44.574898],[33.503376,44.576006],[33.501952,44.57578],[33.500285,44.577356],[33.500655,44.579897],[33.498569,44.580663],[33.498377,44.58196],[33.499368,44.582848],[33.499086,44.584127],[33.496831,44.585517],[33.496843,44.586513],[33.497226,44.586877],[33.496875,44.590519],[33.498185,44.591543],[33.498249,44.592272],[33.4996,44.593496],[33.496088,44.595425],[33.496342,44.597232],[33.49458,44.598551],[33.494535,44.601351],[33.495664,44.602027],[33.498432,44.60224],[33.49826,44.603365],[33.500735,44.603576],[33.500139,44.608237],[33.498592,44.608056],[33.497665,44.608708],[33.497307,44.609885],[33.500168,44.610324],[33.501978,44.611897],[33.50221,44.613774],[33.501313,44.615156],[33.504758,44.616558],[33.507587,44.620999],[33.505918,44.616675],[33.506437,44.616106],[33.507759,44.616057],[33.511267,44.617671],[33.511111,44.616142],[33.511823,44.615964],[33.513348,44.616479],[33.515044,44.616237],[33.517895,44.617437],[33.518291,44.617266],[33.518354,44.616519],[33.519309,44.615961],[33.519445,44.614992],[33.518851,44.61378],[33.520725,44.614558],[33.521714,44.617089],[33.525129,44.618529],[33.527384,44.618778],[33.527092,44.614636],[33.528323,44.612582],[33.528257,44.608904],[33.529786,44.604837],[33.528982,44.602496],[33.527185,44.60098],[33.526975,44.598029],[33.527764,44.597098],[33.52789,44.594418],[33.525996,44.592587],[33.527391,44.591115],[33.529523,44.589933],[33.529758,44.588646],[33.528564,44.587541],[33.529519,44.585117],[33.533041,44.583926],[33.530892,44.583501],[33.528027,44.580737],[33.528444,44.579717],[33.529519,44.5801],[33.531549,44.578781],[33.53131,44.577506],[33.529415,44.576686],[33.530709,44.575784],[33.533426,44.575712],[33.535933,44.573877],[33.534851,44.56906],[33.53931,44.565385],[33.540867,44.563105],[33.542594,44.562662],[33.544444,44.564364],[33.545997,44.564109],[33.548146,44.566278],[33.546653,44.56883],[33.5494,44.570318],[33.553101,44.567001],[33.555608,44.567469],[33.556564,44.563513],[33.559429,44.563768],[33.560803,44.563045],[33.561276,44.559677]]]}},{"type":"Feature","id":"3788485-2375","properties":{"id":"3788485-2375","name":"Гагаринский округ","name_ru":"Гагаринский округ","subject_id":"3788485","subject_name":"Севастополь","source_gid":2375,"source_fid":2485,"names_rosstat":"Гагаринский муниципальный округ","population":194110,"area_km2":67.7716249260282,"density_km2":2864.178042239188,"source":"Актуализированный объединённый GeoJSON, предоставленный преподавателем","name_en":"Gagarinskii Okrug","name_zh":"Gagarinskii专区","subject_name_en":"Sevastopol","subject_name_zh":"塞瓦斯托波尔市"},"geometry":{"type":"Polygon","coordinates":[[[33.500735,44.603576],[33.49826,44.603365],[33.498432,44.60224],[33.495664,44.602027],[33.494535,44.601351],[33.49458,44.598551],[33.496342,44.597232],[33.496088,44.595425],[33.4996,44.593496],[33.498249,44.592272],[33.498185,44.591543],[33.496875,44.590519],[33.497226,44.586877],[33.496843,44.586513],[33.496831,44.585517],[33.499086,44.584127],[33.499368,44.582848],[33.498377,44.58196],[33.498569,44.580663],[33.500655,44.579897],[33.500285,44.577356],[33.501952,44.57578],[33.503376,44.576006],[33.50443,44.574898],[33.503341,44.574433],[33.504066,44.573423],[33.505949,44.572524],[33.506975,44.573036],[33.510778,44.572103],[33.51155,44.571337],[33.515248,44.573545],[33.519066,44.568346],[33.519539,44.563432],[33.521134,44.560672],[33.521625,44.558465],[33.526781,44.551488],[33.526925,44.549811],[33.526209,44.545215],[33.516692,44.53695],[33.511788,44.533403],[33.507863,44.531146],[33.502128,44.528553],[33.488904,44.524982],[33.493038,44.517418],[33.492797,44.512543],[33.489772,44.512298],[33.485129,44.514772],[33.481462,44.515717],[33.478856,44.517403],[33.478811,44.519261],[33.471024,44.521615],[33.469467,44.522459],[33.468089,44.522087],[33.466915,44.52264],[33.466562,44.522309],[33.466045,44.523205],[33.464198,44.523309],[33.463381,44.523742],[33.462806,44.524853],[33.463038,44.525086],[33.458131,44.528193],[33.457381,44.529031],[33.452258,44.530646],[33.449722,44.532014],[33.442777,44.5369],[33.439158,44.538278],[33.438208,44.539626],[33.434923,44.540993],[33.435206,44.542215],[33.428401,44.543313],[33.427859,44.544019],[33.42844,44.544354],[33.427905,44.545502],[33.424535,44.546537],[33.42432,44.546805],[33.424772,44.547287],[33.416347,44.549338],[33.414761,44.550796],[33.415214,44.551679],[33.414671,44.552622],[33.412346,44.55338],[33.410075,44.553549],[33.407173,44.556589],[33.400461,44.559272],[33.400643,44.560196],[33.401659,44.561061],[33.39965,44.564342],[33.393015,44.568199],[33.388708,44.574059],[33.383521,44.578064],[33.382148,44.579643],[33.382004,44.580462],[33.37816,44.582963],[33.377957,44.583846],[33.378805,44.584531],[33.382016,44.584735],[33.383653,44.586316],[33.395001,44.587571],[33.396296,44.589736],[33.39848,44.591429],[33.403097,44.591137],[33.402441,44.588611],[33.402419,44.583411],[33.404387,44.582517],[33.402422,44.570826],[33.402731,44.570725],[33.403231,44.572743],[33.404294,44.5733],[33.40658,44.57672],[33.407826,44.577977],[33.409439,44.577991],[33.410736,44.575972],[33.410482,44.572992],[33.409839,44.571254],[33.411054,44.565036],[33.412229,44.564404],[33.412976,44.565445],[33.412894,44.568296],[33.413659,44.569972],[33.412547,44.57068],[33.411929,44.572169],[33.413295,44.572977],[33.414387,44.576628],[33.413006,44.577535],[33.412809,44.578299],[33.413985,44.58028],[33.413621,44.585757],[33.415417,44.587756],[33.416138,44.587998],[33.41561,44.591384],[33.416816,44.592824],[33.417356,44.592652],[33.416386,44.590991],[33.417087,44.587876],[33.419159,44.587154],[33.419624,44.583881],[33.421518,44.582761],[33.424801,44.579685],[33.428097,44.575604],[33.426449,44.573704],[33.42673,44.573398],[33.429189,44.574344],[33.435649,44.573903],[33.436642,44.573062],[33.434423,44.571979],[33.435387,44.571057],[33.437695,44.572334],[33.437982,44.572916],[33.435931,44.574581],[33.431436,44.574999],[33.424866,44.581237],[33.426494,44.593448],[33.424119,44.594729],[33.420475,44.592128],[33.419873,44.592468],[33.424462,44.598008],[33.426297,44.598967],[33.428195,44.598751],[33.429226,44.598296],[33.430647,44.596782],[33.431352,44.596935],[33.431252,44.597723],[33.433373,44.600718],[33.433941,44.603863],[33.436762,44.604462],[33.438968,44.605607],[33.440064,44.605054],[33.440948,44.604449],[33.4414,44.601514],[33.440431,44.599419],[33.444164,44.5988],[33.446855,44.596299],[33.447683,44.594809],[33.448448,44.595119],[33.448121,44.597354],[33.447131,44.5972],[33.446818,44.597906],[33.44819,44.59871],[33.449846,44.601644],[33.449501,44.602457],[33.447543,44.604144],[33.44718,44.606868],[33.448209,44.607837],[33.451561,44.609012],[33.454672,44.609263],[33.457118,44.610522],[33.459307,44.609787],[33.459587,44.609272],[33.460263,44.609301],[33.463623,44.611751],[33.46557,44.611065],[33.468176,44.611963],[33.468509,44.611731],[33.46776,44.60878],[33.468789,44.607815],[33.466257,44.60659],[33.466227,44.605039],[33.466999,44.603296],[33.466888,44.601944],[33.466235,44.600941],[33.467654,44.600791],[33.468017,44.600106],[33.467772,44.597237],[33.46847,44.594612],[33.469014,44.593973],[33.470078,44.593865],[33.471454,44.592605],[33.471784,44.592703],[33.470115,44.596743],[33.470779,44.600591],[33.471302,44.601343],[33.474643,44.601797],[33.474211,44.602899],[33.472457,44.602805],[33.470682,44.60504],[33.472312,44.605232],[33.473049,44.605762],[33.474193,44.608983],[33.473593,44.610417],[33.473985,44.611998],[33.475581,44.612242],[33.477444,44.610937],[33.480539,44.611035],[33.481538,44.609346],[33.481242,44.608539],[33.484317,44.609274],[33.484113,44.610207],[33.486486,44.612926],[33.489221,44.612685],[33.495278,44.614873],[33.498103,44.612154],[33.495753,44.610947],[33.497832,44.607504],[33.499323,44.607488],[33.500115,44.604198],[33.500735,44.603576]]]}},{"type":"Feature","id":"3788485-2376","properties":{"id":"3788485-2376","name":"Верхнесадовский округ","name_ru":"Верхнесадовский округ","subject_id":"3788485","subject_name":"Севастополь","source_gid":2376,"source_fid":2486,"names_rosstat":"Верхнесадовский муниципальный округ","population":6262,"area_km2":73.41002602929534,"density_km2":85.30169976374968,"source":"Актуализированный объединённый GeoJSON, предоставленный преподавателем","name_en":"Verkhnesadovskii Okrug","name_zh":"Verkhnesadovskii专区","subject_name_en":"Sevastopol","subject_name_zh":"塞瓦斯托波尔市"},"geometry":{"type":"Polygon","coordinates":[[[33.727657,44.643833],[33.712516,44.658251],[33.688856,44.670624],[33.681201,44.678707],[33.664036,44.6665],[33.659397,44.655611],[33.604191,44.662529],[33.610622,44.671356],[33.608809,44.673719],[33.605032,44.673429],[33.596625,44.671755],[33.586943,44.669172],[33.586428,44.670286],[33.584754,44.670866],[33.583639,44.673139],[33.585226,44.673536],[33.585741,44.674879],[33.587737,44.675855],[33.587265,44.676923],[33.580935,44.675398],[33.570938,44.674473],[33.570523,44.675227],[33.573505,44.677772],[33.57291,44.678193],[33.57691,44.681581],[33.582333,44.683449],[33.585141,44.685986],[33.602414,44.691981],[33.603079,44.692561],[33.604195,44.695246],[33.604109,44.696344],[33.603315,44.697366],[33.600183,44.696679],[33.593714,44.710011],[33.59583,44.710861],[33.598062,44.708883],[33.600165,44.709757],[33.60331,44.707009],[33.605373,44.709711],[33.620986,44.712883],[33.637163,44.712853],[33.658966,44.714253],[33.667623,44.710632],[33.670801,44.709744],[33.690183,44.712509],[33.696882,44.714619],[33.700693,44.714812],[33.702101,44.714325],[33.702643,44.713279],[33.706804,44.711182],[33.707243,44.710573],[33.707428,44.709925],[33.707003,44.709273],[33.705153,44.708607],[33.705093,44.704916],[33.714508,44.705868],[33.715643,44.715848],[33.720468,44.715832],[33.726592,44.716636],[33.734862,44.707583],[33.737742,44.705579],[33.746287,44.701031],[33.751803,44.698786],[33.760071,44.700686],[33.760663,44.701256],[33.761513,44.70099],[33.765391,44.69808],[33.765295,44.6975],[33.767185,44.698172],[33.773417,44.692815],[33.776971,44.690265],[33.768772,44.683844],[33.767479,44.682076],[33.764188,44.680873],[33.758845,44.677614],[33.757139,44.676088],[33.754625,44.67534],[33.753717,44.673911],[33.752733,44.66981],[33.752993,44.665108],[33.751867,44.663744],[33.745189,44.658102],[33.73192,44.648644],[33.728654,44.645655],[33.727657,44.643833]]]}},{"type":"Feature","id":"3788485-2377","properties":{"id":"3788485-2377","name":"Нахимовский округ","name_ru":"Нахимовский округ","subject_id":"3788485","subject_name":"Севастополь","source_gid":2377,"source_fid":2487,"names_rosstat":"Нахимовский муниципальный округ","population":127287,"area_km2":68.23811956956412,"density_km2":1865.335692174805,"source":"Актуализированный объединённый GeoJSON, предоставленный преподавателем","name_en":"Nakhimovskii Okrug","name_zh":"Nakhimovskii专区","subject_name_en":"Sevastopol","subject_name_zh":"塞瓦斯托波尔市"},"geometry":{"type":"Polygon","coordinates":[[[33.598786,44.69972],[33.600183,44.696679],[33.603315,44.697366],[33.604109,44.696344],[33.604195,44.695246],[33.603079,44.692561],[33.602414,44.691981],[33.585141,44.685986],[33.582333,44.683449],[33.57691,44.681581],[33.57291,44.678193],[33.573505,44.677772],[33.570523,44.675227],[33.570938,44.674473],[33.580935,44.675398],[33.587265,44.676923],[33.587737,44.675855],[33.585741,44.674879],[33.585226,44.673536],[33.583639,44.673139],[33.584754,44.670866],[33.586428,44.670286],[33.586943,44.669172],[33.596625,44.671755],[33.607714,44.673826],[33.608809,44.673719],[33.610622,44.671356],[33.604191,44.662529],[33.607049,44.645437],[33.60459,44.640821],[33.600355,44.635718],[33.597276,44.636791],[33.59102,44.628484],[33.590132,44.628571],[33.58684,44.624863],[33.586679,44.623442],[33.587792,44.621315],[33.585952,44.618518],[33.585675,44.617274],[33.583544,44.615088],[33.582828,44.613215],[33.57069,44.614958],[33.567229,44.608897],[33.567385,44.60741],[33.568953,44.607056],[33.57068,44.607658],[33.573887,44.606603],[33.576855,44.603707],[33.576377,44.603314],[33.581265,44.60054],[33.584279,44.599651],[33.591335,44.59248],[33.592333,44.592481],[33.592774,44.589287],[33.592583,44.587741],[33.589531,44.580537],[33.585314,44.575681],[33.582383,44.575169],[33.578923,44.573076],[33.57533,44.572481],[33.570238,44.572485],[33.579299,44.562097],[33.574785,44.559269],[33.5728,44.561028],[33.568748,44.561374],[33.566236,44.560667],[33.564463,44.561705],[33.563492,44.56178],[33.561276,44.559677],[33.560803,44.563045],[33.559429,44.563768],[33.556564,44.563513],[33.555608,44.567469],[33.553101,44.567001],[33.5494,44.570318],[33.546653,44.56883],[33.548146,44.566278],[33.545997,44.564109],[33.544444,44.564364],[33.542594,44.562662],[33.540867,44.563105],[33.53931,44.565385],[33.534851,44.56906],[33.535933,44.573877],[33.533426,44.575712],[33.530709,44.575784],[33.529415,44.576686],[33.53131,44.577506],[33.531549,44.578781],[33.529519,44.5801],[33.528444,44.579717],[33.528027,44.580737],[33.530892,44.583501],[33.533041,44.583926],[33.529519,44.585117],[33.528564,44.587541],[33.529758,44.588646],[33.529523,44.589933],[33.527391,44.591115],[33.525996,44.592587],[33.52789,44.594418],[33.527764,44.597098],[33.526975,44.598029],[33.527185,44.60098],[33.528982,44.602496],[33.529786,44.604837],[33.528257,44.608904],[33.528323,44.612582],[33.527092,44.614636],[33.527384,44.618778],[33.525129,44.618529],[33.521714,44.617089],[33.520725,44.614558],[33.518851,44.61378],[33.519445,44.614992],[33.519309,44.615961],[33.518354,44.616519],[33.518291,44.617266],[33.517895,44.617437],[33.515044,44.616237],[33.513348,44.616479],[33.511823,44.615964],[33.511111,44.616142],[33.511267,44.617671],[33.507759,44.616057],[33.506437,44.616106],[33.505918,44.616675],[33.507804,44.620961],[33.510504,44.630914],[33.513483,44.632986],[33.515321,44.635313],[33.516886,44.636586],[33.520461,44.637688],[33.525948,44.637714],[33.531355,44.640022],[33.532935,44.641432],[33.535433,44.644694],[33.537912,44.650246],[33.538668,44.650829],[33.53826,44.652068],[33.538692,44.652962],[33.542458,44.657696],[33.544169,44.662331],[33.544482,44.667258],[33.54593,44.675846],[33.547496,44.68972],[33.547794,44.697467],[33.547503,44.701193],[33.549999,44.701402],[33.553319,44.700527],[33.555459,44.698041],[33.559007,44.69635],[33.560021,44.696247],[33.565305,44.696295],[33.569411,44.696972],[33.573591,44.696609],[33.577165,44.697184],[33.579774,44.696651],[33.584215,44.69717],[33.586687,44.696516],[33.598786,44.69972]]]}},{"type":"Feature","id":"3788485-2378","properties":{"id":"3788485-2378","name":"Андреевский округ","name_ru":"Андреевский округ","subject_id":"3788485","subject_name":"Севастополь","source_gid":2378,"source_fid":2488,"names_rosstat":"Андреевский муниципальный округ","population":3375,"area_km2":46.10544946773205,"density_km2":73.20175898864343,"source":"Актуализированный объединённый GeoJSON, предоставленный преподавателем","name_en":"Andreevskii Okrug","name_zh":"Andreevskii专区","subject_name_en":"Sevastopol","subject_name_zh":"塞瓦斯托波尔市"},"geometry":{"type":"Polygon","coordinates":[[[33.539233,44.799342],[33.569257,44.790739],[33.572984,44.797832],[33.581286,44.795388],[33.583149,44.797632],[33.594662,44.795237],[33.590522,44.763016],[33.613662,44.749755],[33.63079,44.751662],[33.635548,44.752945],[33.670223,44.765187],[33.682799,44.770339],[33.677208,44.786154],[33.669327,44.791823],[33.664261,44.794709],[33.658648,44.796563],[33.638857,44.801485],[33.620752,44.806549],[33.604423,44.810343],[33.598496,44.809894],[33.586652,44.807848],[33.580492,44.813856],[33.573667,44.823818],[33.568495,44.833772],[33.567153,44.838601],[33.563057,44.84026],[33.561445,44.841399],[33.557601,44.840061],[33.554256,44.840232],[33.553328,44.839367],[33.552044,44.836314],[33.551027,44.835022],[33.549881,44.83236],[33.549804,44.831289],[33.55184,44.822758],[33.552055,44.819393],[33.55028,44.810751],[33.549852,44.809944],[33.548558,44.809248],[33.546023,44.804701],[33.541974,44.802637],[33.540338,44.801109],[33.539233,44.799342]]]}},{"type":"Feature","id":"3788485-2379","properties":{"id":"3788485-2379","name":"Качинский округ","name_ru":"Качинский округ","subject_id":"3788485","subject_name":"Севастополь","source_gid":2379,"source_fid":2489,"names_rosstat":"Качинский муниципальный округ","population":13159,"area_km2":52.67622362225224,"density_km2":249.8090997252352,"source":"Актуализированный объединённый GeoJSON, предоставленный преподавателем","name_en":"Kachinskii Okrug","name_zh":"Kachinskii专区","subject_name_en":"Sevastopol","subject_name_zh":"塞瓦斯托波尔市"},"geometry":{"type":"Polygon","coordinates":[[[33.613662,44.749755],[33.613648,44.743612],[33.614477,44.739531],[33.614837,44.739196],[33.612971,44.739103],[33.611196,44.738286],[33.610643,44.737128],[33.610938,44.733345],[33.610571,44.73294],[33.611606,44.729655],[33.614626,44.729927],[33.615138,44.721679],[33.615604,44.72155],[33.61612,44.711976],[33.605373,44.709711],[33.60331,44.707009],[33.600165,44.709757],[33.598062,44.708883],[33.59583,44.710861],[33.593714,44.710011],[33.598786,44.69972],[33.586687,44.696516],[33.584215,44.69717],[33.579774,44.696651],[33.577165,44.697184],[33.573591,44.696609],[33.569411,44.696972],[33.565305,44.696295],[33.559007,44.69635],[33.555459,44.698041],[33.553319,44.700527],[33.549999,44.701402],[33.547503,44.701193],[33.545508,44.714477],[33.546489,44.724617],[33.544369,44.733639],[33.542457,44.739326],[33.541416,44.741165],[33.5417,44.742949],[33.54085,44.744894],[33.541815,44.749853],[33.541285,44.751094],[33.541801,44.757246],[33.541384,44.760998],[33.538683,44.772332],[33.537867,44.778797],[33.536428,44.781533],[33.535516,44.785942],[33.535499,44.789501],[33.534339,44.792483],[33.534601,44.79366],[33.537719,44.796336],[33.539233,44.799342],[33.569257,44.790739],[33.572984,44.797832],[33.581286,44.795388],[33.583149,44.797632],[33.594662,44.795237],[33.590522,44.763016],[33.613662,44.749755]]]}},{"type":"Feature","id":"3788485-2380","properties":{"id":"3788485-2380","name":"Балаклавский округ","name_ru":"Балаклавский округ","subject_id":"3788485","subject_name":"Севастополь","source_gid":2380,"source_fid":2490,"names_rosstat":"Балаклавский муниципальный округ","population":50295,"area_km2":152.92376570817768,"density_km2":328.889363710656,"source":"Актуализированный объединённый GeoJSON, предоставленный преподавателем","name_en":"Balaklavskii Okrug","name_zh":"Balaklavskii专区","subject_name_en":"Sevastopol","subject_name_zh":"塞瓦斯托波尔市"},"geometry":{"type":"Polygon","coordinates":[[[33.592333,44.592481],[33.592774,44.589287],[33.592583,44.587741],[33.589531,44.580537],[33.585314,44.575681],[33.582383,44.575169],[33.578923,44.573076],[33.57533,44.572481],[33.570238,44.572485],[33.579299,44.562097],[33.574785,44.559269],[33.5728,44.561028],[33.568748,44.561374],[33.566236,44.560667],[33.564463,44.561705],[33.563492,44.56178],[33.561276,44.559677],[33.560858,44.55859],[33.565698,44.556409],[33.56932,44.556917],[33.567406,44.555062],[33.564885,44.550139],[33.562927,44.548826],[33.56117,44.54895],[33.55879,44.550195],[33.557861,44.549503],[33.553977,44.551549],[33.551128,44.550962],[33.551254,44.550511],[33.548743,44.549744],[33.547751,44.551083],[33.548088,44.551233],[33.547835,44.551609],[33.550069,44.552564],[33.548524,44.554409],[33.538972,44.550282],[33.538061,44.549783],[33.53724,44.548495],[33.537602,44.547009],[33.542912,44.539517],[33.539569,44.539262],[33.528083,44.545553],[33.526473,44.545894],[33.526209,44.545215],[33.516692,44.53695],[33.511788,44.533403],[33.507863,44.531146],[33.502128,44.528553],[33.488904,44.524982],[33.493038,44.517418],[33.492797,44.512543],[33.489772,44.512298],[33.485129,44.514772],[33.481462,44.515717],[33.478856,44.517403],[33.478811,44.519261],[33.471024,44.521615],[33.469467,44.522459],[33.468089,44.522087],[33.468427,44.520949],[33.467522,44.520083],[33.469131,44.51947],[33.469447,44.517409],[33.472508,44.517278],[33.47317,44.516811],[33.474614,44.5144],[33.479003,44.511846],[33.479195,44.510916],[33.477771,44.509791],[33.480364,44.509471],[33.481521,44.508585],[33.482765,44.504056],[33.485258,44.501831],[33.486531,44.498778],[33.487339,44.497929],[33.489451,44.497944],[33.490806,44.498902],[33.49227,44.500789],[33.495131,44.502836],[33.498387,44.504239],[33.498799,44.50382],[33.505671,44.503897],[33.507724,44.502864],[33.510816,44.502601],[33.511928,44.501852],[33.513025,44.501656],[33.51291,44.501346],[33.513777,44.501289],[33.513762,44.500687],[33.514761,44.50116],[33.518729,44.50084],[33.520087,44.501706],[33.52168,44.501724],[33.522823,44.500344],[33.524051,44.500029],[33.525152,44.498464],[33.526344,44.497863],[33.530461,44.496951],[33.539416,44.494005],[33.5433,44.491355],[33.549145,44.488601],[33.555189,44.487608],[33.564646,44.488728],[33.567868,44.489986],[33.568907,44.490802],[33.574981,44.491117],[33.575222,44.491975],[33.579213,44.491868],[33.584547,44.490229],[33.59343,44.491534],[33.597205,44.493122],[33.60033,44.492927],[33.604703,44.491261],[33.614786,44.48841],[33.741105,44.512011],[33.694046,44.544769],[33.689946,44.550042],[33.735653,44.600925],[33.733163,44.602505],[33.724223,44.598301],[33.719399,44.60027],[33.715995,44.59864],[33.706676,44.603688],[33.686847,44.609678],[33.684849,44.606406],[33.68406,44.602877],[33.676963,44.593091],[33.666241,44.582592],[33.663558,44.582902],[33.660629,44.579853],[33.658376,44.579131],[33.65556,44.581297],[33.655785,44.583785],[33.657708,44.586833],[33.646523,44.590561],[33.631035,44.585842],[33.627099,44.584017],[33.592333,44.592481]]]}}],"metadata":{"source_en":"Updated consolidated GeoJSON supplied by the instructor","source_zh":"教师提供的更新版合并GeoJSON","license_en":"Source-dataset terms were not specified; use within the author-created educational platform","license_zh":"原始数据集未注明许可条款；仅用于本作者教育平台"}}