{"type":"FeatureCollection","features":[{"type":"Feature","id":"140296-251","properties":{"id":"140296-251","name":"Октябрьский район","name_ru":"Октябрьский район","subject_id":"140296","subject_name":"Ханты-Мансийский автономный округ - Югра","source_gid":251,"source_fid":313,"names_rosstat":"Октябрьский муниципальный район","population":32023,"area_km2":24303.470864430976,"density_km2":1.317630727669719,"source":"Актуализированный объединённый GeoJSON, предоставленный преподавателем","name_en":"Oktiabr'skii District","name_zh":"Oktiabr'skii区","subject_name_en":"Khanty-Mansiysk Autonomous Okrug – Ugra","subject_name_zh":"汉特-曼西自治区—尤格拉"},"geometry":{"type":"Polygon","coordinates":[[[64.569488,62.009289],[64.636625,62.033776],[64.740403,62.100586],[64.667133,62.235682],[64.814315,62.246438],[64.868508,62.28775],[64.694452,62.369525],[64.657255,62.431658],[64.841931,62.49185],[64.831465,62.611709],[64.736017,62.710734],[64.709592,62.770167],[64.687908,62.859022],[64.68776,62.957965],[64.634624,63.027166],[64.790601,63.254057],[64.767493,63.279556],[64.848856,63.35396],[64.989318,63.367547],[65.014742,63.360639],[65.00648,63.355899],[65.013009,63.354107],[65.090788,63.387288],[65.215511,63.418883],[65.351532,63.477661],[65.619449,63.409584],[65.653953,63.410967],[65.75695,63.370447],[65.837803,63.365138],[65.923118,63.333183],[65.9202,63.319698],[65.902347,63.309599],[65.758667,63.289699],[65.766392,63.273646],[65.789909,63.264689],[65.793171,63.235096],[65.74974,63.21793],[65.753002,63.212283],[65.897712,63.210348],[65.955047,63.201295],[65.960712,63.195876],[65.948524,63.191232],[65.941315,63.172179],[65.966034,63.149781],[66.025257,63.146602],[66.065082,63.133029],[66.059418,63.116889],[66.087398,63.092816],[66.137695,63.072845],[66.178551,63.068258],[66.191768,63.07611],[66.253567,63.059237],[66.344204,63.063981],[66.339741,63.055893],[66.348152,63.044923],[66.310901,63.036129],[66.321029,63.014171],[66.259403,63.002562],[66.235885,63.008328],[66.215801,62.99664],[66.224728,62.988065],[66.260433,62.983542],[66.257,62.976368],[66.286526,62.969581],[66.340427,62.939921],[66.327724,62.931017],[66.336994,62.914921],[66.36034,62.907182],[66.284122,62.885752],[66.277084,62.879023],[66.284466,62.871745],[66.265926,62.864229],[66.271248,62.856242],[66.257171,62.846608],[66.276398,62.834462],[66.31382,62.832659],[66.319141,62.811803],[66.417675,62.808038],[66.497841,62.78002],[66.500587,62.788499],[66.523762,62.797211],[66.528396,62.811725],[66.542988,62.813764],[66.676025,62.762977],[66.759453,62.781983],[66.827945,62.780099],[66.862278,62.769182],[66.859531,62.760934],[66.830177,62.751111],[66.867428,62.724376],[67.083034,62.734286],[67.15702,62.711629],[67.212467,62.71336],[67.21899,62.702892],[67.342415,62.728466],[67.369537,62.723668],[67.37503,62.708874],[67.369022,62.698562],[67.382069,62.686276],[67.374057,62.676333],[67.396655,62.664616],[67.380283,62.652706],[67.358963,62.653457],[67.353586,62.647966],[67.360889,62.637632],[67.324376,62.623963],[67.349941,62.607025],[67.403137,62.608266],[67.42162,62.565756],[67.451236,62.557788],[67.437713,62.53474],[67.409721,62.529826],[67.357493,62.528346],[67.284233,62.542078],[67.230447,62.530778],[67.251309,62.505525],[67.30761,62.473319],[67.307896,62.446579],[67.333522,62.425876],[67.320238,62.386441],[67.339227,62.372174],[67.291167,62.353924],[67.332988,62.329706],[67.183256,62.281731],[67.207572,62.271404],[67.236938,62.283678],[67.279374,62.281499],[67.359403,62.264333],[67.368807,62.254534],[67.354608,62.244578],[67.380838,62.233521],[67.37866,62.212904],[67.415507,62.181713],[67.454738,62.176159],[67.532645,62.206805],[67.589974,62.192656],[67.600209,62.167699],[67.700139,62.15164],[67.724935,62.129236],[67.721603,62.116798],[67.735744,62.111075],[67.735219,62.100827],[67.811262,62.097703],[67.845624,62.079525],[67.843325,62.057042],[67.821334,62.043099],[67.831483,62.027433],[67.827749,62.019938],[67.770502,61.982284],[67.857432,61.929509],[67.86264,61.913902],[67.843708,61.897184],[67.867156,61.887212],[67.852325,61.881961],[67.876093,61.853896],[67.913745,61.839951],[68.024771,61.82325],[68.01254,61.812114],[68.016105,61.79895],[68.006193,61.776053],[68.033711,61.758017],[68.037543,61.745439],[67.727335,61.649385],[67.700658,61.658591],[67.63844,61.657035],[67.605882,61.632092],[67.630123,61.60379],[67.602689,61.592205],[67.574897,61.593951],[67.561839,61.581233],[67.533748,61.586867],[67.541742,61.577833],[67.503025,61.567768],[67.521939,61.559601],[67.451394,61.537897],[67.446868,61.515275],[66.759053,61.29404],[66.656859,61.274187],[66.51523,61.305876],[66.478273,61.379064],[66.32882,61.427786],[66.224614,61.380022],[66.156141,61.295925],[65.895269,61.409447],[65.791108,61.656799],[65.862279,61.730966],[65.632989,61.786246],[65.560305,61.813993],[65.336402,61.795338],[65.183856,61.742156],[65.108338,61.73255],[64.890107,61.729481],[64.857032,61.777931],[64.790596,61.831389],[64.77861,61.891708],[64.564764,61.98561],[64.569488,62.009289]],[[65.160853,62.006716],[65.191334,61.994366],[65.604605,61.990463],[65.60516,61.973553],[65.895874,61.96978],[65.891903,62.028031],[65.871233,62.034865],[65.880217,62.113999],[65.873752,62.150174],[65.825985,62.155856],[65.779521,62.172625],[65.760103,62.19464],[65.771304,62.203627],[65.762823,62.212358],[65.765484,62.225217],[65.795582,62.238892],[65.787749,62.243024],[65.791287,62.256248],[65.825701,62.273943],[65.839439,62.292369],[65.743138,62.298206],[65.664743,62.284185],[65.579334,62.283024],[65.533402,62.29452],[65.491824,62.290634],[65.458285,62.254721],[65.42817,62.196976],[65.159813,62.062546],[65.160853,62.006716]]]}},{"type":"Feature","id":"140296-380","properties":{"id":"140296-380","name":"городской округ Нижневартовск","name_ru":"городской округ Нижневартовск","subject_id":"140296","subject_name":"Ханты-Мансийский автономный округ - Югра","source_gid":380,"source_fid":463,"names_rosstat":"Городской округ Нижневартовск","population":293130,"area_km2":271.24049271754586,"density_km2":1080.7014729369653,"source":"Актуализированный объединённый GeoJSON, предоставленный преподавателем","name_en":"Nizhnevartovsk Urban Okrug","name_zh":"Nizhnevartovsk城市辖区","subject_name_en":"Khanty-Mansiysk Autonomous Okrug – Ugra","subject_name_zh":"汉特-曼西自治区—尤格拉"},"geometry":{"type":"Polygon","coordinates":[[[76.342637,60.962647],[76.40131,60.964078],[76.466367,60.951516],[76.45566,60.937573],[76.392403,60.933372],[76.381503,60.91851],[76.39716,60.90179],[76.381449,60.888332],[76.447549,60.860629],[76.540031,60.887742],[76.62715,60.886364],[76.655045,60.847702],[76.70343,60.832362],[76.763709,60.878017],[76.748924,60.913035],[76.753377,60.933129],[76.734371,60.931909],[76.715705,60.957665],[76.695422,60.968475],[76.720778,60.971903],[76.761306,60.987023],[76.762469,60.987673],[76.770581,61.007049],[76.904072,61.029525],[76.915347,61.043007],[76.926023,61.045553],[76.937006,61.056958],[76.962307,61.063175],[76.936507,61.057051],[76.914837,61.043245],[76.903687,61.029829],[76.770013,61.007246],[76.761912,60.987907],[76.716288,60.971352],[76.697255,60.968975],[76.694489,60.978916],[76.675839,60.980938],[76.667561,60.991437],[76.525644,60.997295],[76.459265,61.007031],[76.45905,61.015288],[76.381751,61.018939],[76.346935,60.999428],[76.359282,60.973186],[76.342637,60.962647]]]}},{"type":"Feature","id":"140296-384","properties":{"id":"140296-384","name":"городской округ Покачи","name_ru":"городской округ Покачи","subject_id":"140296","subject_name":"Ханты-Мансийский автономный округ - Югра","source_gid":384,"source_fid":467,"names_rosstat":"Городской округ Покачи","population":16587,"area_km2":46.96199121746443,"density_km2":353.20052599966317,"source":"Актуализированный объединённый GeoJSON, предоставленный преподавателем","name_en":"Pokachi Urban Okrug","name_zh":"Pokachi城市辖区","subject_name_en":"Khanty-Mansiysk Autonomous Okrug – Ugra","subject_name_zh":"汉特-曼西自治区—尤格拉"},"geometry":{"type":"Polygon","coordinates":[[[75.316175,61.723135],[75.326042,61.711184],[75.363905,61.698564],[75.389883,61.70455],[75.382731,61.711069],[75.394264,61.718257],[75.416259,61.711551],[75.413903,61.718531],[75.424357,61.722916],[75.489478,61.718813],[75.490816,61.727539],[75.505569,61.729812],[75.530986,61.722305],[75.53235,61.71142],[75.568143,61.704577],[75.580744,61.670703],[75.588979,61.668458],[75.572865,61.706696],[75.585524,61.710518],[75.578267,61.71463],[75.602262,61.727384],[75.637987,61.720981],[75.636034,61.729372],[75.652202,61.734198],[75.630524,61.744995],[75.651383,61.750686],[75.62432,61.754812],[75.629864,61.768305],[75.61005,61.770524],[75.556266,61.741847],[75.494158,61.743831],[75.482154,61.736411],[75.357893,61.732615],[75.316175,61.723135]]]}},{"type":"Feature","id":"140296-642","properties":{"id":"140296-642","name":"городской округ Лангепас","name_ru":"городской округ Лангепас","subject_id":"140296","subject_name":"Ханты-Мансийский автономный округ - Югра","source_gid":642,"source_fid":742,"names_rosstat":"Городской округ Лангепас","population":44797,"area_km2":59.51693840809641,"density_km2":752.676485017348,"source":"Актуализированный объединённый GeoJSON, предоставленный преподавателем","name_en":"Langepas Urban Okrug","name_zh":"Langepas城市辖区","subject_name_en":"Khanty-Mansiysk Autonomous Okrug – Ugra","subject_name_zh":"汉特-曼西自治区—尤格拉"},"geometry":{"type":"Polygon","coordinates":[[[75.046475,61.251149],[75.076957,61.231151],[75.136582,61.250989],[75.171417,61.218624],[75.239948,61.22271],[75.262166,61.244666],[75.271144,61.234462],[75.277874,61.235968],[75.259688,61.246265],[75.270095,61.264162],[75.267765,61.278347],[75.24371,61.284723],[75.255935,61.295579],[75.249516,61.299382],[75.234956,61.287653],[75.208542,61.296693],[75.18076,61.290537],[75.175105,61.298959],[75.17165,61.299544],[75.180218,61.290435],[75.149022,61.282764],[75.147354,61.267757],[75.087284,61.265592],[75.066949,61.276833],[75.081,61.265393],[75.046475,61.251149]]]}},{"type":"Feature","id":"140296-643","properties":{"id":"140296-643","name":"городской округ Югорск","name_ru":"городской округ Югорск","subject_id":"140296","subject_name":"Ханты-Мансийский автономный округ - Югра","source_gid":643,"source_fid":743,"names_rosstat":"Городской округ Югорск","population":39568,"area_km2":317.83339398649326,"density_km2":124.4928970606578,"source":"Актуализированный объединённый GeoJSON, предоставленный преподавателем","name_en":"Iugorsk Urban Okrug","name_zh":"Iugorsk城市辖区","subject_name_en":"Khanty-Mansiysk Autonomous Okrug – Ugra","subject_name_zh":"汉特-曼西自治区—尤格拉"},"geometry":{"type":"Polygon","coordinates":[[[63.068115,61.250821],[63.074599,61.243958],[63.111821,61.25252],[63.162005,61.246825],[63.262865,61.270659],[63.284141,61.283405],[63.323429,61.283362],[63.318645,61.244489],[63.328373,61.241021],[63.328605,61.184041],[63.502313,61.183853],[63.499429,61.210883],[63.479403,61.210792],[63.482999,61.281549],[63.408845,61.281769],[63.410457,61.434132],[63.261645,61.432802],[63.255144,61.42904],[63.25977,61.419188],[63.240351,61.417845],[63.246299,61.40971],[63.221651,61.398289],[63.221266,61.39081],[63.23477,61.388371],[63.22606,61.384091],[63.229938,61.377059],[63.195627,61.359699],[63.206156,61.344492],[63.192425,61.322666],[63.111547,61.318565],[63.111288,61.276203],[63.095939,61.272436],[63.095959,61.255268],[63.068115,61.250821]]]}},{"type":"Feature","id":"140296-644","properties":{"id":"140296-644","name":"городской округ Ханты-Мансийск","name_ru":"городской округ Ханты-Мансийск","subject_id":"140296","subject_name":"Ханты-Мансийский автономный округ - Югра","source_gid":644,"source_fid":744,"names_rosstat":"Городской округ Ханты-Мансийск","population":113663,"area_km2":333.42033848817783,"density_km2":340.90001982296644,"source":"Актуализированный объединённый GeoJSON, предоставленный преподавателем","name_en":"Khanty-Mansiisk Urban Okrug","name_zh":"Khanty-Mansiisk城市辖区","subject_name_en":"Khanty-Mansiysk Autonomous Okrug – Ugra","subject_name_zh":"汉特-曼西自治区—尤格拉"},"geometry":{"type":"Polygon","coordinates":[[[68.931611,61.057081],[68.938923,61.043501],[68.971357,61.024202],[68.984298,61.001861],[68.98725,60.989883],[68.960831,60.987498],[68.976511,60.95043],[69.055005,60.923754],[69.063363,60.928399],[69.073373,60.91843],[69.091698,60.917288],[69.132299,60.938402],[69.136095,60.920585],[69.18684,60.925911],[69.20282,60.956963],[69.282605,60.957084],[69.292314,60.964168],[69.278115,60.964813],[69.276151,60.972199],[69.290203,60.976398],[69.277764,60.994665],[69.299914,61.009986],[69.343813,61.01753],[69.396379,61.00128],[69.418331,61.009474],[69.418363,61.034058],[69.384632,61.036294],[69.395387,61.046336],[69.381924,61.052683],[69.319937,61.047193],[69.290961,61.087032],[69.253285,61.113069],[69.21973,61.087406],[69.191186,61.078601],[69.154593,61.082973],[69.108738,61.108389],[69.063378,61.105241],[68.989656,61.086697],[68.971125,61.065509],[68.939687,61.068551],[68.931611,61.057081]]]}},{"type":"Feature","id":"140296-652","properties":{"id":"140296-652","name":"городской округ Мегион","name_ru":"городской округ Мегион","subject_id":"140296","subject_name":"Ханты-Мансийский автономный округ - Югра","source_gid":652,"source_fid":752,"names_rosstat":"Городской округ Мегион","population":59732,"area_km2":83.99004135791958,"density_km2":711.1795521739882,"source":"Актуализированный объединённый GeoJSON, предоставленный преподавателем","name_en":"Megion Urban Okrug","name_zh":"Megion城市辖区","subject_name_en":"Khanty-Mansiysk Autonomous Okrug – Ugra","subject_name_zh":"汉特-曼西自治区—尤格拉"},"geometry":{"type":"Polygon","coordinates":[[[75.932824,61.029565],[75.964229,61.015941],[76.028384,61.022455],[76.101941,61.017443],[76.120749,61.023217],[76.141747,61.046982],[76.189604,61.061465],[76.173047,61.071978],[76.184853,61.078965],[76.180743,61.089989],[76.132766,61.089694],[76.137143,61.103754],[76.124674,61.1036],[76.128902,61.11009],[76.016086,61.137141],[75.987219,61.153427],[75.976584,61.177324],[75.951954,61.173503],[75.944645,61.163338],[75.99142,61.143937],[75.986563,61.139668],[76.005485,61.132236],[76.013266,61.10908],[76.037025,61.110109],[76.038653,61.125554],[76.092821,61.112595],[76.108461,61.082743],[76.075966,61.065458],[76.048057,61.073186],[76.013249,61.057964],[75.978535,61.069856],[75.932824,61.029565]]]}},{"type":"Feature","id":"140296-653","properties":{"id":"140296-653","name":"Ханты-Мансийский район","name_ru":"Ханты-Мансийский район","subject_id":"140296","subject_name":"Ханты-Мансийский автономный округ - Югра","source_gid":653,"source_fid":753,"names_rosstat":"Ханты-Мансийский муниципальный район","population":19140,"area_km2":46039.61859035385,"density_km2":0.41572890015231756,"source":"Актуализированный объединённый GeoJSON, предоставленный преподавателем","name_en":"Khanty-Mansiiskii District","name_zh":"Khanty-Mansiiskii区","subject_name_en":"Khanty-Mansiysk Autonomous Okrug – Ugra","subject_name_zh":"汉特-曼西自治区—尤格拉"},"geometry":{"type":"Polygon","coordinates":[[[66.224614,61.380022],[66.32882,61.427786],[66.478273,61.379064],[66.51523,61.305876],[66.656859,61.274187],[66.759053,61.29404],[67.446868,61.515275],[67.451394,61.537897],[67.521939,61.559601],[67.503025,61.567768],[67.541742,61.577833],[67.533748,61.586867],[67.561839,61.581233],[67.574897,61.593951],[67.602689,61.592205],[67.630123,61.60379],[67.605882,61.632092],[67.63844,61.657035],[67.700658,61.658591],[67.727335,61.649385],[68.034005,61.742719],[68.033711,61.758017],[68.006193,61.776053],[68.016105,61.79895],[68.01254,61.812114],[68.024771,61.82325],[67.913745,61.839951],[67.876093,61.853896],[67.852325,61.881961],[67.867156,61.887212],[67.843708,61.897184],[67.86264,61.913902],[67.857432,61.929509],[67.770502,61.982284],[67.827749,62.019938],[67.831483,62.027433],[67.821334,62.043099],[67.843325,62.057042],[67.845624,62.079525],[67.811262,62.097703],[67.735219,62.100827],[67.735744,62.111075],[67.721603,62.116798],[67.724935,62.129236],[67.700139,62.15164],[67.600209,62.167699],[67.589974,62.192656],[67.532645,62.206805],[67.454738,62.176159],[67.415507,62.181713],[67.37866,62.212904],[67.380838,62.233521],[67.354608,62.244578],[67.368807,62.254534],[67.359403,62.264333],[67.279374,62.281499],[67.236938,62.283678],[67.207572,62.271404],[67.183256,62.281731],[67.332988,62.329706],[67.291167,62.353924],[67.339227,62.372174],[67.320238,62.386441],[67.333522,62.425876],[67.307896,62.446579],[67.30761,62.473319],[67.251309,62.505525],[67.230447,62.530778],[67.284233,62.542078],[67.357493,62.528346],[67.437713,62.53474],[67.451236,62.557788],[67.42162,62.565756],[67.403137,62.608266],[67.349941,62.607025],[67.324376,62.623963],[67.360889,62.637632],[67.353586,62.647966],[67.358963,62.653457],[67.380283,62.652706],[67.396655,62.664616],[67.374057,62.676333],[67.382069,62.686276],[67.541027,62.687064],[67.552185,62.672725],[67.581539,62.664134],[67.638187,62.667996],[67.641621,62.682732],[67.674579,62.675719],[67.759037,62.699418],[67.770195,62.7176],[67.745132,62.739388],[67.834396,62.775858],[67.968807,62.792423],[68.035927,62.811568],[68.047428,62.825997],[68.067856,62.831954],[68.165188,62.841358],[68.126735,62.89819],[68.179951,62.927658],[68.274879,62.913592],[68.394871,62.952179],[68.461303,62.943981],[68.484993,62.954521],[68.51263,62.987675],[68.56224,62.973482],[68.567727,62.956492],[68.55543,62.944395],[68.559322,62.917969],[68.621464,62.90812],[68.640195,62.890782],[68.647931,62.868987],[68.737078,62.817058],[68.758967,62.749607],[69.056511,62.559656],[69.166569,62.542334],[69.23554,62.504745],[69.363361,62.378384],[69.423427,62.282293],[69.451487,62.13204],[69.619142,62.066705],[69.983881,62.059181],[70.192668,62.009171],[70.231387,61.90671],[70.468212,61.788077],[70.536481,61.698641],[70.915319,61.379175],[70.792042,61.232928],[70.963129,61.16406],[70.991033,61.161554],[70.990178,61.105315],[70.952701,61.089951],[70.983774,61.065214],[71.003546,61.073491],[71.036722,61.059037],[71.024841,61.054748],[71.023959,61.038973],[70.982088,61.031318],[70.96708,61.036917],[70.968258,61.047654],[70.647314,60.819858],[70.139707,60.689228],[70.174204,60.570543],[70.183081,60.388202],[70.099046,60.233852],[70.382818,60.196855],[70.483719,60.063706],[70.594559,59.993908],[70.667531,59.903944],[70.732272,59.881718],[70.6919,59.870136],[70.396301,59.83958],[70.355959,59.866689],[70.289354,59.876923],[70.261807,59.910743],[70.20142,59.938097],[70.17374,59.936725],[70.134634,59.949924],[70.032025,59.941834],[69.997147,59.923073],[69.884539,59.923923],[69.829982,59.909717],[69.651104,59.909822],[69.622673,59.968004],[69.269762,59.989559],[69.168493,59.9663],[69.12866,59.943244],[69.132246,59.992086],[69.190892,60.028341],[69.244028,60.048421],[69.343475,60.055072],[69.444938,60.185062],[69.60546,60.316939],[69.473412,60.363017],[69.705308,60.509533],[69.705971,60.532642],[69.699143,60.536788],[69.705818,60.539895],[69.685376,60.542788],[69.690108,60.554444],[69.645869,60.566841],[69.624851,60.557314],[69.607591,60.56307],[69.608561,60.589997],[69.501736,60.629202],[69.128463,60.505812],[68.854715,60.532895],[68.586152,60.529882],[68.571309,60.314655],[68.489395,60.215629],[68.382417,60.176519],[67.83352,60.092127],[67.461025,60.065284],[67.355603,60.103199],[67.423076,60.348335],[67.458476,60.566055],[67.287056,60.576509],[67.268819,60.596783],[67.095766,60.582353],[66.994341,60.55074],[66.642747,60.594366],[66.683891,60.81734],[66.181761,61.191426],[66.156141,61.295925],[66.224614,61.380022]],[[68.932143,61.055128],[68.971357,61.024202],[68.984298,61.001861],[68.98725,60.989883],[68.960831,60.987498],[68.976511,60.95043],[69.055005,60.923754],[69.063363,60.928399],[69.073373,60.91843],[69.091698,60.917288],[69.132299,60.938402],[69.136095,60.920585],[69.18684,60.925911],[69.20282,60.956963],[69.282605,60.957084],[69.292314,60.964168],[69.278115,60.964813],[69.276151,60.972199],[69.290203,60.976398],[69.277764,60.994665],[69.299914,61.009986],[69.343813,61.01753],[69.396379,61.00128],[69.418331,61.009474],[69.418363,61.034058],[69.384632,61.036294],[69.395387,61.046336],[69.381924,61.052683],[69.319937,61.047193],[69.290961,61.087032],[69.253285,61.113069],[69.21973,61.087406],[69.191186,61.078601],[69.154593,61.082973],[69.108738,61.108389],[69.063378,61.105241],[68.989656,61.086697],[68.971125,61.065509],[68.939687,61.068551],[68.932143,61.055128]]]}},{"type":"Feature","id":"140296-659","properties":{"id":"140296-659","name":"городской округ Урай","name_ru":"городской округ Урай","subject_id":"140296","subject_name":"Ханты-Мансийский автономный округ - Югра","source_gid":659,"source_fid":759,"names_rosstat":"Городской округ Урай","population":41251,"area_km2":541.0907124501852,"density_km2":76.23675485614203,"source":"Актуализированный объединённый GeoJSON, предоставленный преподавателем","name_en":"Urai Urban Okrug","name_zh":"Urai城市辖区","subject_name_en":"Khanty-Mansiysk Autonomous Okrug – Ugra","subject_name_zh":"汉特-曼西自治区—尤格拉"},"geometry":{"type":"Polygon","coordinates":[[[64.549192,60.025618],[64.738037,60.025793],[64.74675,60.016331],[64.789704,60.015328],[64.790167,60.008581],[64.797137,60.015589],[65.038771,60.013222],[65.036452,60.078294],[65.053533,60.153468],[65.058319,60.236376],[64.840294,60.205496],[64.737428,60.208375],[64.619126,60.198048],[64.609264,60.182289],[64.61649,60.164014],[64.672592,60.142501],[64.672592,60.121637],[64.606613,60.120866],[64.607137,60.09808],[64.553577,60.098448],[64.549192,60.025618]]]}},{"type":"Feature","id":"140296-672","properties":{"id":"140296-672","name":"городской округ Сургут","name_ru":"городской округ Сургут","subject_id":"140296","subject_name":"Ханты-Мансийский автономный округ - Югра","source_gid":672,"source_fid":772,"names_rosstat":"Городской округ Сургут","population":432875,"area_km2":347.7640174132087,"density_km2":1244.7377483728098,"source":"Актуализированный объединённый GeoJSON, предоставленный преподавателем","name_en":"Surgut Urban Okrug","name_zh":"Surgut城市辖区","subject_name_en":"Khanty-Mansiysk Autonomous Okrug – Ugra","subject_name_zh":"汉特-曼西自治区—尤格拉"},"geometry":{"type":"Polygon","coordinates":[[[73.517505,61.238207],[73.345394,61.225249],[73.232655,61.252696],[73.282041,61.261396],[73.27131,61.263968],[73.281815,61.275435],[73.21928,61.276396],[73.235186,61.279249],[73.237062,61.300999],[73.218084,61.299424],[73.218582,61.309149],[73.275965,61.346648],[73.310525,61.356172],[73.48028,61.362042],[73.523586,61.339847],[73.629339,61.34704],[73.640179,61.337545],[73.715439,61.356005],[73.749801,61.380871],[73.783826,61.359666],[73.752146,61.345068],[73.75467,61.336156],[73.740383,61.319284],[73.70314,61.294433],[73.711173,61.282621],[73.685149,61.262921],[73.709383,61.245104],[73.698947,61.223403],[73.618643,61.222383],[73.517505,61.238207]]]}},{"type":"Feature","id":"140296-673","properties":{"id":"140296-673","name":"городской округ Радужный","name_ru":"городской округ Радужный","subject_id":"140296","subject_name":"Ханты-Мансийский автономный округ - Югра","source_gid":673,"source_fid":773,"names_rosstat":"Городской округ Радужный","population":45961,"area_km2":169.17172930622664,"density_km2":271.6825097697239,"source":"Актуализированный объединённый GeoJSON, предоставленный преподавателем","name_en":"Raduzhnyi Urban Okrug","name_zh":"Raduzhnyi城市辖区","subject_name_en":"Khanty-Mansiysk Autonomous Okrug – Ugra","subject_name_zh":"汉特-曼西自治区—尤格拉"},"geometry":{"type":"Polygon","coordinates":[[[77.217698,62.133973],[77.22305,62.125914],[77.228533,62.133417],[77.261185,62.133351],[77.263795,62.109081],[77.277774,62.103078],[77.29377,62.117359],[77.31278,62.107717],[77.308544,62.119734],[77.326055,62.103242],[77.327075,62.114999],[77.356534,62.122202],[77.423681,62.11282],[77.42544,62.10673],[77.41989,62.108982],[77.413883,62.106999],[77.424294,62.102147],[77.409727,62.096514],[77.430669,62.095408],[77.445357,62.089196],[77.439506,62.083242],[77.455753,62.083959],[77.450978,62.078202],[77.464898,62.080001],[77.466465,62.073012],[77.526845,62.091674],[77.538868,62.088912],[77.504778,62.079062],[77.516756,62.071341],[77.545249,62.077129],[77.547249,62.088876],[77.52554,62.092676],[77.542419,62.118573],[77.558566,62.189242],[77.550146,62.198782],[77.569167,62.209919],[77.580691,62.236947],[77.594276,62.243415],[77.585898,62.256924],[77.595974,62.260101],[77.593259,62.277057],[77.610932,62.292874],[77.591576,62.295567],[77.582096,62.291216],[77.584305,62.279526],[77.568989,62.281374],[77.576787,62.269713],[77.55404,62.261758],[77.555789,62.245795],[77.548141,62.2434],[77.559226,62.237587],[77.543036,62.233584],[77.552358,62.221109],[77.526862,62.21376],[77.523067,62.20745],[77.534363,62.204159],[77.523296,62.19404],[77.495743,62.186589],[77.474323,62.16626],[77.412846,62.171271],[77.433307,62.210888],[77.427897,62.219103],[77.389711,62.171827],[77.371294,62.18348],[77.365494,62.198388],[77.366294,62.217743],[77.3751,62.224038],[77.311394,62.228479],[77.273832,62.210761],[77.284773,62.207598],[77.277836,62.198728],[77.291953,62.185593],[77.280855,62.182644],[77.28663,62.181197],[77.277952,62.171057],[77.286556,62.171541],[77.288482,62.158756],[77.269975,62.134778],[77.217698,62.133973]]]}},{"type":"Feature","id":"140296-687","properties":{"id":"140296-687","name":"городской округ Пыть-Ях","name_ru":"городской округ Пыть-Ях","subject_id":"140296","subject_name":"Ханты-Мансийский автономный округ - Югра","source_gid":687,"source_fid":787,"names_rosstat":"Городской округ Пыть-Ях","population":41213,"area_km2":80.54345091999613,"density_km2":511.68654346505343,"source":"Актуализированный объединённый GeoJSON, предоставленный преподавателем","name_en":"Pyt'-Iakh Urban Okrug","name_zh":"Pyt'-Iakh城市辖区","subject_name_en":"Khanty-Mansiysk Autonomous Okrug – Ugra","subject_name_zh":"汉特-曼西自治区—尤格拉"},"geometry":{"type":"Polygon","coordinates":[[[72.703687,60.751635],[72.743482,60.740428],[72.738456,60.729879],[72.752239,60.72135],[72.757121,60.704136],[72.814017,60.713709],[72.816145,60.698841],[72.847728,60.69643],[72.825834,60.682734],[72.84122,60.679032],[72.825004,60.674016],[72.820985,60.666946],[72.829099,60.664252],[72.81432,60.659129],[72.818185,60.652352],[72.867826,60.646439],[72.890643,60.658966],[72.902305,60.703384],[72.874262,60.710385],[72.865364,60.727078],[72.878789,60.746154],[72.872233,60.767017],[72.888375,60.779297],[72.835543,60.775344],[72.830043,60.763836],[72.805124,60.763525],[72.773237,60.775377],[72.721178,60.777484],[72.703687,60.751635]]]}},{"type":"Feature","id":"140296-688","properties":{"id":"140296-688","name":"городской округ Нягань","name_ru":"городской округ Нягань","subject_id":"140296","subject_name":"Ханты-Мансийский автономный округ - Югра","source_gid":688,"source_fid":788,"names_rosstat":"Городской округ Нягань","population":63683,"area_km2":945.1647385094074,"density_km2":67.3776722779911,"source":"Актуализированный объединённый GeoJSON, предоставленный преподавателем","name_en":"Niagan' Urban Okrug","name_zh":"Niagan'城市辖区","subject_name_en":"Khanty-Mansiysk Autonomous Okrug – Ugra","subject_name_zh":"汉特-曼西自治区—尤格拉"},"geometry":{"type":"Polygon","coordinates":[[[65.159813,62.062546],[65.160853,62.006716],[65.191334,61.994366],[65.604605,61.990463],[65.60516,61.973553],[65.895874,61.96978],[65.891903,62.028031],[65.871233,62.034865],[65.880217,62.113999],[65.873752,62.150174],[65.825985,62.155856],[65.779521,62.172625],[65.760103,62.19464],[65.771304,62.203627],[65.762823,62.212358],[65.765484,62.225217],[65.795582,62.238892],[65.787749,62.243024],[65.791287,62.256248],[65.825701,62.273943],[65.839439,62.292369],[65.743138,62.298206],[65.664743,62.284185],[65.579334,62.283024],[65.500049,62.294025],[65.482192,62.285717],[65.458285,62.254721],[65.42817,62.196976],[65.159813,62.062546]]]}},{"type":"Feature","id":"140296-690","properties":{"id":"140296-690","name":"городской округ Нефтеюганск","name_ru":"городской округ Нефтеюганск","subject_id":"140296","subject_name":"Ханты-Мансийский автономный округ - Югра","source_gid":690,"source_fid":790,"names_rosstat":"Городской округ Нефтеюганск","population":127950,"area_km2":141.69022365248162,"density_km2":903.0263112140908,"source":"Актуализированный объединённый GeoJSON, предоставленный преподавателем","name_en":"Nefteiugansk Urban Okrug","name_zh":"Nefteiugansk城市辖区","subject_name_en":"Khanty-Mansiysk Autonomous Okrug – Ugra","subject_name_zh":"汉特-曼西自治区—尤格拉"},"geometry":{"type":"Polygon","coordinates":[[[72.421282,61.002884],[72.460784,61.010164],[72.488597,60.999739],[72.514173,61.019795],[72.540556,60.99817],[72.557512,61.002752],[72.567931,61.018021],[72.564965,61.035298],[72.526871,61.052369],[72.535309,61.066141],[72.530208,61.074334],[72.597339,61.084252],[72.603037,61.081056],[72.597166,61.068239],[72.620221,61.060438],[72.689721,61.075701],[72.759879,61.073784],[72.808646,61.094552],[72.748818,61.113719],[72.68697,61.101237],[72.68609,61.113736],[72.654921,61.131225],[72.611103,61.112256],[72.603032,61.119431],[72.61079,61.132918],[72.590079,61.134504],[72.601937,61.125821],[72.596219,61.122949],[72.529309,61.138823],[72.49156,61.125583],[72.474411,61.136424],[72.451819,61.128231],[72.464689,61.12274],[72.457981,61.119596],[72.475203,61.092657],[72.453253,61.086309],[72.421282,61.002884]]]}},{"type":"Feature","id":"140296-1059","properties":{"id":"140296-1059","name":"Советский район","name_ru":"Советский район","subject_id":"140296","subject_name":"Ханты-Мансийский автономный округ - Югра","source_gid":1059,"source_fid":1168,"names_rosstat":"Советский муниципальный район","population":46803,"area_km2":29808.670657902243,"density_km2":1.5701136269085043,"source":"Актуализированный объединённый GeoJSON, предоставленный преподавателем","name_en":"Sovetskii District","name_zh":"Sovetskii区","subject_name_en":"Khanty-Mansiysk Autonomous Okrug – Ugra","subject_name_zh":"汉特-曼西自治区—尤格拉"},"geometry":{"type":"Polygon","coordinates":[[[61.342616,61.619789],[61.166138,61.669326],[60.997419,61.694801],[60.906139,61.697293],[60.913059,61.756135],[60.895173,61.783093],[60.819628,61.804058],[60.867948,61.824779],[60.988825,61.83287],[60.988247,61.840291],[61.030786,61.848051],[61.024918,61.858191],[61.065458,61.862072],[61.071502,61.874935],[61.113517,61.883127],[61.123664,61.889598],[61.113286,61.903761],[61.145308,61.915676],[61.212803,61.918374],[61.293438,61.90148],[61.292082,61.893737],[61.324554,61.895739],[61.335216,61.904491],[61.327354,61.907613],[61.345115,61.915297],[61.333566,61.921043],[61.388428,61.942541],[61.393819,61.963552],[61.40998,61.967939],[61.403216,61.97163],[61.425742,61.964034],[61.443887,61.977769],[61.451075,61.972467],[61.501497,61.984533],[61.47213,61.998253],[61.43064,61.99931],[61.454268,62.021358],[61.43718,62.021496],[61.405559,62.03856],[61.399571,62.046811],[61.414701,62.058339],[61.534554,62.057756],[61.593275,62.074618],[61.630951,62.070558],[61.628268,62.077939],[61.637273,62.080243],[61.623966,62.089726],[61.627938,62.098485],[61.709295,62.106623],[61.714416,62.12095],[61.736172,62.120804],[61.728445,62.124595],[61.75623,62.130813],[61.764409,62.143239],[61.796432,62.140973],[61.824048,62.152108],[61.820464,62.160956],[61.844069,62.166489],[61.837393,62.172684],[61.850991,62.182153],[61.84264,62.188694],[61.847873,62.192311],[61.872591,62.195335],[61.891633,62.187156],[61.907337,62.189447],[61.910901,62.197979],[61.931843,62.195957],[61.937981,62.204612],[61.963525,62.195495],[61.976203,62.200742],[61.977079,62.213537],[61.991328,62.217703],[62.008178,62.209595],[61.992134,62.206537],[61.996073,62.202398],[62.114866,62.209288],[62.109166,62.203554],[62.128621,62.196497],[62.131706,62.183139],[62.156212,62.181044],[62.150696,62.179027],[62.156709,62.169427],[62.186054,62.172177],[62.187685,62.163942],[62.202771,62.161801],[62.192616,62.158127],[62.22457,62.14426],[62.389403,62.186802],[62.449126,62.222853],[62.502928,62.233041],[62.61469,62.190283],[62.640801,62.187745],[62.681159,62.15777],[63.049599,62.201449],[63.51751,62.198352],[63.786656,62.212246],[63.884393,62.233685],[64.005623,62.242684],[64.03007,62.257239],[64.02003,62.273395],[64.027398,62.283448],[64.086662,62.288473],[64.26904,62.275556],[64.281961,62.241109],[64.380165,62.239344],[64.434999,62.200561],[64.496863,62.222887],[64.552832,62.21201],[64.555064,62.196858],[64.599379,62.174849],[64.687676,62.199481],[64.740403,62.100586],[64.636625,62.033776],[64.569488,62.009289],[64.564764,61.98561],[64.77861,61.891708],[64.790596,61.831389],[64.857032,61.777931],[64.890107,61.729481],[65.108338,61.73255],[65.183856,61.742156],[65.336402,61.795338],[65.560305,61.813993],[65.632989,61.786246],[65.862279,61.730966],[65.791108,61.656799],[65.895269,61.409447],[66.156141,61.295925],[65.327569,61.108353],[64.892695,60.901288],[64.496703,60.794264],[63.834504,60.619998],[63.054868,60.469367],[62.867383,60.653825],[62.760156,60.853321],[62.826001,61.000529],[62.645589,61.170651],[62.483555,61.260973],[61.890521,61.406809],[61.88651,61.436579],[61.342616,61.619789]],[[63.074599,61.243958],[63.163965,61.247111],[63.262865,61.270659],[63.284141,61.283405],[63.323429,61.283362],[63.318645,61.244489],[63.328373,61.241021],[63.328605,61.184041],[63.502313,61.183853],[63.499429,61.210883],[63.479403,61.210792],[63.482999,61.281549],[63.408845,61.281769],[63.410457,61.434132],[63.255301,61.429244],[63.25977,61.419188],[63.240351,61.417845],[63.246299,61.40971],[63.221651,61.398289],[63.221266,61.39081],[63.23477,61.388371],[63.22606,61.384091],[63.229938,61.377059],[63.195627,61.359699],[63.206156,61.344492],[63.192425,61.322666],[63.111547,61.318565],[63.111288,61.276203],[63.095939,61.272436],[63.095959,61.255268],[63.068115,61.250821],[63.074599,61.243958]]]}},{"type":"Feature","id":"140296-1060","properties":{"id":"140296-1060","name":"Берёзовский район","name_ru":"Берёзовский район","subject_id":"140296","subject_name":"Ханты-Мансийский автономный округ - Югра","source_gid":1060,"source_fid":1169,"names_rosstat":"Березовский муниципальный район","population":22563,"area_km2":88196.35268304171,"density_km2":0.25582690568947286,"source":"Актуализированный объединённый GeoJSON, предоставленный преподавателем","name_en":"Beriozovskii District","name_zh":"Beriozovskii区","subject_name_en":"Khanty-Mansiysk Autonomous Okrug – Ugra","subject_name_zh":"汉特-曼西自治区—尤格拉"},"geometry":{"type":"Polygon","coordinates":[[[59.429611,62.629524],[59.429222,62.649507],[59.442652,62.659514],[59.404044,62.671574],[59.410605,62.705249],[59.395532,62.721523],[59.370275,62.725215],[59.386174,62.729578],[59.389112,62.74109],[59.358958,62.750549],[59.414437,62.759843],[59.433324,62.778261],[59.444318,62.829926],[59.440126,62.8548],[59.447386,62.861126],[59.442511,62.875595],[59.461376,62.885201],[59.462157,62.898072],[59.448785,62.917722],[59.434059,62.91825],[59.414852,62.933238],[59.325204,62.942026],[59.295147,62.963801],[59.294269,62.974472],[59.22443,62.982778],[59.203794,63.027597],[59.233202,63.055274],[59.231031,63.06546],[59.24243,63.079825],[59.225312,63.089303],[59.256881,63.104891],[59.289411,63.104993],[59.322729,63.123803],[59.287804,63.164708],[59.287023,63.183193],[59.32032,63.196928],[59.304599,63.203292],[59.331562,63.229375],[59.33408,63.248236],[59.365877,63.251827],[59.358059,63.257037],[59.366262,63.266174],[59.339437,63.281208],[59.342785,63.293371],[59.321766,63.321088],[59.335346,63.341409],[59.32712,63.34951],[59.365401,63.35941],[59.373906,63.369468],[59.31083,63.387493],[59.377966,63.422055],[59.405096,63.464208],[59.404394,63.479046],[59.443717,63.50197],[59.450336,63.515241],[59.439594,63.536424],[59.471299,63.5528],[59.478206,63.623542],[59.487851,63.627083],[59.473758,63.638907],[59.497666,63.654699],[59.500314,63.687782],[59.533146,63.712847],[59.521965,63.724038],[59.533813,63.745989],[59.525568,63.769192],[59.540537,63.777135],[59.53333,63.806853],[59.571,63.841078],[59.58006,63.862522],[59.559964,63.884864],[59.561302,63.908559],[59.720931,63.960818],[59.724087,63.975114],[59.753821,63.983875],[59.769151,64.000561],[59.756648,64.013925],[59.768227,64.040679],[59.836947,64.087144],[59.822797,64.094158],[59.824417,64.106087],[59.815258,64.113685],[59.828359,64.134407],[59.768183,64.142667],[59.744113,64.136433],[59.681714,64.147693],[59.663953,64.176156],[59.621019,64.196979],[59.633636,64.214421],[59.582875,64.225081],[59.582699,64.234297],[59.558743,64.243126],[59.573857,64.252405],[59.57123,64.273784],[59.58462,64.30018],[59.601371,64.311549],[59.600077,64.333729],[59.625999,64.340828],[59.653528,64.37572],[59.62263,64.387376],[59.628571,64.402161],[59.616166,64.408627],[59.651175,64.433148],[59.645359,64.447183],[59.590241,64.475978],[59.601522,64.488403],[59.598435,64.497467],[59.507163,64.490439],[59.464282,64.495798],[59.466195,64.505842],[59.527299,64.522615],[59.536323,64.540316],[59.556749,64.544007],[59.552363,64.557212],[59.573207,64.576099],[59.572228,64.593267],[59.610145,64.610271],[59.628332,64.631852],[59.63141,64.638482],[59.615421,64.645103],[59.618335,64.649917],[59.65633,64.6571],[59.735353,64.652616],[59.751588,64.667875],[59.72439,64.692999],[59.671465,64.698248],[59.659485,64.703004],[59.661486,64.711317],[59.625835,64.724431],[59.640086,64.742883],[59.630037,64.762903],[59.650593,64.768984],[59.645246,64.778884],[59.624457,64.784944],[59.632805,64.796463],[59.624632,64.803266],[59.675885,64.801337],[59.72413,64.825948],[59.707385,64.837403],[59.736829,64.845162],[59.72739,64.85199],[59.749399,64.869135],[59.739131,64.876181],[59.764515,64.879618],[59.811143,64.910905],[59.865213,64.895313],[59.888641,64.902518],[59.880203,64.920624],[59.89229,64.93224],[59.946883,64.944257],[60.004264,64.940776],[60.009951,64.955301],[60.03617,64.96018],[60.028878,64.975863],[60.04991,64.979848],[60.057463,64.996658],[60.036908,65.009899],[60.034962,65.029011],[60.100455,65.037841],[60.124019,65.05449],[60.173897,65.05166],[60.203559,65.076943],[60.217851,65.079341],[60.288767,65.076503],[60.35556,65.060169],[60.375656,65.07248],[60.420103,65.065679],[60.443906,65.056199],[60.439589,65.043188],[60.448913,65.038308],[60.428405,65.023475],[60.434454,65.006741],[60.48998,64.988787],[60.514977,64.963025],[60.594204,64.941655],[60.590947,64.930639],[60.615005,64.918941],[60.72944,64.925505],[60.755592,64.943072],[60.752769,64.95907],[60.765621,64.967302],[60.752001,64.979377],[60.773757,64.982517],[60.768256,64.991089],[60.794563,65.004511],[60.807603,65.024967],[60.849878,65.027732],[60.945244,65.012698],[60.957047,65.02931],[60.987326,65.045153],[60.995155,65.066361],[61.076999,65.082361],[61.091847,65.107287],[61.081898,65.127847],[61.096964,65.137495],[61.091864,65.151089],[61.107646,65.162295],[61.137374,65.174495],[61.166163,65.167684],[61.193366,65.176767],[61.28627,65.172494],[61.298304,65.204766],[61.281404,65.211969],[61.323386,65.219914],[61.364979,65.250371],[61.351023,65.256621],[61.358588,65.282884],[61.295144,65.277068],[61.29793,65.288524],[61.284792,65.296569],[61.284586,65.310261],[61.298457,65.327348],[61.347974,65.358507],[61.41767,65.386712],[61.46257,65.444986],[61.493378,65.456103],[61.524417,65.494941],[61.563079,65.513536],[61.571082,65.528201],[61.620124,65.560072],[61.669245,65.558472],[61.68843,65.574578],[61.736205,65.58468],[61.742886,65.589903],[61.702932,65.602738],[61.822042,65.637697],[61.83037,65.644097],[61.814891,65.652638],[61.821452,65.66195],[61.878141,65.667982],[61.858602,65.686944],[61.955117,65.69501],[61.961464,65.7052],[62.004789,65.717159],[62.069355,65.700785],[62.085646,65.685751],[62.155129,65.658611],[62.162845,65.641382],[62.265281,65.632345],[62.306307,65.586818],[62.31297,65.535157],[62.425405,65.503702],[62.366543,65.43211],[62.45511,65.338807],[62.872114,65.290589],[62.817293,65.19469],[62.823741,65.054607],[62.784569,65.007945],[62.750244,64.935124],[62.72135,64.930391],[62.695285,64.87343],[62.807012,64.840715],[62.822519,64.789863],[62.802971,64.775991],[62.811534,64.736448],[62.731729,64.682102],[62.589629,64.640373],[62.598903,64.622727],[62.557643,64.558547],[62.714807,64.496628],[62.834749,64.505259],[62.91439,64.467369],[62.984144,64.49865],[63.052354,64.515668],[63.244574,64.521154],[63.393418,64.464476],[63.477518,64.456145],[63.516973,64.363156],[63.410065,64.333669],[63.50434,64.291577],[63.59398,64.294836],[63.61126,64.270514],[63.913423,64.287707],[63.962628,64.335849],[64.043311,64.359353],[64.482332,64.371083],[64.603817,64.442677],[64.724249,64.430431],[64.983107,64.470057],[65.177271,64.468093],[65.376251,64.555755],[65.662203,64.558111],[65.737252,64.531653],[65.771008,64.503932],[65.848176,64.479199],[65.906141,64.404641],[65.911426,64.374926],[65.901901,64.360243],[65.757811,64.300114],[65.78083,64.273954],[65.773296,64.259753],[65.781394,64.250473],[65.777726,64.237941],[65.830123,64.222369],[65.825296,64.207814],[65.777317,64.17544],[65.783992,64.159758],[65.763731,64.146243],[65.76665,64.132823],[65.793769,64.122562],[65.773606,64.102345],[65.792007,64.076652],[65.776016,64.070074],[65.762426,64.079442],[65.756066,64.070689],[65.769902,64.051734],[65.732021,64.042182],[65.67934,64.042273],[65.702102,64.023249],[65.619028,63.996149],[65.588473,63.9577],[65.577554,63.909417],[65.564641,63.898871],[65.46372,63.892632],[65.437858,63.857276],[65.474435,63.845142],[65.47748,63.823278],[65.469406,63.813337],[65.422612,63.802654],[65.390829,63.781512],[65.355188,63.792679],[65.302537,63.782042],[65.305104,63.771636],[65.353499,63.735062],[65.353877,63.711408],[65.3407,63.700953],[65.333672,63.662875],[65.354442,63.650715],[65.347447,63.635264],[65.35342,63.623736],[65.340278,63.603521],[65.25724,63.579562],[65.315987,63.559479],[65.31805,63.547443],[65.294536,63.527392],[65.303015,63.510016],[65.298401,63.484529],[65.351532,63.477661],[65.215511,63.418883],[65.090788,63.387288],[65.013009,63.354107],[65.00648,63.355899],[65.014742,63.360639],[64.989318,63.367547],[64.848856,63.35396],[64.767493,63.279556],[64.790601,63.254057],[64.634624,63.027166],[64.68776,62.957965],[64.687908,62.859022],[64.709592,62.770167],[64.736017,62.710734],[64.831465,62.611709],[64.841931,62.49185],[64.657255,62.431658],[64.694452,62.369525],[64.868508,62.28775],[64.814315,62.246438],[64.671706,62.238385],[64.687676,62.199481],[64.678262,62.194944],[64.599379,62.174849],[64.555064,62.196858],[64.552832,62.21201],[64.496863,62.222887],[64.434999,62.200561],[64.380165,62.239344],[64.281961,62.241109],[64.26904,62.275556],[64.086662,62.288473],[64.027398,62.283448],[64.02003,62.273395],[64.03007,62.257239],[64.005623,62.242684],[63.884393,62.233685],[63.786656,62.212246],[63.51751,62.198352],[63.049599,62.201449],[62.681159,62.15777],[62.640801,62.187745],[62.61469,62.190283],[62.502928,62.233041],[62.449126,62.222853],[62.389403,62.186802],[62.22457,62.14426],[62.192616,62.158127],[62.202771,62.161801],[62.187685,62.163942],[62.186054,62.172177],[62.156709,62.169427],[62.150696,62.179027],[62.156212,62.181044],[62.131706,62.183139],[62.128621,62.196497],[62.109166,62.203554],[62.114866,62.209288],[61.996073,62.202398],[61.992134,62.206537],[62.008178,62.209595],[61.991328,62.217703],[61.977079,62.213537],[61.976203,62.200742],[61.963525,62.195495],[61.937981,62.204612],[61.931843,62.195957],[61.910901,62.197979],[61.907337,62.189447],[61.891633,62.187156],[61.872591,62.195335],[61.847873,62.192311],[61.84264,62.188694],[61.850991,62.182153],[61.837393,62.172684],[61.844069,62.166489],[61.820464,62.160956],[61.824048,62.152108],[61.796432,62.140973],[61.764409,62.143239],[61.75623,62.130813],[61.728445,62.124595],[61.736172,62.120804],[61.714416,62.12095],[61.709295,62.106623],[61.627938,62.098485],[61.623966,62.089726],[61.637273,62.080243],[61.628268,62.077939],[61.630951,62.070558],[61.593275,62.074618],[61.534554,62.057756],[61.414701,62.058339],[61.399571,62.046811],[61.405559,62.03856],[61.43718,62.021496],[61.454268,62.021358],[61.43064,61.99931],[61.47213,61.998253],[61.501497,61.984533],[61.451075,61.972467],[61.443887,61.977769],[61.425742,61.964034],[61.403216,61.97163],[61.40998,61.967939],[61.393819,61.963552],[61.388428,61.942541],[61.333566,61.921043],[61.345115,61.915297],[61.327354,61.907613],[61.335216,61.904491],[61.324554,61.895739],[61.292082,61.893737],[61.293438,61.90148],[61.212803,61.918374],[61.145308,61.915676],[61.113286,61.903761],[61.123664,61.889598],[61.113517,61.883127],[61.071502,61.874935],[61.065458,61.862072],[61.024918,61.858191],[61.030786,61.848051],[60.988247,61.840291],[60.988825,61.83287],[60.867948,61.824779],[60.819628,61.804058],[60.895173,61.783093],[60.913059,61.756135],[60.906139,61.697293],[60.51461,61.7357],[59.998013,61.718376],[59.982369,61.721994],[59.943911,61.754443],[59.959173,61.778046],[59.940581,61.794511],[59.950425,61.818704],[59.94454,61.833399],[59.975228,61.850589],[59.9798,61.871935],[59.973237,61.882572],[59.926947,61.899152],[59.825195,61.906402],[59.717313,61.93057],[59.629509,61.91755],[59.582956,61.945425],[59.507153,61.936895],[59.489022,61.946615],[59.465313,61.995063],[59.437612,62.000134],[59.442716,62.016351],[59.424375,62.049368],[59.436954,62.057123],[59.429432,62.072893],[59.432863,62.095088],[59.401369,62.104504],[59.399401,62.157112],[59.442216,62.184506],[59.435055,62.192892],[59.456758,62.206849],[59.449206,62.217826],[59.457766,62.226984],[59.454645,62.236215],[59.489865,62.24596],[59.501466,62.258452],[59.510373,62.278926],[59.492303,62.29769],[59.516362,62.312962],[59.514311,62.321539],[59.567799,62.333369],[59.588479,62.36416],[59.614206,62.374869],[59.619666,62.406555],[59.582433,62.419287],[59.605768,62.443456],[59.609656,62.480006],[59.623762,62.504515],[59.619188,62.514127],[59.629845,62.522176],[59.635486,62.547535],[59.551061,62.545566],[59.5085,62.562821],[59.444198,62.56477],[59.471717,62.604623],[59.429611,62.629524]]]}},{"type":"Feature","id":"140296-1061","properties":{"id":"140296-1061","name":"Кондинский район","name_ru":"Кондинский район","subject_id":"140296","subject_name":"Ханты-Мансийский автономный округ - Югра","source_gid":1061,"source_fid":1170,"names_rosstat":"Кондинский муниципальный район","population":30211,"area_km2":54647.639055724496,"density_km2":0.5528326661869817,"source":"Актуализированный объединённый GeoJSON, предоставленный преподавателем","name_en":"Kondinskii District","name_zh":"Kondinskii区","subject_name_en":"Khanty-Mansiysk Autonomous Okrug – Ugra","subject_name_zh":"汉特-曼西自治区—尤格拉"},"geometry":{"type":"Polygon","coordinates":[[[63.054868,60.469367],[63.834504,60.619998],[64.892695,60.901288],[65.327569,61.108353],[66.156141,61.295925],[66.181761,61.191426],[66.683891,60.81734],[66.642747,60.594366],[66.994341,60.55074],[67.095766,60.582353],[67.268819,60.596783],[67.287056,60.576509],[67.458476,60.566055],[67.423076,60.348335],[67.355603,60.103199],[67.461025,60.065284],[67.83352,60.092127],[68.382417,60.176519],[68.489395,60.215629],[68.571309,60.314655],[68.586152,60.529882],[68.854715,60.532895],[69.128463,60.505812],[69.501736,60.629202],[69.608561,60.589997],[69.607591,60.56307],[69.625483,60.557378],[69.645346,60.566916],[69.690108,60.554444],[69.68513,60.543023],[69.705459,60.540312],[69.699143,60.536788],[69.706003,60.532208],[69.705308,60.509533],[69.473412,60.363017],[69.60546,60.316939],[69.444938,60.185062],[69.343475,60.055072],[69.244028,60.048421],[69.190892,60.028341],[69.132246,59.992086],[69.12866,59.943244],[69.073243,59.905946],[69.143322,59.88242],[69.304498,59.785182],[69.309001,59.769649],[69.051356,59.68959],[68.732573,59.56958],[68.573477,59.588587],[68.501434,59.43638],[68.394942,59.298175],[68.261432,59.238109],[68.099485,59.203184],[67.784056,59.201438],[67.723895,59.190565],[67.650316,59.160383],[67.611946,59.104145],[67.299895,59.024108],[67.053709,58.926838],[66.984587,58.971419],[66.968664,58.972163],[66.772472,58.923282],[66.785238,58.656545],[66.455932,58.607422],[66.357267,58.579853],[66.29088,58.594497],[65.95046,58.614544],[65.655411,58.658297],[65.372685,58.898952],[65.339848,59.008879],[65.236303,59.205575],[65.215086,59.215887],[65.152222,59.20943],[65.121715,59.216335],[65.115361,59.230536],[65.121911,59.234112],[65.087765,59.247174],[65.093449,59.264396],[65.071861,59.311866],[64.490067,59.376618],[64.020466,59.381857],[63.874313,59.461301],[63.848733,59.566735],[63.824947,59.744732],[63.802679,59.801743],[63.605936,60.101704],[63.618227,60.115541],[63.604882,60.125358],[63.606047,60.137165],[63.534781,60.130733],[63.492774,60.14787],[63.444274,60.150103],[63.18084,60.224474],[63.22573,60.294206],[63.054868,60.469367]],[[64.550707,60.02562],[64.738037,60.025793],[64.74675,60.016331],[64.789704,60.015328],[64.790167,60.008581],[64.797137,60.015589],[65.038771,60.013222],[65.036452,60.078294],[65.053533,60.153468],[65.058319,60.236376],[64.840294,60.205496],[64.737428,60.208375],[64.619126,60.198048],[64.609264,60.182289],[64.61649,60.164014],[64.672592,60.142501],[64.672592,60.121637],[64.606613,60.120866],[64.607137,60.09808],[64.553577,60.098448],[64.550707,60.02562]]]}},{"type":"Feature","id":"140296-1062","properties":{"id":"140296-1062","name":"Нижневартовский район","name_ru":"Нижневартовский район","subject_id":"140296","subject_name":"Ханты-Мансийский автономный округ - Югра","source_gid":1062,"source_fid":1171,"names_rosstat":"Нижневартовский муниципальный район","population":38925,"area_km2":117141.46060218207,"density_km2":0.3322905468303075,"source":"Актуализированный объединённый GeoJSON, предоставленный преподавателем","name_en":"Nizhnevartovskii District","name_zh":"Nizhnevartovskii区","subject_name_en":"Khanty-Mansiysk Autonomous Okrug – Ugra","subject_name_zh":"汉特-曼西自治区—尤格拉"},"geometry":{"type":"Polygon","coordinates":[[[85.696583,61.283816],[84.735082,61.014263],[84.65392,61.003498],[84.26311,60.862518],[83.949694,60.836217],[83.476909,61.035672],[83.156683,61.026795],[82.376451,60.706879],[82.409601,60.608155],[82.167305,60.51634],[81.879534,60.639791],[81.584263,60.637983],[81.458741,60.607139],[81.10419,60.642048],[81.098435,60.663329],[81.082297,60.66997],[81.068862,60.693159],[81.052447,60.755725],[80.98408,60.774523],[80.704837,60.802779],[80.639059,60.770738],[80.404972,60.750197],[80.200997,60.675322],[79.939951,60.670231],[79.653362,60.686547],[79.615639,60.672764],[79.510537,60.668093],[79.390266,60.634863],[79.369712,60.65379],[79.375571,60.658446],[79.344381,60.669003],[79.352092,60.672801],[79.342262,60.686058],[79.330866,60.686888],[79.337422,60.692673],[79.31044,60.691308],[79.311949,60.702768],[79.296047,60.707553],[79.304838,60.715572],[79.288479,60.720734],[79.306394,60.747471],[79.279296,60.761299],[79.316337,60.774114],[79.300737,60.785069],[79.308158,60.796191],[79.279915,60.807501],[79.251645,60.804416],[79.255593,60.810251],[79.21655,60.816535],[79.221921,60.823887],[79.212947,60.826272],[79.197474,60.817407],[79.199616,60.82342],[79.186377,60.82399],[79.191686,60.827533],[79.165581,60.825724],[79.153237,60.820532],[79.153634,60.811877],[79.129333,60.816579],[79.126435,60.808479],[79.101576,60.819692],[79.08976,60.81012],[79.098756,60.80534],[79.083266,60.799941],[79.063779,60.80582],[79.069346,60.810026],[79.058246,60.811659],[79.060198,60.817515],[79.043078,60.818764],[79.039013,60.802741],[79.010386,60.810437],[79.000473,60.803082],[78.984749,60.808112],[78.992441,60.816197],[78.985516,60.820424],[78.973753,60.816158],[78.981468,60.811128],[78.970772,60.807813],[78.975991,60.805705],[78.963116,60.810513],[78.952858,60.803931],[78.969836,60.800778],[78.956944,60.798786],[78.96461,60.791843],[78.953258,60.796404],[78.948955,60.788547],[78.95104,60.796344],[78.940269,60.791211],[78.939829,60.796784],[78.927451,60.790936],[78.919803,60.797956],[78.899516,60.785858],[78.905438,60.779102],[78.886634,60.779792],[78.858519,60.762256],[78.850668,60.770488],[78.846367,60.763892],[78.818957,60.767403],[78.795631,60.758514],[78.795518,60.749188],[78.761663,60.754053],[78.767868,60.757105],[78.759689,60.765414],[78.777471,60.765298],[78.765547,60.781329],[78.718893,60.797395],[78.719146,60.810567],[78.697947,60.825218],[78.643613,60.816434],[78.487268,60.763884],[78.194368,60.802351],[78.088345,60.796784],[77.969963,60.740696],[77.889358,60.778865],[77.704323,60.81999],[77.432839,60.81098],[77.37278,60.819178],[77.31083,60.839647],[77.253222,60.83968],[77.196626,60.856151],[77.110482,60.858519],[77.073126,60.842046],[77.093662,60.828444],[77.075932,60.821776],[77.099577,60.822014],[77.090429,60.802042],[77.067173,60.794034],[77.079709,60.786652],[77.070297,60.781304],[77.080277,60.76904],[77.11381,60.744261],[77.097546,60.70529],[77.014167,60.692974],[77.025737,60.679082],[76.985614,60.663286],[77.009421,60.662789],[77.009356,60.653783],[76.961555,60.660845],[76.980036,60.654238],[76.958644,60.648174],[76.972208,60.636085],[76.95564,60.628484],[77.036052,60.614186],[77.047751,60.625601],[77.049832,60.613468],[77.063745,60.612074],[77.055649,60.607273],[77.061493,60.598263],[77.045653,60.593509],[77.041853,60.582707],[77.063418,60.576346],[77.051403,60.570462],[77.063932,60.559433],[77.056556,60.549638],[77.067065,60.542275],[77.060643,60.539297],[77.072363,60.533648],[77.060608,60.537253],[77.058491,60.533967],[77.072045,60.523327],[77.051596,60.519949],[77.043501,60.50756],[76.989072,60.511124],[76.969392,60.496937],[76.924445,60.490277],[76.914799,60.481606],[76.799347,60.468751],[76.798676,60.459326],[76.818667,60.451436],[76.800761,60.438801],[76.812846,60.421192],[76.773459,60.405819],[76.765781,60.394797],[76.77512,60.382525],[76.756215,60.377619],[76.770454,60.36771],[76.75464,60.351776],[76.771295,60.345607],[76.764441,60.328113],[76.790998,60.328342],[76.815824,60.314444],[76.813914,60.307604],[76.829549,60.309714],[76.837557,60.292376],[76.866911,60.274762],[76.850307,60.264683],[76.861715,60.258334],[76.855312,60.255185],[76.85713,60.233507],[76.831701,60.219247],[76.841623,60.210673],[76.833529,60.202953],[76.840793,60.195694],[76.827956,60.179729],[76.797185,60.163307],[76.790061,60.148209],[76.714021,60.115555],[76.772433,60.065674],[76.75775,60.001698],[76.772889,59.991184],[76.740547,59.711208],[76.668362,59.685041],[76.628067,59.686614],[76.515956,59.721962],[76.312645,59.751014],[76.229071,59.823299],[76.138606,59.859318],[75.768517,59.947348],[75.710613,59.969217],[75.644061,59.97933],[75.415346,59.986644],[75.418976,60.082927],[75.205415,60.17533],[75.059345,60.17756],[75.057653,60.285935],[75.107097,60.286044],[75.107055,60.313217],[75.13998,60.31355],[75.131618,60.425783],[75.072775,60.426644],[75.071217,60.459957],[75.043384,60.460029],[75.040209,60.49579],[75.005081,60.496593],[74.9994,60.624476],[74.96572,60.626248],[74.962049,60.662855],[74.889405,60.66286],[74.885953,60.710054],[74.509805,60.714684],[74.511883,60.895953],[74.798373,60.893356],[74.798862,60.931239],[75.038123,60.928564],[75.038613,60.960886],[75.178435,60.963691],[75.185546,60.999088],[75.148998,60.998696],[75.145746,61.035053],[75.251128,61.037793],[75.249862,61.051965],[75.232907,61.065586],[75.28028,61.089205],[75.246759,61.146545],[75.261368,61.161935],[75.212916,61.159268],[75.221576,61.190149],[75.161005,61.189291],[75.15165,61.199465],[75.1567,61.218561],[75.132013,61.229727],[75.144424,61.240896],[75.171417,61.218624],[75.239948,61.22271],[75.262166,61.244666],[75.268639,61.242711],[75.266662,61.240661],[75.267978,61.236929],[75.274924,61.23377],[75.270454,61.243001],[75.259688,61.246265],[75.270095,61.264162],[75.267765,61.278347],[75.24371,61.284723],[75.256137,61.296571],[75.245904,61.299059],[75.234956,61.287653],[75.208542,61.296693],[75.18076,61.290537],[75.175105,61.298959],[75.172096,61.299642],[75.180218,61.290435],[75.149022,61.282764],[75.147354,61.267757],[75.087284,61.265592],[75.066949,61.276833],[75.081,61.265393],[75.05456,61.255249],[75.007059,61.259247],[75.04428,61.277882],[75.030883,61.278265],[75.031122,61.284812],[75.065338,61.288803],[75.057252,61.29718],[75.071878,61.304927],[75.054734,61.319718],[75.074145,61.331369],[75.064899,61.334194],[75.029924,61.317673],[75.031561,61.310275],[74.986528,61.264935],[74.959426,61.257242],[74.886875,61.277786],[74.809488,61.277996],[74.805534,61.282723],[74.819576,61.28809],[74.841051,61.283844],[74.857628,61.30308],[74.812092,61.30063],[74.818198,61.335102],[74.800968,61.342326],[74.803199,61.34814],[74.792126,61.346847],[74.808144,61.428296],[74.8222,61.43221],[74.779578,61.449168],[74.777847,61.481601],[74.669853,61.483158],[74.669377,61.51711],[74.750148,61.516511],[74.74988,61.667111],[74.796039,61.667246],[74.795591,61.84628],[74.783245,62.029487],[76.001852,62.031153],[76.000543,62.17333],[76.493234,62.169975],[76.498886,62.994767],[76.666942,63.03481],[76.851631,62.988709],[76.891352,62.990745],[77.025564,62.971984],[77.136819,62.811422],[77.378102,62.707897],[77.870423,62.575949],[78.092906,62.464098],[78.134596,62.492828],[78.405963,62.560355],[78.519467,62.561092],[78.739462,62.602213],[79.251138,62.606674],[79.441803,62.617593],[79.552333,62.604199],[79.84344,62.608557],[79.901957,62.725197],[79.893157,62.769394],[79.924649,62.794086],[79.971252,62.812941],[80.030079,62.807614],[80.093017,62.817933],[80.186641,62.864102],[80.283708,62.893737],[80.304757,62.912402],[80.381905,62.932537],[80.463206,62.967335],[80.481344,62.988404],[80.551913,62.989521],[80.588787,63.010208],[80.588381,63.078139],[80.680919,63.115941],[80.921948,63.156636],[81.037019,63.147459],[81.042082,63.066695],[81.09632,63.011204],[81.139855,62.992704],[81.1503,62.968745],[81.221253,62.933246],[81.319859,62.909914],[81.29125,62.858547],[81.396059,62.815746],[81.638742,62.779396],[81.665461,62.730553],[81.741175,62.705005],[81.841287,62.695857],[81.945271,62.746047],[82.043505,62.767293],[82.159325,62.813008],[82.291288,62.76593],[82.385112,62.76133],[82.460168,62.775159],[82.761864,62.749446],[82.76813,62.684015],[82.758996,62.659955],[83.049317,62.589347],[83.023482,62.526334],[83.324248,62.45803],[83.553267,62.527374],[83.563731,62.498239],[83.622688,62.503169],[83.814028,62.569876],[83.960389,62.490159],[84.005784,62.409364],[84.102061,62.377306],[84.23908,62.381468],[84.265473,62.347031],[84.302154,62.323019],[84.298348,62.269345],[84.386936,62.25079],[84.422695,62.232802],[84.448072,62.165132],[84.491986,62.098471],[84.490848,62.031781],[84.523857,61.990612],[84.514287,61.967348],[84.519392,61.927839],[84.545507,61.902352],[84.624693,61.867088],[84.63959,61.831949],[84.677915,61.80813],[84.840892,61.773046],[84.921858,61.789838],[85.096852,61.751987],[85.174212,61.708649],[85.229997,61.698402],[85.277798,61.673722],[85.340882,61.686691],[85.406556,61.687147],[85.492853,61.617216],[85.712839,61.572615],[85.842513,61.593921],[85.961137,61.54512],[85.976673,61.48261],[85.965282,61.459195],[85.798192,61.454099],[85.640731,61.36709],[85.700535,61.316369],[85.696583,61.283816]],[[75.316175,61.723135],[75.363905,61.698564],[75.389883,61.70455],[75.382731,61.711069],[75.394264,61.718257],[75.416259,61.711551],[75.413903,61.718531],[75.424357,61.722916],[75.489478,61.718813],[75.490816,61.727539],[75.505569,61.729812],[75.530986,61.722305],[75.53235,61.71142],[75.568143,61.704577],[75.580744,61.670703],[75.588979,61.668458],[75.572865,61.706696],[75.585524,61.710518],[75.578267,61.71463],[75.602262,61.727384],[75.637987,61.720981],[75.636034,61.729372],[75.652202,61.734198],[75.630524,61.744995],[75.651383,61.750686],[75.623513,61.755241],[75.628917,61.768837],[75.603123,61.76992],[75.604288,61.763062],[75.556266,61.741847],[75.494158,61.743831],[75.482154,61.736411],[75.357893,61.732615],[75.316175,61.723135]],[[75.932824,61.029565],[75.964766,61.015923],[76.108454,61.018386],[76.140304,61.046239],[76.189604,61.061465],[76.173047,61.071978],[76.184853,61.078965],[76.180743,61.089989],[76.132766,61.089694],[76.137143,61.103754],[76.124674,61.1036],[76.128902,61.11009],[76.016086,61.137141],[75.987219,61.153427],[75.981851,61.176237],[75.963118,61.175382],[75.944645,61.163338],[75.99142,61.143937],[75.986563,61.139668],[76.005485,61.132236],[76.013266,61.10908],[76.037025,61.110109],[76.038653,61.125554],[76.08762,61.114512],[76.108461,61.082743],[76.075966,61.065458],[76.048057,61.073186],[76.013249,61.057964],[75.978535,61.069856],[75.932824,61.029565]],[[76.3432,60.961837],[76.40131,60.964078],[76.466367,60.951516],[76.45566,60.937573],[76.392403,60.933372],[76.381503,60.91851],[76.39716,60.90179],[76.381449,60.888332],[76.447549,60.860629],[76.540031,60.887742],[76.62715,60.886364],[76.655045,60.847702],[76.70343,60.832362],[76.763709,60.878017],[76.748924,60.913035],[76.753377,60.933129],[76.734371,60.931909],[76.715705,60.957665],[76.695422,60.968475],[76.720778,60.971903],[76.761306,60.987023],[76.762469,60.987673],[76.770581,61.007049],[76.904072,61.029525],[76.915347,61.043007],[76.926023,61.045553],[76.937006,61.056958],[76.962307,61.063175],[76.936507,61.057051],[76.914837,61.043245],[76.903687,61.029829],[76.770013,61.007246],[76.761912,60.987907],[76.716288,60.971352],[76.697255,60.968975],[76.694489,60.978916],[76.675839,60.980938],[76.667561,60.991437],[76.525644,60.997295],[76.459265,61.007031],[76.45905,61.015288],[76.381751,61.018939],[76.346935,60.999428],[76.359282,60.973186],[76.3432,60.961837]],[[77.229041,62.128197],[77.261185,62.133351],[77.263795,62.109081],[77.277774,62.103078],[77.29377,62.117359],[77.31278,62.107717],[77.308544,62.119734],[77.326055,62.103242],[77.327075,62.114999],[77.356534,62.122202],[77.423681,62.11282],[77.42544,62.10673],[77.41989,62.108982],[77.413883,62.106999],[77.424294,62.102147],[77.409727,62.096514],[77.430669,62.095408],[77.445357,62.089196],[77.439506,62.083242],[77.455753,62.083959],[77.450978,62.078202],[77.464898,62.080001],[77.466465,62.073012],[77.526845,62.091674],[77.538868,62.088912],[77.504778,62.079062],[77.516756,62.071341],[77.545249,62.077129],[77.547249,62.088876],[77.52554,62.092676],[77.542419,62.118573],[77.558566,62.189242],[77.550146,62.198782],[77.569167,62.209919],[77.580691,62.236947],[77.594276,62.243415],[77.585898,62.256924],[77.595974,62.260101],[77.593259,62.277057],[77.610932,62.292874],[77.591576,62.295567],[77.582096,62.291216],[77.584305,62.279526],[77.568989,62.281374],[77.576787,62.269713],[77.55404,62.261758],[77.555789,62.245795],[77.548141,62.2434],[77.559226,62.237587],[77.543036,62.233584],[77.552358,62.221109],[77.526862,62.21376],[77.523067,62.20745],[77.534363,62.204159],[77.523296,62.19404],[77.495743,62.186589],[77.474323,62.16626],[77.412846,62.171271],[77.433307,62.210888],[77.427897,62.219103],[77.389711,62.171827],[77.371294,62.18348],[77.365494,62.198388],[77.366294,62.217743],[77.3751,62.224038],[77.311394,62.228479],[77.273832,62.210761],[77.284773,62.207598],[77.277836,62.198728],[77.291953,62.185593],[77.280855,62.182644],[77.28663,62.181197],[77.277952,62.171057],[77.286556,62.171541],[77.28849,62.158894],[77.276473,62.150689],[77.281154,62.146595],[77.267662,62.134118],[77.217698,62.133973],[77.229041,62.128197]]]}},{"type":"Feature","id":"140296-1068","properties":{"id":"140296-1068","name":"городской округ Когалым","name_ru":"городской округ Когалым","subject_id":"140296","subject_name":"Ханты-Мансийский автономный округ - Югра","source_gid":1068,"source_fid":1177,"names_rosstat":"Городской округ Когалым","population":64520,"area_km2":205.94006937686746,"density_km2":313.2950289626702,"source":"Актуализированный объединённый GeoJSON, предоставленный преподавателем","name_en":"Kogalym Urban Okrug","name_zh":"Kogalym城市辖区","subject_name_en":"Khanty-Mansiysk Autonomous Okrug – Ugra","subject_name_zh":"汉特-曼西自治区—尤格拉"},"geometry":{"type":"Polygon","coordinates":[[[74.34294,62.335467],[74.415272,62.306034],[74.397794,62.298442],[74.42955,62.278219],[74.419533,62.269919],[74.425872,62.223761],[74.440839,62.210043],[74.437532,62.184054],[74.488278,62.164757],[74.545957,62.161581],[74.557562,62.197586],[74.580976,62.209789],[74.576424,62.257084],[74.603099,62.261023],[74.562887,62.282618],[74.542314,62.316408],[74.52799,62.316737],[74.528462,62.332163],[74.632384,62.36966],[74.667014,62.355459],[74.769957,62.372799],[74.784683,62.363946],[74.770857,62.350784],[74.787788,62.345673],[74.771056,62.336292],[74.834888,62.336035],[74.820847,62.352631],[74.839405,62.371676],[74.825954,62.383104],[74.836496,62.386088],[74.83606,62.396485],[74.850641,62.409226],[74.797264,62.409448],[74.779493,62.400366],[74.792416,62.395974],[74.788965,62.387078],[74.708289,62.392251],[74.623133,62.382888],[74.606743,62.36696],[74.560933,62.360817],[74.542079,62.347803],[74.435826,62.344213],[74.434158,62.352803],[74.410814,62.351507],[74.392325,62.364494],[74.34294,62.335467]]]}},{"type":"Feature","id":"140296-1250","properties":{"id":"140296-1250","name":"Сургутский район","name_ru":"Сургутский район","subject_id":"140296","subject_name":"Ханты-Мансийский автономный округ - Югра","source_gid":1250,"source_fid":1359,"names_rosstat":"Сургутский муниципальный район","population":131189,"area_km2":104915.00203446668,"density_km2":1.2504312772819828,"source":"Актуализированный объединённый GeoJSON, предоставленный преподавателем","name_en":"Surgutskii District","name_zh":"Surgutskii区","subject_name_en":"Khanty-Mansiysk Autonomous Okrug – Ugra","subject_name_zh":"汉特-曼西自治区—尤格拉"},"geometry":{"type":"Polygon","coordinates":[[[73.02481,58.874928],[72.997782,58.888659],[73.099957,58.951689],[72.928298,59.053141],[72.956655,59.086441],[72.975619,59.126382],[72.911212,59.154002],[72.867915,59.155276],[72.744002,59.136852],[72.549403,59.138969],[72.524713,59.147903],[72.496329,59.178276],[72.418203,59.210326],[72.434735,59.243519],[72.442047,59.300221],[72.354738,59.349861],[72.283895,59.377895],[72.791566,59.389554],[72.792813,59.487912],[72.843212,59.488378],[72.848685,59.669616],[72.935223,59.67315],[72.924584,59.989923],[72.885602,59.990772],[72.905569,60.110152],[73.184291,60.093947],[73.222876,60.203152],[73.244649,60.20215],[73.271131,60.332662],[73.259047,60.334356],[73.344245,60.619899],[73.30619,60.622194],[73.321012,60.654091],[73.242933,60.667453],[73.270063,60.705968],[73.19099,60.823322],[73.170991,60.820715],[73.141686,60.892823],[73.178904,60.88946],[73.191482,60.926662],[73.154738,60.930224],[73.15842,60.968068],[73.185028,60.960085],[73.225499,60.96658],[73.328604,60.95907],[73.392998,60.982843],[73.40676,60.980567],[73.39836,61.019707],[73.424255,61.034409],[73.402495,61.052045],[73.341438,61.05206],[73.3041,61.042909],[73.261426,61.053945],[73.210059,61.049715],[73.173898,61.064595],[73.196746,61.074336],[73.201975,61.173863],[73.245723,61.192134],[73.254855,61.206835],[73.23748,61.217736],[73.251843,61.222571],[73.144777,61.214825],[73.147546,61.179406],[73.125884,61.186493],[73.065185,61.172701],[72.987497,61.16811],[72.917712,61.199036],[72.846717,61.188972],[72.812957,61.20052],[72.776359,61.192048],[72.751914,61.165802],[72.72862,61.1741],[72.727546,61.186424],[72.719182,61.188475],[72.647856,61.175305],[72.638872,61.183075],[72.647946,61.191282],[72.555883,61.206165],[72.521893,61.223697],[72.510957,61.243275],[72.471539,61.253174],[72.45212,61.248485],[72.464364,61.239736],[72.43924,61.237081],[72.440581,61.229986],[72.419537,61.224853],[72.424865,61.222064],[72.399977,61.201811],[72.360822,61.207976],[72.347014,61.190023],[72.324672,61.194356],[72.280104,61.174547],[72.26311,61.173388],[72.267893,61.179902],[72.254924,61.183473],[72.237883,61.177416],[72.236473,61.184693],[72.217265,61.188228],[72.201486,61.186918],[72.199886,61.179384],[72.186303,61.188493],[72.165985,61.182791],[72.168551,61.189772],[72.132729,61.188572],[72.123445,61.184228],[72.178817,61.175731],[72.137558,61.172562],[72.107615,61.158759],[72.096258,61.124872],[72.07887,61.113378],[72.048828,61.109237],[72.007749,61.123375],[72.008825,61.114263],[71.996853,61.116628],[71.990469,61.099176],[71.948389,61.099092],[71.967784,61.090438],[71.953453,61.089081],[71.956451,61.083622],[71.935865,61.07333],[71.909086,61.077851],[71.880264,61.067143],[71.883875,61.056222],[71.858337,61.055469],[71.856095,61.064101],[71.840466,61.054806],[71.809234,61.054695],[71.803198,61.061731],[71.765139,61.047779],[71.678511,61.057606],[71.69075,61.068281],[71.687282,61.075455],[71.626236,61.08437],[71.625178,61.09686],[71.600658,61.085381],[71.589467,61.100478],[71.570005,61.097056],[71.549925,61.109853],[71.522071,61.106047],[71.496019,61.113847],[71.45943,61.105227],[71.427929,61.113156],[71.407337,61.103861],[71.384576,61.111103],[71.385019,61.122399],[71.343241,61.119387],[71.315166,61.139882],[71.291885,61.143985],[71.266994,61.140104],[71.268331,61.132817],[71.249281,61.134854],[71.203646,61.096333],[71.154688,61.118291],[71.104695,61.122121],[71.097682,61.116996],[71.105849,61.103356],[71.071845,61.104381],[71.057257,61.093264],[70.990178,61.105315],[70.991033,61.161554],[70.963129,61.16406],[70.792042,61.232928],[70.915319,61.379175],[70.536481,61.698641],[70.468212,61.788077],[70.231387,61.90671],[70.192668,62.009171],[69.983881,62.059181],[69.619142,62.066705],[69.451487,62.13204],[69.423427,62.282293],[69.363361,62.378384],[69.23554,62.504745],[69.166569,62.542334],[69.056511,62.559656],[68.758967,62.749607],[68.737078,62.817058],[68.869211,62.796607],[68.959808,62.874876],[69.191894,62.917578],[69.509124,62.993132],[70.050201,63.132952],[70.263061,63.198663],[70.438842,63.176363],[70.569648,63.178377],[70.722084,63.197425],[71.077423,63.207331],[71.333541,63.132797],[71.412506,63.133417],[71.49868,63.141794],[71.546059,63.166756],[71.916448,63.253399],[71.998186,63.248063],[72.100081,63.276521],[72.128306,63.296786],[72.406384,63.299387],[72.664714,63.281791],[72.871006,63.355713],[72.896047,63.396915],[73.051736,63.426401],[73.125184,63.397768],[73.106153,63.378196],[73.263269,63.334776],[73.363796,63.232242],[73.498183,63.187955],[73.998669,63.168185],[74.253194,63.173027],[74.389952,63.11449],[74.457345,63.067122],[74.524322,63.036364],[74.941549,63.025322],[75.080264,63.068454],[75.177443,63.060908],[75.253558,63.072457],[75.317002,63.097938],[75.604962,63.088084],[75.778408,63.117148],[75.893379,63.106482],[75.969968,63.070608],[76.039276,63.065908],[76.266714,63.013198],[76.34005,62.951344],[76.498886,62.994767],[76.493234,62.169975],[76.000543,62.17333],[76.001852,62.031153],[74.783245,62.029487],[74.795591,61.84628],[74.796039,61.667246],[74.74988,61.667111],[74.750148,61.516511],[74.669377,61.51711],[74.669853,61.483158],[74.777847,61.481601],[74.779578,61.449168],[74.8222,61.43221],[74.808144,61.428296],[74.792126,61.346847],[74.803199,61.34814],[74.800968,61.342326],[74.818198,61.335102],[74.812092,61.30063],[74.857628,61.30308],[74.841051,61.283844],[74.819576,61.28809],[74.807769,61.27894],[74.886875,61.277786],[74.959426,61.257242],[74.993899,61.270791],[75.008147,61.294076],[75.031561,61.310275],[75.029924,61.317673],[75.072463,61.333249],[75.068492,61.32375],[75.054875,61.322357],[75.071878,61.304927],[75.057252,61.29718],[75.065338,61.288803],[75.031122,61.284812],[75.030883,61.278265],[75.04428,61.277882],[75.007059,61.259247],[75.05456,61.255249],[75.046475,61.251149],[75.076957,61.231151],[75.126428,61.25095],[75.142651,61.247464],[75.132013,61.229727],[75.1567,61.218561],[75.15165,61.199465],[75.158816,61.19049],[75.192683,61.184901],[75.219408,61.191292],[75.212916,61.159268],[75.261368,61.161935],[75.246759,61.146545],[75.28028,61.089205],[75.232907,61.065586],[75.249862,61.051965],[75.251128,61.037793],[75.145746,61.035053],[75.148998,60.998696],[75.185546,60.999088],[75.178435,60.963691],[75.038613,60.960886],[75.038123,60.928564],[74.798862,60.931239],[74.798373,60.893356],[74.511883,60.895953],[74.509805,60.714684],[74.885953,60.710054],[74.889405,60.66286],[74.962049,60.662855],[74.96572,60.626248],[74.9994,60.624476],[75.005081,60.496593],[75.040209,60.49579],[75.043384,60.460029],[75.071217,60.459957],[75.072775,60.426644],[75.131618,60.425783],[75.13998,60.31355],[75.107055,60.313217],[75.107097,60.286044],[75.057653,60.285935],[75.059345,60.17756],[75.205415,60.17533],[75.418976,60.082927],[75.415346,59.986644],[75.644061,59.97933],[75.710613,59.969217],[75.768517,59.947348],[76.138606,59.859318],[76.229071,59.823299],[76.312645,59.751014],[76.515956,59.721962],[76.628067,59.686614],[76.668362,59.685041],[76.652304,59.606796],[76.674988,59.588059],[76.664888,59.571174],[76.502464,59.543769],[76.177166,59.530001],[75.987835,59.382552],[75.898194,59.400331],[75.840339,59.280959],[75.638128,59.211711],[75.727608,59.015372],[75.701148,58.968584],[75.635376,58.912346],[75.131702,58.663961],[74.997692,58.698958],[74.89456,58.68515],[74.79899,58.726709],[74.584939,58.729831],[74.509618,58.721926],[74.144895,58.730214],[74.084608,58.749219],[73.991067,58.810845],[73.859082,58.806781],[73.787376,58.838031],[73.718793,58.856215],[73.494712,58.824619],[73.02481,58.874928]],[[73.48028,61.362042],[73.302149,61.354574],[73.227616,61.318882],[73.235256,61.316932],[73.218582,61.309149],[73.218084,61.299424],[73.237062,61.300999],[73.235186,61.279249],[73.22354,61.278023],[73.21928,61.276396],[73.281815,61.275435],[73.27131,61.263968],[73.282041,61.261396],[73.232655,61.252696],[73.360047,61.222767],[73.420846,61.222602],[73.517505,61.238207],[73.618643,61.222383],[73.696734,61.222789],[73.709383,61.245104],[73.685149,61.262921],[73.711173,61.282621],[73.70314,61.294433],[73.740383,61.319284],[73.75467,61.336156],[73.752146,61.345068],[73.783826,61.359666],[73.749801,61.380871],[73.715439,61.356005],[73.640179,61.337545],[73.629339,61.34704],[73.523586,61.339847],[73.48028,61.362042]],[[74.419533,62.269919],[74.425872,62.223761],[74.440839,62.210043],[74.437532,62.184054],[74.488278,62.164757],[74.545957,62.161581],[74.557562,62.197586],[74.580976,62.209789],[74.576424,62.257084],[74.603099,62.261023],[74.562887,62.282618],[74.542314,62.316408],[74.52799,62.316737],[74.528462,62.332163],[74.632384,62.36966],[74.667014,62.355459],[74.769957,62.372799],[74.784683,62.363946],[74.770857,62.350784],[74.787788,62.345673],[74.771056,62.336292],[74.834888,62.336035],[74.820847,62.352631],[74.839405,62.371676],[74.825954,62.383104],[74.836496,62.386088],[74.83606,62.396485],[74.850641,62.409226],[74.797264,62.409448],[74.779493,62.400366],[74.792416,62.395974],[74.788965,62.387078],[74.708289,62.392251],[74.623133,62.382888],[74.606743,62.36696],[74.560933,62.360817],[74.542079,62.347803],[74.435826,62.344213],[74.434158,62.352803],[74.410814,62.351507],[74.392325,62.364494],[74.34294,62.335467],[74.415272,62.306034],[74.397794,62.298442],[74.42955,62.278219],[74.419533,62.269919]]]}},{"type":"Feature","id":"140296-1486","properties":{"id":"140296-1486","name":"Нефтеюганский район","name_ru":"Нефтеюганский район","subject_id":"140296","subject_name":"Ханты-Мансийский автономный округ - Югра","source_gid":1486,"source_fid":1596,"names_rosstat":"Нефтеюганский муниципальный район","population":47712,"area_km2":24549.618183717103,"density_km2":1.9434925481507361,"source":"Актуализированный объединённый GeoJSON, предоставленный преподавателем","name_en":"Nefteiuganskii District","name_zh":"Nefteiuganskii区","subject_name_en":"Khanty-Mansiysk Autonomous Okrug – Ugra","subject_name_zh":"汉特-曼西自治区—尤格拉"},"geometry":{"type":"Polygon","coordinates":[[[73.40676,60.980567],[73.328604,60.95907],[73.225499,60.96658],[73.185028,60.960085],[73.15842,60.968068],[73.154738,60.930224],[73.191482,60.926662],[73.178904,60.88946],[73.141686,60.892823],[73.170991,60.820715],[73.19099,60.823322],[73.270063,60.705968],[73.242933,60.667453],[73.321012,60.654091],[73.30619,60.622194],[73.344245,60.619899],[73.259047,60.334356],[73.271131,60.332662],[73.244649,60.20215],[73.222876,60.203152],[73.184291,60.093947],[72.905569,60.110152],[72.885602,59.990772],[72.924584,59.989923],[72.935223,59.67315],[72.848685,59.669616],[72.843212,59.488378],[72.792813,59.487912],[72.791566,59.389554],[72.283895,59.377895],[72.231856,59.412236],[72.185415,59.46628],[72.086949,59.530923],[72.025135,59.551735],[71.863609,59.559875],[71.837103,59.572415],[71.821422,59.616405],[71.792031,59.635935],[71.658937,59.656328],[71.544795,59.685164],[71.499351,59.741809],[71.258467,59.788483],[71.179328,59.907066],[70.999487,59.828159],[70.776562,59.869752],[70.667531,59.903944],[70.594559,59.993908],[70.483719,60.063706],[70.382818,60.196855],[70.099046,60.233852],[70.183081,60.388202],[70.174204,60.570543],[70.139707,60.689228],[70.647314,60.819858],[70.968258,61.047654],[70.974376,61.031653],[71.024262,61.039186],[71.024841,61.054748],[71.036268,61.059527],[71.003546,61.073491],[70.983774,61.065214],[70.952701,61.089951],[70.98711,61.104837],[71.057257,61.093264],[71.071845,61.104381],[71.105849,61.103356],[71.097682,61.116996],[71.104695,61.122121],[71.154688,61.118291],[71.203646,61.096333],[71.249281,61.134854],[71.268331,61.132817],[71.266994,61.140104],[71.291885,61.143985],[71.315166,61.139882],[71.343241,61.119387],[71.385019,61.122399],[71.384576,61.111103],[71.407337,61.103861],[71.427929,61.113156],[71.45943,61.105227],[71.496019,61.113847],[71.522071,61.106047],[71.549925,61.109853],[71.570005,61.097056],[71.589467,61.100478],[71.600658,61.085381],[71.625178,61.09686],[71.626236,61.08437],[71.687282,61.075455],[71.69075,61.068281],[71.678511,61.057606],[71.765139,61.047779],[71.803198,61.061731],[71.809234,61.054695],[71.840466,61.054806],[71.856095,61.064101],[71.858337,61.055469],[71.883875,61.056222],[71.880264,61.067143],[71.909086,61.077851],[71.935865,61.07333],[71.956451,61.083622],[71.953453,61.089081],[71.967784,61.090438],[71.948389,61.099092],[71.990469,61.099176],[71.996853,61.116628],[72.008825,61.114263],[72.007749,61.123375],[72.048828,61.109237],[72.07887,61.113378],[72.096258,61.124872],[72.107615,61.158759],[72.137558,61.172562],[72.178817,61.175731],[72.123445,61.184228],[72.132729,61.188572],[72.168551,61.189772],[72.165985,61.182791],[72.186303,61.188493],[72.199886,61.179384],[72.201486,61.186918],[72.217265,61.188228],[72.236473,61.184693],[72.232908,61.180017],[72.237883,61.177416],[72.254924,61.183473],[72.267893,61.179902],[72.26311,61.173388],[72.280104,61.174547],[72.324672,61.194356],[72.347014,61.190023],[72.360822,61.207976],[72.399977,61.201811],[72.424865,61.222064],[72.419537,61.224853],[72.440581,61.229986],[72.43924,61.237081],[72.464364,61.239736],[72.45212,61.248485],[72.471539,61.253174],[72.510957,61.243275],[72.521893,61.223697],[72.555883,61.206165],[72.647946,61.191282],[72.638872,61.183075],[72.647856,61.175305],[72.719182,61.188475],[72.727546,61.186424],[72.72862,61.1741],[72.751914,61.165802],[72.776359,61.192048],[72.812957,61.20052],[72.846717,61.188972],[72.917712,61.199036],[72.987497,61.16811],[73.065185,61.172701],[73.125884,61.186493],[73.147546,61.179406],[73.144777,61.214825],[73.247731,61.224313],[73.252308,61.221005],[73.23748,61.217736],[73.254855,61.206835],[73.245723,61.192134],[73.201975,61.173863],[73.196746,61.074336],[73.173898,61.064595],[73.210059,61.049715],[73.261426,61.053945],[73.3041,61.042909],[73.341438,61.05206],[73.407141,61.050849],[73.424255,61.034409],[73.39836,61.019707],[73.40676,60.980567]],[[72.421282,61.002884],[72.461584,61.010122],[72.488597,60.999739],[72.514173,61.019795],[72.540556,60.99817],[72.557512,61.002752],[72.567931,61.018021],[72.564965,61.035298],[72.526871,61.052369],[72.535309,61.066141],[72.530208,61.074334],[72.597339,61.084252],[72.603037,61.081056],[72.597166,61.068239],[72.620221,61.060438],[72.689721,61.075701],[72.759879,61.073784],[72.808646,61.094552],[72.748818,61.113719],[72.68697,61.101237],[72.68609,61.113736],[72.654921,61.131225],[72.611103,61.112256],[72.603032,61.119431],[72.61079,61.132918],[72.590079,61.134504],[72.601937,61.125821],[72.596219,61.122949],[72.529309,61.138823],[72.49156,61.125583],[72.474411,61.136424],[72.451819,61.128231],[72.464689,61.12274],[72.457981,61.119596],[72.475203,61.092657],[72.453253,61.086309],[72.421282,61.002884]],[[72.734154,60.747139],[72.727306,60.742406],[72.743661,60.740234],[72.738456,60.729879],[72.752239,60.72135],[72.757121,60.704136],[72.814017,60.713709],[72.816145,60.698841],[72.848086,60.696052],[72.825834,60.682734],[72.84122,60.679032],[72.825004,60.674016],[72.820985,60.666946],[72.829099,60.664252],[72.81432,60.659129],[72.81772,60.6526],[72.867826,60.646439],[72.890643,60.658966],[72.902305,60.703384],[72.874262,60.710385],[72.865364,60.727078],[72.878789,60.746154],[72.872233,60.767017],[72.888375,60.779297],[72.835543,60.775344],[72.830043,60.763836],[72.805124,60.763525],[72.773237,60.775377],[72.721178,60.777484],[72.703687,60.751635],[72.734154,60.747139]]]}},{"type":"Feature","id":"140296-1489","properties":{"id":"140296-1489","name":"Белоярский район","name_ru":"Белоярский район","subject_id":"140296","subject_name":"Ханты-Мансийский автономный округ - Югра","source_gid":1489,"source_fid":1599,"names_rosstat":"Белоярский муниципальный район","population":28286,"area_km2":41715.74817623636,"density_km2":0.6780652687925012,"source":"Актуализированный объединённый GeoJSON, предоставленный преподавателем","name_en":"Beloiarskii District","name_zh":"Beloiarskii区","subject_name_en":"Khanty-Mansiysk Autonomous Okrug – Ugra","subject_name_zh":"汉特-曼西自治区—尤格拉"},"geometry":{"type":"Polygon","coordinates":[[[65.257227,63.58033],[65.315987,63.559479],[65.31805,63.547443],[65.294349,63.526416],[65.303015,63.510016],[65.29573,63.490633],[65.302478,63.481895],[65.337779,63.483619],[65.385851,63.464513],[65.401769,63.469476],[65.619449,63.409584],[65.653953,63.410967],[65.72176,63.390215],[65.749054,63.372448],[65.837803,63.365138],[65.923118,63.333183],[65.9202,63.319698],[65.902347,63.309599],[65.758667,63.289699],[65.766392,63.273646],[65.789909,63.264689],[65.793171,63.235096],[65.74974,63.21793],[65.753002,63.212283],[65.897712,63.210348],[65.955047,63.201295],[65.960712,63.195876],[65.948524,63.191232],[65.941315,63.172179],[65.966034,63.149781],[66.025257,63.146602],[66.065082,63.133029],[66.059418,63.116889],[66.087398,63.092816],[66.137695,63.072845],[66.178551,63.068258],[66.191768,63.07611],[66.253567,63.059237],[66.344204,63.063981],[66.339741,63.055893],[66.348152,63.044923],[66.310901,63.036129],[66.321029,63.014171],[66.259403,63.002562],[66.235885,63.008328],[66.215801,62.99664],[66.224728,62.988065],[66.260433,62.983542],[66.257,62.976368],[66.286526,62.969581],[66.340427,62.939921],[66.327724,62.931017],[66.336994,62.914921],[66.36034,62.907182],[66.284122,62.885752],[66.277084,62.879023],[66.284466,62.871745],[66.265926,62.864229],[66.271248,62.856242],[66.257171,62.846608],[66.276398,62.834462],[66.31382,62.832659],[66.319141,62.811803],[66.417675,62.808038],[66.497841,62.78002],[66.500587,62.788499],[66.523762,62.797211],[66.528396,62.811725],[66.542988,62.813764],[66.676025,62.762977],[66.759453,62.781983],[66.827945,62.780099],[66.862278,62.769182],[66.859531,62.760934],[66.830177,62.751111],[66.867428,62.724376],[67.083034,62.734286],[67.15702,62.711629],[67.212467,62.71336],[67.21899,62.702892],[67.356148,62.728466],[67.369537,62.723668],[67.37503,62.708874],[67.369022,62.698562],[67.382069,62.686276],[67.541027,62.687064],[67.552185,62.672725],[67.581539,62.664134],[67.60643,62.670676],[67.626171,62.665395],[67.638187,62.667996],[67.641621,62.682732],[67.674579,62.675719],[67.759037,62.699418],[67.770195,62.7176],[67.745132,62.739388],[67.834396,62.775858],[67.968807,62.792423],[68.035927,62.811568],[68.047428,62.825997],[68.067856,62.831954],[68.165188,62.841358],[68.126735,62.89819],[68.179951,62.927658],[68.274879,62.913592],[68.394871,62.952179],[68.461303,62.943981],[68.484993,62.954521],[68.51263,62.987675],[68.56224,62.973482],[68.567727,62.956492],[68.55543,62.944395],[68.559322,62.917969],[68.621464,62.90812],[68.640195,62.890782],[68.647931,62.868987],[68.737078,62.817058],[68.869211,62.796607],[68.959808,62.874876],[69.191894,62.917578],[69.509124,62.993132],[70.050201,63.132952],[70.263061,63.198663],[70.438842,63.176363],[70.569648,63.178377],[70.722084,63.197425],[71.077423,63.207331],[71.333541,63.132797],[71.378517,63.1314],[71.49868,63.141794],[71.546059,63.166756],[71.645484,63.192752],[71.536158,63.469279],[71.565266,63.555519],[71.563231,63.570765],[71.489409,63.646065],[71.461718,63.661469],[71.455856,63.683308],[71.247148,63.700463],[70.922692,63.702792],[70.825653,63.821911],[70.706206,63.886808],[70.68788,63.942383],[70.608592,63.972069],[70.558903,64.015282],[70.766496,64.112367],[70.770934,64.191113],[70.662501,64.239011],[70.449242,64.249247],[70.292304,64.342514],[70.166003,64.339657],[70.086485,64.31878],[69.888528,64.321694],[69.830366,64.330415],[69.827757,64.357467],[69.724948,64.395908],[69.396756,64.386862],[69.265738,64.479528],[69.139597,64.454516],[69.048018,64.456006],[68.858472,64.438539],[68.970068,64.348302],[68.998582,64.339171],[69.031499,64.342763],[69.044535,64.330646],[68.917826,64.269633],[68.9134,64.261061],[68.92385,64.238894],[68.912254,64.225574],[68.792796,64.224366],[68.552017,64.287159],[68.448839,64.287683],[68.219165,64.205531],[68.194637,64.192181],[68.189208,64.173527],[68.132379,64.152431],[68.06124,64.139803],[68.041867,64.125396],[67.998246,64.114301],[67.945277,64.113471],[67.941183,64.091295],[67.899123,64.081077],[67.83378,64.04748],[67.836506,64.038836],[67.819309,64.025943],[67.782811,64.01942],[67.760202,64.039796],[67.679696,64.077038],[67.584464,64.068713],[67.530168,64.088819],[67.454566,64.077993],[67.376271,64.095416],[67.281494,64.074664],[67.258445,64.08238],[67.286777,64.109766],[67.247555,64.12148],[67.171991,64.122571],[67.176026,64.138987],[67.19991,64.149499],[67.199166,64.160512],[67.128056,64.159982],[67.10826,64.175525],[67.011578,64.189416],[66.939083,64.186445],[66.92605,64.201599],[66.836832,64.212111],[66.834163,64.264892],[66.845417,64.288751],[66.828169,64.291146],[66.854044,64.326026],[66.846935,64.340165],[66.914459,64.373669],[66.942826,64.410152],[66.977442,64.423581],[66.989639,64.451161],[66.982585,64.462706],[66.939058,64.467391],[66.98036,64.479636],[66.969877,64.492049],[66.970937,64.508679],[66.955095,64.517798],[66.904648,64.514989],[66.810735,64.543653],[66.702705,64.554731],[66.455561,64.526951],[66.1991,64.590686],[65.996905,64.581982],[65.933093,64.555238],[65.662203,64.558111],[65.737252,64.531653],[65.771008,64.503932],[65.848176,64.479199],[65.906141,64.404641],[65.911426,64.374926],[65.901901,64.360243],[65.757811,64.300114],[65.78083,64.273954],[65.773296,64.259753],[65.781394,64.250473],[65.777726,64.237941],[65.830123,64.222369],[65.825296,64.207814],[65.777317,64.17544],[65.783992,64.159758],[65.763516,64.145432],[65.76665,64.132823],[65.793769,64.122562],[65.773606,64.102345],[65.792776,64.077921],[65.776016,64.070074],[65.760272,64.078037],[65.756165,64.068285],[65.770656,64.055372],[65.761603,64.047058],[65.681734,64.043694],[65.679226,64.03712],[65.702713,64.02945],[65.700643,64.021868],[65.659764,64.015106],[65.619539,63.996606],[65.583054,63.947621],[65.571662,63.902823],[65.544865,63.893876],[65.46372,63.892632],[65.437858,63.857276],[65.474435,63.845142],[65.47748,63.823278],[65.470122,63.813764],[65.422612,63.802654],[65.390829,63.781512],[65.355188,63.792679],[65.302923,63.782618],[65.305104,63.771636],[65.353499,63.735062],[65.353877,63.711408],[65.3407,63.700953],[65.333672,63.662875],[65.354442,63.650715],[65.347447,63.635264],[65.35342,63.623736],[65.340278,63.603521],[65.257227,63.58033]]]}}],"metadata":{"source_en":"Updated consolidated GeoJSON supplied by the instructor","source_zh":"教师提供的更新版合并GeoJSON","license_en":"Source-dataset terms were not specified; use within the author-created educational platform","license_zh":"原始数据集未注明许可条款；仅用于本作者教育平台"}}