{"type":"FeatureCollection","features":[{"type":"Feature","id":"140295-342","properties":{"id":"140295-342","name":"Тегульдетский район","name_ru":"Тегульдетский район","subject_id":"140295","subject_name":"Томская область","source_gid":342,"source_fid":417,"names_rosstat":"Муниципальный район Тегульдетский","population":6333,"area_km2":12292.052206738661,"density_km2":0.5152109585515889,"source":"Актуализированный объединённый GeoJSON, предоставленный преподавателем","name_en":"Tegul'detskii District","name_zh":"Tegul'detskii区","subject_name_en":"Tomsk Oblast","subject_name_zh":"托木斯克州"},"geometry":{"type":"Polygon","coordinates":[[[87.003334,57.096612],[87.064195,57.048262],[87.082894,57.041128],[87.149421,57.061998],[87.259302,57.003666],[87.205607,56.975156],[87.110359,56.935362],[87.104852,56.901875],[87.128622,56.898769],[87.142812,56.899482],[87.146362,56.903983],[87.174031,56.903187],[87.1747,56.894332],[87.182614,56.896813],[87.181413,56.891187],[87.195864,56.883396],[87.196862,56.892031],[87.209204,56.889156],[87.206958,56.879792],[87.224005,56.882475],[87.233255,56.876275],[87.256662,56.872788],[87.261633,56.872842],[87.258208,56.874788],[87.265723,56.880973],[87.27328,56.872671],[87.277934,56.877241],[87.285533,56.875071],[87.310495,56.882847],[87.321998,56.877527],[87.333383,56.883746],[87.340897,56.881253],[87.341154,56.884632],[87.347278,56.882811],[87.343804,56.879371],[87.361352,56.879286],[87.356847,56.877131],[87.363889,56.872898],[87.40528,56.879534],[87.404916,56.88481],[87.421448,56.881391],[87.426267,56.882933],[87.424804,56.886511],[87.432166,56.883167],[87.446447,56.88782],[87.452687,56.882293],[87.45141,56.885716],[87.463717,56.88909],[87.456397,56.892641],[87.466338,56.890076],[87.462594,56.8955],[87.48038,56.895679],[87.474952,56.898789],[87.479417,56.902437],[87.497752,56.899603],[87.490568,56.905265],[87.502572,56.907223],[87.494778,56.910302],[87.50452,56.914829],[87.500691,56.919095],[87.524736,56.923522],[87.525937,56.926801],[87.519757,56.927926],[87.525765,56.929705],[87.538812,56.9283],[87.53864,56.922398],[87.547566,56.919213],[87.587392,56.923429],[87.597863,56.917807],[87.60576,56.92474],[87.654168,56.929893],[87.658803,56.92474],[87.730042,56.911529],[87.76901,56.894],[87.766263,56.885092],[87.797849,56.863797],[87.798707,56.85629],[87.807118,56.84878],[87.805059,56.842115],[87.81862,56.832537],[87.8248,56.815816],[87.818963,56.807453],[87.826859,56.804822],[87.823598,56.797866],[87.830397,56.792219],[87.874581,56.789311],[87.903249,56.768339],[87.945993,56.760718],[87.972772,56.745189],[87.989423,56.743777],[88.01088,56.729466],[88.022382,56.729277],[88.053453,56.706575],[88.051221,56.695831],[88.057575,56.688107],[88.142033,56.709407],[88.323479,56.789881],[88.368029,56.821802],[88.361866,56.827426],[88.400727,56.821552],[88.424831,56.835131],[88.524681,56.769014],[88.596581,56.802005],[88.714554,57.092294],[88.701583,57.092768],[88.694879,57.08222],[88.649939,57.079165],[88.516982,57.090443],[88.522371,57.096737],[88.511535,57.114875],[88.502205,57.11781],[88.504084,57.124932],[88.526901,57.119645],[88.531092,57.125366],[88.54796,57.121315],[88.554806,57.125396],[88.551497,57.129871],[88.564682,57.133883],[88.558715,57.134479],[88.560601,57.138215],[88.567363,57.134858],[88.622505,57.20935],[88.734155,57.208035],[88.86505,57.44362],[88.869853,57.477246],[88.8836,57.462452],[88.892183,57.459946],[88.90098,57.4361],[88.944947,57.438103],[88.974953,57.484618],[88.97214,57.499996],[89.037517,57.502344],[89.042849,57.500951],[89.024766,57.486414],[89.024086,57.474122],[89.037384,57.459346],[89.058007,57.455445],[89.066081,57.461732],[89.062706,57.471326],[89.065828,57.481676],[89.090307,57.50261],[89.102535,57.500207],[89.08392,57.489343],[89.086606,57.484187],[89.110994,57.488001],[89.137288,57.482803],[89.160477,57.492393],[89.156967,57.498397],[89.143446,57.497498],[89.098764,57.517209],[89.130337,57.615341],[89.2115,57.594065],[89.355248,57.615657],[89.368042,57.647158],[89.379033,57.655867],[89.364003,57.66346],[89.369805,57.679281],[89.355246,57.68832],[89.360366,57.69708],[89.347329,57.710904],[89.356112,57.718514],[89.352852,57.722136],[89.355943,57.724572],[89.350971,57.725104],[89.355093,57.726854],[89.351606,57.728312],[89.358161,57.734167],[89.354138,57.735845],[89.357776,57.741228],[89.352345,57.741308],[89.357066,57.747665],[89.354941,57.752005],[89.360763,57.753384],[89.352962,57.76181],[89.357794,57.767278],[89.34756,57.773289],[89.351425,57.774823],[89.348637,57.783914],[89.353637,57.786031],[89.343025,57.793313],[89.360807,57.797034],[89.358118,57.799425],[89.363566,57.802323],[89.355166,57.803883],[89.356889,57.808988],[89.351341,57.811792],[89.355003,57.813774],[89.340804,57.819252],[89.346003,57.824411],[89.342848,57.826123],[89.357554,57.827037],[89.352159,57.832705],[89.356371,57.839557],[89.37079,57.846719],[89.3646,57.853334],[89.359252,57.852063],[89.36314,57.854206],[89.358307,57.857095],[89.365997,57.864319],[89.374551,57.864618],[89.367469,57.866442],[89.370656,57.868418],[89.364977,57.871189],[89.368929,57.873007],[89.365777,57.877137],[89.358261,57.878456],[89.362474,57.883918],[89.35275,57.887594],[89.355497,57.889497],[89.351353,57.892082],[89.356586,57.892202],[89.351681,57.894542],[89.353483,57.897958],[89.360773,57.900889],[89.350747,57.903378],[89.353129,57.913184],[89.319228,57.924378],[89.310738,57.933021],[89.305291,57.928874],[89.293791,57.930513],[89.30334,57.937676],[89.293327,57.94269],[89.297381,57.949077],[88.858954,57.955186],[88.687253,58.036199],[88.106659,58.112772],[88.069853,58.220064],[88.016988,58.214258],[88.008511,58.240305],[87.929817,58.241823],[87.770737,58.001937],[87.669177,57.741568],[87.655328,57.688555],[87.657123,57.677586],[87.643274,57.670112],[87.672191,57.648606],[87.676166,57.627054],[87.656162,57.61744],[87.662189,57.597038],[87.645518,57.577861],[87.675918,57.564547],[87.673974,57.554116],[87.65866,57.547073],[87.576826,57.378003],[87.516774,57.218314],[87.494205,57.211371],[87.084582,57.251548],[87.087439,57.211768],[87.069,57.152792],[87.01511,57.112412],[87.003334,57.096612]]]}},{"type":"Feature","id":"140295-480","properties":{"id":"140295-480","name":"городской округ Кедровый","name_ru":"городской округ Кедровый","subject_id":"140295","subject_name":"Томская область","source_gid":480,"source_fid":579,"names_rosstat":"Городской округ г Кедровый","population":2612,"area_km2":1743.1988362168627,"density_km2":1.4983947589528186,"source":"Актуализированный объединённый GeoJSON, предоставленный преподавателем","name_en":"Kedrovyi Urban Okrug","name_zh":"Kedrovyi城市辖区","subject_name_en":"Tomsk Oblast","subject_name_zh":"托木斯克州"},"geometry":{"type":"Polygon","coordinates":[[[79.256437,57.572392],[79.320522,57.561213],[79.302895,57.518533],[79.290498,57.525904],[79.284856,57.523937],[79.286427,57.506289],[79.287706,57.502602],[79.308759,57.503977],[79.346039,57.464211],[79.346039,57.454326],[79.368023,57.447348],[79.344411,57.439711],[79.606532,57.411562],[79.619559,57.406549],[79.631933,57.383012],[79.642353,57.378799],[79.649075,57.367245],[79.667899,57.359654],[79.687436,57.361649],[79.699873,57.353807],[79.7221,57.355688],[79.715083,57.362782],[79.869368,57.351087],[79.876115,57.369675],[79.945333,57.361554],[79.965921,57.423276],[79.978358,57.422959],[80.018106,57.44761],[79.963773,57.476502],[79.960753,57.525119],[80.103445,57.526779],[80.104304,57.540283],[80.137444,57.535536],[80.131039,57.625448],[80.48843,57.581776],[80.535939,57.686768],[80.169772,57.729522],[80.131018,57.734762],[80.131018,57.741429],[79.910269,57.738448],[79.895802,57.718751],[79.854019,57.712448],[79.844607,57.703049],[79.839084,57.686647],[79.788549,57.68446],[79.770954,57.677788],[79.76497,57.669582],[79.761338,57.674014],[79.735508,57.668734],[79.741697,57.666382],[79.737401,57.663838],[79.729882,57.670513],[79.723591,57.668379],[79.724409,57.663892],[79.731212,57.664193],[79.727529,57.660855],[79.731365,57.657162],[79.705842,57.659104],[79.590538,57.693365],[79.58128,57.676768],[79.557346,57.658638],[79.558184,57.637954],[79.522363,57.636738],[79.481462,57.654286],[79.441011,57.647402],[79.450556,57.627742],[79.414061,57.621657],[79.287173,57.636874],[79.256437,57.572392]]]}},{"type":"Feature","id":"140295-506","properties":{"id":"140295-506","name":"городской округ Стрежевой","name_ru":"городской округ Стрежевой","subject_id":"140295","subject_name":"Томская область","source_gid":506,"source_fid":605,"names_rosstat":"Городской округ Стрежевой","population":37165,"area_km2":212.66126077340212,"density_km2":174.76149565200117,"source":"Актуализированный объединённый GeoJSON, предоставленный преподавателем","name_en":"Strezhevoi Urban Okrug","name_zh":"Strezhevoi城市辖区","subject_name_en":"Tomsk Oblast","subject_name_zh":"托木斯克州"},"geometry":{"type":"Polygon","coordinates":[[[77.181014,60.831576],[77.227016,60.822694],[77.2238,60.819569],[77.207245,60.822462],[77.20686,60.816035],[77.235925,60.812322],[77.233123,60.809216],[77.239662,60.808719],[77.242656,60.803055],[77.249285,60.805327],[77.251807,60.80006],[77.261206,60.804466],[77.296366,60.794411],[77.291299,60.790502],[77.30217,60.791496],[77.297527,60.788802],[77.324591,60.776241],[77.31177,60.774141],[77.33221,60.768806],[77.338324,60.771875],[77.3332,60.76463],[77.367351,60.760477],[77.372,60.753964],[77.383392,60.757903],[77.380968,60.751862],[77.397411,60.748775],[77.362803,60.742756],[77.366744,60.741151],[77.461094,60.759631],[77.493707,60.756279],[77.501272,60.748754],[77.500298,60.742612],[77.430588,60.716025],[77.438534,60.699016],[77.466212,60.68025],[77.459887,60.675831],[77.477597,60.670102],[77.467157,60.667623],[77.462451,60.658781],[77.561358,60.682181],[77.599611,60.675804],[77.582342,60.686773],[77.517812,60.677163],[77.517738,60.683821],[77.538331,60.694217],[77.556232,60.71174],[77.591176,60.723016],[77.605768,60.721467],[77.663802,60.698035],[77.65061,60.690851],[77.651969,60.687979],[77.675455,60.690374],[77.716417,60.676464],[77.759362,60.676852],[77.764027,60.717157],[77.762139,60.749529],[77.688456,60.749079],[77.690353,60.803562],[77.482428,60.80257],[77.480558,60.793191],[77.504331,60.7921],[77.504689,60.768499],[77.480504,60.763716],[77.376565,60.778297],[77.334157,60.790153],[77.324079,60.793675],[77.348397,60.812774],[77.308509,60.824479],[77.288211,60.816253],[77.248917,60.831862],[77.258754,60.833687],[77.259874,60.838763],[77.243592,60.842319],[77.221305,60.83746],[77.201524,60.839211],[77.181014,60.831576]]]}},{"type":"Feature","id":"140295-1028","properties":{"id":"140295-1028","name":"городской округ Томск","name_ru":"городской округ Томск","subject_id":"140295","subject_name":"Томская область","source_gid":1028,"source_fid":1133,"names_rosstat":"Городской округ г Томск","population":564927,"area_km2":295.704389828737,"density_km2":1910.4450912182551,"source":"Актуализированный объединённый GeoJSON, предоставленный преподавателем","name_en":"Tomsk Urban Okrug","name_zh":"Tomsk城市辖区","subject_name_en":"Tomsk Oblast","subject_name_zh":"托木斯克州"},"geometry":{"type":"Polygon","coordinates":[[[84.813997,56.524841],[84.835791,56.508852],[84.861404,56.510976],[84.862893,56.507464],[84.843185,56.499827],[84.840922,56.495465],[84.84474,56.493089],[84.839944,56.489297],[84.859038,56.488522],[84.878699,56.48077],[84.87206,56.477262],[84.884516,56.466605],[84.885241,56.462489],[84.878246,56.458922],[84.881005,56.457006],[84.907684,56.460285],[84.892171,56.470567],[84.894228,56.478179],[84.899852,56.476344],[84.912649,56.462199],[84.907994,56.460697],[84.920453,56.454536],[84.921301,56.442178],[84.951477,56.435723],[84.966048,56.40207],[84.992719,56.401048],[85.023297,56.411874],[85.034372,56.406709],[85.044068,56.4093],[85.076254,56.395633],[85.061234,56.387888],[85.046883,56.387622],[85.051915,56.38187],[85.082434,56.377837],[85.086082,56.380045],[85.083679,56.384999],[85.097669,56.384525],[85.102587,56.375432],[85.095183,56.372656],[85.099965,56.367975],[85.094496,56.367189],[85.105161,56.357928],[85.126894,56.370766],[85.115393,56.376873],[85.121168,56.378809],[85.11516,56.380377],[85.117436,56.387364],[85.075637,56.396485],[85.061559,56.403424],[85.047471,56.41837],[85.031255,56.41775],[85.003034,56.431716],[85.009158,56.442899],[85.021428,56.441724],[85.01973,56.447972],[85.028359,56.448223],[85.036798,56.438417],[85.046395,56.444223],[85.039034,56.452685],[85.051297,56.463533],[85.064268,56.464267],[85.06402,56.458896],[85.069819,56.457574],[85.091025,56.463074],[85.105435,56.454089],[85.126474,56.456893],[85.149753,56.468774],[85.138767,56.479377],[85.142982,56.481505],[85.130412,56.486571],[85.133159,56.492257],[85.129622,56.495084],[85.143754,56.506564],[85.139854,56.510637],[85.110671,56.512342],[85.107238,56.528251],[85.134189,56.542923],[85.091273,56.548601],[85.062219,56.543467],[85.085942,56.557799],[85.07904,56.564896],[85.112653,56.57031],[85.13676,56.585474],[85.093,56.587897],[85.078211,56.595761],[85.07293,56.59518],[85.071342,56.589155],[85.048393,56.585397],[85.028837,56.588122],[85.025904,56.592655],[85.046767,56.608657],[85.070842,56.611934],[85.097039,56.636848],[85.096755,56.650449],[85.07992,56.650447],[85.080073,56.675048],[85.047353,56.688904],[85.027725,56.685818],[85.024494,56.691108],[85.009044,56.693371],[84.983405,56.644356],[84.974994,56.643865],[84.986558,56.609473],[84.994486,56.60967],[84.998509,56.596919],[84.989604,56.596013],[84.992542,56.575224],[84.964019,56.576639],[84.966569,56.568927],[84.984518,56.557033],[84.980319,56.55415],[84.956143,56.555617],[84.927493,56.568444],[84.911056,56.570586],[84.913129,56.559811],[84.934083,56.540417],[84.926236,56.527852],[84.901294,56.521962],[84.891618,56.535267],[84.868809,56.527887],[84.85981,56.530639],[84.880827,56.536422],[84.872529,56.548276],[84.858204,56.544546],[84.841557,56.549791],[84.827522,56.545925],[84.841766,56.540142],[84.813997,56.524841]]]}},{"type":"Feature","id":"140295-1029","properties":{"id":"140295-1029","name":"ЗАТО Северск","name_ru":"ЗАТО Северск","subject_id":"140295","subject_name":"Томская область","source_gid":1029,"source_fid":1134,"names_rosstat":"Городской округ ЗАТО Северск","population":111106,"area_km2":478.1662559042548,"density_km2":232.35851260538806,"source":"Актуализированный объединённый GeoJSON, предоставленный преподавателем","name_en":"ZATO Seversk Municipality","name_zh":"ZATO Seversk市政实体","subject_name_en":"Tomsk Oblast","subject_name_zh":"托木斯克州"},"geometry":{"type":"Polygon","coordinates":[[[84.618687,56.841762],[84.620739,56.820349],[84.637611,56.814312],[84.621882,56.797293],[84.643976,56.788848],[84.652548,56.76697],[84.647987,56.762413],[84.642346,56.764417],[84.644708,56.740687],[84.655898,56.740009],[84.663121,56.747578],[84.676634,56.748489],[84.714421,56.677628],[84.705636,56.675385],[84.705921,56.668693],[84.735532,56.634744],[84.76038,56.629929],[84.777332,56.606482],[84.794627,56.596323],[84.825783,56.592827],[84.879642,56.598214],[84.90346,56.584343],[84.911056,56.570586],[84.959611,56.554813],[84.984518,56.557033],[84.966569,56.568927],[84.964019,56.576639],[84.992542,56.575224],[84.989604,56.596013],[84.998509,56.596919],[84.994486,56.60967],[84.986558,56.609473],[84.974994,56.643865],[84.983405,56.644356],[85.012062,56.698795],[84.982475,56.714112],[84.97813,56.733222],[84.973392,56.736126],[84.945394,56.742211],[84.937431,56.737789],[84.914726,56.746428],[84.911311,56.754703],[84.92896,56.760389],[84.90711,56.772032],[84.855791,56.785846],[84.826944,56.78204],[84.812036,56.804395],[84.82371,56.806836],[84.810278,56.826683],[84.831624,56.831621],[84.813705,56.8427],[84.83413,56.856009],[84.838273,56.865607],[84.890959,56.884947],[84.859234,56.90812],[84.899874,56.913249],[84.910824,56.910232],[84.909916,56.91554],[84.8881,56.919076],[84.925353,56.940389],[84.872618,56.952993],[84.860302,56.961569],[84.795348,56.939436],[84.801083,56.919811],[84.820544,56.926626],[84.834185,56.92349],[84.817112,56.908114],[84.825978,56.902653],[84.806539,56.901235],[84.81098,56.885],[84.782476,56.87502],[84.78632,56.866371],[84.783406,56.851197],[84.775336,56.847397],[84.772864,56.833709],[84.780553,56.833184],[84.77704,56.813263],[84.733589,56.810482],[84.660868,56.85227],[84.635015,56.850514],[84.618687,56.841762]]]}},{"type":"Feature","id":"140295-1257","properties":{"id":"140295-1257","name":"Шегарский район","name_ru":"Шегарский район","subject_id":"140295","subject_name":"Томская область","source_gid":1257,"source_fid":1366,"names_rosstat":"Муниципальный район Шегарский","population":19416,"area_km2":4837.0143958114395,"density_km2":4.014046354051184,"source":"Актуализированный объединённый GeoJSON, предоставленный преподавателем","name_en":"Shegarskii District","name_zh":"Shegarskii区","subject_name_en":"Tomsk Oblast","subject_name_zh":"托木斯克州"},"geometry":{"type":"Polygon","coordinates":[[[83.066911,56.971504],[83.075783,56.952171],[83.094464,56.935521],[83.149052,56.910505],[83.15291,56.87642],[83.197387,56.874932],[83.146556,56.803311],[83.160583,56.589079],[83.125225,56.554686],[83.108747,56.550308],[83.288374,56.442797],[83.34408,56.473368],[83.367818,56.495314],[83.378306,56.499123],[83.463494,56.498028],[83.491474,56.490134],[83.510519,56.470014],[83.715049,56.4479],[83.725537,56.452934],[83.74265,56.500342],[83.783225,56.499733],[83.797026,56.488762],[83.870447,56.473063],[83.879003,56.466812],[83.878727,56.455222],[83.92151,56.436762],[83.942212,56.437677],[83.943718,56.430743],[83.931171,56.415239],[83.979165,56.376236],[84.017884,56.379861],[84.009948,56.405468],[84.04221,56.459502],[84.063194,56.473425],[84.07313,56.476474],[84.121986,56.468852],[84.114965,56.472426],[84.119028,56.482375],[84.147258,56.485265],[84.150009,56.494978],[84.192602,56.471458],[84.291083,56.526453],[84.266246,56.540261],[84.315171,56.567901],[84.301456,56.575274],[84.305486,56.575097],[84.315327,56.592754],[84.312435,56.59531],[84.347552,56.609707],[84.283446,56.640354],[84.304493,56.650054],[84.327356,56.679079],[84.347212,56.687648],[84.397366,56.734725],[84.419975,56.771645],[84.431401,56.810259],[84.43213,56.831678],[84.420704,56.854814],[84.425323,56.863453],[84.448662,56.878069],[84.453703,56.890951],[84.448381,56.906982],[84.440295,56.914353],[84.420529,56.915901],[84.423613,56.928088],[84.419999,56.933949],[84.405199,56.942664],[84.383101,56.945761],[84.378242,56.95187],[84.351613,56.948885],[84.325698,56.980939],[84.324337,57.006774],[84.337952,57.018202],[84.338185,57.038389],[84.320957,57.072924],[84.229128,57.049046],[84.210347,57.054348],[84.175532,57.081337],[84.136986,57.080648],[84.1193,57.053159],[84.056145,57.05749],[84.018906,57.054924],[83.983704,57.045445],[83.976838,57.038815],[83.966065,57.009929],[83.891557,56.992109],[83.88824,57.005236],[83.766209,57.003676],[83.778741,57.009097],[83.769471,57.030029],[83.759514,57.037408],[83.771531,57.038716],[83.776337,57.046187],[83.793847,57.045813],[83.762433,57.066351],[83.740288,57.072883],[83.707673,57.07251],[83.688891,57.054575],[83.623947,57.051901],[83.610062,57.024024],[83.590897,57.031138],[83.556213,57.032176],[83.524314,57.040704],[83.501754,57.052768],[83.167454,57.093685],[83.066911,56.971504]]]}},{"type":"Feature","id":"140295-1307","properties":{"id":"140295-1307","name":"Парабельский район","name_ru":"Парабельский район","subject_id":"140295","subject_name":"Томская область","source_gid":1307,"source_fid":1416,"names_rosstat":"Муниципальный район Парабельский","population":11299,"area_km2":34995.15050110489,"density_km2":0.3228733078214155,"source":"Актуализированный объединённый GeoJSON, предоставленный преподавателем","name_en":"Parabel'skii District","name_zh":"Parabel'skii区","subject_name_en":"Tomsk Oblast","subject_name_zh":"托木斯克州"},"geometry":{"type":"Polygon","coordinates":[[[78.024627,57.339229],[77.74064,57.611777],[77.693072,57.651306],[77.685972,57.670675],[77.695912,57.700657],[77.7449,57.806724],[77.778623,57.86795],[77.320161,58.113969],[77.498363,58.182533],[78.074503,58.208911],[78.122781,58.272439],[78.251995,58.304534],[78.433747,58.312739],[78.58,58.308264],[79.001722,58.267212],[79.155075,58.265718],[79.291389,58.279159],[79.50367,58.20143],[79.73086,58.337344],[79.723281,58.405827],[79.73796,58.481647],[79.751426,58.647247],[79.981479,58.671532],[80.341434,58.625358],[80.787294,58.781731],[80.941333,58.830138],[80.987339,58.882696],[81.079692,58.910895],[81.117801,58.939426],[81.163807,59.02682],[81.181659,59.037772],[81.201572,59.021872],[81.25513,59.014626],[81.27985,59.022225],[81.299419,59.020282],[81.323795,59.025936],[81.342678,59.039539],[81.408252,59.043071],[81.601806,59.084261],[81.826866,59.119261],[82.43886,59.247651],[82.638361,59.470543],[82.552455,59.607313],[82.862001,59.717045],[82.925188,59.749251],[83.711124,59.820352],[84.070628,59.847822],[84.099028,59.401494],[84.109536,59.374088],[84.104424,59.355565],[84.108116,59.33551],[84.104708,59.314066],[83.924367,59.312327],[83.721874,59.250235],[83.600322,59.222925],[83.552657,59.20748],[83.529265,59.206007],[83.527923,59.201394],[83.500313,59.19236],[83.384311,59.186664],[83.375874,59.178413],[83.35555,59.172518],[83.294577,59.170553],[83.279621,59.166229],[83.278087,59.158661],[83.255654,59.139684],[83.238589,59.138898],[83.206761,59.123945],[83.204268,59.117154],[83.180109,59.111249],[83.181643,59.105145],[83.113575,59.08013],[83.113575,59.073922],[83.093251,59.066334],[83.023458,59.064264],[83.009845,59.051546],[82.978975,59.044052],[82.975524,59.047996],[82.948872,59.047405],[82.948488,59.038824],[82.938902,59.036161],[82.926247,59.039712],[82.921453,59.037542],[82.92107,59.030636],[82.90784,59.027281],[82.904772,59.019485],[82.887516,59.017017],[82.857604,59.002801],[82.841498,58.990456],[82.840923,58.979193],[82.817723,58.973659],[82.805643,58.961303],[82.743903,58.958931],[82.739493,58.950921],[82.710157,58.946075],[82.710157,58.93925],[82.679671,58.930444],[82.663757,58.931137],[82.657237,58.938557],[82.63653,58.934995],[82.624834,58.938458],[82.597031,58.93173],[82.592046,58.924506],[82.542194,58.912925],[82.523595,58.912925],[82.514009,58.90233],[82.454713,58.89354],[82.44273,58.882567],[82.420105,58.882345],[82.377922,58.87174],[82.321743,58.841793],[82.284929,58.838023],[82.264029,58.823733],[82.204015,58.66675],[82.196729,58.650494],[82.181006,58.635527],[82.179473,58.631435],[82.190018,58.629439],[82.191744,58.621154],[82.159532,58.620754],[82.154738,58.61037],[82.16375,58.598783],[82.173145,58.5691],[82.099709,58.581496],[82.059252,58.576998],[82.024356,58.584894],[81.947469,58.534137],[81.902985,58.536539],[81.551337,58.452171],[81.213589,58.385044],[81.008045,58.315824],[80.79023,58.235166],[81.063266,57.934519],[80.896297,57.926519],[80.616833,57.936727],[80.535939,57.686768],[80.169772,57.729522],[80.131018,57.734762],[80.131018,57.741429],[79.910269,57.738448],[79.895802,57.718751],[79.854019,57.712448],[79.844607,57.703049],[79.839084,57.686647],[79.788549,57.68446],[79.770954,57.677788],[79.76497,57.669582],[79.761338,57.674014],[79.735508,57.668734],[79.741697,57.666382],[79.737401,57.663838],[79.729882,57.670513],[79.723591,57.668379],[79.724409,57.663892],[79.731212,57.664193],[79.727529,57.660855],[79.731365,57.657162],[79.705842,57.659104],[79.590538,57.693365],[79.58128,57.676768],[79.557346,57.658638],[79.558184,57.637954],[79.522363,57.636738],[79.481462,57.654286],[79.441011,57.647402],[79.450556,57.627742],[79.414061,57.621657],[79.287173,57.636874],[79.256437,57.572392],[79.320522,57.561213],[79.302895,57.518533],[79.290498,57.525904],[79.284856,57.523937],[79.286427,57.506289],[79.287706,57.502602],[79.308759,57.503977],[79.346039,57.464211],[79.346039,57.454326],[79.368023,57.447348],[79.344411,57.439711],[79.606532,57.411562],[79.619559,57.406549],[79.631933,57.383012],[79.642353,57.378799],[79.649075,57.367245],[79.667899,57.359654],[79.687436,57.361649],[79.699873,57.353807],[79.7221,57.355688],[79.715083,57.362782],[79.869368,57.351087],[79.876115,57.369675],[79.945333,57.361554],[79.965921,57.423276],[79.978358,57.422959],[80.018106,57.44761],[79.963773,57.476502],[79.960753,57.525119],[80.103445,57.526779],[80.104304,57.540283],[80.137444,57.535536],[80.131039,57.625448],[80.48843,57.581776],[80.475384,57.552684],[80.093952,57.258068],[79.864269,57.096724],[79.588576,56.92316],[79.198214,57.001034],[78.432083,57.117342],[78.447513,57.165387],[78.315005,57.226027],[78.024627,57.339229]]]}},{"type":"Feature","id":"140295-1308","properties":{"id":"140295-1308","name":"Кожевниковский район","name_ru":"Кожевниковский район","subject_id":"140295","subject_name":"Томская область","source_gid":1308,"source_fid":1417,"names_rosstat":"Муниципальный район Кожевниковский","population":20028,"area_km2":3941.2244806355634,"density_km2":5.081669440145738,"source":"Актуализированный объединённый GeoJSON, предоставленный преподавателем","name_en":"Kozhevnikovskii District","name_zh":"Kozhevnikovskii区","subject_name_en":"Tomsk Oblast","subject_name_zh":"托木斯克州"},"geometry":{"type":"Polygon","coordinates":[[[83.06484,56.230477],[83.088379,56.216049],[83.120501,56.20929],[83.159234,56.227521],[83.196463,56.217654],[83.193706,56.213143],[83.200192,56.214436],[83.1999,56.2102],[83.211911,56.207738],[83.213025,56.202382],[83.202928,56.200237],[83.2104,56.199485],[83.213125,56.19446],[83.208994,56.190701],[83.217019,56.187947],[83.201442,56.18402],[83.213521,56.180665],[83.204898,56.181568],[83.208204,56.177198],[83.172871,56.18669],[83.153881,56.175022],[83.183348,56.164838],[83.169228,56.159157],[83.172731,56.15258],[83.162729,56.153996],[83.167063,56.149071],[83.157426,56.149606],[83.15963,56.144713],[83.149525,56.146159],[83.147225,56.137397],[83.13704,56.138785],[83.141674,56.135958],[83.132915,56.129501],[83.139384,56.125662],[83.133424,56.126159],[83.12939,56.120356],[83.182789,56.112154],[83.182529,56.108589],[83.221324,56.086163],[83.273664,56.114154],[83.302145,56.095592],[83.233748,56.056269],[83.236979,56.032371],[83.245368,56.024073],[83.229571,56.012006],[83.306484,55.994485],[83.340379,55.979045],[83.31371,55.961171],[83.392628,55.911335],[83.400827,55.895182],[83.375685,55.896018],[83.389744,55.864454],[83.382134,55.85268],[83.352127,55.848539],[83.316456,55.855875],[83.293241,55.827599],[83.289214,55.81163],[83.270876,55.784504],[83.218599,55.754799],[83.210779,55.730319],[83.257878,55.712177],[83.315157,55.703312],[83.308656,55.691513],[83.315102,55.689008],[83.326275,55.690585],[83.326002,55.703753],[83.33679,55.710601],[83.377923,55.717162],[83.392158,55.713955],[83.415712,55.726359],[83.445489,55.723099],[83.444034,55.693661],[83.422492,55.676653],[83.443539,55.670226],[83.472582,55.698702],[83.50175,55.706691],[83.523203,55.695337],[83.52027,55.689387],[83.540484,55.679731],[83.585404,55.670765],[83.584328,55.660812],[83.599348,55.651442],[83.590507,55.616268],[83.604941,55.605838],[83.622208,55.611343],[83.627676,55.618778],[83.622898,55.641979],[83.628575,55.655563],[83.618467,55.658754],[83.614862,55.66671],[83.624187,55.687015],[83.606585,55.69419],[83.607831,55.704182],[83.638551,55.718452],[83.664961,55.74203],[83.646992,55.743121],[83.643634,55.748696],[83.665097,55.750024],[83.661387,55.763783],[83.67018,55.76858],[83.682708,55.766296],[83.6849,55.757179],[83.694423,55.756774],[83.692854,55.7648],[83.672976,55.772526],[83.676467,55.777363],[83.712204,55.77863],[83.735359,55.786027],[83.750487,55.804454],[83.738715,55.805961],[83.72834,55.816525],[83.737953,55.818579],[83.739872,55.83636],[83.767346,55.836205],[83.787459,55.852032],[83.776151,55.857913],[83.807646,55.901964],[83.830778,55.908425],[83.854425,55.908148],[83.851786,55.932549],[83.880829,55.933183],[83.8812,55.955328],[83.922915,55.976296],[83.920059,55.982679],[83.931351,55.987398],[83.942479,56.002005],[83.954516,56.005252],[83.950245,56.015056],[84.026525,56.023335],[84.031227,56.035155],[84.039232,56.037931],[84.04282,56.052422],[84.062693,56.061824],[84.064902,56.077077],[84.07401,56.084778],[84.071802,56.109565],[84.082011,56.115199],[84.087332,56.136249],[84.083899,56.152793],[84.093577,56.163703],[84.093668,56.183996],[84.099765,56.197408],[84.098097,56.228385],[84.105188,56.240083],[84.092365,56.26014],[84.122727,56.303807],[84.121209,56.321949],[84.186626,56.325852],[84.180553,56.361418],[84.228718,56.358818],[84.264739,56.371814],[84.271363,56.392444],[84.208845,56.414437],[84.221818,56.421384],[84.212571,56.434282],[84.181519,56.433976],[84.083809,56.413101],[84.092641,56.439661],[84.13156,56.450493],[84.153918,56.4479],[84.147258,56.485265],[84.119028,56.482375],[84.114965,56.472426],[84.121986,56.468852],[84.07313,56.476474],[84.063194,56.473425],[84.04221,56.459502],[84.009948,56.405468],[84.017884,56.379861],[83.979165,56.376236],[83.931171,56.415239],[83.943718,56.430743],[83.942212,56.437677],[83.92151,56.436762],[83.878727,56.455222],[83.879003,56.466812],[83.870447,56.473063],[83.797026,56.488762],[83.783225,56.499733],[83.74265,56.500342],[83.725537,56.452934],[83.715049,56.4479],[83.510519,56.470014],[83.491474,56.490134],[83.463494,56.498028],[83.378306,56.499123],[83.367818,56.495314],[83.34408,56.473368],[83.288374,56.442797],[83.259964,56.408585],[83.144219,56.375943],[83.144675,56.360276],[83.157761,56.362743],[83.192988,56.327988],[83.136898,56.296951],[83.148703,56.288899],[83.06484,56.230477]]]}},{"type":"Feature","id":"140295-1309","properties":{"id":"140295-1309","name":"Кривошеинский район","name_ru":"Кривошеинский район","subject_id":"140295","subject_name":"Томская область","source_gid":1309,"source_fid":1418,"names_rosstat":"Муниципальный район Кривошеинский","population":11870,"area_km2":4463.696438096922,"density_km2":2.659231012819663,"source":"Актуализированный объединённый GeoJSON, предоставленный преподавателем","name_en":"Krivosheinskii District","name_zh":"Krivosheinskii区","subject_name_en":"Tomsk Oblast","subject_name_zh":"托木斯克州"},"geometry":{"type":"Polygon","coordinates":[[[84.951703,57.304592],[84.942853,57.272261],[84.943797,57.252813],[84.791361,57.133579],[84.791704,57.112426],[84.648882,57.108418],[84.621416,57.099747],[84.613348,57.090235],[84.588972,57.078668],[84.579187,57.081187],[84.547773,57.076336],[84.540392,57.084079],[84.510351,57.085105],[84.459196,57.071204],[84.450509,57.063086],[84.454457,57.060566],[84.453599,57.051231],[84.443643,57.046842],[84.447169,57.036532],[84.417834,57.043633],[84.423928,57.050356],[84.407794,57.048895],[84.376637,57.037221],[84.368912,57.019471],[84.338185,57.038389],[84.320957,57.072924],[84.229128,57.049046],[84.210347,57.054348],[84.175532,57.081337],[84.136986,57.080648],[84.1193,57.053159],[84.056145,57.05749],[84.018906,57.054924],[83.983704,57.045445],[83.976838,57.038815],[83.966065,57.009929],[83.891557,56.992109],[83.88824,57.005236],[83.766209,57.003676],[83.778741,57.009097],[83.769471,57.030029],[83.759514,57.037408],[83.771531,57.038716],[83.776337,57.046187],[83.793847,57.045813],[83.762433,57.066351],[83.740288,57.072883],[83.707673,57.07251],[83.688891,57.054575],[83.623947,57.051901],[83.610062,57.024024],[83.590897,57.031138],[83.556213,57.032176],[83.524314,57.040704],[83.501754,57.052768],[83.167454,57.093685],[83.169858,57.112146],[83.160245,57.143452],[83.166253,57.168682],[83.172604,57.177802],[83.199555,57.17622],[83.205319,57.199649],[83.117329,57.321464],[83.158528,57.353519],[83.256032,57.401086],[83.276631,57.395722],[83.314397,57.401271],[83.368298,57.419209],[83.371731,57.43418],[83.443143,57.445821],[83.412587,57.462074],[83.458935,57.473522],[83.483998,57.45007],[83.543393,57.427527],[83.540303,57.412368],[83.547169,57.399977],[83.621327,57.409964],[83.613431,57.419948],[83.64845,57.422721],[83.667332,57.42956],[83.679005,57.441572],[83.678662,57.454133],[83.694798,57.460782],[83.770329,57.461151],[83.817708,57.470199],[83.83556,57.459674],[83.84998,57.458196],[83.924824,57.484411],[83.969113,57.491424],[84.139744,57.471122],[84.220071,57.454064],[84.322049,57.444158],[84.880292,57.443789],[84.951359,57.408484],[84.951703,57.304592]]]}},{"type":"Feature","id":"140295-1310","properties":{"id":"140295-1310","name":"Чаинский район","name_ru":"Чаинский район","subject_id":"140295","subject_name":"Томская область","source_gid":1310,"source_fid":1419,"names_rosstat":"Муниципальный район Чаинский","population":11489,"area_km2":7078.169473251976,"density_km2":1.6231597792926993,"source":"Актуализированный объединённый GeoJSON, предоставленный преподавателем","name_en":"Chainskii District","name_zh":"Chainskii区","subject_name_en":"Tomsk Oblast","subject_name_zh":"托木斯克州"},"geometry":{"type":"Polygon","coordinates":[[[82.049762,57.345762],[82.000856,57.397837],[82.008753,57.420305],[81.93584,57.453405],[81.904207,57.462163],[81.909185,57.466641],[81.920043,57.46311],[81.912919,57.468337],[81.916835,57.470818],[81.923573,57.466497],[81.936007,57.469168],[81.926437,57.473253],[81.932535,57.476545],[81.924935,57.485204],[81.854854,57.495998],[81.858974,57.504714],[81.636158,57.532185],[81.310688,57.501578],[81.312748,57.596635],[81.382786,57.67566],[81.561786,57.946529],[81.798392,57.95243],[82.158861,57.970332],[82.182636,58.108364],[82.429212,58.107149],[82.540804,58.122543],[82.563813,58.120518],[82.596408,58.108567],[82.696112,58.100057],[82.719121,58.089518],[82.83148,57.97684],[82.938854,57.902542],[82.995225,57.924542],[83.056198,57.892556],[83.189648,57.955482],[83.30124,57.934519],[83.298172,57.942763],[83.315812,57.955075],[83.266535,57.982329],[83.2395,58.003163],[83.236816,58.014235],[83.316387,58.041749],[83.396246,58.045453],[83.453672,58.022461],[83.462875,57.989546],[83.453001,57.982482],[83.452042,57.971298],[83.469778,57.961484],[83.468628,57.95538],[83.445619,57.946427],[83.441017,57.928106],[83.418392,57.906515],[83.606367,57.860937],[83.581991,57.844313],[83.586797,57.831702],[83.535299,57.82896],[83.506116,57.820002],[83.456335,57.793479],[83.438138,57.77005],[83.441915,57.73891],[83.435735,57.734328],[83.195753,57.728462],[83.133611,57.696919],[83.107519,57.505606],[83.097301,57.470325],[82.915854,57.46684],[82.737498,57.452574],[82.682441,57.415811],[82.568577,57.361585],[82.477965,57.349158],[82.119474,57.334796],[82.053642,57.335051],[82.049762,57.345762]]]}},{"type":"Feature","id":"140295-1311","properties":{"id":"140295-1311","name":"Бакчарский район","name_ru":"Бакчарский район","subject_id":"140295","subject_name":"Томская область","source_gid":1311,"source_fid":1420,"names_rosstat":"Муниципальный район Бакчарский","population":10921,"area_km2":25069.82765949832,"density_km2":0.4356232578991148,"source":"Актуализированный объединённый GeoJSON, предоставленный преподавателем","name_en":"Bakcharskii District","name_zh":"Bakcharskii区","subject_name_en":"Tomsk Oblast","subject_name_zh":"托木斯克州"},"geometry":{"type":"Polygon","coordinates":[[[83.117329,57.321464],[83.205319,57.199649],[83.206078,57.190082],[83.199555,57.17622],[83.172604,57.177802],[83.166253,57.168682],[83.160245,57.143452],[83.169858,57.112146],[83.167454,57.093685],[83.066911,56.971504],[83.075783,56.952171],[83.094464,56.935521],[83.149052,56.910505],[83.15291,56.87642],[83.197387,56.874932],[83.146556,56.803311],[83.160583,56.589079],[83.125225,56.554686],[83.083593,56.54845],[83.082154,56.543274],[83.058852,56.536493],[83.062463,56.529683],[83.057949,56.524927],[83.026836,56.516386],[83.015284,56.524112],[82.986553,56.516696],[82.967521,56.521277],[82.959056,56.524912],[82.960942,56.528236],[82.948182,56.5299],[82.945844,56.537969],[82.923328,56.530755],[82.863075,56.535014],[82.857368,56.52903],[82.849857,56.530281],[82.807971,56.516173],[82.810375,56.513805],[82.803858,56.509052],[82.809516,56.504806],[82.800418,56.500164],[82.799217,56.492963],[82.805911,56.490214],[82.7975,56.487845],[82.80368,56.484907],[82.799732,56.479124],[82.806083,56.469169],[82.791492,56.464712],[82.793209,56.459022],[82.809688,56.456082],[82.802478,56.452666],[82.811748,56.451718],[82.808486,56.449346],[82.813636,56.447449],[82.809345,56.444317],[82.824623,56.434828],[82.819129,56.433119],[82.820846,56.429608],[82.80883,56.427804],[82.812091,56.425051],[82.805396,56.421823],[82.809345,56.420209],[82.755443,56.406439],[82.748233,56.3996],[82.740165,56.401785],[82.746173,56.406439],[82.732612,56.408909],[82.737661,56.411655],[82.732855,56.414693],[82.713629,56.415548],[82.7138,56.419156],[82.689596,56.425517],[82.655364,56.415272],[82.641116,56.417645],[82.629443,56.410049],[82.595769,56.409629],[82.571158,56.403036],[82.564546,56.397015],[82.56188,56.400635],[82.534678,56.40007],[82.524845,56.407857],[82.499017,56.405275],[82.501178,56.402735],[82.495261,56.399131],[82.471345,56.400568],[82.440111,56.390748],[82.424658,56.391294],[82.420201,56.385233],[82.395379,56.382751],[82.335805,56.356338],[82.268829,56.355674],[82.227069,56.342179],[82.196342,56.343796],[82.161495,56.334662],[81.991904,56.333547],[81.573403,56.241888],[81.475127,56.331022],[81.220274,56.537593],[80.544129,56.456174],[80.260893,56.432612],[80.135405,56.518037],[79.588576,56.92316],[79.864269,57.096724],[80.093952,57.258068],[80.475384,57.552684],[80.53005,57.667309],[80.616833,57.936727],[80.896297,57.926519],[81.561786,57.946529],[81.382786,57.67566],[81.312748,57.596635],[81.310688,57.501578],[81.636158,57.532185],[81.858974,57.504714],[81.854854,57.495998],[81.924935,57.485204],[81.932535,57.476545],[81.926437,57.473253],[81.936007,57.469168],[81.923573,57.466497],[81.916835,57.470818],[81.912919,57.468337],[81.920043,57.46311],[81.909185,57.466641],[81.904207,57.462163],[81.93584,57.453405],[82.008753,57.420305],[82.000856,57.397837],[82.048063,57.350451],[82.053642,57.335051],[82.477965,57.349158],[82.568577,57.361585],[82.682441,57.415811],[82.737498,57.452574],[82.915854,57.46684],[83.097301,57.470325],[83.103399,57.483467],[83.25407,57.449549],[83.243857,57.440081],[83.256032,57.401086],[83.158528,57.353519],[83.117329,57.321464]]]}},{"type":"Feature","id":"140295-1312","properties":{"id":"140295-1312","name":"Молчановский район","name_ru":"Молчановский район","subject_id":"140295","subject_name":"Томская область","source_gid":1312,"source_fid":1421,"names_rosstat":"Муниципальный район Молчановский","population":11899,"area_km2":6406.288201848291,"density_km2":1.8573938020095626,"source":"Актуализированный объединённый GeoJSON, предоставленный преподавателем","name_en":"Molchanovskii District","name_zh":"Molchanovskii区","subject_name_en":"Tomsk Oblast","subject_name_zh":"托木斯克州"},"geometry":{"type":"Polygon","coordinates":[[[85.418488,57.889454],[85.1219,57.881149],[85.123359,57.827535],[85.09496,57.833133],[85.097664,57.829134],[85.078202,57.81509],[85.04565,57.818427],[85.014344,57.808495],[84.995118,57.813136],[84.991427,57.821501],[84.999838,57.836011],[84.985762,57.843641],[84.953018,57.833041],[84.940615,57.810918],[84.92744,57.807054],[84.915467,57.808609],[84.895468,57.820359],[84.878302,57.842705],[84.859805,57.853872],[84.836073,57.855767],[84.772816,57.84371],[84.768568,57.827809],[84.773159,57.820313],[84.775734,57.729427],[84.739986,57.72473],[84.74432,57.606082],[84.919179,57.595432],[84.905081,57.577583],[84.872829,57.563623],[84.864283,57.553131],[84.839264,57.54005],[84.808458,57.540019],[84.798744,57.532401],[84.788465,57.532257],[84.771664,57.465507],[84.761845,57.444158],[84.322049,57.444158],[84.220071,57.454064],[84.139744,57.471122],[83.969113,57.491424],[83.924824,57.484411],[83.84998,57.458196],[83.83556,57.459674],[83.817708,57.470199],[83.770329,57.461151],[83.694798,57.460782],[83.678662,57.454133],[83.679005,57.441572],[83.667332,57.42956],[83.64845,57.422721],[83.613431,57.419948],[83.621327,57.409964],[83.547169,57.399977],[83.540303,57.412368],[83.543393,57.427527],[83.483998,57.45007],[83.458935,57.473522],[83.412587,57.462074],[83.443143,57.445821],[83.371731,57.43418],[83.368298,57.419209],[83.314397,57.401271],[83.276631,57.395722],[83.256032,57.401086],[83.243857,57.440081],[83.25407,57.449549],[83.103399,57.483467],[83.133611,57.696919],[83.195753,57.728462],[83.435735,57.734328],[83.441915,57.73891],[83.438138,57.77005],[83.456335,57.793479],[83.506116,57.820002],[83.535299,57.82896],[83.586797,57.831702],[83.581991,57.844313],[83.606367,57.860937],[83.668707,57.857839],[83.713957,58.054788],[83.924958,58.048074],[84.001362,58.052409],[84.427425,58.04605],[85.587856,58.013148],[85.571181,57.889773],[85.418488,57.889454]]]}},{"type":"Feature","id":"140295-1314","properties":{"id":"140295-1314","name":"Колпашевский район","name_ru":"Колпашевский район","subject_id":"140295","subject_name":"Томская область","source_gid":1314,"source_fid":1423,"names_rosstat":"Муниципальный район Колпашевский","population":31771,"area_km2":17162.05547931747,"density_km2":1.851235129631659,"source":"Актуализированный объединённый GeoJSON, предоставленный преподавателем","name_en":"Kolpashevskii District","name_zh":"Kolpashevskii区","subject_name_en":"Tomsk Oblast","subject_name_zh":"托木斯克州"},"geometry":{"type":"Polygon","coordinates":[[[80.79023,58.235166],[81.063266,57.934519],[81.798392,57.95243],[82.158861,57.970332],[82.182636,58.108364],[82.429212,58.107149],[82.540804,58.122543],[82.563813,58.120518],[82.596408,58.108567],[82.696112,58.100057],[82.719121,58.089518],[82.83148,57.97684],[82.938854,57.902542],[82.995225,57.924542],[83.056198,57.892556],[83.189648,57.955482],[83.30124,57.934519],[83.298172,57.942763],[83.315812,57.955075],[83.266535,57.982329],[83.2395,58.003163],[83.236816,58.014235],[83.316387,58.041749],[83.396246,58.045453],[83.453672,58.022461],[83.462875,57.989546],[83.453001,57.982482],[83.452042,57.971298],[83.469778,57.961484],[83.468628,57.95538],[83.445619,57.946427],[83.441017,57.928106],[83.418392,57.906515],[83.606367,57.860937],[83.668707,57.857839],[83.713957,58.054788],[83.845874,58.052759],[83.833281,58.083002],[83.819401,58.141678],[83.80024,58.253481],[83.893544,58.303983],[83.996761,58.37095],[84.10158,58.428562],[84.111683,58.436211],[84.121462,58.45678],[83.951884,58.47502],[83.974963,58.491106],[84.004454,58.491944],[84.042279,58.502999],[84.042599,58.515892],[84.048369,58.524763],[84.110556,58.549023],[84.154141,58.579772],[84.150307,58.688354],[84.17715,59.023531],[84.160277,59.096087],[84.164879,59.19403],[84.175616,59.269753],[84.098154,59.270145],[84.104708,59.314066],[83.924367,59.312327],[83.721874,59.250235],[83.600322,59.222925],[83.552657,59.20748],[83.529265,59.206007],[83.527923,59.201394],[83.500313,59.19236],[83.384311,59.186664],[83.375874,59.178413],[83.35555,59.172518],[83.294577,59.170553],[83.279621,59.166229],[83.278087,59.158661],[83.255654,59.139684],[83.238589,59.138898],[83.206761,59.123945],[83.204268,59.117154],[83.180109,59.111249],[83.181643,59.105145],[83.113575,59.08013],[83.113575,59.073922],[83.093251,59.066334],[83.023458,59.064264],[83.009845,59.051546],[82.978975,59.044052],[82.975524,59.047996],[82.948872,59.047405],[82.948488,59.038824],[82.938902,59.036161],[82.926247,59.039712],[82.921453,59.037542],[82.92107,59.030636],[82.90784,59.027281],[82.904772,59.019485],[82.887516,59.017017],[82.857604,59.002801],[82.841498,58.990456],[82.840923,58.979193],[82.817723,58.973659],[82.805643,58.961303],[82.743903,58.958931],[82.739493,58.950921],[82.710157,58.946075],[82.710157,58.93925],[82.679671,58.930444],[82.663757,58.931137],[82.657237,58.938557],[82.63653,58.934995],[82.624834,58.938458],[82.597031,58.93173],[82.592046,58.924506],[82.542194,58.912925],[82.523595,58.912925],[82.514009,58.90233],[82.454713,58.89354],[82.44273,58.882567],[82.420105,58.882345],[82.377922,58.87174],[82.321743,58.841793],[82.284929,58.838023],[82.264029,58.823733],[82.204015,58.66675],[82.196729,58.650494],[82.181006,58.635527],[82.179473,58.631435],[82.190018,58.629439],[82.191744,58.621154],[82.159532,58.620754],[82.154738,58.61037],[82.16375,58.598783],[82.173145,58.5691],[82.099709,58.581496],[82.059252,58.576998],[82.024356,58.584894],[81.947469,58.534137],[81.902985,58.536539],[81.551337,58.452171],[81.213589,58.385044],[81.008045,58.315824],[80.79023,58.235166]]]}},{"type":"Feature","id":"140295-2007","properties":{"id":"140295-2007","name":"Томский район","name_ru":"Томский район","subject_id":"140295","subject_name":"Томская область","source_gid":2007,"source_fid":2117,"names_rosstat":"Муниципальный район Томский","population":90145,"area_km2":9955.175070619074,"density_km2":9.05508937417353,"source":"Актуализированный объединённый GeoJSON, предоставленный преподавателем","name_en":"Tomskii District","name_zh":"Tomskii区","subject_name_en":"Tomsk Oblast","subject_name_zh":"托木斯克州"},"geometry":{"type":"Polygon","coordinates":[[[85.228252,56.22659],[85.228729,56.221524],[85.20188,56.216867],[85.20778,56.197832],[85.137882,56.198243],[85.116126,56.1941],[85.103815,56.181684],[85.106682,56.174264],[85.097199,56.159994],[85.065518,56.151549],[85.038319,56.133305],[85.043273,56.125611],[85.00263,56.108958],[84.986863,56.107777],[84.977503,56.112415],[84.971347,56.128372],[84.926825,56.154132],[84.91814,56.152445],[84.898178,56.162254],[84.885656,56.161976],[84.866852,56.153206],[84.868,56.149752],[84.832166,56.142849],[84.828357,56.137564],[84.790324,56.134175],[84.769499,56.124727],[84.756506,56.127257],[84.741066,56.118063],[84.702278,56.11332],[84.676729,56.102758],[84.637802,56.100141],[84.619929,56.088685],[84.607629,56.089772],[84.582205,56.080055],[84.555684,56.081089],[84.55702,56.078137],[84.537127,56.073461],[84.524272,56.063226],[84.468004,56.052816],[84.450349,56.04121],[84.438103,56.042329],[84.408434,56.031504],[84.396086,56.022303],[84.401534,56.017652],[84.391482,55.999001],[84.342563,55.980996],[84.29963,55.994187],[84.255712,56.034916],[84.247483,56.030951],[84.210002,56.059869],[84.086449,56.018402],[84.074536,56.027228],[84.026525,56.023335],[84.031227,56.035155],[84.039232,56.037931],[84.04282,56.052422],[84.062693,56.061824],[84.064902,56.077077],[84.07401,56.084778],[84.071802,56.109565],[84.082011,56.115199],[84.087332,56.136249],[84.083041,56.148682],[84.093577,56.163703],[84.093668,56.183996],[84.099765,56.197408],[84.098097,56.228385],[84.105188,56.240083],[84.092365,56.26014],[84.122727,56.303807],[84.121209,56.321949],[84.186626,56.325852],[84.180553,56.361418],[84.228718,56.358818],[84.264739,56.371814],[84.271363,56.392444],[84.208845,56.414437],[84.221818,56.421384],[84.212571,56.434282],[84.181519,56.433976],[84.083809,56.413101],[84.092641,56.439661],[84.13156,56.450493],[84.153918,56.4479],[84.147258,56.485265],[84.150009,56.494978],[84.192602,56.471458],[84.291083,56.526453],[84.266246,56.540261],[84.315171,56.567901],[84.301456,56.575274],[84.305486,56.575097],[84.315327,56.592754],[84.312435,56.59531],[84.347552,56.609707],[84.283446,56.640354],[84.304493,56.650054],[84.327356,56.679079],[84.347212,56.687648],[84.378889,56.715785],[84.397366,56.734725],[84.423621,56.782967],[84.43213,56.831678],[84.420704,56.854814],[84.425323,56.863453],[84.451822,56.883382],[84.448381,56.906982],[84.440295,56.914353],[84.420529,56.915901],[84.423613,56.928088],[84.405199,56.942664],[84.383101,56.945761],[84.378242,56.95187],[84.351613,56.948885],[84.325698,56.980939],[84.322975,56.998123],[84.325925,57.010542],[84.337952,57.018202],[84.338185,57.038389],[84.368912,57.019471],[84.376637,57.037221],[84.407794,57.048895],[84.423928,57.050356],[84.417834,57.043633],[84.447169,57.036532],[84.443643,57.046842],[84.453599,57.051231],[84.454457,57.060566],[84.450509,57.063086],[84.459196,57.071204],[84.510351,57.085105],[84.540392,57.084079],[84.547773,57.076336],[84.579187,57.081187],[84.588972,57.078668],[84.613348,57.090235],[84.621416,57.099747],[84.648882,57.108418],[84.791704,57.112426],[84.791361,57.133579],[84.943797,57.252813],[85.121896,57.284231],[85.236051,57.312379],[85.301883,57.15658],[85.287056,57.158244],[85.246887,57.103222],[85.258563,57.099039],[85.259619,57.092928],[85.276887,57.092403],[85.289405,57.082474],[85.28624,57.081046],[85.296685,57.081495],[85.303613,57.075312],[85.314307,57.077095],[85.32051,57.069063],[85.316017,57.06798],[85.324506,57.066971],[85.328819,57.057708],[85.358087,57.058213],[85.364294,57.094536],[85.39545,57.079157],[85.423517,57.084591],[85.424569,57.093871],[85.446434,57.098651],[85.46757,57.089745],[85.486731,57.089546],[85.486495,57.085023],[85.626421,57.092449],[85.63303,57.042428],[85.628223,57.042276],[85.626013,57.005954],[85.607731,57.006655],[85.607023,56.972345],[85.625219,56.972169],[85.69515,56.930862],[85.674872,56.919936],[85.62434,56.905024],[85.608514,56.905622],[85.605521,56.900343],[85.65128,56.890358],[85.645261,56.887269],[85.658522,56.87568],[85.672051,56.883706],[85.726618,56.886783],[85.726982,56.879796],[85.715288,56.866392],[85.740291,56.836901],[85.784752,56.840727],[85.782381,56.802164],[85.769077,56.776872],[85.772338,56.769582],[85.753112,56.761821],[85.763927,56.755375],[85.762983,56.745022],[85.768133,56.738573],[85.822785,56.755057],[85.837999,56.732865],[85.850594,56.735007],[85.866688,56.727532],[85.866378,56.714755],[85.871815,56.714927],[85.960038,56.733576],[86.028252,56.737881],[86.084677,56.748225],[86.105448,56.746908],[86.134631,56.761965],[86.137108,56.768665],[86.149286,56.770348],[86.156106,56.760296],[86.155486,56.749049],[86.147559,56.745594],[86.135027,56.752281],[86.127544,56.751528],[86.126968,56.74741],[86.140917,56.744222],[86.139765,56.738864],[86.149552,56.735985],[86.146613,56.731858],[86.150154,56.726814],[86.170005,56.716044],[86.163725,56.714078],[86.153779,56.719997],[86.133187,56.708466],[86.133789,56.700667],[86.157697,56.70091],[86.163827,56.692405],[86.145295,56.692487],[86.14233,56.687051],[86.15182,56.68227],[86.150978,56.678732],[86.133846,56.680297],[86.128163,56.676343],[86.135365,56.66081],[86.147437,56.655257],[86.146979,56.647222],[86.156233,56.642482],[86.153973,56.63669],[86.245866,56.655748],[86.268467,56.63189],[86.204623,56.623997],[86.188942,56.61678],[86.207638,56.606778],[86.187264,56.600465],[86.195823,56.578834],[86.145403,56.551195],[86.106991,56.539219],[86.115686,56.500949],[86.054222,56.477528],[86.000625,56.482318],[85.999229,56.473726],[85.992377,56.472773],[85.997586,56.466642],[85.975319,56.460955],[85.988129,56.453758],[85.990189,56.447873],[85.983086,56.440398],[85.986579,56.436736],[85.888948,56.424434],[85.886438,56.428773],[85.804296,56.412063],[85.802734,56.386266],[85.78238,56.387059],[85.802468,56.339876],[85.794741,56.334497],[85.780069,56.334054],[85.77307,56.340125],[85.744148,56.336584],[85.728296,56.343919],[85.717081,56.335825],[85.69423,56.334117],[85.690436,56.324757],[85.628,56.317222],[85.562492,56.280707],[85.571178,56.267057],[85.671802,56.234237],[85.669907,56.212905],[85.452151,56.211678],[85.449746,56.196292],[85.429142,56.196259],[85.398697,56.204695],[85.373781,56.205423],[85.353405,56.211692],[85.357713,56.214132],[85.320163,56.221306],[85.228252,56.22659]],[[84.637611,56.814312],[84.621882,56.797293],[84.643976,56.788848],[84.648943,56.776904],[84.651693,56.763416],[84.642346,56.764417],[84.644708,56.740687],[84.655898,56.740009],[84.663121,56.747578],[84.676634,56.748489],[84.714421,56.677628],[84.705636,56.675385],[84.705921,56.668693],[84.731541,56.638095],[84.743429,56.63118],[84.76038,56.629929],[84.777332,56.606482],[84.794627,56.596323],[84.825783,56.592827],[84.875436,56.598686],[84.889856,56.594008],[84.908052,56.579403],[84.913129,56.559811],[84.934083,56.540417],[84.926236,56.527852],[84.901294,56.521962],[84.895152,56.527227],[84.894794,56.535125],[84.868809,56.527887],[84.85981,56.530639],[84.880827,56.536422],[84.869077,56.550223],[84.858835,56.544582],[84.842118,56.549792],[84.82801,56.546638],[84.842078,56.540498],[84.813997,56.524841],[84.835791,56.508852],[84.861404,56.510976],[84.862893,56.507464],[84.848099,56.504505],[84.839944,56.489297],[84.859038,56.488522],[84.878699,56.48077],[84.87206,56.477262],[84.884516,56.466605],[84.885241,56.462489],[84.878246,56.458922],[84.881005,56.457006],[84.907684,56.460285],[84.892171,56.470567],[84.894228,56.478179],[84.899852,56.476344],[84.912649,56.462199],[84.907994,56.460697],[84.920453,56.454536],[84.921301,56.442178],[84.951477,56.435723],[84.966048,56.40207],[84.992719,56.401048],[85.023297,56.411874],[85.034372,56.406709],[85.044068,56.4093],[85.076254,56.395633],[85.061234,56.387888],[85.046883,56.387622],[85.051915,56.38187],[85.082434,56.377837],[85.086082,56.380045],[85.083679,56.384999],[85.097669,56.384525],[85.102587,56.375432],[85.095183,56.372656],[85.099965,56.367975],[85.094496,56.367189],[85.105161,56.357928],[85.126894,56.370766],[85.115393,56.376873],[85.121168,56.378809],[85.11516,56.380377],[85.117436,56.387364],[85.075637,56.396485],[85.061559,56.403424],[85.047471,56.41837],[85.031255,56.41775],[85.003034,56.431716],[85.009158,56.442899],[85.021428,56.441724],[85.01973,56.447972],[85.028359,56.448223],[85.036798,56.438417],[85.046395,56.444223],[85.039034,56.452685],[85.051297,56.463533],[85.064268,56.464267],[85.06402,56.458896],[85.069819,56.457574],[85.091025,56.463074],[85.105435,56.454089],[85.126474,56.456893],[85.149753,56.468774],[85.138767,56.479377],[85.142982,56.481505],[85.130412,56.486571],[85.133159,56.492257],[85.129622,56.495084],[85.143754,56.506564],[85.139854,56.510637],[85.110671,56.512342],[85.107238,56.528251],[85.134189,56.542923],[85.091273,56.548601],[85.062219,56.543467],[85.085942,56.557799],[85.07904,56.564896],[85.112653,56.57031],[85.13676,56.585474],[85.093,56.587897],[85.078211,56.595761],[85.07293,56.59518],[85.071342,56.589155],[85.048393,56.585397],[85.028837,56.588122],[85.025904,56.592655],[85.046767,56.608657],[85.070842,56.611934],[85.097039,56.636848],[85.096755,56.650449],[85.07992,56.650447],[85.080073,56.675048],[85.047353,56.688904],[85.027725,56.685818],[85.024494,56.691108],[85.009044,56.693371],[85.012062,56.698795],[84.982475,56.714112],[84.97813,56.733222],[84.973392,56.736126],[84.945394,56.742211],[84.937431,56.737789],[84.914726,56.746428],[84.911311,56.754703],[84.92896,56.760389],[84.904841,56.773139],[84.855791,56.785846],[84.826944,56.78204],[84.812036,56.804395],[84.82371,56.806836],[84.810278,56.826683],[84.831624,56.831621],[84.813705,56.8427],[84.83413,56.856009],[84.838273,56.865607],[84.890959,56.884947],[84.859234,56.90812],[84.899874,56.913249],[84.910824,56.910232],[84.909916,56.91554],[84.8881,56.919076],[84.925353,56.940389],[84.872618,56.952993],[84.860302,56.961569],[84.795348,56.939436],[84.801083,56.919811],[84.820544,56.926626],[84.834185,56.92349],[84.817112,56.908114],[84.825978,56.902653],[84.806539,56.901235],[84.81098,56.885],[84.782476,56.87502],[84.78632,56.866371],[84.783406,56.851197],[84.775336,56.847397],[84.772864,56.833709],[84.780553,56.833184],[84.77704,56.813263],[84.733589,56.810482],[84.668287,56.84971],[84.650082,56.853582],[84.618687,56.841762],[84.620739,56.820349],[84.637611,56.814312]]]}},{"type":"Feature","id":"140295-2008","properties":{"id":"140295-2008","name":"Асиновский район","name_ru":"Асиновский район","subject_id":"140295","subject_name":"Томская область","source_gid":2008,"source_fid":2118,"names_rosstat":"Муниципальный район Асиновский","population":32925,"area_km2":5831.638433313006,"density_km2":5.645926162348685,"source":"Актуализированный объединённый GeoJSON, предоставленный преподавателем","name_en":"Asinovskii District","name_zh":"Asinovskii区","subject_name_en":"Tomsk Oblast","subject_name_zh":"托木斯克州"},"geometry":{"type":"Polygon","coordinates":[[[84.951359,57.408484],[84.880292,57.443789],[84.761845,57.444158],[84.771664,57.465507],[84.788465,57.532257],[84.798744,57.532401],[84.808458,57.540019],[84.839264,57.54005],[84.864283,57.553131],[84.872829,57.563623],[84.905081,57.577583],[84.919179,57.595432],[84.74432,57.606082],[84.739986,57.72473],[84.775734,57.729427],[84.773159,57.820313],[84.768568,57.827809],[84.772816,57.84371],[84.836073,57.855767],[84.859805,57.853872],[84.878302,57.842705],[84.895468,57.820359],[84.915467,57.808609],[84.92744,57.807054],[84.940615,57.810918],[84.953018,57.833041],[84.985762,57.843641],[84.999838,57.836011],[84.991427,57.821501],[84.995118,57.813136],[85.014344,57.808495],[85.04565,57.818427],[85.078202,57.81509],[85.097664,57.829134],[85.09496,57.833133],[85.123359,57.827535],[85.1219,57.881149],[85.571181,57.889773],[85.554551,57.729404],[85.544455,57.726586],[85.538812,57.733872],[85.507849,57.734703],[85.503235,57.746322],[85.480082,57.752745],[85.443862,57.748028],[85.440686,57.74331],[85.486867,57.727854],[85.513131,57.71126],[85.512616,57.700255],[85.497338,57.689521],[85.508325,57.665841],[85.533598,57.66418],[85.551068,57.684199],[85.577504,57.686034],[85.580423,57.678233],[85.552785,57.667401],[85.550554,57.661709],[85.597074,57.645085],[85.608056,57.612289],[85.626943,57.61071],[85.66076,57.619169],[85.686509,57.608136],[85.691394,57.599066],[85.676631,57.578916],[85.674571,57.568883],[85.678691,57.564372],[85.722293,57.565109],[85.758857,57.550098],[85.781173,57.54669],[85.784778,57.53886],[85.756282,57.535635],[85.750789,57.530198],[85.752506,57.522179],[85.770702,57.516372],[85.805892,57.52559],[85.814819,57.517109],[85.809326,57.504661],[85.8119,57.499035],[85.826835,57.493685],[85.863399,57.492947],[85.874385,57.487689],[85.867862,57.481875],[85.834903,57.481783],[85.829925,57.475323],[85.83559,57.468123],[85.854473,57.46046],[85.870437,57.462676],[85.878333,57.456767],[85.927085,57.453719],[85.927257,57.440696],[85.947341,57.443005],[85.959358,57.425357],[86.008624,57.41824],[86.000213,57.409734],[85.966739,57.41223],[85.950946,57.40622],[85.95232,57.396047],[85.983219,57.387444],[85.966567,57.367084],[85.977725,57.348288],[85.961761,57.336431],[85.943222,57.330687],[85.936183,57.317619],[85.945453,57.31558],[85.953693,57.324385],[85.961761,57.325034],[85.965709,57.320585],[85.950775,57.314097],[85.95026,57.310018],[85.986823,57.302414],[85.98957,57.294253],[85.979785,57.275048],[85.983905,57.268644],[86.005535,57.264653],[86.048107,57.26753],[86.081066,57.249797],[86.080722,57.23986],[86.068706,57.236887],[86.038665,57.252676],[86.014289,57.256112],[85.987339,57.241439],[85.99266,57.228154],[86.026951,57.212928],[86.025846,57.20119],[86.009484,57.186507],[86.012678,57.173557],[86.043459,57.161242],[86.050154,57.153794],[86.029515,57.140334],[86.029859,57.134093],[86.045005,57.125289],[86.056162,57.127805],[86.060626,57.138052],[86.093241,57.134326],[86.112982,57.123426],[86.118287,57.112873],[86.135102,57.100232],[86.161194,57.091746],[86.190896,57.074198],[86.201295,57.062853],[86.23906,57.059026],[86.241635,57.056973],[86.230914,57.042734],[86.232974,57.034796],[86.279923,57.017792],[86.259238,56.996105],[86.258895,56.980861],[86.282241,56.975436],[86.316367,56.996828],[86.331473,56.9958],[86.346236,56.976533],[86.373096,56.973194],[86.3719,56.966894],[86.338583,56.963119],[86.348447,56.954613],[86.334708,56.948368],[86.340265,56.944096],[86.361985,56.945925],[86.360135,56.940933],[86.348293,56.93864],[86.354568,56.934224],[86.353891,56.92773],[86.369709,56.922909],[86.342157,56.918049],[86.325308,56.90594],[86.311758,56.911741],[86.284055,56.903165],[86.280058,56.897766],[86.282458,56.889591],[86.276786,56.885827],[86.267095,56.887399],[86.261762,56.896752],[86.251385,56.895837],[86.257052,56.882616],[86.247726,56.875297],[86.221003,56.896869],[86.205769,56.888788],[86.203001,56.876835],[86.181124,56.874145],[86.177101,56.867085],[86.191625,56.866249],[86.199325,56.860551],[86.189622,56.851736],[86.175706,56.850134],[86.177616,56.837459],[86.172257,56.833185],[86.19662,56.807546],[86.159034,56.793828],[86.160821,56.787881],[86.155176,56.777566],[86.131706,56.774112],[86.136691,56.763471],[86.110941,56.748414],[85.960038,56.733576],[85.866378,56.714755],[85.866688,56.727532],[85.850594,56.735007],[85.837999,56.732865],[85.822785,56.755057],[85.768133,56.738573],[85.762983,56.745022],[85.763927,56.755375],[85.753112,56.761821],[85.772338,56.769582],[85.769077,56.776872],[85.782381,56.802164],[85.784752,56.840727],[85.740291,56.836901],[85.715288,56.866392],[85.726982,56.879796],[85.726618,56.886783],[85.672051,56.883706],[85.658522,56.87568],[85.645261,56.887269],[85.65128,56.890358],[85.605521,56.900343],[85.608514,56.905622],[85.62434,56.905024],[85.674872,56.919936],[85.69515,56.930862],[85.625219,56.972169],[85.607023,56.972345],[85.607731,57.006655],[85.626013,57.005954],[85.628223,57.042276],[85.63303,57.042428],[85.626421,57.092449],[85.486495,57.085023],[85.486731,57.089546],[85.46757,57.089745],[85.446434,57.098651],[85.424569,57.093871],[85.423517,57.084591],[85.39545,57.079157],[85.364294,57.094536],[85.358087,57.058213],[85.326539,57.058481],[85.327966,57.063212],[85.316017,57.06798],[85.32051,57.069063],[85.314307,57.077095],[85.303613,57.075312],[85.296685,57.081495],[85.287278,57.080578],[85.276887,57.092403],[85.26692,57.090293],[85.269782,57.092969],[85.259619,57.092928],[85.258563,57.099039],[85.246887,57.103222],[85.287056,57.158244],[85.301883,57.15658],[85.236051,57.312379],[85.121896,57.284231],[84.943797,57.252813],[84.954106,57.347777],[84.948613,57.379439],[84.951359,57.408484]]]}},{"type":"Feature","id":"140295-2009","properties":{"id":"140295-2009","name":"Зырянский район","name_ru":"Зырянский район","subject_id":"140295","subject_name":"Томская область","source_gid":2009,"source_fid":2119,"names_rosstat":"Муниципальный район Зырянский","population":10973,"area_km2":3959.846082786563,"density_km2":2.7710673017569025,"source":"Актуализированный объединённый GeoJSON, предоставленный преподавателем","name_en":"Zyrianskii District","name_zh":"Zyrianskii区","subject_name_en":"Tomsk Oblast","subject_name_zh":"托木斯克州"},"geometry":{"type":"Polygon","coordinates":[[[86.126658,56.749845],[86.129403,56.745284],[86.140917,56.744222],[86.139765,56.738864],[86.149552,56.735985],[86.146613,56.731858],[86.150154,56.726814],[86.170005,56.716044],[86.151225,56.719421],[86.13154,56.706819],[86.138314,56.698719],[86.152927,56.702117],[86.163992,56.693887],[86.142824,56.691087],[86.150978,56.678732],[86.133846,56.680297],[86.128163,56.676343],[86.135365,56.66081],[86.147437,56.655257],[86.146979,56.647222],[86.156233,56.642482],[86.153973,56.63669],[86.245866,56.655748],[86.268467,56.63189],[86.338887,56.636074],[86.334439,56.592011],[86.364136,56.594563],[86.375122,56.576129],[86.377677,56.555598],[86.39023,56.550696],[86.440132,56.548269],[86.476961,56.566633],[86.532459,56.577249],[86.591258,56.613592],[86.598684,56.602201],[86.597467,56.593799],[86.6222,56.588123],[86.633685,56.618225],[86.67819,56.643265],[86.746245,56.603176],[86.78771,56.61556],[86.804658,56.626212],[86.821676,56.617442],[86.852139,56.589539],[86.838795,56.586899],[86.848797,56.555901],[86.859302,56.553126],[86.90343,56.547254],[86.909466,56.540903],[86.933537,56.555037],[86.960316,56.560903],[86.962547,56.574049],[86.969635,56.578898],[87.000494,56.54191],[87.118012,56.535604],[87.139626,56.549574],[87.163947,56.550208],[87.183651,56.5625],[87.199818,56.561724],[87.212131,56.56852],[87.195107,56.569904],[87.195007,56.573326],[87.22714,56.572445],[87.200117,56.586197],[87.18559,56.585913],[87.192464,56.57689],[87.186585,56.574668],[87.159026,56.586788],[87.17017,56.596327],[87.183409,56.597083],[87.177114,56.605193],[87.181106,56.611664],[87.166021,56.615466],[87.162223,56.611664],[87.165377,56.607082],[87.156008,56.606934],[87.158961,56.617615],[87.149549,56.622909],[87.148884,56.627997],[87.138906,56.630653],[87.159777,56.633787],[87.149305,56.640796],[87.15384,56.649154],[87.143369,56.652552],[87.134443,56.646134],[87.127601,56.648294],[87.138251,56.658066],[87.172663,56.664294],[87.195664,56.638864],[87.242786,56.630271],[87.262701,56.63858],[87.349474,56.635181],[87.383977,56.645611],[87.403373,56.62706],[87.347585,56.61096],[87.36458,56.592957],[87.444656,56.612752],[87.596665,56.663656],[87.653999,56.600611],[87.633813,56.59324],[87.632612,56.588987],[87.654309,56.543607],[87.702373,56.563154],[87.702339,56.551836],[87.999378,56.655722],[88.046837,56.666593],[88.062554,56.682072],[88.051221,56.695831],[88.053453,56.706575],[88.022382,56.729277],[88.01088,56.729466],[87.989423,56.743777],[87.972772,56.745189],[87.945993,56.760718],[87.903249,56.768339],[87.874581,56.789311],[87.830397,56.792219],[87.823598,56.797866],[87.826859,56.804822],[87.818963,56.807453],[87.8248,56.815816],[87.81862,56.832537],[87.805059,56.842115],[87.807118,56.84878],[87.798707,56.85629],[87.797849,56.863797],[87.766263,56.885092],[87.76901,56.894],[87.730042,56.911529],[87.658803,56.92474],[87.654168,56.929893],[87.60576,56.92474],[87.597863,56.917807],[87.587392,56.923429],[87.547566,56.919213],[87.53864,56.922398],[87.538812,56.9283],[87.525765,56.929705],[87.519757,56.927926],[87.525937,56.926801],[87.524736,56.923522],[87.500691,56.919095],[87.50452,56.914829],[87.494778,56.910302],[87.502572,56.907223],[87.490568,56.905265],[87.497752,56.899603],[87.479417,56.902437],[87.474952,56.898789],[87.48038,56.895679],[87.462594,56.8955],[87.466338,56.890076],[87.456397,56.892641],[87.463717,56.88909],[87.45141,56.885716],[87.452687,56.882293],[87.446447,56.88782],[87.432166,56.883167],[87.424804,56.886511],[87.426267,56.882933],[87.421448,56.881391],[87.404916,56.88481],[87.40528,56.879534],[87.363889,56.872898],[87.356847,56.877131],[87.361352,56.879286],[87.343804,56.879371],[87.347278,56.882811],[87.341154,56.884632],[87.340897,56.881253],[87.333383,56.883746],[87.321998,56.877527],[87.310495,56.882847],[87.285533,56.875071],[87.277934,56.877241],[87.27328,56.872671],[87.265723,56.880973],[87.258208,56.874788],[87.261633,56.872842],[87.256662,56.872788],[87.233255,56.876275],[87.224005,56.882475],[87.206958,56.879792],[87.209204,56.889156],[87.196862,56.892031],[87.195864,56.883396],[87.181413,56.891187],[87.182614,56.896813],[87.1747,56.894332],[87.174031,56.903187],[87.146362,56.903983],[87.142812,56.899482],[87.128622,56.898769],[87.104852,56.901875],[87.110359,56.935362],[87.205607,56.975156],[87.259302,57.003666],[87.149421,57.061998],[87.082894,57.041128],[87.064195,57.048262],[87.003334,57.096612],[86.970201,57.009269],[86.955781,57.000949],[86.914754,56.994965],[86.863771,56.966248],[86.859823,56.972142],[86.869092,56.981872],[86.863599,56.984771],[86.84094,56.977195],[86.836133,56.967745],[86.822744,56.971207],[86.821714,56.965592],[86.815534,56.96344],[86.800085,56.9684],[86.800256,56.960632],[86.813646,56.948838],[86.809183,56.942939],[86.798711,56.942845],[86.77176,56.957544],[86.767984,56.952489],[86.774335,56.941066],[86.761804,56.936478],[86.753564,56.939755],[86.749616,56.95071],[86.73348,56.952489],[86.726957,56.946497],[86.742235,56.936852],[86.730733,56.914931],[86.713224,56.904528],[86.68387,56.909777],[86.676488,56.906778],[86.68284,56.893279],[86.676145,56.886902],[86.652971,56.89431],[86.642328,56.89056],[86.606622,56.897498],[86.586538,56.88709],[86.572462,56.893185],[86.513582,56.886809],[86.484914,56.895529],[86.46895,56.911183],[86.441312,56.910808],[86.438394,56.917368],[86.450239,56.938257],[86.442857,56.950429],[86.378484,56.952395],[86.368013,56.958948],[86.3719,56.966894],[86.338583,56.963119],[86.348447,56.954613],[86.335373,56.946741],[86.361985,56.945925],[86.360135,56.940933],[86.348293,56.93864],[86.354568,56.934224],[86.353891,56.92773],[86.369362,56.922297],[86.342157,56.918049],[86.325308,56.90594],[86.311758,56.911741],[86.284055,56.903165],[86.280058,56.897766],[86.282458,56.889591],[86.276786,56.885827],[86.267095,56.887399],[86.261762,56.896752],[86.251385,56.895837],[86.257052,56.882616],[86.247726,56.875297],[86.221003,56.896869],[86.205769,56.888788],[86.203001,56.876835],[86.181124,56.874145],[86.177101,56.867085],[86.191625,56.866249],[86.199325,56.860551],[86.189622,56.851736],[86.175706,56.850134],[86.177616,56.837459],[86.172257,56.833185],[86.196821,56.807933],[86.175524,56.796631],[86.159034,56.793828],[86.160821,56.787881],[86.151824,56.775127],[86.130289,56.772828],[86.134407,56.768665],[86.151323,56.768178],[86.156327,56.759012],[86.152386,56.746436],[86.135027,56.752281],[86.126658,56.749845]]]}},{"type":"Feature","id":"140295-2303","properties":{"id":"140295-2303","name":"Александровский район","name_ru":"Александровский район","subject_id":"140295","subject_name":"Томская область","source_gid":2303,"source_fid":2413,"names_rosstat":"Муниципальный район Александровский","population":7072,"area_km2":30044.17160270538,"density_km2":0.23538675299548578,"source":"Актуализированный объединённый GeoJSON, предоставленный преподавателем","name_en":"Aleksandrovskii District","name_zh":"Aleksandrovskii区","subject_name_en":"Tomsk Oblast","subject_name_zh":"托木斯克州"},"geometry":{"type":"Polygon","coordinates":[[[76.652304,59.606796],[76.674988,59.588059],[76.664888,59.571174],[76.816133,59.53138],[77.132452,59.561774],[77.193414,59.571491],[77.246418,59.573578],[77.348306,59.591709],[77.414099,59.593147],[77.627821,59.549317],[77.905346,59.525183],[78.208309,59.487398],[78.383379,59.425003],[78.612447,59.522877],[78.81878,59.42269],[78.792633,59.333805],[78.874484,59.314375],[78.965998,59.26096],[79.000102,59.276935],[79.102416,59.298127],[79.366726,59.276064],[79.417315,59.331485],[79.50485,59.406494],[79.584427,59.493169],[79.703207,59.664585],[79.697821,59.667435],[79.700632,59.674706],[79.723388,59.668681],[79.731263,59.676937],[79.727347,59.680886],[79.741579,59.682649],[79.767054,59.672907],[79.797465,59.680515],[79.806982,59.686169],[79.8057,59.691031],[79.813553,59.685622],[79.830945,59.694654],[79.842585,59.69225],[79.83736,59.701951],[79.840289,59.704321],[79.834453,59.705501],[79.847799,59.720111],[79.839924,59.718358],[79.833544,59.723383],[79.833983,59.729473],[79.828683,59.732912],[79.834772,59.737922],[79.830888,59.739728],[79.841622,59.746161],[79.865065,59.74125],[79.883626,59.750177],[79.900014,59.749945],[79.907181,59.761293],[79.922663,59.766961],[79.933724,59.778174],[79.964795,59.77866],[79.973077,59.787234],[80.001487,59.795386],[80.023921,59.800157],[80.042858,59.797339],[80.137111,59.818646],[80.152174,59.81541],[80.210968,59.821904],[80.393304,59.918204],[80.448923,59.964635],[80.551919,60.000016],[80.699817,60.06616],[80.922976,60.181939],[80.962802,60.312447],[81.458741,60.607139],[81.10419,60.642048],[81.098435,60.663329],[81.082297,60.66997],[81.068862,60.693159],[81.052447,60.755725],[80.98408,60.774523],[80.704837,60.802779],[80.639059,60.770738],[80.404972,60.750197],[80.200997,60.675322],[79.939951,60.670231],[79.675089,60.679848],[79.653362,60.686547],[79.631685,60.682248],[79.615639,60.672764],[79.586964,60.676276],[79.577581,60.670429],[79.552183,60.666572],[79.510537,60.668093],[79.462688,60.650293],[79.446144,60.649217],[79.426797,60.639255],[79.390266,60.634863],[79.386647,60.644133],[79.375801,60.645662],[79.374137,60.649217],[79.379441,60.651862],[79.369712,60.65379],[79.375571,60.658446],[79.357743,60.662302],[79.363618,60.663693],[79.357868,60.666132],[79.361794,60.668125],[79.344381,60.669003],[79.352092,60.672801],[79.343614,60.677169],[79.342262,60.686058],[79.330866,60.686888],[79.337422,60.692673],[79.31044,60.691308],[79.312187,60.695162],[79.306927,60.695943],[79.311949,60.702768],[79.296047,60.707553],[79.299787,60.709461],[79.297159,60.712764],[79.304838,60.715572],[79.288479,60.720734],[79.292918,60.723918],[79.290309,60.725871],[79.296608,60.725591],[79.291573,60.728372],[79.299377,60.729416],[79.292179,60.732744],[79.300398,60.736338],[79.297283,60.741128],[79.306394,60.747471],[79.279296,60.761299],[79.28597,60.764585],[79.282782,60.767378],[79.316337,60.774114],[79.313447,60.782587],[79.300737,60.785069],[79.305409,60.786198],[79.301714,60.790658],[79.308158,60.796191],[79.279495,60.80379],[79.279915,60.807501],[79.251645,60.804416],[79.249708,60.807878],[79.255593,60.810251],[79.21655,60.816535],[79.221921,60.823887],[79.212947,60.826272],[79.204539,60.822909],[79.210577,60.819743],[79.197474,60.817407],[79.193845,60.821323],[79.199616,60.82342],[79.186377,60.82399],[79.191686,60.827533],[79.172936,60.821636],[79.175692,60.824797],[79.165581,60.825724],[79.159339,60.818149],[79.153237,60.820532],[79.153634,60.811877],[79.129333,60.816579],[79.126435,60.808479],[79.118983,60.809978],[79.116121,60.817163],[79.106025,60.815115],[79.101576,60.819692],[79.103538,60.815382],[79.098737,60.811022],[79.08976,60.81012],[79.098756,60.80534],[79.083266,60.799941],[79.082004,60.805071],[79.063779,60.80582],[79.069346,60.810026],[79.058246,60.811659],[79.062653,60.815031],[79.055426,60.816277],[79.060198,60.817515],[79.043078,60.818764],[79.036641,60.814785],[79.042453,60.812649],[79.034883,60.808967],[79.039013,60.802741],[79.025356,60.802295],[79.029506,60.805735],[79.010386,60.810437],[79.002921,60.808809],[79.008483,60.805933],[79.000473,60.803082],[78.984749,60.808112],[78.99145,60.810349],[78.98744,60.814304],[78.992441,60.816197],[78.985203,60.816641],[78.985516,60.820424],[78.973753,60.816158],[78.981468,60.811128],[78.970772,60.807813],[78.975991,60.805705],[78.963116,60.810513],[78.961326,60.80347],[78.952858,60.803931],[78.969836,60.800778],[78.963047,60.796516],[78.956944,60.798786],[78.958164,60.792901],[78.96461,60.791843],[78.958371,60.791007],[78.953258,60.796404],[78.948955,60.788547],[78.944557,60.792243],[78.95104,60.796344],[78.940269,60.791211],[78.943653,60.796669],[78.939829,60.796784],[78.936874,60.791905],[78.927451,60.790936],[78.919803,60.797956],[78.919067,60.793897],[78.908209,60.792406],[78.912762,60.789701],[78.906773,60.788181],[78.91146,60.786623],[78.899516,60.785858],[78.905438,60.779102],[78.886634,60.779792],[78.882161,60.776708],[78.885067,60.77427],[78.879178,60.776384],[78.868673,60.768577],[78.861441,60.76912],[78.870457,60.766176],[78.858519,60.762256],[78.850322,60.763728],[78.850668,60.770488],[78.843351,60.767406],[78.846367,60.763892],[78.839622,60.767929],[78.834969,60.763784],[78.818957,60.767403],[78.814488,60.764425],[78.820163,60.762109],[78.811807,60.764181],[78.80158,60.754918],[78.795631,60.758514],[78.800308,60.753642],[78.795518,60.749188],[78.788453,60.75244],[78.793004,60.754651],[78.786707,60.752741],[78.784594,60.750436],[78.761663,60.754053],[78.767868,60.757105],[78.758922,60.761752],[78.759689,60.765414],[78.777471,60.765298],[78.765547,60.781329],[78.718893,60.797395],[78.719146,60.810567],[78.697947,60.825218],[78.643613,60.816434],[78.487268,60.763884],[78.333664,60.788871],[78.194368,60.802351],[78.088345,60.796784],[77.969963,60.740696],[77.889358,60.778865],[77.704323,60.81999],[77.582634,60.821176],[77.449238,60.810023],[77.395361,60.814138],[77.309403,60.839847],[77.259874,60.838763],[77.258754,60.833687],[77.248917,60.831862],[77.288211,60.816253],[77.308509,60.824479],[77.348397,60.812774],[77.324079,60.793675],[77.354568,60.784046],[77.480504,60.763716],[77.504689,60.768499],[77.504331,60.7921],[77.480558,60.793191],[77.482428,60.80257],[77.690353,60.803562],[77.688456,60.749079],[77.762139,60.749529],[77.764027,60.717157],[77.759362,60.676852],[77.716417,60.676464],[77.675455,60.690374],[77.651969,60.687979],[77.65061,60.690851],[77.663802,60.698035],[77.605768,60.721467],[77.591176,60.723016],[77.556232,60.71174],[77.538331,60.694217],[77.517738,60.683821],[77.517812,60.677163],[77.582342,60.686773],[77.599611,60.675804],[77.561358,60.682181],[77.462451,60.658781],[77.467157,60.667623],[77.477597,60.670102],[77.459887,60.675831],[77.466212,60.68025],[77.438534,60.699016],[77.430588,60.716025],[77.500298,60.742612],[77.501272,60.748754],[77.493707,60.756279],[77.461094,60.759631],[77.366744,60.741151],[77.362803,60.742756],[77.397411,60.748775],[77.380968,60.751862],[77.383392,60.757903],[77.372,60.753964],[77.367351,60.760477],[77.3332,60.76463],[77.338324,60.771875],[77.33221,60.768806],[77.31177,60.774141],[77.324591,60.776241],[77.297527,60.788802],[77.30217,60.791496],[77.291299,60.790502],[77.296366,60.794411],[77.261206,60.804466],[77.251807,60.80006],[77.249285,60.805327],[77.242656,60.803055],[77.239662,60.808719],[77.233123,60.809216],[77.235925,60.812322],[77.20686,60.816035],[77.207245,60.822462],[77.2238,60.819569],[77.227016,60.822694],[77.181014,60.831576],[77.201524,60.839211],[77.221305,60.83746],[77.243592,60.842319],[77.196626,60.856151],[77.110482,60.858519],[77.073126,60.842046],[77.093662,60.828444],[77.075932,60.821776],[77.099577,60.822014],[77.092933,60.815875],[77.090429,60.802042],[77.067173,60.794034],[77.079709,60.786652],[77.070297,60.781304],[77.078779,60.77832],[77.080277,60.76904],[77.08868,60.768552],[77.098248,60.753588],[77.11381,60.744261],[77.097546,60.70529],[77.041033,60.693394],[77.014167,60.692974],[77.025617,60.687732],[77.025737,60.679082],[77.004717,60.667331],[76.985614,60.663286],[76.992328,60.659702],[77.009421,60.662789],[77.009356,60.653783],[76.961555,60.660845],[76.960682,60.657462],[76.980036,60.654238],[76.958644,60.648174],[76.97069,60.642133],[76.972208,60.636085],[76.95564,60.628484],[76.984291,60.628716],[76.983921,60.624767],[76.994526,60.623436],[76.993258,60.618994],[77.006754,60.622003],[77.018158,60.615217],[77.027245,60.620421],[77.036052,60.614186],[77.047751,60.625601],[77.052642,60.61884],[77.049832,60.613468],[77.063745,60.612074],[77.055649,60.607273],[77.061493,60.598263],[77.052719,60.594718],[77.053495,60.591047],[77.045653,60.593509],[77.041853,60.582707],[77.055786,60.581962],[77.048129,60.576974],[77.063418,60.576346],[77.051403,60.570462],[77.063932,60.559433],[77.059056,60.55732],[77.062697,60.55238],[77.056556,60.549638],[77.067065,60.542275],[77.060643,60.539297],[77.069157,60.539146],[77.072363,60.533648],[77.060608,60.537253],[77.058491,60.533967],[77.067996,60.531459],[77.072045,60.523327],[77.051596,60.519949],[77.048305,60.509192],[77.04134,60.510608],[77.043501,60.50756],[77.006082,60.50547],[77.008026,60.507912],[76.989072,60.511124],[76.992152,60.508683],[76.982193,60.507627],[76.969392,60.496937],[76.950886,60.497319],[76.938884,60.489193],[76.924445,60.490277],[76.914799,60.481606],[76.879651,60.480675],[76.853519,60.471224],[76.846895,60.474783],[76.840377,60.467979],[76.799347,60.468751],[76.801581,60.466119],[76.796031,60.465766],[76.798676,60.459326],[76.8111,60.45818],[76.818667,60.451436],[76.814259,60.448583],[76.819203,60.44602],[76.800761,60.438801],[76.812458,60.429381],[76.812846,60.421192],[76.773459,60.405819],[76.765781,60.394797],[76.776925,60.388346],[76.77512,60.382525],[76.756215,60.377619],[76.770454,60.36771],[76.762609,60.358798],[76.767124,60.357253],[76.75464,60.351776],[76.771295,60.345607],[76.767646,60.339674],[76.77097,60.33704],[76.762409,60.332355],[76.764441,60.328113],[76.780312,60.324757],[76.78293,60.329147],[76.790998,60.328342],[76.803618,60.322466],[76.808805,60.314195],[76.815824,60.314444],[76.813914,60.307604],[76.829549,60.309714],[76.836016,60.301081],[76.833558,60.297821],[76.839889,60.294926],[76.837557,60.292376],[76.850247,60.289212],[76.849991,60.282756],[76.866911,60.274762],[76.850307,60.264683],[76.861715,60.258334],[76.855312,60.255185],[76.85713,60.233507],[76.831701,60.219247],[76.841623,60.210673],[76.833529,60.202953],[76.840793,60.195694],[76.831285,60.191756],[76.833801,60.186297],[76.82664,60.182914],[76.827956,60.179729],[76.797185,60.163307],[76.790061,60.148209],[76.769302,60.142511],[76.749723,60.126812],[76.714021,60.115555],[76.772433,60.065674],[76.75775,60.001698],[76.772889,59.991184],[76.740547,59.711208],[76.668362,59.685041],[76.652304,59.606796]]]}},{"type":"Feature","id":"140295-2304","properties":{"id":"140295-2304","name":"Каргасокский район","name_ru":"Каргасокский район","subject_id":"140295","subject_name":"Томская область","source_gid":2304,"source_fid":2414,"names_rosstat":"Муниципальный район Каргасокский","population":17264,"area_km2":86834.75528910184,"density_km2":0.19881440262625708,"source":"Актуализированный объединённый GeoJSON, предоставленный преподавателем","name_en":"Kargasokskii District","name_zh":"Kargasokskii区","subject_name_en":"Tomsk Oblast","subject_name_zh":"托木斯克州"},"geometry":{"type":"Polygon","coordinates":[[[76.094728,57.235314],[75.965411,57.393694],[75.848268,57.385801],[75.704125,57.624997],[75.550039,57.625219],[75.576082,57.878807],[75.565762,57.934585],[75.302963,58.026804],[75.071473,58.116793],[75.242489,58.202615],[75.056664,58.339153],[75.254965,58.417351],[75.376835,58.454101],[75.109428,58.575719],[75.199295,58.618682],[75.131298,58.663889],[75.635376,58.912346],[75.701148,58.968584],[75.72395,59.001001],[75.727608,59.015372],[75.638128,59.211711],[75.840339,59.280959],[75.898194,59.400331],[75.987835,59.382552],[76.177166,59.530001],[76.415635,59.544651],[76.502464,59.543769],[76.664888,59.571174],[76.816133,59.53138],[77.132452,59.561774],[77.193414,59.571491],[77.246418,59.573578],[77.348306,59.591709],[77.414099,59.593147],[77.627821,59.549317],[77.905346,59.525183],[78.208309,59.487398],[78.383379,59.425003],[78.612447,59.522877],[78.81878,59.42269],[78.792633,59.333805],[78.874484,59.314375],[78.965998,59.26096],[79.000102,59.276935],[79.102416,59.298127],[79.366726,59.276064],[79.417315,59.331485],[79.50485,59.406494],[79.584427,59.493169],[79.703207,59.664585],[79.697821,59.667435],[79.700632,59.674706],[79.723388,59.668681],[79.731263,59.676937],[79.727347,59.680886],[79.741579,59.682649],[79.767054,59.672907],[79.797465,59.680515],[79.806982,59.686169],[79.8057,59.691031],[79.813553,59.685622],[79.830945,59.694654],[79.842585,59.69225],[79.83736,59.701951],[79.840289,59.704321],[79.834453,59.705501],[79.847799,59.720111],[79.839924,59.718358],[79.833544,59.723383],[79.833983,59.729473],[79.828683,59.732912],[79.834772,59.737922],[79.830888,59.739728],[79.841622,59.746161],[79.865065,59.74125],[79.883626,59.750177],[79.900014,59.749945],[79.907181,59.761293],[79.922663,59.766961],[79.933724,59.778174],[79.964795,59.77866],[79.973077,59.787234],[80.001487,59.795386],[80.023921,59.800157],[80.042858,59.797339],[80.137111,59.818646],[80.152174,59.81541],[80.210968,59.821904],[80.393304,59.918204],[80.448923,59.964635],[80.551919,60.000016],[80.699817,60.06616],[80.922976,60.181939],[80.962802,60.312447],[81.458741,60.607139],[81.584263,60.637983],[81.879534,60.639791],[82.167305,60.51634],[82.409601,60.608155],[82.376451,60.706879],[83.156683,61.026795],[83.476909,61.035672],[83.949694,60.836217],[84.26311,60.862518],[84.268217,60.836548],[84.289684,60.825341],[84.293921,60.808916],[84.332299,60.798546],[84.352893,60.801608],[84.349771,60.797466],[84.551635,60.600516],[84.791487,60.352366],[84.782196,60.333021],[84.774695,60.327504],[84.751536,60.32816],[84.759507,60.323159],[84.743288,60.325528],[84.745607,60.317404],[84.74128,60.314302],[84.746543,60.312453],[84.738159,60.306481],[84.720161,60.309016],[84.725529,60.301225],[84.713628,60.299171],[84.729922,60.296505],[84.725163,60.28852],[84.744393,60.271115],[84.738281,60.251798],[84.719303,60.247556],[84.714071,60.244837],[84.720303,60.241558],[84.677048,60.220411],[84.671399,60.209077],[84.653951,60.196725],[84.648318,60.187032],[84.613647,60.165509],[84.616196,60.148935],[84.624933,60.134788],[84.633451,60.029796],[84.596798,60.016354],[84.575203,59.983973],[84.574362,59.972786],[84.586985,59.957331],[84.631048,59.929695],[84.070628,59.847822],[83.711124,59.820352],[82.925188,59.749251],[82.862001,59.717045],[82.552455,59.607313],[82.638361,59.470543],[82.43886,59.247651],[81.826866,59.119261],[81.601806,59.084261],[81.408252,59.043071],[81.342678,59.039539],[81.323795,59.025936],[81.299419,59.020282],[81.27985,59.022225],[81.25513,59.014626],[81.201572,59.021872],[81.181659,59.037772],[81.163807,59.02682],[81.117801,58.939426],[81.079692,58.910895],[80.987339,58.882696],[80.941333,58.830138],[80.787294,58.781731],[80.341434,58.625358],[79.981479,58.671532],[79.751426,58.647247],[79.73796,58.481647],[79.723281,58.405827],[79.73086,58.337344],[79.50367,58.20143],[79.291389,58.279159],[79.155075,58.265718],[79.001722,58.267212],[78.58,58.308264],[78.433747,58.312739],[78.251995,58.304534],[78.122781,58.272439],[78.074503,58.208911],[77.498363,58.182533],[77.320161,58.113969],[77.778623,57.86795],[77.7449,57.806724],[77.695912,57.700657],[77.685972,57.670675],[77.693072,57.651306],[77.74064,57.611777],[78.024627,57.339229],[78.315005,57.226027],[78.447513,57.165387],[77.782797,57.174058],[76.947882,57.168281],[76.921419,57.15837],[76.695583,57.212784],[76.094728,57.235314]]]}},{"type":"Feature","id":"140295-2310","properties":{"id":"140295-2310","name":"Верхнекетский район","name_ru":"Верхнекетский район","subject_id":"140295","subject_name":"Томская область","source_gid":2310,"source_fid":2420,"names_rosstat":"Муниципальный район Верхнекетский","population":14200,"area_km2":43318.91045341036,"density_km2":0.3278014117015281,"source":"Актуализированный объединённый GeoJSON, предоставленный преподавателем","name_en":"Verkhneketskii District","name_zh":"Verkhneketskii区","subject_name_en":"Tomsk Oblast","subject_name_zh":"托木斯克州"},"geometry":{"type":"Polygon","coordinates":[[[85.587856,58.013148],[84.427425,58.04605],[84.001362,58.052409],[83.924958,58.048074],[83.845874,58.052759],[83.833281,58.083002],[83.819401,58.141678],[83.80024,58.253481],[83.893544,58.303983],[83.996761,58.37095],[84.111683,58.436211],[84.121462,58.45678],[83.951884,58.47502],[83.974963,58.491106],[84.004454,58.491944],[84.042279,58.502999],[84.042599,58.515892],[84.048369,58.524763],[84.110556,58.549023],[84.154141,58.579772],[84.150307,58.688354],[84.17715,59.023531],[84.160277,59.096087],[84.164879,59.19403],[84.175616,59.269753],[84.098154,59.270145],[84.108116,59.33551],[84.104424,59.355565],[84.109536,59.374088],[84.099028,59.401494],[84.070628,59.847822],[84.631048,59.929695],[84.681664,59.89955],[84.70755,59.892071],[85.499551,59.883032],[86.018937,59.948568],[86.636499,59.948654],[87.078047,59.879074],[87.174086,59.682528],[87.514225,59.66441],[87.737545,59.424316],[87.902226,59.256238],[88.626468,59.295126],[88.575826,59.212216],[88.82866,59.022604],[88.439381,58.914215],[88.441311,58.910926],[88.433767,58.911782],[88.432996,58.907037],[88.420872,58.908241],[88.420028,58.904448],[88.4096,58.904978],[88.383835,58.893878],[88.259621,58.795813],[87.924013,58.511345],[88.008511,58.240305],[87.929817,58.241823],[87.921002,58.228323],[87.198724,58.307646],[86.831375,58.403505],[86.664049,58.408543],[86.522046,58.390403],[86.216242,58.425499],[86.064622,58.086349],[85.912041,58.066348],[85.869157,58.035877],[85.587856,58.013148]]]}},{"type":"Feature","id":"140295-2311","properties":{"id":"140295-2311","name":"Первомайский район","name_ru":"Первомайский район","subject_id":"140295","subject_name":"Томская область","source_gid":2311,"source_fid":2421,"names_rosstat":"Муниципальный район Первомайский","population":16313,"area_km2":15586.65290331627,"density_km2":1.0466005819972541,"source":"Актуализированный объединённый GeoJSON, предоставленный преподавателем","name_en":"Pervomaiskii District","name_zh":"Pervomaiskii区","subject_name_en":"Tomsk Oblast","subject_name_zh":"托木斯克州"},"geometry":{"type":"Polygon","coordinates":[[[85.440686,57.74331],[85.486867,57.727854],[85.513131,57.71126],[85.512616,57.700255],[85.497338,57.689521],[85.508325,57.665841],[85.533598,57.66418],[85.551068,57.684199],[85.577504,57.686034],[85.580423,57.678233],[85.552785,57.667401],[85.550554,57.661709],[85.597074,57.645085],[85.608056,57.612289],[85.626943,57.61071],[85.66076,57.619169],[85.686509,57.608136],[85.691394,57.599066],[85.676631,57.578916],[85.674571,57.568883],[85.678691,57.564372],[85.722293,57.565109],[85.758857,57.550098],[85.781173,57.54669],[85.784778,57.53886],[85.756282,57.535635],[85.750789,57.530198],[85.752506,57.522179],[85.770702,57.516372],[85.805892,57.52559],[85.814819,57.517109],[85.809326,57.504661],[85.8119,57.499035],[85.826835,57.493685],[85.863399,57.492947],[85.874385,57.487689],[85.867862,57.481875],[85.834903,57.481783],[85.829925,57.475323],[85.83559,57.468123],[85.854473,57.46046],[85.870437,57.462676],[85.878333,57.456767],[85.927085,57.453719],[85.927257,57.440696],[85.947341,57.443005],[85.959358,57.425357],[86.008624,57.41824],[86.000213,57.409734],[85.966739,57.41223],[85.950946,57.40622],[85.95232,57.396047],[85.983219,57.387444],[85.966567,57.367084],[85.977725,57.348288],[85.961761,57.336431],[85.943222,57.330687],[85.936183,57.317619],[85.945453,57.31558],[85.953693,57.324385],[85.961761,57.325034],[85.965709,57.320585],[85.950775,57.314097],[85.95026,57.310018],[85.986823,57.302414],[85.98957,57.294253],[85.979785,57.275048],[85.983905,57.268644],[86.005535,57.264653],[86.048107,57.26753],[86.081066,57.249797],[86.080722,57.23986],[86.068706,57.236887],[86.038665,57.252676],[86.014289,57.256112],[85.987339,57.241439],[85.99266,57.228154],[86.026951,57.212928],[86.025846,57.20119],[86.009324,57.185832],[86.014323,57.171607],[86.040369,57.162824],[86.050154,57.153794],[86.029515,57.140334],[86.037583,57.127012],[86.055132,57.127153],[86.062514,57.138332],[86.093241,57.134326],[86.112982,57.123426],[86.118287,57.112873],[86.135102,57.100232],[86.161194,57.091746],[86.190896,57.074198],[86.201295,57.062853],[86.240777,57.057906],[86.230914,57.042734],[86.232974,57.034796],[86.279923,57.017792],[86.258036,56.993581],[86.25735,56.98348],[86.263873,56.977774],[86.282241,56.975436],[86.316367,56.996828],[86.326838,56.997109],[86.335421,56.992808],[86.337824,56.983268],[86.346236,56.976533],[86.373096,56.973194],[86.367841,56.959884],[86.375738,56.953051],[86.442857,56.950429],[86.450239,56.938257],[86.438051,56.916149],[86.442857,56.909965],[86.46895,56.911183],[86.484914,56.895529],[86.520792,56.885871],[86.572462,56.893185],[86.586538,56.88709],[86.606622,56.897498],[86.642328,56.89056],[86.652971,56.89431],[86.676145,56.886902],[86.68284,56.893279],[86.676488,56.906778],[86.68387,56.909777],[86.713224,56.904528],[86.730733,56.914931],[86.742235,56.936852],[86.726957,56.946497],[86.73348,56.952489],[86.749616,56.95071],[86.753564,56.939755],[86.761804,56.936478],[86.774335,56.941066],[86.767984,56.952489],[86.77176,56.957544],[86.798711,56.942845],[86.809183,56.942939],[86.813646,56.948838],[86.800256,56.960632],[86.800085,56.9684],[86.815534,56.96344],[86.821714,56.965592],[86.822744,56.971207],[86.836133,56.967745],[86.84094,56.977195],[86.863599,56.984771],[86.869092,56.981872],[86.859823,56.972142],[86.863771,56.966248],[86.914754,56.994965],[86.955781,57.000949],[86.970201,57.009269],[87.003334,57.096612],[87.01511,57.112412],[87.069,57.152792],[87.087439,57.211768],[87.084582,57.251548],[87.494205,57.211371],[87.516774,57.218314],[87.576826,57.378003],[87.65866,57.547073],[87.673974,57.554116],[87.675918,57.564547],[87.645518,57.577861],[87.662189,57.597038],[87.656162,57.61744],[87.676166,57.627054],[87.672191,57.648606],[87.643274,57.670112],[87.657123,57.677586],[87.655328,57.688555],[87.669177,57.741568],[87.770737,58.001937],[87.921002,58.228323],[87.198724,58.307646],[86.831375,58.403505],[86.664049,58.408543],[86.522046,58.390403],[86.216242,58.425499],[86.064622,58.086349],[85.912041,58.066348],[85.869157,58.035877],[85.587856,58.013148],[85.554551,57.729404],[85.544455,57.726586],[85.538812,57.733872],[85.507849,57.734703],[85.503235,57.746322],[85.480082,57.752745],[85.443862,57.748028],[85.440686,57.74331]]]}}],"metadata":{"source_en":"Updated consolidated GeoJSON supplied by the instructor","source_zh":"教师提供的更新版合并GeoJSON","license_en":"Source-dataset terms were not specified; use within the author-created educational platform","license_zh":"原始数据集未注明许可条款；仅用于本作者教育平台"}}