{"type":"FeatureCollection","features":[{"type":"Feature","id":"0-22","properties":{"id":"0-22","name":"Скадовский район","name_ru":"Скадовский район","subject_id":"0","subject_name":"Херсонская область","source_gid":22,"source_fid":22,"names_rosstat":"","population":-1,"area_km2":5257.633475329473,"density_km2":-1.0,"source":"Актуализированный объединённый GeoJSON, предоставленный преподавателем","name_en":"Skadovskii District","name_zh":"Skadovskii区","subject_name_en":"Kherson Oblast","subject_name_zh":"赫尔松州"},"geometry":{"type":"Polygon","coordinates":[[[31.536015,46.28796],[31.555391,46.271212],[31.576247,46.258454],[31.595775,46.249065],[31.629094,46.236799],[31.671301,46.227189],[31.857045,46.195512],[31.931999,46.184837],[32.026327,46.173731],[32.077106,46.165573],[32.241737,46.128686],[32.273862,46.120403],[32.498286,46.072925],[32.543923,46.065604],[32.586126,46.062272],[32.628339,46.056134],[32.668223,46.048708],[32.733296,46.033804],[32.857469,46.018452],[32.873025,46.015385],[32.905777,46.013217],[32.920703,46.010936],[32.929343,46.010421],[32.943823,46.0125],[32.959299,46.012613],[32.978424,46.010548],[33.008405,46.009931],[33.013375,46.008288],[33.034774,46.00824],[33.035771,46.007226],[33.058705,46.012346],[33.079053,46.012232],[33.083756,46.016196],[33.08015,46.017388],[33.075421,46.014826],[33.068139,46.014907],[33.061534,46.019014],[33.033051,46.028016],[33.0269,46.028018],[33.024102,46.024766],[33.004582,46.029648],[32.991137,46.031427],[32.983899,46.028772],[32.97433,46.029818],[32.964998,46.033433],[32.941675,46.046463],[32.935654,46.040084],[32.937601,46.039834],[32.931842,46.036846],[32.912423,46.036247],[32.903169,46.038896],[32.889724,46.045539],[32.888391,46.04511],[32.87993,46.050357],[32.87031,46.058716],[32.862634,46.061203],[32.86148,46.060838],[32.860529,46.057033],[32.858519,46.05649],[32.858914,46.05466],[32.857295,46.053987],[32.855774,46.055299],[32.856592,46.056014],[32.853434,46.055867],[32.850222,46.052621],[32.841713,46.05101],[32.841494,46.048696],[32.837981,46.050848],[32.830943,46.044796],[32.824058,46.044644],[32.82293,46.042785],[32.820117,46.043651],[32.819116,46.042464],[32.81984,46.040509],[32.816844,46.041261],[32.812054,46.038597],[32.811445,46.036682],[32.80618,46.035231],[32.806286,46.03426],[32.798202,46.035445],[32.79854,46.032675],[32.797313,46.031673],[32.79286,46.032608],[32.787392,46.030712],[32.78615,46.033795],[32.783564,46.034347],[32.782157,46.032388],[32.778709,46.031328],[32.780359,46.030671],[32.779253,46.030526],[32.776869,46.031678],[32.762272,46.03122],[32.714969,46.038696],[32.71085,46.041984],[32.710653,46.04057],[32.704945,46.041755],[32.706582,46.042488],[32.705777,46.043357],[32.696099,46.042989],[32.687271,46.04455],[32.669456,46.049984],[32.659706,46.054426],[32.657804,46.053521],[32.654271,46.054238],[32.65463,46.05264],[32.639432,46.055349],[32.637597,46.056829],[32.639915,46.056893],[32.636235,46.05801],[32.634071,46.056518],[32.62911,46.059044],[32.624992,46.058174],[32.616459,46.061002],[32.595236,46.062228],[32.595801,46.063573],[32.592238,46.062532],[32.587002,46.063098],[32.587818,46.063801],[32.586809,46.06424],[32.567332,46.065039],[32.558433,46.066919],[32.550313,46.066288],[32.545303,46.068109],[32.54012,46.068179],[32.538606,46.070512],[32.540775,46.076416],[32.548075,46.082319],[32.565427,46.086371],[32.576698,46.091398],[32.600355,46.098582],[32.615195,46.099104],[32.623174,46.103215],[32.647295,46.106891],[32.654831,46.106253],[32.669397,46.100663],[32.675737,46.099753],[32.708822,46.108001],[32.735088,46.108357],[32.7399,46.111296],[32.74058,46.115096],[32.743077,46.116887],[32.765734,46.120678],[32.7678,46.122639],[32.777339,46.12033],[32.793263,46.113162],[32.799164,46.116657],[32.814403,46.116353],[32.816794,46.113773],[32.823375,46.110784],[32.830565,46.109967],[32.835197,46.11303],[32.843387,46.114227],[32.853837,46.115083],[32.860968,46.113336],[32.865808,46.115769],[32.871397,46.114691],[32.874495,46.115925],[32.884225,46.111258],[32.908839,46.107626],[32.910452,46.104866],[32.917771,46.107347],[32.934696,46.105632],[32.946942,46.107716],[32.947117,46.106877],[32.963476,46.111094],[32.994648,46.108805],[33.001917,46.109814],[33.01332,46.10909],[33.02148,46.110936],[33.029954,46.110963],[33.030548,46.112447],[33.028837,46.113721],[33.028853,46.111793],[33.027296,46.112044],[33.026306,46.11709],[33.022268,46.118829],[33.018058,46.119174],[33.022524,46.118055],[33.022917,46.116424],[33.018142,46.114723],[33.016089,46.117021],[33.014961,46.122519],[33.01996,46.126434],[33.026036,46.125874],[33.024207,46.129611],[33.030254,46.138881],[33.029229,46.14169],[33.023648,46.144798],[33.021989,46.148285],[33.016441,46.151262],[33.018278,46.153297],[33.020487,46.152012],[33.022593,46.152511],[33.031278,46.156436],[33.043615,46.156819],[33.066506,46.153906],[33.07075,46.151261],[33.073618,46.144547],[33.081088,46.136413],[33.096182,46.132617],[33.1051,46.132407],[33.126122,46.124566],[33.134731,46.124354],[33.137352,46.125386],[33.137133,46.126946],[33.146537,46.129112],[33.14195,46.129618],[33.149436,46.138011],[33.163606,46.141847],[33.164438,46.145095],[33.167991,46.148042],[33.18125,46.154889],[33.185942,46.154715],[33.183805,46.155635],[33.186193,46.163093],[33.192471,46.170569],[33.1958,46.172289],[33.194375,46.176088],[33.196287,46.179024],[33.193884,46.182623],[33.18656,46.185586],[33.186414,46.193097],[33.190255,46.193745],[33.198313,46.189661],[33.20368,46.190675],[33.207843,46.194964],[33.206475,46.195788],[33.207745,46.200617],[33.21425,46.203384],[33.220061,46.213006],[33.226034,46.218031],[33.228856,46.217159],[33.224979,46.214787],[33.222778,46.209935],[33.22265,46.201937],[33.21738,46.200929],[33.211464,46.195741],[33.209806,46.192288],[33.20842,46.188349],[33.212017,46.18261],[33.208911,46.176875],[33.205721,46.174157],[33.221252,46.161189],[33.226892,46.153199],[33.217114,46.147324],[33.210091,46.141168],[33.208093,46.141666],[33.204152,46.131543],[33.204664,46.121925],[33.199089,46.117536],[33.197366,46.114302],[33.197357,46.111826],[33.201025,46.107678],[33.209582,46.104559],[33.211814,46.104717],[33.215762,46.10629],[33.211518,46.106231],[33.20691,46.118436],[33.20924,46.126287],[33.216693,46.13072],[33.23796,46.133724],[33.250841,46.138277],[33.257348,46.138624],[33.267093,46.134336],[33.281509,46.13313],[33.301638,46.125024],[33.306468,46.121936],[33.310665,46.115897],[33.3115,46.11103],[33.309034,46.095954],[33.302004,46.091774],[33.291586,46.091211],[33.28382,46.095277],[33.283089,46.096783],[33.284176,46.097876],[33.280251,46.096707],[33.282666,46.078284],[33.292779,46.073565],[33.293906,46.074504],[33.308436,46.074675],[33.308233,46.077428],[33.306867,46.077812],[33.307935,46.080551],[33.307294,46.088161],[33.312131,46.096717],[33.31286,46.10218],[33.316485,46.106598],[33.329137,46.114017],[33.329187,46.115579],[33.336314,46.109988],[33.338004,46.102099],[33.3447,46.095967],[33.358137,46.089165],[33.367396,46.090507],[33.371358,46.089514],[33.370636,46.083823],[33.365295,46.079051],[33.364753,46.075691],[33.395451,46.052309],[33.414026,46.034505],[33.420757,46.029786],[33.424137,46.029478],[33.420837,46.032332],[33.422733,46.030847],[33.425371,46.031287],[33.422573,46.032847],[33.421343,46.035494],[33.420456,46.033448],[33.418724,46.036246],[33.41554,46.035601],[33.414492,46.038047],[33.419985,46.036292],[33.426501,46.039545],[33.445795,46.040279],[33.459694,46.048286],[33.454915,46.048241],[33.454122,46.046602],[33.450212,46.04501],[33.452115,46.048608],[33.457557,46.051003],[33.464771,46.049601],[33.483449,46.033284],[33.498037,46.027416],[33.513622,46.028682],[33.516945,46.03106],[33.51468,46.032262],[33.512204,46.030617],[33.5091,46.032016],[33.511057,46.03295],[33.508404,46.034319],[33.500259,46.046388],[33.491445,46.053221],[33.490172,46.056274],[33.489455,46.060181],[33.490953,46.06723],[33.495109,46.07302],[33.503156,46.078995],[33.518059,46.081535],[33.552015,46.073557],[33.573472,46.074796],[33.560572,46.075871],[33.546404,46.087271],[33.543451,46.086154],[33.54026,46.086919],[33.515773,46.09872],[33.510921,46.106859],[33.510621,46.113227],[33.508908,46.116782],[33.512164,46.123103],[33.519157,46.120116],[33.521664,46.115593],[33.53805,46.118219],[33.542921,46.121029],[33.545903,46.124871],[33.551602,46.126522],[33.554677,46.129303],[33.553725,46.13001],[33.550382,46.127753],[33.548184,46.130513],[33.544981,46.125078],[33.542223,46.124817],[33.54165,46.129318],[33.546114,46.135855],[33.55015,46.137073],[33.560553,46.136475],[33.566772,46.138599],[33.568169,46.139568],[33.564991,46.138596],[33.564322,46.140123],[33.572761,46.154084],[33.577093,46.156899],[33.58498,46.15903],[33.596458,46.156095],[33.608752,46.147823],[33.613883,46.138674],[33.614711,46.134662],[33.641275,46.142443],[33.635571,46.146336],[33.618593,46.213932],[33.613551,46.213917],[33.617799,46.215981],[33.615241,46.226218],[33.621876,46.227865],[33.632712,46.228303],[33.629456,46.242592],[33.598211,46.326307],[33.53676,46.3186],[33.540848,46.299681],[33.46661,46.291051],[33.449358,46.358066],[33.366209,46.349079],[33.359028,46.375723],[33.355509,46.395328],[33.013362,46.357578],[33.027651,46.279684],[33.026498,46.279056],[32.903349,46.26585],[32.899481,46.286198],[32.857556,46.282593],[32.828194,46.429471],[32.836521,46.43071],[32.813845,46.451431],[32.790807,46.455842],[32.785059,46.485691],[32.78231,46.518235],[32.770068,46.522757],[32.736458,46.520709],[32.711907,46.51746],[32.700568,46.522941],[32.697844,46.53537],[32.657077,46.543598],[32.645902,46.559106],[32.631684,46.574663],[32.617433,46.587829],[32.609943,46.582286],[32.599535,46.577427],[32.591248,46.576846],[32.57974,46.572513],[32.574578,46.568503],[32.574556,46.564156],[32.570628,46.55523],[32.566478,46.554266],[32.56259,46.558524],[32.55571,46.559491],[32.532106,46.552766],[32.523622,46.552307],[32.512453,46.553984],[32.507418,46.556234],[32.496434,46.567474],[32.490616,46.570422],[32.483049,46.571674],[32.469218,46.570051],[32.442969,46.558537],[32.415783,46.543277],[32.391354,46.534776],[32.379219,46.527424],[32.331133,46.505157],[32.304976,46.496214],[32.295505,46.495289],[32.28076,46.497689],[32.190627,46.525328],[32.129516,46.531942],[31.927471,46.581755],[31.861984,46.52349],[31.858579,46.515813],[31.848035,46.500445],[31.843134,46.497134],[31.831385,46.499623],[31.819401,46.49581],[31.813617,46.492026],[31.804476,46.479172],[31.809025,46.443535],[31.805591,46.430995],[31.810913,46.371569],[31.809411,46.360005],[31.805285,46.356219],[31.804065,46.332103],[31.780374,46.327449],[31.764095,46.319686],[31.759549,46.314629],[31.755832,46.312989],[31.755832,46.311334],[31.751914,46.307854],[31.74954,46.307375],[31.746293,46.301929],[31.743315,46.300305],[31.738008,46.294209],[31.711205,46.274077],[31.681841,46.255527],[31.674807,46.254043],[31.672318,46.251301],[31.665613,46.248925],[31.652636,46.24628],[31.637932,46.244815],[31.619736,46.245497],[31.59764,46.250631],[31.57151,46.263084],[31.555138,46.27552],[31.544028,46.288183],[31.536324,46.302376],[31.533036,46.316621],[31.533551,46.325516],[31.536909,46.339543],[31.535075,46.367475],[31.532897,46.36983],[31.528595,46.369852],[31.520171,46.366202],[31.51454,46.357369],[31.511766,46.344103],[31.512029,46.33441],[31.51447,46.321275],[31.519851,46.308077],[31.536015,46.28796]]]}},{"type":"Feature","id":"0-23","properties":{"id":"0-23","name":"Бериславский район","name_ru":"Бериславский район","subject_id":"0","subject_name":"Херсонская область","source_gid":23,"source_fid":23,"names_rosstat":"","population":-1,"area_km2":4769.960634062121,"density_km2":-1.0,"source":"Актуализированный объединённый GeoJSON, предоставленный преподавателем","name_en":"Berislavskii District","name_zh":"Berislavskii区","subject_name_en":"Kherson Oblast","subject_name_zh":"赫尔松州"},"geometry":{"type":"Polygon","coordinates":[[[33.06777,47.022243],[33.022489,46.972781],[33.052368,46.959929],[33.055715,46.946571],[33.052797,46.946044],[33.06417,46.907591],[33.047733,46.90551],[33.042884,46.906829],[33.005676,46.902548],[33.015461,46.864886],[32.977309,46.859927],[32.985804,46.831517],[33.021994,46.835776],[33.046434,46.742268],[33.095033,46.766562],[33.126358,46.779266],[33.142016,46.784001],[33.152782,46.783344],[33.171577,46.777659],[33.207146,46.77005],[33.251462,46.763321],[33.275006,46.755707],[33.289731,46.753101],[33.316326,46.753164],[33.331352,46.757063],[33.327652,46.758776],[33.325913,46.77381],[33.327761,46.776834],[33.317127,46.774321],[33.317043,46.783559],[33.308303,46.786171],[33.307266,46.789069],[33.309086,46.792093],[33.314155,46.795812],[33.314445,46.802802],[33.319474,46.818141],[33.31859,46.823477],[33.311559,46.826506],[33.307336,46.830689],[33.302524,46.838645],[33.297052,46.84304],[33.308419,46.845295],[33.3123,46.839437],[33.314493,46.83945],[33.320264,46.84372],[33.340419,46.848233],[33.341953,46.840629],[33.357455,46.842486],[33.359574,46.835527],[33.371269,46.836899],[33.373356,46.829673],[33.381083,46.831267],[33.382142,46.82793],[33.39176,46.822488],[33.389635,46.820247],[33.39345,46.81833],[33.396344,46.819386],[33.413921,46.806581],[33.455075,46.827146],[33.494406,46.838578],[33.523305,46.841487],[33.549117,46.837958],[33.576344,46.837376],[33.590972,46.840415],[33.602849,46.847931],[33.606331,46.852778],[33.619001,46.9023],[33.61882,46.912333],[33.649721,46.949083],[33.662364,46.967632],[33.678331,46.999597],[33.693885,47.019202],[33.719448,47.041393],[33.777704,47.07277],[33.797332,47.086915],[33.804507,47.098267],[33.816476,47.126149],[33.823884,47.139798],[33.833543,47.153236],[33.850553,47.167783],[33.905948,47.200537],[33.934955,47.22258],[33.94108,47.231126],[33.94456,47.241779],[33.948529,47.249171],[33.987703,47.296766],[33.998188,47.311575],[34.002209,47.320667],[34.010084,47.332651],[34.01323,47.342452],[34.016798,47.391529],[34.017308,47.459983],[34.00334,47.456615],[33.997043,47.459467],[33.987048,47.457887],[33.978442,47.459317],[33.957092,47.45751],[33.952965,47.458247],[33.951341,47.46158],[33.947101,47.500002],[33.942087,47.508277],[33.940816,47.514844],[33.939023,47.516111],[33.930867,47.516055],[33.906733,47.511789],[33.64361,47.484527],[33.635966,47.514069],[33.603722,47.510284],[33.605008,47.504157],[33.588445,47.502302],[33.580403,47.532384],[33.57592,47.528666],[33.587304,47.540962],[33.592537,47.544415],[33.588652,47.558234],[33.60845,47.560839],[33.609061,47.561872],[33.605488,47.575002],[33.592291,47.573653],[33.588131,47.588734],[33.583811,47.588228],[33.580321,47.600194],[33.473719,47.58733],[33.4861,47.543926],[33.326466,47.523089],[33.322688,47.523562],[33.330084,47.510121],[33.348816,47.493667],[33.314138,47.482594],[33.307221,47.486152],[33.313694,47.488592],[33.31495,47.490698],[33.309976,47.501597],[33.296309,47.503976],[33.28657,47.509955],[33.278779,47.517744],[33.279251,47.520715],[33.285946,47.524917],[33.287659,47.528293],[33.288724,47.534117],[33.287201,47.543301],[33.280683,47.545861],[33.273114,47.545909],[33.260969,47.540267],[33.255798,47.535856],[33.241807,47.530351],[33.232062,47.529289],[33.229037,47.531107],[33.222699,47.530575],[33.215511,47.533108],[33.215146,47.534334],[33.221894,47.539553],[33.221846,47.54434],[33.218349,47.548642],[33.229029,47.553997],[33.236207,47.563474],[33.237409,47.571698],[33.233417,47.577365],[33.230252,47.577763],[33.226175,47.573587],[33.208325,47.56946],[33.199782,47.56936],[33.184227,47.572634],[33.176143,47.567676],[33.171855,47.566681],[33.165502,47.568545],[33.092684,47.578832],[33.088862,47.552165],[33.09497,47.527625],[33.141323,47.544522],[33.141742,47.543474],[33.146864,47.514649],[33.123243,47.507942],[33.130099,47.482542],[33.129463,47.480794],[33.127303,47.480403],[33.127772,47.47819],[33.125398,47.476336],[33.131039,47.457875],[33.132422,47.442988],[33.137834,47.419528],[33.071554,47.412449],[33.070533,47.474812],[33.066795,47.474922],[33.047256,47.46847],[33.053864,47.444051],[33.03413,47.441631],[33.037458,47.425546],[33.029279,47.422855],[33.035627,47.397866],[33.034785,47.396295],[33.035938,47.391155],[33.039294,47.379695],[33.117254,47.389057],[33.122579,47.385216],[33.132232,47.345642],[33.137297,47.33365],[33.133249,47.332313],[33.130649,47.328556],[33.102915,47.322349],[33.11078,47.301019],[33.109862,47.296879],[33.111535,47.293926],[33.102084,47.290651],[33.105212,47.280462],[33.118504,47.281972],[33.120173,47.277687],[33.139532,47.272334],[33.136164,47.267769],[33.183689,47.238028],[33.180734,47.236992],[33.176443,47.23788],[33.172782,47.233761],[33.166846,47.234433],[33.161719,47.231543],[33.159424,47.232645],[33.163752,47.235491],[33.162145,47.236512],[33.151566,47.234422],[33.147953,47.230748],[33.142363,47.230453],[33.133887,47.233127],[33.127255,47.230899],[33.126956,47.224785],[33.128993,47.219136],[33.134744,47.212456],[33.142585,47.210375],[33.137389,47.205793],[33.13444,47.205938],[33.130008,47.202869],[33.116831,47.204009],[33.11115,47.206867],[33.104756,47.212503],[33.106515,47.216622],[33.099149,47.223447],[33.088436,47.223819],[33.080436,47.220444],[33.071992,47.223362],[33.071643,47.221644],[33.075086,47.219066],[33.074718,47.217835],[33.07177,47.217617],[33.067514,47.220486],[33.065011,47.219285],[33.064122,47.214709],[33.065953,47.212655],[33.065393,47.209861],[33.067505,47.20664],[33.065791,47.204488],[33.066203,47.200876],[33.052561,47.191351],[33.0372,47.188671],[33.035269,47.183067],[33.038472,47.179552],[33.037888,47.178206],[33.026071,47.176603],[33.015617,47.180327],[33.01231,47.184266],[33.014113,47.187502],[33.012661,47.190617],[33.008272,47.195222],[33.004416,47.196902],[33.000266,47.195887],[32.999548,47.192526],[33.003547,47.191318],[33.002043,47.189994],[32.996295,47.191289],[32.988644,47.190486],[32.985994,47.192114],[32.961355,47.18963],[32.960704,47.184483],[32.948295,47.163816],[32.931252,47.149901],[32.920006,47.146116],[32.91744,47.142336],[32.919629,47.136209],[32.919198,47.132996],[32.911144,47.126773],[32.906839,47.120552],[32.912428,47.114577],[32.914622,47.105297],[32.910884,47.099522],[32.910327,47.09387],[32.916698,47.087181],[32.923886,47.085817],[32.930506,47.080392],[32.998409,47.052821],[33.026908,47.039669],[33.051596,47.070063],[33.072967,47.062405],[33.102579,47.099811],[33.08198,47.107581],[33.105025,47.136607],[33.155708,47.117453],[33.093245,47.039347],[33.089136,47.04122],[33.072178,47.020357],[33.06777,47.022243]]]}},{"type":"Feature","id":"0-24","properties":{"id":"0-24","name":"Каховский район","name_ru":"Каховский район","subject_id":"0","subject_name":"Херсонская область","source_gid":24,"source_fid":24,"names_rosstat":"","population":-1,"area_km2":6387.917095796191,"density_km2":-1.0,"source":"Актуализированный объединённый GeoJSON, предоставленный преподавателем","name_en":"Kakhovskii District","name_zh":"Kakhovskii区","subject_name_en":"Kherson Oblast","subject_name_zh":"赫尔松州"},"geometry":{"type":"Polygon","coordinates":[[[33.750323,46.18772],[33.772603,46.197625],[33.796894,46.203016],[33.811324,46.203796],[33.848686,46.199667],[33.86133,46.194512],[33.897336,46.170625],[33.940555,46.154651],[33.971714,46.141199],[33.974353,46.207751],[33.968902,46.301349],[33.971663,46.371248],[33.964928,46.37052],[33.962051,46.41577],[34.128782,46.432189],[34.108788,46.525203],[34.076178,46.544104],[33.990299,46.536454],[33.987444,46.554373],[34.003256,46.556434],[33.999774,46.576473],[33.982664,46.574422],[33.972122,46.620697],[33.990898,46.622864],[33.987965,46.639924],[34.064385,46.650401],[34.063018,46.660899],[34.053279,46.663167],[34.04983,46.666292],[34.038828,46.719911],[34.031647,46.763044],[34.031066,46.768458],[34.032565,46.775061],[34.024476,46.792862],[34.036331,46.794316],[34.033651,46.810309],[34.046957,46.811871],[34.107668,46.818229],[34.11128,46.802005],[34.197863,46.811432],[34.18173,46.888609],[34.324469,47.016115],[34.315647,47.021338],[34.347248,47.048455],[34.407583,47.078684],[34.402164,47.101231],[34.519502,47.104749],[34.50919,47.157584],[34.507921,47.158355],[34.503856,47.177334],[34.502736,47.188716],[34.494101,47.22444],[34.490886,47.246844],[34.530098,47.25076],[34.529585,47.255798],[34.527205,47.267429],[34.523643,47.26717],[34.5182,47.283549],[34.487764,47.279949],[34.479435,47.315125],[34.516112,47.318444],[34.513961,47.32045],[34.513302,47.324016],[34.507016,47.325581],[34.507252,47.32785],[34.510481,47.332119],[34.512535,47.332761],[34.512185,47.335043],[34.505439,47.335165],[34.490117,47.331983],[34.413839,47.323456],[34.419226,47.300658],[34.398764,47.298277],[34.401396,47.287083],[34.370868,47.283597],[34.357777,47.29356],[34.330236,47.290431],[34.305347,47.269141],[34.296428,47.272883],[34.296059,47.274758],[34.293876,47.273601],[34.292715,47.274455],[34.293117,47.276891],[34.281127,47.324039],[34.28245,47.325897],[34.272455,47.361137],[34.260787,47.359738],[34.251558,47.391539],[34.256435,47.395378],[34.249372,47.419327],[34.242689,47.433865],[34.234723,47.442332],[34.227159,47.448123],[34.21845,47.452729],[34.200484,47.459237],[34.139465,47.47725],[34.074407,47.470624],[34.037282,47.464617],[34.017308,47.459983],[34.016798,47.391529],[34.01323,47.342452],[34.010084,47.332651],[34.002209,47.320667],[33.998188,47.311575],[33.987703,47.296766],[33.948529,47.249171],[33.94456,47.241779],[33.94108,47.231126],[33.934955,47.22258],[33.905948,47.200537],[33.850553,47.167783],[33.833543,47.153236],[33.823884,47.139798],[33.816476,47.126149],[33.804507,47.098267],[33.797332,47.086915],[33.777704,47.07277],[33.719448,47.041393],[33.693885,47.019202],[33.678331,46.999597],[33.662364,46.967632],[33.649721,46.949083],[33.61882,46.912333],[33.619001,46.9023],[33.610906,46.873212],[33.608415,46.859145],[33.60484,46.849749],[33.600932,46.846485],[33.589522,46.839804],[33.578551,46.837508],[33.549117,46.837958],[33.523305,46.841487],[33.494406,46.838578],[33.455075,46.827146],[33.413921,46.806581],[33.396344,46.819386],[33.39345,46.81833],[33.389635,46.820247],[33.39176,46.822488],[33.382142,46.82793],[33.381083,46.831267],[33.373356,46.829673],[33.371269,46.836899],[33.359574,46.835527],[33.357455,46.842486],[33.341953,46.840629],[33.340419,46.848233],[33.320264,46.84372],[33.314493,46.83945],[33.3123,46.839437],[33.308419,46.845295],[33.297052,46.84304],[33.302524,46.838645],[33.307336,46.830689],[33.311559,46.826506],[33.31859,46.823477],[33.319474,46.818141],[33.314445,46.802802],[33.315002,46.798305],[33.314155,46.795812],[33.309086,46.792093],[33.307266,46.789069],[33.308303,46.786171],[33.317043,46.783559],[33.317127,46.774321],[33.327761,46.776834],[33.325913,46.77381],[33.327652,46.758776],[33.331352,46.757063],[33.316326,46.753164],[33.292929,46.752702],[33.280762,46.754427],[33.251462,46.763321],[33.207146,46.77005],[33.171577,46.777659],[33.148825,46.784046],[33.141063,46.783877],[33.133692,46.781828],[33.097685,46.767488],[33.129449,46.75517],[33.129581,46.749286],[33.156741,46.713778],[33.179916,46.7161],[33.182397,46.697734],[33.153136,46.687114],[33.149621,46.691665],[33.129582,46.686822],[33.135397,46.674173],[33.127828,46.66307],[33.106694,46.655378],[33.142547,46.633342],[33.164605,46.633435],[33.164075,46.64229],[33.165563,46.645298],[33.168637,46.645537],[33.166053,46.666786],[33.187801,46.667638],[33.220003,46.671196],[33.223855,46.656081],[33.276948,46.662454],[33.293751,46.598458],[33.412643,46.612743],[33.416347,46.611121],[33.429508,46.556057],[33.424447,46.555364],[33.43578,46.511604],[33.416122,46.509304],[33.416586,46.506784],[33.253636,46.486941],[33.267209,46.424092],[33.214112,46.418482],[33.221896,46.389419],[33.234168,46.382663],[33.355509,46.395328],[33.359028,46.375723],[33.366209,46.349079],[33.449358,46.358066],[33.46661,46.291051],[33.540848,46.299681],[33.53676,46.3186],[33.598211,46.326307],[33.62835,46.24579],[33.632712,46.228303],[33.646771,46.22958],[33.666137,46.220714],[33.670864,46.211794],[33.689266,46.204779],[33.699599,46.202855],[33.735835,46.186102],[33.739978,46.185247],[33.750323,46.18772]]]}},{"type":"Feature","id":"0-25","properties":{"id":"0-25","name":"Херсонский район","name_ru":"Херсонский район","subject_id":"0","subject_name":"Херсонская область","source_gid":25,"source_fid":25,"names_rosstat":"","population":-1,"area_km2":3855.5112676127433,"density_km2":-1.0,"source":"Актуализированный объединённый GeoJSON, предоставленный преподавателем","name_en":"Khersonskii District","name_zh":"Khersonskii区","subject_name_en":"Kherson Oblast","subject_name_zh":"赫尔松州"},"geometry":{"type":"Polygon","coordinates":[[[31.988585,46.655472],[31.93009,46.652885],[31.927471,46.581755],[32.129516,46.531942],[32.190627,46.525328],[32.290082,46.495762],[32.304976,46.496214],[32.325983,46.502986],[32.379219,46.527424],[32.391354,46.534776],[32.415783,46.543277],[32.442969,46.558537],[32.469218,46.570051],[32.483049,46.571674],[32.490616,46.570422],[32.496434,46.567474],[32.507418,46.556234],[32.512453,46.553984],[32.523622,46.552307],[32.532106,46.552766],[32.55571,46.559491],[32.56259,46.558524],[32.566478,46.554266],[32.570628,46.55523],[32.574556,46.564156],[32.574578,46.568503],[32.57974,46.572513],[32.591248,46.576846],[32.599535,46.577427],[32.609943,46.582286],[32.617433,46.587829],[32.631684,46.574663],[32.645902,46.559106],[32.657077,46.543598],[32.697844,46.53537],[32.700568,46.522941],[32.711907,46.51746],[32.736458,46.520709],[32.770068,46.522757],[32.78231,46.518235],[32.785059,46.485691],[32.790807,46.455842],[32.813845,46.451431],[32.836521,46.43071],[32.828194,46.429471],[32.857556,46.282593],[32.899481,46.286198],[32.903349,46.26585],[33.02726,46.279255],[33.013362,46.357578],[33.234168,46.382663],[33.221896,46.389419],[33.213863,46.418225],[33.267209,46.424092],[33.253636,46.486941],[33.416586,46.506784],[33.416122,46.509304],[33.43578,46.511604],[33.424447,46.555364],[33.429508,46.556057],[33.416844,46.609282],[33.415081,46.611725],[33.412643,46.612743],[33.293751,46.598458],[33.276948,46.662454],[33.223855,46.656081],[33.220003,46.671196],[33.187801,46.667638],[33.166053,46.666786],[33.168637,46.645537],[33.165563,46.645298],[33.164075,46.64229],[33.164605,46.633435],[33.142547,46.633342],[33.106694,46.655378],[33.127828,46.66307],[33.135397,46.674173],[33.129582,46.686822],[33.149621,46.691665],[33.153136,46.687114],[33.182397,46.697734],[33.179916,46.7161],[33.156741,46.713778],[33.129581,46.749286],[33.129449,46.75517],[33.097685,46.767488],[33.046434,46.742268],[33.021994,46.835776],[32.985804,46.831517],[32.977309,46.859927],[33.015461,46.864886],[33.005676,46.902548],[33.042884,46.906829],[33.047733,46.90551],[33.06417,46.907591],[33.052797,46.946044],[33.055715,46.946571],[33.052368,46.959929],[33.02387,46.972636],[33.01877,46.973024],[33.011269,46.977262],[32.949696,47.003189],[32.933974,46.986283],[32.941813,46.973792],[32.949662,46.946545],[32.975858,46.948752],[32.979865,46.9337],[32.921715,46.926656],[32.92608,46.910654],[32.924605,46.910058],[32.841456,46.900036],[32.839194,46.896173],[32.84208,46.894503],[32.841914,46.891945],[32.836035,46.884558],[32.838355,46.882593],[32.856449,46.877029],[32.91527,46.883276],[32.919895,46.866143],[32.946265,46.868658],[32.949115,46.857949],[32.871619,46.846761],[32.813625,46.840136],[32.814771,46.834605],[32.776203,46.831144],[32.775951,46.829299],[32.779436,46.824903],[32.771565,46.820782],[32.767492,46.820595],[32.764149,46.82729],[32.746503,46.825287],[32.745239,46.827044],[32.727248,46.825385],[32.70794,46.822944],[32.707326,46.821015],[32.701397,46.820764],[32.69751,46.823992],[32.687885,46.862081],[32.617469,46.854405],[32.614953,46.854396],[32.615209,46.855975],[32.611105,46.858786],[32.585452,46.85584],[32.583602,46.859642],[32.578574,46.859147],[32.577502,46.863189],[32.571776,46.863227],[32.572082,46.868346],[32.570487,46.872564],[32.54674,46.869438],[32.544281,46.883173],[32.533795,46.881465],[32.537,46.872136],[32.541274,46.85017],[32.525091,46.848304],[32.531497,46.82324],[32.469325,46.816568],[32.463281,46.84043],[32.41914,46.836351],[32.365316,46.829257],[32.37289,46.79908],[32.341585,46.795446],[32.326047,46.801051],[32.227155,46.84547],[32.231365,46.838522],[32.252212,46.819604],[32.230423,46.808506],[32.209697,46.805726],[32.218685,46.771305],[32.168953,46.763502],[32.171543,46.752323],[32.111818,46.745127],[32.108891,46.752464],[32.05715,46.744644],[32.060909,46.727978],[32.07567,46.729976],[32.086832,46.683517],[32.071898,46.681873],[32.071434,46.683678],[32.020142,46.677497],[32.02988,46.668907],[31.98741,46.664116],[31.988585,46.655472]]]}},{"type":"Feature","id":"0-26","properties":{"id":"0-26","name":"Генический район","name_ru":"Генический район","subject_id":"0","subject_name":"Херсонская область","source_gid":26,"source_fid":26,"names_rosstat":"","population":-1,"area_km2":7131.146983635966,"density_km2":-1.0,"source":"Актуализированный объединённый GeoJSON, предоставленный преподавателем","name_en":"Genicheskii District","name_zh":"Genicheskii区","subject_name_en":"Kherson Oblast","subject_name_zh":"赫尔松州"},"geometry":{"type":"MultiPolygon","coordinates":[[[[34.946873,46.512555],[34.890103,46.506956],[34.884867,46.536314],[34.894846,46.537169],[34.890706,46.563155],[34.756874,46.549349],[34.748275,46.58419],[34.723299,46.581467],[34.712764,46.620074],[34.756309,46.626976],[34.746177,46.683219],[34.685101,46.677029],[34.683569,46.677269],[34.680828,46.69199],[34.632236,46.687619],[34.625226,46.723972],[34.661275,46.727156],[34.658693,46.740332],[34.735005,46.747344],[34.735172,46.757063],[34.750486,46.757895],[34.750143,46.780513],[34.767576,46.780913],[34.758132,46.822707],[34.816554,46.828451],[34.813272,46.833088],[34.804683,46.882527],[34.752569,46.879537],[34.736441,46.96136],[34.685456,46.955863],[34.680971,46.979141],[34.654254,46.976629],[34.642599,46.974114],[34.623843,46.973397],[34.620582,46.988174],[34.618438,46.98971],[34.617482,46.993316],[34.599622,46.991773],[34.591657,47.026792],[34.56727,47.024492],[34.552911,47.102031],[34.553859,47.102157],[34.553497,47.105969],[34.402164,47.101231],[34.407583,47.078684],[34.347248,47.048455],[34.315647,47.021338],[34.324469,47.016115],[34.18173,46.888609],[34.197863,46.811432],[34.11128,46.802005],[34.107668,46.818229],[34.046957,46.811871],[34.033651,46.810309],[34.036331,46.794316],[34.024476,46.792862],[34.032565,46.775061],[34.031066,46.768458],[34.031647,46.763044],[34.038828,46.719911],[34.04983,46.666292],[34.053279,46.663167],[34.063018,46.660899],[34.064385,46.650401],[33.987965,46.639924],[33.990898,46.622864],[33.972122,46.620697],[33.982664,46.574422],[33.999774,46.576473],[34.003256,46.556434],[33.987444,46.554373],[33.990299,46.536454],[34.076178,46.544104],[34.108788,46.525203],[34.128782,46.432189],[33.962051,46.41577],[33.964928,46.37052],[33.971663,46.371248],[33.968902,46.301349],[33.974353,46.207751],[33.971714,46.141199],[33.998234,46.12645],[34.052639,46.109129],[34.069505,46.116699],[34.080928,46.117556],[34.1175,46.107269],[34.131431,46.100212],[34.145009,46.086686],[34.180565,46.068283],[34.233797,46.055985],[34.247788,46.053223],[34.258996,46.05405],[34.320021,46.068209],[34.33264,46.059847],[34.347169,46.054949],[34.404987,46.009286],[34.410767,45.999264],[34.41069,45.995902],[34.41318,45.989736],[34.42338,45.978671],[34.443018,45.96181],[34.459176,45.951209],[34.476221,45.944139],[34.48689,45.942442],[34.498526,45.942561],[34.510902,45.948028],[34.527,45.959002],[34.544387,45.976122],[34.54484,45.979028],[34.554218,45.990465],[34.561169,45.994384],[34.581612,45.995668],[34.601139,45.99417],[34.628541,45.986403],[34.654988,45.97549],[34.669911,45.967644],[34.754011,45.908836],[34.802169,45.900648],[34.799087,45.810464],[34.876163,45.79043],[34.94117,45.765825],[34.959775,45.756568],[34.975075,45.761992],[34.933326,45.827338],[34.902899,45.881324],[34.885553,45.915454],[34.868913,45.952214],[34.855458,45.988295],[34.846076,46.023703],[34.830956,46.112733],[34.826796,46.130493],[34.821734,46.142536],[34.819754,46.14561],[34.814287,46.149223],[34.813133,46.154411],[34.810201,46.158992],[34.818176,46.164933],[34.820568,46.168597],[34.822887,46.18422],[34.825981,46.193633],[34.83046,46.200931],[34.835369,46.205665],[34.868237,46.224985],[34.890982,46.236067],[34.897066,46.24052],[34.924479,46.243932],[34.959066,46.250414],[35.007969,46.255983],[35.03817,46.262018],[35.05216,46.266638],[35.075102,46.278135],[35.094898,46.293313],[35.101924,46.301641],[35.072034,46.299572],[35.065774,46.328673],[35.067751,46.329848],[35.064401,46.335589],[35.056754,46.375211],[35.065974,46.376136],[35.069503,46.379435],[35.059667,46.441384],[35.054677,46.481866],[35.021396,46.478951],[34.952601,46.503326],[34.948452,46.502859],[34.946873,46.512555]]],[[[35.245888,46.229361],[35.210745,46.179296],[35.19484,46.160227],[35.171658,46.140436],[35.147971,46.125737],[35.108827,46.110142],[35.09228,46.105852],[35.075387,46.103663],[35.033411,46.088902],[35.002981,46.080243],[34.984745,46.07661],[34.982289,46.07772],[34.989055,46.084816],[34.987895,46.089982],[34.994231,46.098427],[34.993995,46.100696],[34.990019,46.104256],[34.998998,46.110291],[35.008158,46.113368],[35.018001,46.122262],[35.030643,46.126809],[35.03208,46.130154],[35.029039,46.13874],[35.029822,46.141381],[35.038096,46.147471],[35.064123,46.152381],[35.108618,46.156659],[35.138255,46.16213],[35.161106,46.171403],[35.213185,46.187502],[35.218675,46.194026],[35.223535,46.202973],[35.223982,46.205263],[35.220632,46.211975],[35.222667,46.221109],[35.225159,46.222108],[35.227182,46.225682],[35.23476,46.226477],[35.233974,46.230444],[35.235943,46.230958],[35.233004,46.231215],[35.241262,46.231872],[35.248254,46.235096],[35.251452,46.241155],[35.254164,46.243044],[35.254659,46.245739],[35.259345,46.247903],[35.265662,46.25331],[35.268285,46.257018],[35.267798,46.259856],[35.272627,46.261769],[35.27156,46.262857],[35.27286,46.264097],[35.275494,46.26523],[35.278063,46.264581],[35.26915,46.252824],[35.245888,46.229361]]]]}}],"metadata":{"source_en":"Updated consolidated GeoJSON supplied by the instructor","source_zh":"教师提供的更新版合并GeoJSON","license_en":"Source-dataset terms were not specified; use within the author-created educational platform","license_zh":"原始数据集未注明许可条款；仅用于本作者教育平台"}}