{"type":"FeatureCollection","features":[{"type":"Feature","id":"337422-48","properties":{"id":"337422-48","name":"Невский район","name_ru":"Невский район","subject_id":"337422","subject_name":"Санкт-Петербург","source_gid":48,"source_fid":48,"names_rosstat":"Невский район","population":556880,"area_km2":61.803636044590945,"density_km2":9010.473098997192,"source":"Актуализированный объединённый GeoJSON, предоставленный преподавателем","name_en":"Nevskii District","name_zh":"Nevskii区","subject_name_en":"Saint Petersburg","subject_name_zh":"圣彼得堡市"},"geometry":{"type":"Polygon","coordinates":[[[30.394997,59.889053],[30.393087,59.891691],[30.392358,59.891965],[30.392948,59.892003],[30.39195,59.893095],[30.391124,59.893757],[30.390201,59.893795],[30.390845,59.893999],[30.374776,59.905391],[30.36598,59.910443],[30.36429,59.911993],[30.36331,59.913866],[30.369511,59.91412],[30.382569,59.916222],[30.392019,59.91797],[30.402207,59.920632],[30.406845,59.917672],[30.409403,59.915431],[30.421723,59.918455],[30.427473,59.920805],[30.434147,59.925951],[30.441914,59.931112],[30.442418,59.930945],[30.445185,59.934413],[30.44757,59.936289],[30.450109,59.936908],[30.463405,59.935],[30.496063,59.93309],[30.501169,59.933579],[30.50441,59.934923],[30.505527,59.935944],[30.495419,59.891479],[30.497409,59.891363],[30.497601,59.890543],[30.499691,59.889054],[30.501058,59.886264],[30.511671,59.872852],[30.519999,59.863229],[30.508685,59.861232],[30.508,59.859691],[30.5054,59.859209],[30.503869,59.859492],[30.497038,59.858937],[30.493492,59.858202],[30.493235,59.854551],[30.492168,59.849974],[30.492442,59.848546],[30.493493,59.847085],[30.495746,59.845961],[30.509644,59.843085],[30.513562,59.841625],[30.522885,59.83704],[30.532697,59.834062],[30.540821,59.833624],[30.552093,59.836392],[30.555935,59.836738],[30.560359,59.836078],[30.562551,59.834558],[30.562847,59.833622],[30.561421,59.829805],[30.561255,59.82761],[30.563144,59.825455],[30.567166,59.823925],[30.565204,59.821758],[30.560014,59.82221],[30.56312,59.820877],[30.559913,59.820152],[30.558733,59.819461],[30.554278,59.821235],[30.551738,59.819742],[30.553648,59.817628],[30.55472,59.817164],[30.548498,59.813129],[30.520214,59.82393],[30.521419,59.821665],[30.520129,59.819231],[30.512627,59.815073],[30.510904,59.813603],[30.508286,59.812643],[30.508222,59.811289],[30.512215,59.808027],[30.511552,59.807772],[30.475198,59.833989],[30.447783,59.853126],[30.421004,59.869149],[30.408837,59.877953],[30.394997,59.889053]]]}},{"type":"Feature","id":"337422-49","properties":{"id":"337422-49","name":"Василеостровский район","name_ru":"Василеостровский район","subject_id":"337422","subject_name":"Санкт-Петербург","source_gid":49,"source_fid":50,"names_rosstat":"Василеостровский район","population":208720,"area_km2":21.35272037590458,"density_km2":9774.86691745046,"source":"Актуализированный объединённый GeoJSON, предоставленный преподавателем","name_en":"Vasileostrovskii District","name_zh":"Vasileostrovskii区","subject_name_en":"Saint Petersburg","subject_name_zh":"圣彼得堡市"},"geometry":{"type":"Polygon","coordinates":[[[30.177899,59.944033],[30.178078,59.944713],[30.179083,59.945258],[30.190446,59.943551],[30.194606,59.950515],[30.193424,59.950727],[30.193513,59.951042],[30.18342,59.952523],[30.183178,59.953345],[30.184521,59.954417],[30.185748,59.954312],[30.186693,59.95355],[30.202753,59.951124],[30.203537,59.952597],[30.203067,59.952839],[30.189515,59.95476],[30.187627,59.955958],[30.185205,59.955359],[30.186992,59.958656],[30.188865,59.960355],[30.192891,59.961671],[30.21246,59.964376],[30.218257,59.963936],[30.232748,59.961557],[30.233883,59.962411],[30.263799,59.956973],[30.277611,59.951528],[30.293856,59.946672],[30.316861,59.945656],[30.30989,59.941638],[30.298391,59.937494],[30.277387,59.932027],[30.272459,59.928735],[30.269037,59.922587],[30.265311,59.918831],[30.262445,59.917395],[30.260493,59.91726],[30.258849,59.918454],[30.251667,59.920228],[30.250937,59.921234],[30.242413,59.922995],[30.238758,59.924634],[30.237507,59.92429],[30.236469,59.924695],[30.236702,59.925024],[30.230706,59.926724],[30.233294,59.926315],[30.234375,59.927777],[30.234834,59.927692],[30.234285,59.928791],[30.230045,59.930015],[30.230791,59.931772],[30.232578,59.932346],[30.231885,59.933261],[30.229869,59.93307],[30.228039,59.929047],[30.225984,59.928559],[30.21921,59.929194],[30.215804,59.930454],[30.212874,59.929859],[30.212189,59.928461],[30.203989,59.928581],[30.193563,59.931302],[30.190355,59.933142],[30.180871,59.943076],[30.177899,59.944033]]]}},{"type":"Feature","id":"337422-50","properties":{"id":"337422-50","name":"Фрунзенский район","name_ru":"Фрунзенский район","subject_id":"337422","subject_name":"Санкт-Петербург","source_gid":50,"source_fid":51,"names_rosstat":"Фрунзенский район","population":412471,"area_km2":37.4707924934207,"density_km2":11007.80027730728,"source":"Актуализированный объединённый GeoJSON, предоставленный преподавателем","name_en":"Frunzenskii District","name_zh":"Frunzenskii区","subject_name_en":"Saint Petersburg","subject_name_zh":"圣彼得堡市"},"geometry":{"type":"Polygon","coordinates":[[[30.344998,59.886232],[30.345374,59.891087],[30.345095,59.891981],[30.338457,59.905023],[30.335742,59.908023],[30.334449,59.911477],[30.332576,59.913051],[30.340081,59.915743],[30.342475,59.916066],[30.345196,59.916079],[30.358172,59.914146],[30.36331,59.913866],[30.36429,59.911993],[30.36598,59.910443],[30.374776,59.905391],[30.390845,59.893999],[30.390201,59.893795],[30.391124,59.893757],[30.39195,59.893095],[30.392948,59.892003],[30.392358,59.891965],[30.393087,59.891691],[30.394997,59.889053],[30.416326,59.872439],[30.435648,59.860116],[30.447783,59.853126],[30.475198,59.833989],[30.455736,59.831962],[30.439597,59.829112],[30.435059,59.826222],[30.432066,59.825127],[30.40622,59.819215],[30.382696,59.816571],[30.373754,59.833711],[30.371297,59.840024],[30.35456,59.873535],[30.348496,59.880262],[30.344998,59.886232]]]}},{"type":"Feature","id":"337422-52","properties":{"id":"337422-52","name":"Курортный район","name_ru":"Курортный район","subject_id":"337422","subject_name":"Санкт-Петербург","source_gid":52,"source_fid":53,"names_rosstat":"Курортный район","population":84309,"area_km2":270.0188853606159,"density_km2":312.2337161247205,"source":"Актуализированный объединённый GeoJSON, предоставленный преподавателем","name_en":"Kurortnyi District","name_zh":"Kurortnyi区","subject_name_en":"Saint Petersburg","subject_name_zh":"圣彼得堡市"},"geometry":{"type":"MultiPolygon","coordinates":[[[[29.748584,60.182437],[29.720619,60.186513],[29.715078,60.186441],[29.707908,60.187376],[29.701871,60.187276],[29.701929,60.187694],[29.700201,60.187761],[29.700045,60.186812],[29.702954,60.186569],[29.701417,60.186518],[29.69388,60.187908],[29.690687,60.187797],[29.682222,60.188725],[29.675657,60.189987],[29.666875,60.190208],[29.66398,60.189383],[29.657851,60.190541],[29.650937,60.190321],[29.643387,60.191431],[29.633393,60.191391],[29.628818,60.192108],[29.624109,60.193773],[29.618472,60.195087],[29.597719,60.196883],[29.569518,60.197283],[29.567021,60.196627],[29.561071,60.193802],[29.548504,60.194634],[29.547868,60.194082],[29.543909,60.193561],[29.542021,60.194013],[29.540787,60.194996],[29.540148,60.194787],[29.539355,60.193331],[29.539176,60.191178],[29.538768,60.190882],[29.53816,60.191168],[29.538842,60.192629],[29.53775,60.192705],[29.534969,60.191219],[29.534558,60.190377],[29.529116,60.189541],[29.528703,60.188176],[29.527447,60.186713],[29.526338,60.183592],[29.5255,60.183094],[29.517144,60.182126],[29.51511,60.181014],[29.509019,60.179891],[29.504585,60.179889],[29.50009,60.17953],[29.49744,60.178806],[29.479692,60.17765],[29.471439,60.175793],[29.467657,60.173671],[29.461317,60.172089],[29.460368,60.172295],[29.45674,60.171593],[29.455275,60.172263],[29.453873,60.171739],[29.45205,60.171972],[29.449902,60.171086],[29.448815,60.171431],[29.449923,60.17155],[29.450118,60.172266],[29.449403,60.172659],[29.448231,60.172507],[29.44762,60.173685],[29.444972,60.173182],[29.443111,60.174329],[29.442597,60.173434],[29.441491,60.174566],[29.442283,60.174647],[29.442228,60.174972],[29.440624,60.174806],[29.439992,60.175732],[29.438703,60.17536],[29.438343,60.175636],[29.439698,60.175941],[29.4389,60.176428],[29.442719,60.17808],[29.449074,60.179966],[29.454997,60.180934],[29.469156,60.181537],[29.46832,60.183396],[29.469963,60.183608],[29.468653,60.185242],[29.460023,60.183736],[29.458975,60.184836],[29.454458,60.184935],[29.451169,60.185865],[29.450937,60.186994],[29.449559,60.18859],[29.447724,60.188985],[29.425758,60.190738],[29.427183,60.192443],[29.43254,60.195454],[29.482201,60.22101],[29.489876,60.224379],[29.49001,60.225118],[29.491703,60.22414],[29.491629,60.223571],[29.492538,60.223207],[29.492634,60.222559],[29.496986,60.221163],[29.505799,60.22574],[29.511155,60.22735],[29.521152,60.233286],[29.522776,60.230269],[29.522852,60.228442],[29.521235,60.225715],[29.536705,60.220767],[29.538774,60.223674],[29.551229,60.225014],[29.567127,60.222429],[29.579271,60.219815],[29.58475,60.222002],[29.589191,60.227608],[29.593163,60.229123],[29.598271,60.229195],[29.600385,60.232375],[29.600285,60.233477],[29.600849,60.2344],[29.607723,60.231029],[29.615267,60.23384],[29.619892,60.234418],[29.621329,60.237163],[29.623626,60.237464],[29.631471,60.234698],[29.637037,60.233675],[29.641429,60.237086],[29.642965,60.236983],[29.6437,60.237408],[29.639846,60.239019],[29.643965,60.242192],[29.657004,60.240483],[29.673903,60.237051],[29.677561,60.236918],[29.680839,60.238251],[29.683167,60.240469],[29.695153,60.239986],[29.699898,60.244837],[29.70651,60.243936],[29.706551,60.242636],[29.708302,60.241207],[29.708327,60.239808],[29.705978,60.239008],[29.703034,60.237193],[29.701229,60.237172],[29.699474,60.236301],[29.697579,60.236645],[29.69525,60.234742],[29.698673,60.232807],[29.700886,60.232375],[29.705294,60.230382],[29.705045,60.229785],[29.711854,60.226825],[29.719902,60.225924],[29.720457,60.228299],[29.715502,60.230773],[29.715043,60.232032],[29.714154,60.23261],[29.717501,60.23393],[29.716405,60.234775],[29.717515,60.235241],[29.714116,60.236516],[29.714121,60.237381],[29.712763,60.239542],[29.709703,60.239798],[29.713395,60.241475],[29.721606,60.241706],[29.729601,60.239787],[29.734626,60.239682],[29.745637,60.241956],[29.758015,60.242701],[29.759787,60.236987],[29.771061,60.233052],[29.770576,60.230358],[29.77684,60.22607],[29.783314,60.224664],[29.785676,60.222078],[29.793768,60.222514],[29.797844,60.221442],[29.801882,60.221253],[29.830155,60.206915],[29.828258,60.206362],[29.827145,60.206813],[29.825993,60.206385],[29.832886,60.202718],[29.834087,60.203255],[29.836887,60.2035],[29.849118,60.197295],[29.85364,60.196162],[29.863178,60.196697],[29.86553,60.19533],[29.868675,60.19553],[29.871663,60.193814],[29.884609,60.195256],[29.892667,60.195089],[29.894129,60.192206],[29.892634,60.189091],[29.905308,60.186631],[29.905472,60.185834],[29.92558,60.181918],[29.926905,60.183313],[29.933989,60.181593],[29.936617,60.181957],[29.941823,60.179559],[29.948018,60.178355],[29.951659,60.176855],[29.955059,60.176896],[29.955362,60.175942],[29.954564,60.175846],[29.955517,60.175494],[29.956157,60.17548],[29.955901,60.176082],[29.956954,60.175247],[29.958026,60.175181],[29.959149,60.175481],[29.959326,60.175956],[29.958202,60.176416],[29.96224,60.176795],[29.96436,60.176178],[29.964285,60.175258],[29.96594,60.175764],[29.966454,60.174552],[29.96803,60.174896],[29.969334,60.174509],[29.969896,60.174058],[29.969344,60.173481],[29.971771,60.173468],[29.972341,60.173876],[29.973071,60.173595],[29.972692,60.172921],[29.974353,60.173788],[29.974412,60.173336],[29.975973,60.173043],[29.975198,60.172427],[29.975371,60.17204],[29.977663,60.171769],[29.980527,60.172307],[29.980623,60.172686],[29.981481,60.171565],[29.980881,60.171204],[29.98253,60.171384],[29.981433,60.170166],[29.982705,60.169994],[29.983274,60.169405],[29.983767,60.16955],[29.983924,60.170264],[29.984805,60.169498],[29.98438,60.168308],[29.982854,60.168552],[29.982235,60.167255],[29.98411,60.167721],[29.985391,60.167406],[29.986035,60.168265],[29.986596,60.168259],[29.986792,60.167954],[29.984973,60.166846],[29.986002,60.166333],[29.987391,60.166637],[29.986418,60.165564],[29.987965,60.165322],[29.988265,60.164712],[29.990114,60.164105],[29.98975,60.163702],[29.992547,60.163532],[29.992267,60.162993],[29.995095,60.163118],[29.995001,60.162353],[29.997869,60.162057],[29.998867,60.161153],[29.999489,60.161276],[29.999326,60.161915],[30.000915,60.16139],[30.001458,60.161844],[30.002914,60.165681],[30.007324,60.164998],[30.008712,60.16431],[30.007355,60.162467],[30.010126,60.159552],[30.011925,60.158771],[30.012456,60.156332],[30.018548,60.154311],[30.020967,60.152184],[30.018022,60.144287],[30.059551,60.136016],[30.147386,60.134373],[30.161529,60.129659],[30.164612,60.130038],[30.166148,60.130728],[30.166942,60.131145],[30.165986,60.131603],[30.166862,60.132212],[30.169085,60.132705],[30.169483,60.132072],[30.171613,60.132981],[30.171473,60.133882],[30.174332,60.136323],[30.175942,60.13613],[30.176562,60.135893],[30.175776,60.13463],[30.174933,60.134214],[30.173734,60.134624],[30.172733,60.133439],[30.173094,60.130289],[30.171588,60.128772],[30.174983,60.129394],[30.183316,60.129406],[30.183559,60.127418],[30.193263,60.127768],[30.194738,60.121539],[30.191002,60.119971],[30.189431,60.118228],[30.194667,60.118186],[30.195336,60.117795],[30.195312,60.117275],[30.186238,60.117446],[30.177791,60.118809],[30.173362,60.113241],[30.138875,60.120038],[30.137996,60.118984],[30.138668,60.118533],[30.137691,60.116805],[30.137802,60.114848],[30.138682,60.114341],[30.133734,60.112182],[30.127407,60.114488],[30.125102,60.113581],[30.123906,60.114236],[30.119594,60.112606],[30.113858,60.114477],[30.113153,60.113648],[30.10958,60.113247],[30.109652,60.112906],[30.108258,60.112592],[30.108154,60.111866],[30.107434,60.111395],[30.109031,60.109864],[30.108664,60.109463],[30.109042,60.109303],[30.108216,60.108971],[30.108878,60.108859],[30.108298,60.108678],[30.109702,60.108296],[30.109141,60.108038],[30.108943,60.107151],[30.110311,60.10686],[30.106226,60.106229],[30.100987,60.106381],[30.097097,60.10706],[30.097,60.107415],[30.094722,60.106701],[30.092784,60.107567],[30.091298,60.107342],[30.088639,60.107979],[30.085124,60.104261],[30.070784,60.09625],[30.074207,60.093966],[30.076887,60.090447],[30.087186,60.086877],[30.094541,60.085319],[30.102799,60.080853],[30.112105,60.072667],[30.116017,60.071879],[30.119135,60.070006],[30.133216,60.072642],[30.135428,60.070608],[30.138141,60.066308],[30.137983,60.06542],[30.136015,60.064374],[30.136017,60.06017],[30.126282,60.057471],[30.126578,60.056986],[30.126182,60.056323],[30.135629,60.057614],[30.134509,60.054208],[30.131254,60.051124],[30.13409,60.048736],[30.133525,60.047611],[30.134054,60.046843],[30.139099,60.046298],[30.142098,60.045154],[30.141481,60.044384],[30.139068,60.043329],[30.138316,60.041682],[30.139154,60.040522],[30.141363,60.039871],[30.143052,60.038369],[30.142649,60.037101],[30.144688,60.036033],[30.146292,60.035902],[30.146187,60.034715],[30.119939,60.033581],[30.079104,60.027174],[30.079982,60.016786],[30.080614,60.016491],[30.079725,60.005277],[30.078898,60.003792],[30.075445,60.002585],[30.071679,60.002643],[30.054029,60.004905],[30.042441,60.006908],[30.046447,60.010824],[30.025913,60.016132],[30.027462,60.017684],[30.022178,60.018969],[30.020566,60.017504],[30.010752,60.019853],[30.008605,60.022789],[30.004375,60.025954],[29.981687,60.034761],[29.978183,60.037392],[29.975561,60.044028],[29.970925,60.043351],[29.965486,60.044811],[29.965001,60.04608],[29.96337,60.046415],[29.964075,60.046589],[29.964507,60.047345],[29.962753,60.048129],[29.96425,60.048887],[29.965414,60.051719],[29.965843,60.051884],[29.96588,60.052286],[29.964234,60.051659],[29.964091,60.052088],[29.965194,60.055036],[29.963372,60.058169],[29.95935,60.062],[29.957087,60.063426],[29.952311,60.0642],[29.94821,60.066249],[29.936515,60.068953],[29.937702,60.069731],[29.942263,60.070029],[29.943814,60.070674],[29.946881,60.070566],[29.948045,60.070953],[29.947351,60.071449],[29.94572,60.071359],[29.948649,60.072244],[29.952474,60.072729],[29.954755,60.072351],[29.955983,60.073937],[29.95423,60.074508],[29.954344,60.075493],[29.952707,60.075544],[29.950366,60.076644],[29.948111,60.076675],[29.949796,60.077724],[29.94785,60.076893],[29.944613,60.076902],[29.945263,60.077495],[29.950401,60.078218],[29.947664,60.079076],[29.9457,60.07853],[29.94475,60.077603],[29.944381,60.078039],[29.940215,60.076695],[29.944046,60.078137],[29.942994,60.078254],[29.94138,60.077508],[29.939335,60.077842],[29.939956,60.078613],[29.939468,60.079291],[29.941375,60.080288],[29.940279,60.081708],[29.937248,60.081911],[29.937664,60.082457],[29.937241,60.08274],[29.936194,60.08267],[29.934512,60.083395],[29.932383,60.082626],[29.930727,60.083112],[29.930572,60.083502],[29.931087,60.083867],[29.92952,60.084501],[29.929817,60.085789],[29.931738,60.086498],[29.93236,60.086951],[29.93231,60.087561],[29.928333,60.087183],[29.923508,60.087464],[29.919229,60.088806],[29.91986,60.089941],[29.922069,60.090841],[29.933257,60.092407],[29.9374,60.09382],[29.943947,60.099254],[29.945597,60.101646],[29.946048,60.104087],[29.944991,60.113242],[29.943337,60.117594],[29.942225,60.118555],[29.942167,60.119661],[29.9404,60.123792],[29.938715,60.126737],[29.938097,60.127014],[29.937969,60.127855],[29.932458,60.136902],[29.927996,60.142694],[29.923779,60.146064],[29.920893,60.147453],[29.908648,60.151061],[29.899661,60.1521],[29.892747,60.154377],[29.890526,60.154568],[29.8857,60.1571],[29.869196,60.161872],[29.86607,60.16246],[29.859935,60.162726],[29.853561,60.161258],[29.850522,60.16137],[29.846018,60.161894],[29.841626,60.163337],[29.835843,60.16405],[29.826171,60.166894],[29.824351,60.166869],[29.822453,60.165517],[29.82211,60.165645],[29.823655,60.166648],[29.792297,60.176168],[29.785259,60.177078],[29.772912,60.179969],[29.755839,60.181849],[29.752253,60.18264],[29.748584,60.182437]]],[[[29.934898,60.082703],[29.935882,60.082681],[29.934717,60.081699],[29.933824,60.081812],[29.934898,60.082703]]],[[[29.941553,60.075316],[29.940952,60.075434],[29.941778,60.075418],[29.941553,60.075316]]],[[[29.943259,60.075333],[29.941778,60.074888],[29.941446,60.075124],[29.942122,60.075611],[29.943259,60.075333]]],[[[29.946113,60.072662],[29.94534,60.072549],[29.944611,60.072919],[29.946113,60.072662]]],[[[29.945598,60.073877],[29.945856,60.074808],[29.947422,60.074573],[29.946907,60.073641],[29.945598,60.073877]]]]}},{"type":"Feature","id":"337422-55","properties":{"id":"337422-55","name":"Кронштадтский район","name_ru":"Кронштадтский район","subject_id":"337422","subject_name":"Санкт-Петербург","source_gid":55,"source_fid":56,"names_rosstat":"Кронштадтский район","population":44655,"area_km2":18.444000264633956,"density_km2":2421.112522191033,"source":"Актуализированный объединённый GeoJSON, предоставленный преподавателем","name_en":"Kronshtadtskii District","name_zh":"Kronshtadtskii区","subject_name_en":"Saint Petersburg","subject_name_zh":"圣彼得堡市"},"geometry":{"type":"MultiPolygon","coordinates":[[[[29.54181,60.042936],[29.542903,60.042712],[29.543317,60.042361],[29.541836,60.04232],[29.54181,60.042936]]],[[[29.674218,59.940362],[29.671647,59.940567],[29.671965,59.941769],[29.675036,59.948493],[29.679489,59.960685],[29.679917,59.961275],[29.682164,59.961002],[29.678255,59.950461],[29.67638,59.946815],[29.676016,59.944486],[29.674748,59.94283],[29.674218,59.940362]]],[[[29.680788,59.963671],[29.684524,59.97324],[29.686434,59.979821],[29.687427,59.981298],[29.687307,59.983957],[29.689794,59.987664],[29.689117,59.988596],[29.687734,59.989167],[29.687023,59.990151],[29.687127,59.990726],[29.689284,59.98924],[29.692581,59.989669],[29.692459,59.990373],[29.692797,59.990488],[29.696391,59.989984],[29.696886,59.989576],[29.696321,59.988546],[29.696834,59.988396],[29.696348,59.988291],[29.696727,59.987897],[29.700765,59.988436],[29.69713,59.987245],[29.693148,59.982449],[29.68984,59.980638],[29.683192,59.963468],[29.680788,59.963671]]],[[[29.695285,59.973232],[29.69681,59.972911],[29.696312,59.972056],[29.695918,59.971567],[29.694871,59.97178],[29.694669,59.972405],[29.695285,59.973232]]],[[[29.703166,59.950193],[29.704808,59.950656],[29.705647,59.950036],[29.704234,59.949685],[29.703629,59.948887],[29.70425,59.948923],[29.70283,59.9485],[29.702396,59.949257],[29.703166,59.950193]]],[[[29.703764,59.958261],[29.705395,59.958573],[29.705827,59.958182],[29.703861,59.956802],[29.703167,59.957176],[29.703764,59.958261]]],[[[29.715343,59.97433],[29.71703,59.975046],[29.718529,59.974382],[29.716953,59.973784],[29.715343,59.97433]]],[[[29.716808,59.989574],[29.718684,59.989738],[29.718449,59.989117],[29.716808,59.989574]]],[[[29.722085,60.004224],[29.716844,60.00517],[29.715892,60.004751],[29.712853,60.005589],[29.704581,59.998799],[29.704555,59.99821],[29.705834,59.997427],[29.704382,59.998216],[29.703657,59.998059],[29.703373,59.997719],[29.70391,59.996752],[29.703524,59.995997],[29.70247,59.995744],[29.702535,59.99527],[29.707127,59.994462],[29.706877,59.993702],[29.705071,59.993201],[29.703795,59.991737],[29.703199,59.99162],[29.703046,59.992024],[29.704431,59.99346],[29.700773,59.994967],[29.700195,59.9957],[29.698504,59.992897],[29.698488,59.991858],[29.6945,59.992163],[29.693945,59.992568],[29.695069,59.99342],[29.694259,59.993884],[29.692226,59.994563],[29.690702,59.993795],[29.68979,59.993881],[29.690335,59.994519],[29.698679,59.998668],[29.699381,59.99948],[29.6992,60.000277],[29.697,60.004283],[29.693481,60.007265],[29.690066,60.011895],[29.682582,60.018797],[29.676011,60.022655],[29.673447,60.023146],[29.669301,60.025283],[29.667304,60.025708],[29.662268,60.025689],[29.656323,60.028191],[29.651342,60.02775],[29.645507,60.030162],[29.644032,60.030488],[29.642315,60.030144],[29.638257,60.03139],[29.635977,60.031356],[29.635607,60.030587],[29.634842,60.030408],[29.634129,60.031657],[29.636221,60.032933],[29.638863,60.033561],[29.64106,60.032271],[29.646965,60.03137],[29.65011,60.031579],[29.65386,60.03009],[29.662256,60.029367],[29.665725,60.028534],[29.66986,60.028742],[29.671602,60.028078],[29.673534,60.02849],[29.6733,60.028981],[29.67442,60.029354],[29.67561,60.028882],[29.677007,60.029309],[29.678641,60.027644],[29.685138,60.026328],[29.687992,60.026158],[29.688586,60.026597],[29.68822,60.026163],[29.693174,60.024623],[29.693129,60.024294],[29.694589,60.024534],[29.697987,60.023711],[29.699234,60.022414],[29.702228,60.022809],[29.712703,60.021094],[29.719781,60.020928],[29.720704,60.019864],[29.726302,60.01865],[29.73466,60.020627],[29.744253,60.021378],[29.746084,60.02601],[29.747303,60.027082],[29.753114,60.028932],[29.752789,60.029589],[29.75683,60.030468],[29.75938,60.030358],[29.760249,60.02943],[29.759479,60.029086],[29.759843,60.029398],[29.754247,60.029096],[29.747487,60.026813],[29.746511,60.025843],[29.745269,60.021471],[29.777956,60.022098],[29.778044,60.020829],[29.766984,60.020543],[29.765251,60.020136],[29.75965,60.01738],[29.757997,60.014589],[29.757526,60.014662],[29.757371,60.015674],[29.753492,60.01294],[29.752516,60.011514],[29.752097,60.011696],[29.75243,60.012184],[29.752087,60.012174],[29.748621,60.010468],[29.751208,60.010098],[29.750939,60.009567],[29.751465,60.009304],[29.75432,60.009174],[29.75273,60.008613],[29.753524,60.008194],[29.755477,60.008414],[29.755788,60.007685],[29.757237,60.007916],[29.756496,60.008414],[29.75684,60.008516],[29.759807,60.008282],[29.759221,60.008023],[29.759361,60.007535],[29.76192,60.007815],[29.762869,60.007326],[29.763438,60.007497],[29.76288,60.008092],[29.763867,60.008082],[29.764017,60.007615],[29.763631,60.007476],[29.765027,60.007459],[29.765713,60.006558],[29.766469,60.006588],[29.766125,60.006459],[29.767147,60.005502],[29.769062,60.004765],[29.769259,60.004482],[29.768323,60.004173],[29.769594,60.003426],[29.772538,60.003444],[29.772801,60.002921],[29.774692,60.003535],[29.773018,60.002418],[29.772683,60.001551],[29.776041,60.003305],[29.776385,60.003098],[29.776117,60.002843],[29.773772,60.001537],[29.774146,60.001337],[29.775744,60.002375],[29.77643,60.002169],[29.774057,60.000693],[29.776377,60.001767],[29.776935,60.001483],[29.77524,60.000569],[29.77779,60.001915],[29.778583,60.001851],[29.777936,60.001401],[29.778966,60.000569],[29.778563,60.000247],[29.78143,59.998937],[29.780279,59.997496],[29.781387,59.996462],[29.785893,59.995255],[29.788485,59.995062],[29.791446,59.993315],[29.798468,59.991291],[29.79977,59.989697],[29.79905,59.988458],[29.801237,59.985294],[29.804372,59.984639],[29.803327,59.983788],[29.797953,59.984522],[29.794788,59.98563],[29.792477,59.98413],[29.791377,59.984302],[29.791034,59.983746],[29.793197,59.9833],[29.793085,59.982235],[29.794785,59.981677],[29.793677,59.980451],[29.793825,59.979383],[29.793017,59.979047],[29.793382,59.978067],[29.792424,59.979242],[29.791746,59.979388],[29.784854,59.978323],[29.79033,59.973951],[29.792382,59.973547],[29.79245,59.973045],[29.790424,59.972137],[29.788858,59.972139],[29.78507,59.970914],[29.785405,59.970581],[29.784424,59.970228],[29.783843,59.970854],[29.784207,59.971061],[29.781666,59.973087],[29.784657,59.970874],[29.788145,59.972061],[29.785635,59.974144],[29.785155,59.973968],[29.784107,59.974784],[29.785303,59.975324],[29.781594,59.978325],[29.779227,59.977713],[29.781475,59.978416],[29.781369,59.978787],[29.782365,59.979199],[29.78378,59.9785],[29.786813,59.980416],[29.787652,59.980495],[29.787247,59.981335],[29.784128,59.982009],[29.78532,59.983461],[29.784561,59.983635],[29.7833,59.982098],[29.778096,59.983284],[29.777979,59.982438],[29.776359,59.981107],[29.775071,59.98152],[29.776463,59.983153],[29.777502,59.983488],[29.776874,59.983853],[29.774779,59.984194],[29.774197,59.983313],[29.773235,59.983409],[29.773733,59.984183],[29.771136,59.985246],[29.770469,59.984794],[29.770801,59.98518],[29.7698,59.9857],[29.768206,59.986014],[29.767977,59.985678],[29.767536,59.985769],[29.76784,59.986087],[29.765683,59.986519],[29.762186,59.982515],[29.760942,59.982772],[29.764061,59.986564],[29.763869,59.986845],[29.761094,59.987185],[29.760488,59.986516],[29.752849,59.988141],[29.752544,59.984176],[29.752211,59.987433],[29.750864,59.987964],[29.752356,59.988766],[29.752859,59.990952],[29.749644,59.992901],[29.746226,59.993801],[29.740779,59.993355],[29.736736,59.990676],[29.740103,59.993083],[29.739232,59.993862],[29.733419,59.995316],[29.735093,59.997052],[29.738585,59.996709],[29.739687,59.997429],[29.739798,59.998083],[29.738842,59.998252],[29.739071,59.999629],[29.734423,60.000476],[29.732827,60.001616],[29.732215,60.001133],[29.730577,60.001635],[29.729276,60.001305],[29.726701,60.002624],[29.724672,60.002779],[29.724015,60.003314],[29.722255,60.003245],[29.722631,60.003591],[29.722085,60.004224]]],[[[29.719413,60.059576],[29.727201,60.06073],[29.729124,60.060442],[29.728237,60.059927],[29.720218,60.059105],[29.716054,60.057137],[29.714462,60.056934],[29.714642,60.057561],[29.719413,60.059576]]],[[[29.73169,59.990136],[29.735634,59.990161],[29.736629,59.990598],[29.735957,59.989866],[29.736721,59.989437],[29.735176,59.989191],[29.735989,59.988886],[29.737231,59.989249],[29.736169,59.98868],[29.733977,59.989406],[29.732572,59.989123],[29.73169,59.990136]]],[[[29.744875,59.979292],[29.745736,59.978924],[29.746139,59.980488],[29.748428,59.980328],[29.749116,59.980728],[29.750173,59.980186],[29.749184,59.980541],[29.748491,59.980203],[29.747675,59.980244],[29.746979,59.978731],[29.75021,59.979021],[29.749947,59.979483],[29.75067,59.979715],[29.750477,59.980046],[29.752698,59.979199],[29.747751,59.978287],[29.74426,59.978893],[29.744875,59.979292]]],[[[29.752557,59.983437],[29.753037,59.983103],[29.75464,59.982776],[29.752559,59.983097],[29.752557,59.983437]]],[[[29.755273,59.982521],[29.757788,59.982307],[29.766445,59.980334],[29.763022,59.980283],[29.762486,59.980988],[29.758434,59.981855],[29.757233,59.981569],[29.757202,59.982142],[29.755273,59.982521]]],[[[29.769769,59.97965],[29.772271,59.97913],[29.769186,59.978981],[29.769769,59.97965]]],[[[29.769493,59.97971],[29.768914,59.979046],[29.768344,59.97938],[29.768487,59.979743],[29.766711,59.980121],[29.769493,59.97971]]],[[[29.77471,59.977929],[29.774632,59.978477],[29.774016,59.978749],[29.775648,59.978247],[29.776412,59.977675],[29.77471,59.977929]]],[[[29.777619,59.975736],[29.777875,59.976235],[29.776463,59.977353],[29.777665,59.977144],[29.777226,59.977006],[29.778457,59.975988],[29.777619,59.975736]]],[[[29.778788,59.975474],[29.777859,59.975482],[29.778753,59.975749],[29.781615,59.973411],[29.778788,59.975474]]],[[[29.783067,60.022237],[29.793109,60.022577],[29.818631,60.025267],[29.823947,60.026018],[29.830571,60.02845],[29.831153,60.028183],[29.83012,60.027465],[29.83144,60.026448],[29.832417,60.026528],[29.832911,60.025421],[29.829231,60.024989],[29.829206,60.024329],[29.833412,60.023492],[29.833007,60.023149],[29.829892,60.023339],[29.824155,60.022775],[29.82275,60.02209],[29.821126,60.022932],[29.819017,60.022429],[29.817355,60.023712],[29.815902,60.023715],[29.783492,60.020905],[29.782962,60.021426],[29.783067,60.022237]]],[[[29.793295,60.028333],[29.793645,60.027614],[29.793491,60.027508],[29.792879,60.027321],[29.793485,60.027542],[29.793387,60.028047],[29.792147,60.028713],[29.788412,60.028875],[29.788567,60.028213],[29.788838,60.028732],[29.791434,60.028708],[29.793092,60.028032],[29.793127,60.027692],[29.792456,60.027621],[29.790575,60.028176],[29.789361,60.027998],[29.792109,60.027159],[29.791761,60.027042],[29.788272,60.028279],[29.788304,60.028913],[29.791621,60.02893],[29.793295,60.028333]]],[[[29.839022,60.02442],[29.839978,60.026037],[29.835122,60.025622],[29.834351,60.026853],[29.835352,60.026925],[29.835309,60.028188],[29.833766,60.028485],[29.833798,60.028857],[29.841008,60.027749],[29.862833,60.029272],[29.863283,60.028443],[29.863256,60.028042],[29.845536,60.026322],[29.840938,60.025352],[29.839924,60.024267],[29.83891,60.023923],[29.836931,60.023743],[29.836532,60.024067],[29.839022,60.02442]]],[[[29.845335,60.08461],[29.848706,60.087131],[29.851716,60.088059],[29.852604,60.088023],[29.853025,60.087522],[29.849076,60.086425],[29.846397,60.084464],[29.846361,60.083344],[29.845121,60.082969],[29.845335,60.08461]]],[[[29.846216,60.022044],[29.849811,60.022002],[29.850626,60.021542],[29.848722,60.021397],[29.848016,60.020756],[29.844996,60.021561],[29.846216,60.022044]]],[[[29.867732,60.029714],[29.902414,60.032992],[29.903386,60.033003],[29.903784,60.031855],[29.86824,60.028497],[29.867688,60.029356],[29.867732,60.029714]]],[[[29.873739,60.022791],[29.876343,60.02269],[29.877325,60.022207],[29.876456,60.021896],[29.87413,60.022204],[29.872156,60.021396],[29.871247,60.021571],[29.873739,60.022791]]],[[[29.894345,60.027743],[29.89757,60.028307],[29.89886,60.027945],[29.897173,60.027457],[29.897528,60.026955],[29.89605,60.026543],[29.895287,60.027014],[29.893407,60.02686],[29.894345,60.027743]]],[[[29.908298,60.033479],[29.948415,60.037235],[29.949412,60.037249],[29.949807,60.036023],[29.923002,60.033667],[29.921305,60.032552],[29.922649,60.032073],[29.922193,60.03164],[29.919246,60.031858],[29.917335,60.030578],[29.916011,60.030757],[29.91583,60.031256],[29.920569,60.032888],[29.91763,60.03217],[29.91638,60.032716],[29.908741,60.032306],[29.908298,60.033479]]]]}},{"type":"Feature","id":"337422-56","properties":{"id":"337422-56","name":"Приморский район","name_ru":"Приморский район","subject_id":"337422","subject_name":"Санкт-Петербург","source_gid":56,"source_fid":57,"names_rosstat":"Приморский район","population":714854,"area_km2":110.51459559171678,"density_km2":6468.412576388953,"source":"Актуализированный объединённый GeoJSON, предоставленный преподавателем","name_en":"Primorskii District","name_zh":"Primorskii区","subject_name_en":"Saint Petersburg","subject_name_zh":"圣彼得堡市"},"geometry":{"type":"Polygon","coordinates":[[[30.011679,59.998493],[30.008166,59.998949],[30.006291,59.998527],[30.004977,59.99934],[30.006436,60.000169],[30.006132,60.000822],[30.003586,60.002229],[30.000052,60.003265],[29.997518,60.003081],[29.987885,60.006418],[29.977255,60.008308],[29.977672,60.008498],[29.974362,60.008684],[29.974069,60.009354],[29.971342,60.009675],[29.970754,60.010246],[29.96893,60.01069],[29.966953,60.010559],[29.966178,60.010959],[29.962477,60.009549],[29.965553,60.01103],[29.96396,60.011403],[29.963898,60.012073],[29.964405,60.012521],[29.96246,60.01379],[29.96293,60.014622],[29.965033,60.015188],[29.962243,60.016016],[29.962501,60.016501],[29.96451,60.01681],[29.96481,60.01732],[29.96612,60.01767],[29.96764,60.01751],[29.968278,60.018098],[29.963678,60.018317],[29.962697,60.018784],[29.962674,60.020418],[29.962227,60.021019],[29.96388,60.02118],[29.962387,60.021397],[29.957689,60.033342],[29.963517,60.033291],[29.959015,60.032996],[29.958535,60.032481],[29.960916,60.027831],[29.962265,60.027828],[29.960972,60.027317],[29.962121,60.024697],[29.968075,60.025611],[29.967369,60.027273],[29.966845,60.027513],[29.966833,60.028558],[29.965602,60.028421],[29.96669,60.028805],[29.963841,60.035677],[29.956817,60.035105],[29.955265,60.037821],[29.958638,60.038027],[29.964955,60.042662],[29.965484,60.043479],[29.965486,60.044811],[29.970925,60.043351],[29.975561,60.044028],[29.978183,60.037392],[29.980062,60.035658],[30.004375,60.025954],[30.008605,60.022789],[30.010752,60.019853],[30.020566,60.017504],[30.022178,60.018969],[30.027462,60.017684],[30.025913,60.016132],[30.046447,60.010824],[30.042441,60.006908],[30.054029,60.004905],[30.071679,60.002643],[30.075445,60.002585],[30.078329,60.003412],[30.079315,60.00421],[30.079725,60.005277],[30.080614,60.016491],[30.079982,60.016786],[30.079104,60.027174],[30.119939,60.033581],[30.146187,60.034715],[30.146292,60.035902],[30.144688,60.036033],[30.142649,60.037101],[30.143052,60.038369],[30.141363,60.039871],[30.139154,60.040522],[30.138316,60.041682],[30.139068,60.043329],[30.141481,60.044384],[30.142098,60.045154],[30.139099,60.046298],[30.134054,60.046843],[30.133525,60.047611],[30.13409,60.048736],[30.193318,60.0639],[30.195077,60.062421],[30.194357,60.062264],[30.195902,60.060478],[30.202225,60.062125],[30.210194,60.060371],[30.214113,60.061273],[30.222784,60.051321],[30.274003,60.068612],[30.292864,60.053289],[30.294682,60.051243],[30.312214,60.019535],[30.312009,60.018941],[30.312721,60.017644],[30.313115,60.017699],[30.323548,59.998647],[30.323162,59.998519],[30.325849,59.99582],[30.324454,59.995412],[30.325218,59.994779],[30.326381,59.995144],[30.327027,59.994474],[30.328483,59.994222],[30.326357,59.993691],[30.327308,59.992635],[30.33089,59.984977],[30.330318,59.985067],[30.329612,59.984183],[30.329861,59.983516],[30.331151,59.982772],[30.321754,59.978468],[30.320216,59.979112],[30.299509,59.982551],[30.29035,59.982776],[30.273207,59.981345],[30.264134,59.982541],[30.245859,59.982028],[30.236999,59.981163],[30.231279,59.979467],[30.226519,59.978922],[30.226483,59.980089],[30.225159,59.981471],[30.223337,59.981564],[30.223202,59.98282],[30.222359,59.9829],[30.22128,59.981859],[30.219316,59.982038],[30.218867,59.981335],[30.217013,59.981944],[30.216424,59.981409],[30.214568,59.981272],[30.215567,59.981223],[30.212438,59.980043],[30.204857,59.979268],[30.203766,59.97854],[30.201754,59.980178],[30.195209,59.98193],[30.193424,59.981915],[30.193471,59.980734],[30.19261,59.980563],[30.191489,59.982144],[30.187988,59.983134],[30.187908,59.983522],[30.188866,59.983819],[30.187653,59.98539],[30.186036,59.985263],[30.184324,59.985977],[30.186363,59.986988],[30.185165,59.98909],[30.184189,59.989673],[30.178759,59.989102],[30.178971,59.98858],[30.182374,59.988949],[30.182602,59.988396],[30.181987,59.987733],[30.181832,59.985767],[30.181434,59.985544],[30.171513,59.985872],[30.170269,59.985477],[30.167246,59.985535],[30.166682,59.984694],[30.165371,59.985029],[30.165578,59.985473],[30.163226,59.985752],[30.162154,59.983452],[30.166306,59.982951],[30.166779,59.983967],[30.167454,59.984043],[30.16685,59.982764],[30.16615,59.982523],[30.160925,59.98321],[30.16215,59.986415],[30.159324,59.987437],[30.145452,59.98831],[30.140435,59.987935],[30.134453,59.988807],[30.128021,59.988398],[30.120987,59.98992],[30.111115,59.989548],[30.105694,59.989881],[30.100923,59.991366],[30.099595,59.991099],[30.099393,59.990496],[30.098718,59.990994],[30.097188,59.990476],[30.097982,59.990995],[30.097448,59.991371],[30.09826,59.991401],[30.098182,59.992209],[30.097312,59.992343],[30.096765,59.991431],[30.096038,59.991507],[30.094787,59.99309],[30.091435,59.994093],[30.080314,59.994607],[30.067182,59.996808],[30.061104,59.996446],[30.058191,59.997524],[30.053616,59.998214],[30.045011,59.998361],[30.040875,59.997582],[30.034786,59.998203],[30.03293,59.997634],[30.032351,59.996945],[30.030339,59.997291],[30.022422,59.997202],[30.020855,59.996891],[30.019447,59.996004],[30.016989,59.995754],[30.01925,59.994194],[30.017329,59.995272],[30.013833,59.998299],[30.014274,59.999381],[30.01581,59.99936],[30.016081,59.999637],[30.014202,60.00002],[30.01355,59.99847],[30.013842,60.000261],[30.013133,59.998539],[30.016545,59.995605],[30.016254,59.995231],[30.018219,59.994309],[30.01815,59.99358],[30.018957,59.993815],[30.020108,59.993407],[30.01761,59.9932],[30.017146,59.994008],[30.016031,59.994201],[30.013929,59.993764],[30.013046,59.992659],[30.011388,59.992704],[30.010074,59.993289],[30.009856,59.994325],[30.012712,59.995464],[30.012297,59.996549],[30.012898,59.997184],[30.011662,59.998],[30.011679,59.998493]]]}},{"type":"Feature","id":"337422-57","properties":{"id":"337422-57","name":"Петродворцовый район","name_ru":"Петродворцовый район","subject_id":"337422","subject_name":"Санкт-Петербург","source_gid":57,"source_fid":58,"names_rosstat":"Петродворцовый район","population":134895,"area_km2":110.44839923830018,"density_km2":1221.3395660805782,"source":"Актуализированный объединённый GeoJSON, предоставленный преподавателем","name_en":"Petrodvortsovyi District","name_zh":"Petrodvortsovyi区","subject_name_en":"Saint Petersburg","subject_name_zh":"圣彼得堡市"},"geometry":{"type":"MultiPolygon","coordinates":[[[[29.714348,59.88732],[29.714945,59.889277],[29.726533,59.893647],[29.727017,59.894256],[29.72208,59.9015],[29.720003,59.902818],[29.709615,59.905598],[29.709024,59.904901],[29.707415,59.905211],[29.707168,59.906161],[29.706234,59.906732],[29.693719,59.910256],[29.676146,59.913418],[29.658919,59.91532],[29.656289,59.916636],[29.66133,59.924807],[29.660046,59.926975],[29.650873,59.928301],[29.647942,59.928203],[29.647539,59.929857],[29.669156,59.93513],[29.670614,59.937669],[29.673035,59.937363],[29.672248,59.935233],[29.684611,59.935257],[29.684579,59.937153],[29.706444,59.937207],[29.706607,59.936532],[29.705147,59.934104],[29.710665,59.934054],[29.710615,59.933544],[29.711217,59.933629],[29.711302,59.934524],[29.713802,59.933964],[29.714362,59.934584],[29.715912,59.934814],[29.727092,59.934324],[29.728672,59.934804],[29.734272,59.934704],[29.736812,59.934504],[29.736762,59.933994],[29.746422,59.933544],[29.746382,59.933034],[29.747422,59.933264],[29.747472,59.931814],[29.748312,59.931704],[29.748452,59.931284],[29.750332,59.931414],[29.749952,59.931074],[29.750272,59.930774],[29.752802,59.930464],[29.753232,59.929554],[29.755535,59.928656],[29.756666,59.928808],[29.756441,59.929354],[29.758371,59.929951],[29.762245,59.928989],[29.763785,59.929112],[29.767292,59.927884],[29.771486,59.929316],[29.77928,59.930541],[29.769564,59.92811],[29.768473,59.927303],[29.772428,59.927982],[29.772771,59.927613],[29.769031,59.926451],[29.76605,59.924096],[29.765446,59.922784],[29.766134,59.920447],[29.767839,59.919101],[29.769937,59.9183],[29.770042,59.91869],[29.768596,59.91915],[29.766537,59.920757],[29.766022,59.92264],[29.766574,59.923928],[29.768615,59.925751],[29.771944,59.926766],[29.77411,59.925239],[29.777907,59.924329],[29.780214,59.927124],[29.780893,59.928891],[29.781988,59.929211],[29.780966,59.927062],[29.778783,59.924291],[29.775411,59.921783],[29.77659,59.921206],[29.7718,59.918796],[29.772447,59.918505],[29.778852,59.92172],[29.778178,59.921334],[29.779006,59.921619],[29.780138,59.921091],[29.778526,59.920093],[29.780568,59.918299],[29.780884,59.915879],[29.78235,59.915189],[29.784347,59.914803],[29.788018,59.918002],[29.788314,59.917888],[29.786824,59.916485],[29.79413,59.914731],[29.793584,59.913962],[29.795726,59.913483],[29.794865,59.912462],[29.792752,59.91253],[29.79832,59.911141],[29.795155,59.912343],[29.79673,59.913554],[29.797545,59.912766],[29.797362,59.912443],[29.797996,59.912351],[29.797824,59.911972],[29.799308,59.911501],[29.799152,59.910848],[29.807563,59.909217],[29.810951,59.909025],[29.812675,59.90786],[29.817167,59.907349],[29.819892,59.905752],[29.82295,59.905699],[29.823282,59.905568],[29.822991,59.904532],[29.83652,59.902311],[29.838438,59.900617],[29.838943,59.901316],[29.841698,59.902138],[29.844319,59.900892],[29.849261,59.900517],[29.852001,59.901165],[29.852353,59.90192],[29.853064,59.901893],[29.855357,59.901057],[29.854318,59.900057],[29.855065,59.899369],[29.857177,59.899344],[29.856423,59.900171],[29.857446,59.900569],[29.859132,59.900213],[29.859174,59.899546],[29.863228,59.899348],[29.864967,59.89877],[29.867789,59.899029],[29.868024,59.898442],[29.874669,59.897848],[29.87507,59.897651],[29.875033,59.896501],[29.875493,59.895874],[29.880254,59.893871],[29.883242,59.893423],[29.883665,59.892909],[29.885646,59.89325],[29.885825,59.893667],[29.88646,59.893313],[29.886192,59.892863],[29.887736,59.89272],[29.887176,59.892987],[29.89185,59.89359],[29.891123,59.891739],[29.892131,59.891539],[29.892907,59.892125],[29.895531,59.890197],[29.90627,59.888974],[29.910885,59.889479],[29.911279,59.890723],[29.913573,59.890219],[29.914092,59.89083],[29.913715,59.89021],[29.914368,59.890168],[29.911484,59.888379],[29.913357,59.887566],[29.919732,59.887336],[29.920308,59.887179],[29.920668,59.886143],[29.921552,59.885984],[29.929163,59.885794],[29.936612,59.885026],[29.940418,59.88552],[29.941273,59.886096],[29.942085,59.885759],[29.94184,59.885007],[29.942258,59.885603],[29.942823,59.885406],[29.942789,59.884808],[29.943431,59.884819],[29.943171,59.885058],[29.943626,59.885274],[29.945978,59.88477],[29.947093,59.885399],[29.951856,59.885252],[29.951678,59.887592],[29.951892,59.887058],[29.952154,59.887414],[29.952357,59.887342],[29.952081,59.884301],[29.952522,59.883965],[29.953537,59.884462],[29.953913,59.883964],[29.954972,59.884616],[29.955626,59.884364],[29.955817,59.8836],[29.957405,59.88353],[29.958638,59.88293],[29.961943,59.882464],[29.962614,59.88285],[29.963145,59.882707],[29.963343,59.882236],[29.962812,59.882124],[29.963145,59.881975],[29.964738,59.882504],[29.964679,59.881699],[29.965929,59.882039],[29.966989,59.881454],[29.966235,59.88076],[29.968212,59.881516],[29.968431,59.880885],[29.967968,59.879756],[29.972518,59.87936],[29.973617,59.879676],[29.97667,59.87889],[29.977575,59.878523],[29.977202,59.878079],[29.979489,59.877388],[29.981536,59.875307],[29.98491,59.87423],[29.986176,59.874545],[29.988489,59.873494],[29.988466,59.872832],[29.99028,59.87167],[29.991408,59.871609],[29.99244,59.870917],[29.99341,59.871157],[29.993465,59.870379],[29.995884,59.869644],[29.995963,59.869146],[29.997009,59.86862],[30.000383,59.868706],[29.99991,59.868116],[30.002683,59.866276],[30.005661,59.866155],[30.009285,59.864835],[30.010738,59.865528],[30.0109,59.864475],[30.012288,59.864384],[30.011937,59.865398],[30.013206,59.866163],[30.014921,59.86514],[30.015148,59.864528],[30.016545,59.864207],[30.017535,59.864098],[30.018673,59.864962],[30.017965,59.864068],[30.018991,59.863521],[30.019884,59.864204],[30.019494,59.864697],[30.019982,59.864165],[30.019343,59.863668],[30.0197,59.863279],[30.022735,59.862101],[30.023873,59.861141],[30.026149,59.860725],[30.031889,59.861445],[30.031514,59.861767],[30.033039,59.860973],[30.034515,59.861453],[30.035116,59.861026],[30.040676,59.862176],[30.04333,59.862135],[30.04482,59.863091],[30.045706,59.862834],[30.044799,59.862612],[30.04477,59.861965],[30.045284,59.861887],[30.044691,59.860449],[30.046465,59.860763],[30.046826,59.861756],[30.054201,59.861065],[30.05846,59.861745],[30.06169,59.86068],[30.063904,59.860625],[30.072945,59.862695],[30.083877,59.86235],[30.091275,59.864143],[30.092932,59.863833],[30.09331,59.863143],[30.09447,59.86376],[30.09852,59.86353],[30.098401,59.855331],[30.100595,59.853979],[30.100573,59.853406],[30.095623,59.853867],[30.090419,59.852832],[30.091543,59.835928],[30.08671,59.835323],[30.086071,59.834608],[30.069737,59.838423],[30.075289,59.815234],[30.070189,59.815796],[30.066688,59.815615],[30.057769,59.817463],[30.05281,59.816842],[30.046966,59.817736],[30.045657,59.818599],[30.045432,59.819413],[30.042813,59.819964],[30.041359,59.821188],[30.039993,59.821668],[30.038641,59.821716],[30.038873,59.822586],[30.038262,59.822776],[30.038898,59.823102],[30.038759,59.823571],[30.040851,59.824461],[30.040367,59.824963],[30.040679,59.825313],[30.040003,59.825626],[30.040293,59.825809],[30.039081,59.826715],[30.039456,59.827465],[30.038426,59.828948],[30.039188,59.829708],[30.038748,59.83029],[30.039392,59.830835],[30.040111,59.830619],[30.040314,59.832],[30.042342,59.832436],[30.042031,59.832878],[30.042621,59.833272],[30.041602,59.834081],[30.044466,59.836819],[30.044246,59.837299],[30.03079,59.83752],[30.02829,59.836228],[30.02773,59.83664],[30.020272,59.833222],[30.019012,59.834792],[30.017673,59.834967],[30.018752,59.835687],[30.01781,59.836126],[30.01648,59.836081],[30.015675,59.835233],[30.014756,59.835074],[30.013837,59.835367],[30.013152,59.83625],[30.011305,59.835942],[30.003567,59.837104],[30.001904,59.836103],[29.999955,59.836557],[29.996983,59.835164],[29.99551,59.835391],[29.994371,59.834134],[29.992454,59.833379],[29.978358,59.835096],[29.977742,59.834186],[29.944345,59.828827],[29.94126,59.830785],[29.939396,59.830903],[29.938223,59.830241],[29.936787,59.830588],[29.945207,59.844801],[29.92509,59.847683],[29.924837,59.848736],[29.910216,59.851304],[29.909422,59.848985],[29.902194,59.850194],[29.903797,59.853749],[29.895474,59.854661],[29.894895,59.853467],[29.892647,59.853882],[29.886234,59.842784],[29.881212,59.843616],[29.880856,59.845799],[29.879759,59.84785],[29.876466,59.848161],[29.876675,59.848844],[29.877846,59.848759],[29.878586,59.849298],[29.879684,59.851458],[29.880562,59.851994],[29.874497,59.856841],[29.874216,59.858646],[29.871484,59.858898],[29.871997,59.856469],[29.86943,59.854761],[29.869011,59.853976],[29.867512,59.853857],[29.862538,59.855442],[29.861752,59.857778],[29.859637,59.85855],[29.85782,59.861111],[29.859087,59.862072],[29.834865,59.868193],[29.834906,59.866143],[29.830647,59.865511],[29.826951,59.866536],[29.826626,59.86812],[29.82334,59.868907],[29.799869,59.858658],[29.786848,59.865826],[29.771356,59.87222],[29.764407,59.869256],[29.750127,59.868841],[29.750124,59.871747],[29.736895,59.872445],[29.735191,59.870842],[29.732802,59.871617],[29.7245,59.871103],[29.716417,59.874117],[29.714348,59.88732]]],[[[30.044766,59.863486],[30.045067,59.864911],[30.045031,59.864154],[30.047,59.863859],[30.04515,59.864005],[30.044766,59.863486]]]]}},{"type":"Feature","id":"337422-63","properties":{"id":"337422-63","name":"Красносельский район","name_ru":"Красносельский район","subject_id":"337422","subject_name":"Санкт-Петербург","source_gid":63,"source_fid":68,"names_rosstat":"Красносельский район","population":440817,"area_km2":90.69227805447179,"density_km2":4860.579196557788,"source":"Актуализированный объединённый GeoJSON, предоставленный преподавателем","name_en":"Krasnosel'skii District","name_zh":"Krasnosel'skii区","subject_name_en":"Saint Petersburg","subject_name_zh":"圣彼得堡市"},"geometry":{"type":"MultiPolygon","coordinates":[[[[30.082713,59.676082],[30.073311,59.667374],[30.065057,59.668303],[30.065169,59.677984],[30.072826,59.679745],[30.083952,59.680295],[30.082713,59.676082]]],[[[30.085246,59.710897],[30.081127,59.715772],[30.078245,59.716338],[30.074404,59.716071],[30.071715,59.716683],[30.055549,59.713075],[30.050018,59.717324],[30.040992,59.715242],[30.034965,59.717854],[30.03842,59.720697],[30.045779,59.719584],[30.047599,59.724494],[30.047369,59.725358],[30.050255,59.728198],[30.050048,59.730004],[30.050915,59.730037],[30.055298,59.733065],[30.054887,59.733263],[30.05612,59.733961],[30.055093,59.735185],[30.061728,59.740868],[30.076139,59.747922],[30.070883,59.749743],[30.063989,59.749886],[30.062838,59.751064],[30.062477,59.752127],[30.068261,59.752731],[30.066533,59.755266],[30.071994,59.755268],[30.071865,59.755944],[30.070361,59.755972],[30.069866,59.756847],[30.06197,59.757012],[30.060568,59.762191],[30.056304,59.761867],[30.055964,59.763282],[30.043824,59.762388],[30.043343,59.764183],[30.04535,59.765526],[30.05638,59.766057],[30.078272,59.773191],[30.084633,59.77573],[30.083929,59.778596],[30.090737,59.781422],[30.091418,59.782067],[30.097049,59.78273],[30.09627,59.783369],[30.097951,59.783927],[30.098834,59.786237],[30.098207,59.790039],[30.098784,59.795499],[30.099292,59.796306],[30.105201,59.796939],[30.105605,59.797359],[30.104898,59.802861],[30.123416,59.804456],[30.127686,59.809065],[30.104684,59.817297],[30.090966,59.81486],[30.085892,59.816138],[30.075289,59.815234],[30.069737,59.838423],[30.086071,59.834608],[30.08671,59.835323],[30.091543,59.835928],[30.090419,59.852832],[30.095623,59.853867],[30.100573,59.853406],[30.100595,59.853979],[30.098401,59.855331],[30.09852,59.86353],[30.10114,59.86424],[30.106279,59.862772],[30.107058,59.863565],[30.107747,59.863528],[30.107555,59.863236],[30.109416,59.863528],[30.110892,59.862962],[30.110991,59.862334],[30.110468,59.862123],[30.111905,59.862531],[30.112975,59.861942],[30.113715,59.862319],[30.113691,59.862766],[30.116247,59.862979],[30.117073,59.858785],[30.117391,59.858882],[30.117106,59.861483],[30.117745,59.862728],[30.131606,59.862592],[30.132948,59.863165],[30.13169,59.8622],[30.118689,59.862247],[30.118953,59.86041],[30.119321,59.860378],[30.119245,59.861948],[30.119764,59.861961],[30.119881,59.860386],[30.120593,59.860334],[30.120642,59.861928],[30.121418,59.861943],[30.121498,59.86032],[30.122022,59.860301],[30.122499,59.860357],[30.12234,59.861921],[30.12316,59.861972],[30.123275,59.860311],[30.12403,59.860337],[30.124002,59.86195],[30.125222,59.861943],[30.125388,59.860285],[30.12623,59.860312],[30.126102,59.861922],[30.126985,59.861926],[30.127104,59.860319],[30.127969,59.86031],[30.128026,59.861627],[30.132143,59.86156],[30.131764,59.861953],[30.132079,59.862061],[30.133191,59.861693],[30.137488,59.861939],[30.148252,59.865742],[30.150239,59.867022],[30.152429,59.869314],[30.153637,59.869541],[30.155168,59.870568],[30.154983,59.871338],[30.155695,59.871892],[30.162945,59.870224],[30.16376,59.870661],[30.163506,59.871151],[30.165303,59.871363],[30.170495,59.870644],[30.169781,59.870377],[30.171411,59.869589],[30.172929,59.870515],[30.175625,59.870353],[30.179763,59.86832],[30.180761,59.867018],[30.181604,59.866705],[30.185167,59.866562],[30.186862,59.867431],[30.195176,59.867915],[30.200462,59.869028],[30.210162,59.86568],[30.215162,59.864763],[30.239196,59.863929],[30.198932,59.83621],[30.191973,59.830794],[30.183712,59.822877],[30.202771,59.822751],[30.227233,59.82514],[30.268545,59.834941],[30.247513,59.82267],[30.239994,59.813028],[30.237178,59.812764],[30.227524,59.8133],[30.224218,59.81219],[30.223855,59.808809],[30.222354,59.808576],[30.220771,59.804984],[30.22027,59.804802],[30.219164,59.802609],[30.217183,59.802313],[30.217492,59.80158],[30.200092,59.80369],[30.198772,59.801605],[30.199938,59.801334],[30.200263,59.799655],[30.211308,59.797543],[30.201188,59.795509],[30.188878,59.791416],[30.179616,59.790784],[30.177529,59.791521],[30.179821,59.793485],[30.176563,59.79605],[30.159321,59.801171],[30.153877,59.796886],[30.160186,59.796879],[30.162814,59.796269],[30.158855,59.792571],[30.159406,59.792376],[30.159363,59.790925],[30.158685,59.789971],[30.159009,59.788036],[30.154078,59.78657],[30.154037,59.786217],[30.155572,59.785852],[30.155333,59.784939],[30.147435,59.77798],[30.148635,59.777664],[30.148506,59.777293],[30.14599,59.774383],[30.152776,59.771754],[30.141686,59.76117],[30.116631,59.762176],[30.116656,59.761837],[30.117987,59.761779],[30.118139,59.760129],[30.117015,59.75719],[30.119908,59.747357],[30.119521,59.745815],[30.115859,59.741397],[30.114921,59.74125],[30.111017,59.738721],[30.109612,59.738709],[30.108687,59.737816],[30.109713,59.737631],[30.108981,59.736403],[30.111984,59.735635],[30.108635,59.731005],[30.105768,59.730422],[30.104738,59.729269],[30.106566,59.728908],[30.106498,59.726276],[30.106179,59.726217],[30.106895,59.724448],[30.109856,59.723509],[30.111243,59.718486],[30.108303,59.718606],[30.108569,59.718061],[30.109947,59.717987],[30.110044,59.717513],[30.108869,59.717437],[30.109311,59.716488],[30.114995,59.711829],[30.120479,59.707952],[30.121575,59.708128],[30.121484,59.708548],[30.122458,59.708908],[30.123451,59.706884],[30.132609,59.7067],[30.133084,59.705309],[30.13751,59.700404],[30.135405,59.70037],[30.136323,59.699053],[30.136129,59.696835],[30.133743,59.694757],[30.130634,59.693588],[30.129794,59.694204],[30.124338,59.692284],[30.121565,59.692018],[30.119772,59.692273],[30.119718,59.693563],[30.116961,59.693439],[30.11779,59.694361],[30.112748,59.69407],[30.112598,59.695003],[30.114203,59.695066],[30.114359,59.697046],[30.11362,59.697248],[30.115991,59.699068],[30.113665,59.699468],[30.11369,59.699009],[30.112939,59.698704],[30.110163,59.699538],[30.109023,59.700613],[30.106797,59.699233],[30.100898,59.699199],[30.085246,59.710897]],[[30.139295,59.785566],[30.14844,59.793294],[30.155386,59.799248],[30.149932,59.800926],[30.129506,59.782502],[30.133261,59.782005],[30.137835,59.786008],[30.139295,59.785566]]]]}},{"type":"Feature","id":"337422-64","properties":{"id":"337422-64","name":"Пушкинский район","name_ru":"Пушкинский район","subject_id":"337422","subject_name":"Санкт-Петербург","source_gid":64,"source_fid":69,"names_rosstat":"Пушкинский район","population":277341,"area_km2":239.59144362985214,"density_km2":1157.5580321159866,"source":"Актуализированный объединённый GeoJSON, предоставленный преподавателем","name_en":"Pushkinskii District","name_zh":"Pushkinskii区","subject_name_en":"Saint Petersburg","subject_name_zh":"圣彼得堡市"},"geometry":{"type":"Polygon","coordinates":[[[30.472032,59.640069],[30.470721,59.639751],[30.469719,59.640186],[30.469297,59.639671],[30.467567,59.639442],[30.436387,59.662978],[30.424034,59.662525],[30.424206,59.66111],[30.423119,59.659959],[30.421714,59.656619],[30.417244,59.654355],[30.417149,59.653911],[30.414106,59.651789],[30.41354,59.651928],[30.412053,59.650554],[30.40856,59.648917],[30.403312,59.650913],[30.40298,59.650624],[30.401021,59.651339],[30.400088,59.65063],[30.395214,59.651633],[30.39156,59.649669],[30.385533,59.647604],[30.378937,59.649755],[30.366668,59.650194],[30.351859,59.655548],[30.351774,59.658233],[30.326497,59.656861],[30.306506,59.662096],[30.303429,59.659763],[30.254172,59.633783],[30.242922,59.63863],[30.2525,59.644396],[30.261542,59.648656],[30.253156,59.652642],[30.245358,59.653388],[30.244074,59.654216],[30.242453,59.658148],[30.242389,59.660675],[30.243053,59.661026],[30.23863,59.661783],[30.242513,59.665906],[30.249575,59.671021],[30.242398,59.670791],[30.23528,59.672876],[30.229589,59.673398],[30.227528,59.669431],[30.222571,59.67064],[30.218223,59.673069],[30.21995,59.674307],[30.228988,59.684139],[30.236456,59.686029],[30.231665,59.689385],[30.237057,59.691771],[30.235596,59.692666],[30.240504,59.694909],[30.239904,59.695471],[30.247736,59.699361],[30.251844,59.700904],[30.255618,59.701724],[30.258613,59.704853],[30.260013,59.707541],[30.261907,59.708511],[30.268242,59.714077],[30.269524,59.716656],[30.275871,59.715208],[30.279507,59.718645],[30.270809,59.720616],[30.272444,59.72209],[30.272537,59.723326],[30.283521,59.729194],[30.279505,59.739329],[30.292071,59.736146],[30.293907,59.740857],[30.300721,59.747387],[30.309998,59.744148],[30.329627,59.763185],[30.33069,59.762568],[30.332328,59.762446],[30.335079,59.768653],[30.338368,59.768356],[30.33878,59.76992],[30.335873,59.770795],[30.336021,59.771461],[30.335548,59.771984],[30.333289,59.771533],[30.331826,59.772965],[30.327325,59.775641],[30.326147,59.776937],[30.325421,59.79106],[30.32718,59.792415],[30.327749,59.794444],[30.327234,59.795572],[30.325056,59.79751],[30.324659,59.803743],[30.325968,59.803812],[30.325916,59.804651],[30.330681,59.804788],[30.336231,59.80676],[30.338065,59.808335],[30.341463,59.809007],[30.345753,59.812065],[30.353316,59.814185],[30.357146,59.814725],[30.362823,59.814659],[30.363226,59.815636],[30.365807,59.816013],[30.366366,59.816557],[30.37414,59.817215],[30.381655,59.818728],[30.382696,59.816571],[30.40622,59.819215],[30.432066,59.825127],[30.435059,59.826222],[30.439597,59.829112],[30.441121,59.829374],[30.438755,59.827567],[30.442986,59.82751],[30.444224,59.824224],[30.448634,59.824515],[30.453591,59.818269],[30.449519,59.818269],[30.461605,59.81084],[30.456251,59.809471],[30.457854,59.80269],[30.479168,59.792957],[30.484227,59.791537],[30.485514,59.792606],[30.487778,59.791748],[30.4898,59.792056],[30.492606,59.790749],[30.497729,59.789319],[30.498029,59.788801],[30.501763,59.788487],[30.508844,59.784373],[30.509531,59.785237],[30.516996,59.783715],[30.516316,59.782098],[30.519332,59.78259],[30.51994,59.781417],[30.519154,59.781019],[30.519073,59.780508],[30.520213,59.780501],[30.520965,59.781306],[30.521528,59.781044],[30.521299,59.77999],[30.519531,59.779182],[30.51881,59.779406],[30.516017,59.77787],[30.51615,59.777403],[30.51857,59.776997],[30.518446,59.776395],[30.516222,59.77565],[30.512977,59.776479],[30.513458,59.775261],[30.512084,59.774405],[30.511938,59.77387],[30.513269,59.773761],[30.512737,59.773217],[30.513775,59.77288],[30.514233,59.771903],[30.512033,59.771342],[30.510557,59.7704],[30.51314,59.769579],[30.512089,59.768137],[30.510675,59.768661],[30.51057,59.767108],[30.509655,59.766988],[30.51027,59.766693],[30.50941,59.765957],[30.509562,59.765282],[30.508413,59.763823],[30.506764,59.762842],[30.508724,59.76127],[30.508896,59.760571],[30.509847,59.760125],[30.509185,59.759856],[30.509671,59.75942],[30.507901,59.759416],[30.508533,59.759161],[30.508146,59.758334],[30.508679,59.757858],[30.510249,59.757268],[30.510213,59.756863],[30.512749,59.756501],[30.521182,59.753734],[30.524143,59.753388],[30.52307,59.747929],[30.556681,59.749457],[30.557592,59.747081],[30.557641,59.744733],[30.558274,59.743783],[30.557201,59.742943],[30.557566,59.742497],[30.556761,59.742065],[30.557405,59.74194],[30.557297,59.741292],[30.556257,59.741151],[30.555366,59.739967],[30.556042,59.737502],[30.555472,59.736719],[30.557863,59.736139],[30.567336,59.731428],[30.576345,59.730006],[30.564421,59.70502],[30.53078,59.707336],[30.530159,59.704531],[30.524459,59.704346],[30.524806,59.702818],[30.524433,59.700381],[30.522099,59.699466],[30.51959,59.696498],[30.522267,59.695889],[30.523275,59.693578],[30.522299,59.692174],[30.520541,59.690944],[30.488012,59.688576],[30.485837,59.684771],[30.477076,59.680742],[30.477876,59.677909],[30.478856,59.677596],[30.483621,59.678237],[30.484096,59.677655],[30.487157,59.678272],[30.487458,59.677822],[30.488836,59.677882],[30.489558,59.676196],[30.488842,59.673928],[30.490651,59.673949],[30.489435,59.669999],[30.4947,59.670095],[30.494721,59.669435],[30.502087,59.668703],[30.502521,59.65858],[30.505545,59.646173],[30.498374,59.644524],[30.495017,59.644387],[30.488787,59.643257],[30.488379,59.642988],[30.488738,59.641864],[30.485903,59.641326],[30.485235,59.639377],[30.482851,59.639161],[30.482572,59.638243],[30.48125,59.637713],[30.479363,59.637596],[30.475822,59.639449],[30.472032,59.640069]]]}},{"type":"Feature","id":"337422-65","properties":{"id":"337422-65","name":"Колпинский район","name_ru":"Колпинский район","subject_id":"337422","subject_name":"Санкт-Петербург","source_gid":65,"source_fid":70,"names_rosstat":"Колпинский район","population":189870,"area_km2":102.86786241498669,"density_km2":1845.765971436557,"source":"Актуализированный объединённый GeoJSON, предоставленный преподавателем","name_en":"Kolpinskii District","name_zh":"Kolpinskii区","subject_name_en":"Saint Petersburg","subject_name_zh":"圣彼得堡市"},"geometry":{"type":"Polygon","coordinates":[[[30.479168,59.792957],[30.457854,59.80269],[30.456251,59.809471],[30.461605,59.81084],[30.449519,59.818269],[30.453591,59.818269],[30.448634,59.824515],[30.444224,59.824224],[30.442986,59.82751],[30.438755,59.827567],[30.441121,59.829374],[30.443334,59.829798],[30.455736,59.831962],[30.475198,59.833989],[30.511552,59.807772],[30.512215,59.808027],[30.508222,59.811289],[30.508286,59.812643],[30.510904,59.813603],[30.512627,59.815073],[30.520129,59.819231],[30.521419,59.821665],[30.520214,59.82393],[30.548498,59.813129],[30.55472,59.817164],[30.553648,59.817628],[30.551738,59.819742],[30.554278,59.821235],[30.558733,59.819461],[30.559913,59.820152],[30.56312,59.820877],[30.560014,59.82221],[30.565204,59.821758],[30.567166,59.823925],[30.589201,59.817279],[30.593795,59.815193],[30.597645,59.812001],[30.614982,59.802582],[30.6256,59.795479],[30.630154,59.793685],[30.635147,59.792538],[30.660139,59.78964],[30.670101,59.786477],[30.673927,59.785698],[30.686973,59.784647],[30.701107,59.781638],[30.710405,59.781292],[30.717695,59.781716],[30.724911,59.781522],[30.72998,59.781016],[30.735294,59.779302],[30.727905,59.77258],[30.726716,59.770853],[30.734419,59.769213],[30.740001,59.76521],[30.737358,59.759669],[30.744134,59.756245],[30.746303,59.755758],[30.752762,59.755553],[30.757659,59.756293],[30.759493,59.754728],[30.759416,59.753758],[30.757953,59.753057],[30.750876,59.752582],[30.749306,59.751939],[30.748713,59.75112],[30.748912,59.749571],[30.749965,59.748515],[30.753277,59.746702],[30.757012,59.743751],[30.737604,59.744888],[30.703055,59.745284],[30.695739,59.743747],[30.680135,59.729983],[30.682984,59.724918],[30.650355,59.721866],[30.64817,59.721273],[30.645745,59.723754],[30.629978,59.735811],[30.621315,59.735878],[30.61956,59.735394],[30.617792,59.735794],[30.616669,59.735414],[30.617338,59.730861],[30.592225,59.73006],[30.592893,59.729146],[30.59135,59.729102],[30.588458,59.729803],[30.582743,59.729542],[30.570331,59.730674],[30.567336,59.731428],[30.557863,59.736139],[30.555472,59.736719],[30.556042,59.737502],[30.555366,59.739967],[30.556257,59.741151],[30.557297,59.741292],[30.557405,59.74194],[30.556761,59.742065],[30.557566,59.742497],[30.557201,59.742943],[30.558274,59.743783],[30.557641,59.744733],[30.557592,59.747081],[30.556681,59.749457],[30.52307,59.747929],[30.524143,59.753388],[30.521182,59.753734],[30.512749,59.756501],[30.510213,59.756863],[30.510249,59.757268],[30.508215,59.758206],[30.508585,59.759031],[30.507996,59.759553],[30.509513,59.75937],[30.509185,59.759856],[30.509847,59.760125],[30.508896,59.760571],[30.508724,59.76127],[30.506764,59.762842],[30.508413,59.763823],[30.509562,59.765282],[30.50941,59.765957],[30.51027,59.766693],[30.509655,59.766988],[30.51057,59.767108],[30.510675,59.768661],[30.512089,59.768137],[30.51314,59.769579],[30.510557,59.7704],[30.512033,59.771342],[30.514233,59.771903],[30.513775,59.77288],[30.512737,59.773217],[30.513269,59.773761],[30.512308,59.773589],[30.51193,59.774228],[30.513458,59.775261],[30.512866,59.776],[30.513089,59.776541],[30.516222,59.77565],[30.518669,59.776535],[30.51857,59.776997],[30.51615,59.777403],[30.516017,59.77787],[30.51881,59.779406],[30.519531,59.779182],[30.521299,59.77999],[30.521582,59.780789],[30.521153,59.781292],[30.520213,59.780501],[30.519023,59.780572],[30.51994,59.781417],[30.519332,59.78259],[30.516504,59.781998],[30.516273,59.782509],[30.516996,59.783715],[30.509531,59.785237],[30.508844,59.784373],[30.501763,59.788487],[30.498029,59.788801],[30.497729,59.789319],[30.492606,59.790749],[30.4898,59.792056],[30.487778,59.791748],[30.485514,59.792606],[30.484227,59.791537],[30.479168,59.792957]]]}},{"type":"Feature","id":"337422-69","properties":{"id":"337422-69","name":"Выборгский район","name_ru":"Выборгский район","subject_id":"337422","subject_name":"Санкт-Петербург","source_gid":69,"source_fid":80,"names_rosstat":"Выборгский район","population":551925,"area_km2":114.65131994368535,"density_km2":4813.9437057601735,"source":"Актуализированный объединённый GeoJSON, предоставленный преподавателем","name_en":"Vyborgskii District","name_zh":"Vyborgskii区","subject_name_en":"Saint Petersburg","subject_name_zh":"圣彼得堡市"},"geometry":{"type":"Polygon","coordinates":[[[30.08843,60.086581],[30.076887,60.090447],[30.074207,60.093966],[30.070784,60.09625],[30.085124,60.104261],[30.088639,60.107979],[30.091298,60.107342],[30.092784,60.107567],[30.094722,60.106701],[30.097,60.107415],[30.097097,60.10706],[30.100987,60.106381],[30.106226,60.106229],[30.110311,60.10686],[30.108943,60.107151],[30.109141,60.108038],[30.109702,60.108296],[30.108298,60.108678],[30.108878,60.108859],[30.108216,60.108971],[30.109042,60.109303],[30.108664,60.109463],[30.109031,60.109864],[30.107434,60.111395],[30.108154,60.111866],[30.108258,60.112592],[30.109652,60.112906],[30.10958,60.113247],[30.113153,60.113648],[30.113858,60.114477],[30.119594,60.112606],[30.123906,60.114236],[30.125102,60.113581],[30.127407,60.114488],[30.133734,60.112182],[30.138682,60.114341],[30.137802,60.114848],[30.137691,60.116805],[30.138668,60.118533],[30.137996,60.118984],[30.138875,60.120038],[30.173362,60.113241],[30.177791,60.118809],[30.186746,60.117414],[30.208617,60.116978],[30.218956,60.115133],[30.22012,60.115527],[30.219245,60.116497],[30.223148,60.117038],[30.224879,60.118079],[30.235842,60.118501],[30.251785,60.12282],[30.259242,60.125653],[30.265125,60.123332],[30.265922,60.122304],[30.266398,60.120419],[30.266033,60.119586],[30.271096,60.11639],[30.270766,60.116353],[30.271183,60.111946],[30.271662,60.111394],[30.271258,60.111111],[30.271431,60.110288],[30.273002,60.10967],[30.27329,60.108085],[30.274877,60.108138],[30.275602,60.102889],[30.287435,60.09618],[30.289384,60.09638],[30.29183,60.095963],[30.291837,60.093898],[30.303105,60.091099],[30.308182,60.09569],[30.30883,60.095715],[30.332973,60.089807],[30.340771,60.090846],[30.361474,60.092121],[30.363234,60.092016],[30.368311,60.090284],[30.370665,60.08772],[30.373529,60.080513],[30.376876,60.078584],[30.38557,60.060719],[30.385402,60.059742],[30.387393,60.059178],[30.365416,60.034365],[30.364919,60.031422],[30.369045,60.009606],[30.369853,60.007279],[30.365967,60.001365],[30.363868,59.996442],[30.360417,59.994369],[30.352878,59.991263],[30.348616,59.990885],[30.346996,59.989947],[30.351952,59.989506],[30.362511,59.983858],[30.366165,59.980134],[30.367525,59.977641],[30.365785,59.977652],[30.360625,59.979137],[30.344052,59.977487],[30.347385,59.973224],[30.351895,59.96277],[30.353972,59.959912],[30.350186,59.954417],[30.349532,59.951999],[30.345415,59.952243],[30.340221,59.954654],[30.337701,59.957326],[30.335823,59.965887],[30.330592,59.973355],[30.324316,59.977393],[30.321754,59.978468],[30.331151,59.982772],[30.329861,59.983516],[30.329612,59.984183],[30.330318,59.985067],[30.33089,59.984977],[30.327308,59.992635],[30.326357,59.993691],[30.328483,59.994222],[30.327027,59.994474],[30.326381,59.995144],[30.325218,59.994779],[30.324454,59.995412],[30.325849,59.99582],[30.323162,59.998519],[30.323548,59.998647],[30.313115,60.017699],[30.312721,60.017644],[30.312009,60.018941],[30.312214,60.019535],[30.29494,60.050837],[30.292864,60.053289],[30.274003,60.068612],[30.222784,60.051321],[30.214113,60.061273],[30.210194,60.060371],[30.202225,60.062125],[30.195902,60.060478],[30.194357,60.062264],[30.195077,60.062421],[30.193318,60.0639],[30.13409,60.048736],[30.131254,60.051124],[30.134509,60.054208],[30.135629,60.057614],[30.126182,60.056323],[30.126578,60.056986],[30.126282,60.057471],[30.136017,60.06017],[30.136015,60.064374],[30.137983,60.06542],[30.138141,60.066308],[30.135428,60.070608],[30.133216,60.072642],[30.119135,60.070006],[30.116017,60.071879],[30.112105,60.072667],[30.102799,60.080853],[30.094541,60.085319],[30.08843,60.086581]]]}},{"type":"Feature","id":"337422-70","properties":{"id":"337422-70","name":"Красногвардейский район","name_ru":"Красногвардейский район","subject_id":"337422","subject_name":"Санкт-Петербург","source_gid":70,"source_fid":81,"names_rosstat":"Красногвардейский район","population":368354,"area_km2":56.23670605045074,"density_km2":6550.063577150917,"source":"Актуализированный объединённый GeoJSON, предоставленный преподавателем","name_en":"Krasnogvardeiskii District","name_zh":"Krasnogvardeiskii区","subject_name_en":"Saint Petersburg","subject_name_zh":"圣彼得堡市"},"geometry":{"type":"Polygon","coordinates":[[[30.463405,59.935],[30.452045,59.936894],[30.44757,59.936289],[30.445185,59.934413],[30.442418,59.930945],[30.441914,59.931112],[30.434147,59.925951],[30.427473,59.920805],[30.421723,59.918455],[30.409403,59.915431],[30.406845,59.917672],[30.397196,59.924188],[30.395906,59.925739],[30.394281,59.929024],[30.39633,59.933129],[30.400202,59.938963],[30.403018,59.948631],[30.40306,59.951812],[30.402648,59.953071],[30.402164,59.953837],[30.399584,59.955444],[30.406932,59.958942],[30.412607,59.972176],[30.442174,59.999815],[30.436333,60.015668],[30.437419,60.019138],[30.437044,60.022885],[30.437612,60.039133],[30.441932,60.040946],[30.458337,60.037539],[30.460539,60.036178],[30.461488,60.03454],[30.465263,60.033454],[30.468231,60.033556],[30.468083,60.03228],[30.467193,60.03165],[30.464545,60.031266],[30.462163,60.028612],[30.462758,60.028023],[30.468399,60.027365],[30.467682,60.026845],[30.465249,60.026807],[30.464106,60.025836],[30.46482,60.025062],[30.466756,60.024543],[30.467577,60.022741],[30.468919,60.022694],[30.471799,60.024727],[30.475166,60.025149],[30.475853,60.024785],[30.475517,60.023611],[30.475869,60.022702],[30.479523,60.022585],[30.480432,60.021171],[30.483064,60.020193],[30.484338,60.020499],[30.488045,60.023184],[30.489424,60.022851],[30.489347,60.020564],[30.489863,60.018693],[30.489156,60.017526],[30.488451,60.017641],[30.486639,60.016306],[30.486247,60.014834],[30.485794,60.014749],[30.486915,60.013646],[30.487057,60.013151],[30.486611,60.012988],[30.4871,60.012995],[30.488533,60.010474],[30.487959,60.010259],[30.488805,60.010266],[30.490156,60.008266],[30.4939,60.009661],[30.495462,60.007869],[30.499272,60.008402],[30.499698,60.007357],[30.503965,60.006484],[30.504251,60.006088],[30.502916,60.003594],[30.49949,60.000427],[30.502354,60.000047],[30.503519,59.999397],[30.502636,59.998285],[30.503729,59.996649],[30.503548,59.995626],[30.504203,59.994492],[30.506563,59.993709],[30.507259,59.992789],[30.506172,59.990504],[30.508813,59.988655],[30.507742,59.987492],[30.508091,59.987131],[30.508757,59.987265],[30.512569,59.985838],[30.517459,59.985337],[30.534695,59.992592],[30.536061,59.992123],[30.53653,59.990943],[30.534811,59.989812],[30.534027,59.990621],[30.53378,59.989775],[30.534315,59.989337],[30.533702,59.988802],[30.534689,59.98866],[30.535657,59.989197],[30.537865,59.988679],[30.537779,59.988106],[30.536503,59.987417],[30.536289,59.986637],[30.533166,59.987013],[30.533189,59.986433],[30.532341,59.985761],[30.533126,59.984515],[30.532383,59.984113],[30.530815,59.984607],[30.531247,59.983294],[30.528056,59.982137],[30.531356,59.98176],[30.532709,59.982789],[30.534926,59.982569],[30.536109,59.982977],[30.536471,59.982526],[30.540395,59.981811],[30.541222,59.981121],[30.54391,59.98102],[30.544532,59.98048],[30.547745,59.980335],[30.55004,59.981323],[30.551672,59.981192],[30.548343,59.979503],[30.548434,59.978708],[30.551496,59.978416],[30.551751,59.979452],[30.554088,59.979231],[30.554086,59.97718],[30.555843,59.97528],[30.558208,59.973812],[30.556171,59.973278],[30.556974,59.972736],[30.559185,59.973333],[30.566029,59.970965],[30.559274,59.96962],[30.555815,59.969904],[30.552493,59.96899],[30.543301,59.977483],[30.537258,59.975025],[30.532926,59.973943],[30.528167,59.973019],[30.526846,59.97409],[30.513101,59.970559],[30.505527,59.935944],[30.50441,59.934923],[30.501169,59.933579],[30.496063,59.93309],[30.463405,59.935]]]}},{"type":"Feature","id":"337422-71","properties":{"id":"337422-71","name":"Кировский район","name_ru":"Кировский район","subject_id":"337422","subject_name":"Санкт-Петербург","source_gid":71,"source_fid":83,"names_rosstat":"Кировский район","population":329419,"area_km2":45.70595041966984,"density_km2":7207.354774931723,"source":"Актуализированный объединённый GeoJSON, предоставленный преподавателем","name_en":"Kirovskii District","name_zh":"Kirovskii区","subject_name_en":"Saint Petersburg","subject_name_zh":"圣彼得堡市"},"geometry":{"type":"MultiPolygon","coordinates":[[[[30.295065,59.886471],[30.293792,59.882508],[30.300015,59.882693],[30.299672,59.881461],[30.295777,59.87991],[30.293728,59.877767],[30.292033,59.870008],[30.290354,59.85854],[30.292689,59.857851],[30.291849,59.852893],[30.289157,59.851121],[30.286281,59.846368],[30.282216,59.842531],[30.281202,59.842456],[30.268545,59.834941],[30.227233,59.82514],[30.202771,59.822751],[30.183712,59.822877],[30.191973,59.830794],[30.198932,59.83621],[30.239196,59.863929],[30.215162,59.864763],[30.210162,59.86568],[30.200462,59.869028],[30.195176,59.867915],[30.186862,59.867431],[30.185167,59.866562],[30.181391,59.866732],[30.179763,59.86832],[30.175061,59.87073],[30.172749,59.870838],[30.171788,59.871757],[30.161519,59.874277],[30.166532,59.879028],[30.168121,59.879597],[30.165919,59.880804],[30.172316,59.88418],[30.167891,59.886398],[30.168984,59.888312],[30.181664,59.887755],[30.19307,59.889189],[30.194302,59.890361],[30.194764,59.892083],[30.195862,59.893192],[30.209458,59.899503],[30.212758,59.902181],[30.213652,59.902232],[30.215825,59.90361],[30.216269,59.905271],[30.218124,59.905214],[30.219476,59.905708],[30.220861,59.905435],[30.221943,59.905901],[30.224885,59.908892],[30.224016,59.909185],[30.225722,59.909196],[30.2279,59.91078],[30.228906,59.913549],[30.234548,59.913376],[30.24087,59.914148],[30.251946,59.914528],[30.260742,59.915916],[30.260493,59.91726],[30.261523,59.916957],[30.262152,59.915841],[30.261913,59.912359],[30.260905,59.910755],[30.255385,59.904136],[30.253513,59.902684],[30.250229,59.901291],[30.254016,59.90017],[30.256151,59.900572],[30.2621,59.899891],[30.264612,59.900571],[30.265708,59.901819],[30.269096,59.902409],[30.275829,59.901114],[30.280015,59.903559],[30.281915,59.903924],[30.295407,59.902603],[30.295844,59.901799],[30.29688,59.901937],[30.297055,59.900557],[30.294781,59.896123],[30.297891,59.896031],[30.297901,59.894465],[30.299457,59.894239],[30.297655,59.888668],[30.295065,59.886471]]],[[[30.207432,59.909264],[30.213786,59.916114],[30.215138,59.916228],[30.223228,59.914452],[30.224424,59.913993],[30.224684,59.913418],[30.221612,59.912111],[30.216294,59.906475],[30.216366,59.905855],[30.215853,59.905766],[30.207255,59.908522],[30.207432,59.909264]]]]}},{"type":"Feature","id":"337422-73","properties":{"id":"337422-73","name":"Московский район","name_ru":"Московский район","subject_id":"337422","subject_name":"Санкт-Петербург","source_gid":73,"source_fid":87,"names_rosstat":"Московский район","population":333941,"area_km2":73.9132903140902,"density_km2":4518.0102060256995,"source":"Актуализированный объединённый GeoJSON, предоставленный преподавателем","name_en":"Moskovskii District","name_zh":"Moskovskii区","subject_name_en":"Saint Petersburg","subject_name_zh":"圣彼得堡市"},"geometry":{"type":"Polygon","coordinates":[[[30.348496,59.880262],[30.35456,59.873535],[30.371297,59.840024],[30.373754,59.833711],[30.381655,59.818728],[30.37414,59.817215],[30.366366,59.816557],[30.365807,59.816013],[30.363226,59.815636],[30.362823,59.814659],[30.35688,59.814711],[30.353316,59.814185],[30.349877,59.812953],[30.348079,59.812887],[30.34564,59.812001],[30.341463,59.809007],[30.337888,59.808262],[30.336231,59.80676],[30.330432,59.804714],[30.325916,59.804651],[30.325968,59.803812],[30.324659,59.803743],[30.325056,59.79751],[30.327234,59.795572],[30.327749,59.794444],[30.32718,59.792415],[30.325421,59.79106],[30.326147,59.776937],[30.327325,59.775641],[30.331826,59.772965],[30.333289,59.771533],[30.335548,59.771984],[30.336021,59.771461],[30.335873,59.770795],[30.33878,59.76992],[30.338368,59.768356],[30.335079,59.768653],[30.332328,59.762446],[30.33069,59.762568],[30.329627,59.763185],[30.309998,59.744148],[30.258559,59.762679],[30.264406,59.770953],[30.270899,59.77404],[30.26879,59.774728],[30.273624,59.777617],[30.271156,59.778597],[30.283941,59.787871],[30.221326,59.797027],[30.210474,59.797786],[30.200263,59.799655],[30.199938,59.801334],[30.198772,59.801605],[30.200092,59.80369],[30.217605,59.801633],[30.217183,59.802313],[30.219164,59.802609],[30.22027,59.804802],[30.220771,59.804984],[30.222354,59.808576],[30.223855,59.808809],[30.224218,59.81219],[30.227524,59.8133],[30.237178,59.812764],[30.239994,59.813028],[30.247513,59.82267],[30.281202,59.842456],[30.282216,59.842531],[30.284849,59.844704],[30.287805,59.848557],[30.289157,59.851121],[30.290416,59.851609],[30.291809,59.852786],[30.292018,59.85352],[30.292689,59.857851],[30.290354,59.85854],[30.292033,59.870008],[30.293728,59.877767],[30.295777,59.87991],[30.299672,59.881461],[30.300015,59.882693],[30.293792,59.882508],[30.295065,59.886471],[30.297655,59.888668],[30.298577,59.891273],[30.299457,59.894239],[30.297901,59.894465],[30.297891,59.896031],[30.319176,59.896425],[30.318405,59.908638],[30.321951,59.909115],[30.332576,59.913051],[30.334115,59.911863],[30.335109,59.910394],[30.335742,59.908023],[30.338457,59.905023],[30.345095,59.891981],[30.345374,59.891087],[30.344998,59.886232],[30.348496,59.880262]]]}},{"type":"Feature","id":"337422-93","properties":{"id":"337422-93","name":"Адмиралтейский район","name_ru":"Адмиралтейский район","subject_id":"337422","subject_name":"Санкт-Петербург","source_gid":93,"source_fid":118,"names_rosstat":"Адмиралтейский район","population":154424,"area_km2":13.795921966862608,"density_km2":11193.452700799688,"source":"Актуализированный объединённый GeoJSON, предоставленный преподавателем","name_en":"Admiralteiskii District","name_zh":"Admiralteiskii区","subject_name_en":"Saint Petersburg","subject_name_zh":"圣彼得堡市"},"geometry":{"type":"Polygon","coordinates":[[[30.250229,59.901291],[30.254016,59.90017],[30.256151,59.900572],[30.2621,59.899891],[30.264612,59.900571],[30.265708,59.901819],[30.269096,59.902409],[30.275829,59.901114],[30.280015,59.903559],[30.282125,59.903935],[30.294692,59.902755],[30.295407,59.902603],[30.295844,59.901799],[30.29688,59.901937],[30.297009,59.900286],[30.294781,59.896123],[30.319176,59.896425],[30.318405,59.908638],[30.321951,59.909115],[30.340081,59.915743],[30.340133,59.916108],[30.342678,59.917093],[30.335231,59.923316],[30.335786,59.923537],[30.330019,59.926299],[30.32703,59.925151],[30.310129,59.936465],[30.312391,59.937388],[30.312614,59.938102],[30.308274,59.941057],[30.298391,59.937494],[30.277387,59.932027],[30.272459,59.928735],[30.269037,59.922587],[30.265311,59.918831],[30.262445,59.917395],[30.260493,59.91726],[30.262066,59.916436],[30.262201,59.913674],[30.261913,59.912359],[30.259941,59.909349],[30.255385,59.904136],[30.253513,59.902684],[30.250229,59.901291]]]}},{"type":"Feature","id":"337422-192","properties":{"id":"337422-192","name":"Калининский район","name_ru":"Калининский район","subject_id":"337422","subject_name":"Санкт-Петербург","source_gid":192,"source_fid":240,"names_rosstat":"Калининский район","population":532972,"area_km2":40.17232322448517,"density_km2":13267.144073837177,"source":"Актуализированный объединённый GeoJSON, предоставленный преподавателем","name_en":"Kalininskii District","name_zh":"Kalininskii区","subject_name_en":"Saint Petersburg","subject_name_zh":"圣彼得堡市"},"geometry":{"type":"Polygon","coordinates":[[[30.343976,59.977269],[30.347385,59.973224],[30.351895,59.96277],[30.353972,59.959912],[30.350186,59.954417],[30.349532,59.951999],[30.363556,59.951168],[30.371124,59.952269],[30.376435,59.953802],[30.383674,59.957174],[30.387568,59.957883],[30.392687,59.957526],[30.399584,59.955444],[30.406932,59.958942],[30.412607,59.972176],[30.442174,59.999815],[30.436333,60.015668],[30.437419,60.019138],[30.437044,60.022885],[30.437606,60.040602],[30.436261,60.04175],[30.434814,60.042265],[30.415649,60.046709],[30.418415,60.049547],[30.388112,60.057077],[30.388902,60.057823],[30.388045,60.058091],[30.388767,60.058804],[30.387393,60.059178],[30.365416,60.034365],[30.364919,60.031422],[30.369045,60.009606],[30.369853,60.007279],[30.365967,60.001365],[30.363868,59.996442],[30.360417,59.994369],[30.352878,59.991263],[30.348616,59.990885],[30.346996,59.989947],[30.351952,59.989506],[30.362511,59.983858],[30.366165,59.980134],[30.367525,59.977641],[30.365785,59.977652],[30.360625,59.979137],[30.343976,59.977269]]]}},{"type":"Feature","id":"337422-231","properties":{"id":"337422-231","name":"Петроградский район","name_ru":"Петроградский район","subject_id":"337422","subject_name":"Санкт-Петербург","source_gid":231,"source_fid":288,"names_rosstat":"Петроградский район","population":118213,"area_km2":19.63896821405444,"density_km2":6019.308077264568,"source":"Актуализированный объединённый GeoJSON, предоставленный преподавателем","name_en":"Petrogradskii District","name_zh":"Petrogradskii区","subject_name_en":"Saint Petersburg","subject_name_zh":"圣彼得堡市"},"geometry":{"type":"Polygon","coordinates":[[[30.210295,59.973992],[30.210346,59.971228],[30.211199,59.970157],[30.212961,59.97027],[30.214579,59.969034],[30.218269,59.969968],[30.223666,59.96952],[30.224844,59.969163],[30.224934,59.968736],[30.223951,59.968646],[30.225007,59.96857],[30.224991,59.967977],[30.23722,59.966638],[30.235128,59.965393],[30.235052,59.964677],[30.236097,59.963974],[30.233883,59.962411],[30.263799,59.956973],[30.277611,59.951528],[30.293856,59.946672],[30.316861,59.945656],[30.329137,59.949032],[30.345415,59.952243],[30.340221,59.954654],[30.337701,59.957326],[30.335823,59.965887],[30.330592,59.973355],[30.324316,59.977393],[30.320216,59.979112],[30.299509,59.982551],[30.29035,59.982776],[30.273207,59.981345],[30.266482,59.982317],[30.260547,59.982573],[30.245859,59.982028],[30.236999,59.981163],[30.231279,59.979467],[30.226519,59.978922],[30.226553,59.977819],[30.22411,59.977009],[30.217612,59.977332],[30.213875,59.976644],[30.210867,59.97489],[30.210295,59.973992]]]}},{"type":"Feature","id":"337422-347","properties":{"id":"337422-347","name":"Центральный район","name_ru":"Центральный район","subject_id":"337422","subject_name":"Санкт-Петербург","source_gid":347,"source_fid":425,"names_rosstat":"Центральный район","population":198862,"area_km2":17.699693660358633,"density_km2":11235.33569653717,"source":"Актуализированный объединённый GeoJSON, предоставленный преподавателем","name_en":"Tsentral'nyi District","name_zh":"Tsentral'nyi区","subject_name_en":"Saint Petersburg","subject_name_zh":"圣彼得堡市"},"geometry":{"type":"Polygon","coordinates":[[[30.308274,59.941057],[30.312614,59.938102],[30.312391,59.937388],[30.310129,59.936465],[30.32703,59.925151],[30.330019,59.926299],[30.335786,59.923537],[30.335231,59.923316],[30.342678,59.917093],[30.340133,59.916108],[30.340081,59.915743],[30.345196,59.916079],[30.359536,59.914035],[30.369511,59.91412],[30.392019,59.91797],[30.402207,59.920632],[30.397196,59.924188],[30.395906,59.925739],[30.394281,59.929024],[30.39633,59.933129],[30.400202,59.938963],[30.403018,59.948631],[30.40306,59.951812],[30.402164,59.953837],[30.399584,59.955444],[30.394708,59.95709],[30.38896,59.95792],[30.384794,59.957492],[30.376435,59.953802],[30.371124,59.952269],[30.363556,59.951168],[30.345415,59.952243],[30.329137,59.949032],[30.316861,59.945656],[30.308274,59.941057]]]}}],"metadata":{"source_en":"Updated consolidated GeoJSON supplied by the instructor","source_zh":"教师提供的更新版合并GeoJSON","license_en":"Source-dataset terms were not specified; use within the author-created educational platform","license_zh":"原始数据集未注明许可条款；仅用于本作者教育平台"}}