{"type":"FeatureCollection","features":[{"type":"Feature","id":"253252-378","properties":{"id":"253252-378","name":"городской округ Магас","name_ru":"городской округ Магас","subject_id":"253252","subject_name":"Ингушетия","source_gid":378,"source_fid":461,"names_rosstat":"Городской округ г Магас","population":19199,"area_km2":12.366427715178599,"density_km2":1552.5097823064195,"source":"Актуализированный объединённый GeoJSON, предоставленный преподавателем","name_en":"Magas Urban Okrug","name_zh":"Magas城市辖区","subject_name_en":"Ingushetia","subject_name_zh":"印古什共和国"},"geometry":{"type":"Polygon","coordinates":[[[44.796021,43.167512],[44.796256,43.165436],[44.798432,43.163057],[44.797516,43.161254],[44.797186,43.158944],[44.79947,43.156845],[44.800212,43.154753],[44.798443,43.153131],[44.797829,43.153058],[44.797917,43.152225],[44.831773,43.150214],[44.835034,43.15786],[44.837572,43.172167],[44.838621,43.172722],[44.824254,43.189514],[44.821467,43.190765],[44.81691,43.194069],[44.815253,43.190372],[44.809531,43.18915],[44.800465,43.189169],[44.800883,43.187186],[44.799889,43.184256],[44.800103,43.180117],[44.799735,43.178104],[44.798426,43.176611],[44.796021,43.167512]]]}},{"type":"Feature","id":"253252-408","properties":{"id":"253252-408","name":"городской округ Сунжа","name_ru":"городской округ Сунжа","subject_id":"253252","subject_name":"Ингушетия","source_gid":408,"source_fid":500,"names_rosstat":"Городской округ г Сунжа","population":63378,"area_km2":181.67879063093096,"density_km2":348.8464436597248,"source":"Актуализированный объединённый GeoJSON, предоставленный преподавателем","name_en":"Sunzha Urban Okrug","name_zh":"Sunzha城市辖区","subject_name_en":"Ingushetia","subject_name_zh":"印古什共和国"},"geometry":{"type":"Polygon","coordinates":[[[44.993963,43.354475],[45.006455,43.336381],[45.006394,43.33018],[45.00268,43.330106],[44.99954,43.328908],[45.018934,43.30853],[45.018355,43.296054],[45.016924,43.284331],[45.059371,43.298496],[45.069735,43.30146],[45.074917,43.300091],[45.077959,43.297483],[45.085358,43.294762],[45.086467,43.293974],[45.089174,43.293242],[45.089922,43.291666],[45.094614,43.289808],[45.095697,43.288269],[45.097966,43.286899],[45.099564,43.288588],[45.09812,43.305344],[45.108706,43.306938],[45.10898,43.311878],[45.109715,43.315268],[45.111624,43.315776],[45.111839,43.316681],[45.110991,43.317618],[45.111925,43.317723],[45.112247,43.318141],[45.110274,43.31864],[45.1094,43.319824],[45.110131,43.320338],[45.111114,43.32035],[45.115575,43.319422],[45.116345,43.320769],[45.115739,43.321362],[45.115979,43.322224],[45.116936,43.322371],[45.117744,43.321572],[45.119343,43.321649],[45.119769,43.321932],[45.119926,43.322888],[45.120597,43.32247],[45.120498,43.321456],[45.119012,43.320484],[45.119898,43.319864],[45.121228,43.319985],[45.122931,43.320923],[45.121912,43.321419],[45.121622,43.322243],[45.122215,43.322289],[45.124243,43.324266],[45.125523,43.326829],[45.126387,43.332052],[45.125896,43.337468],[45.126414,43.340716],[45.127894,43.342645],[45.12838,43.344369],[45.128869,43.351027],[45.132024,43.375104],[45.135506,43.398209],[45.137383,43.417529],[45.13652,43.421267],[45.133843,43.42428],[45.11479,43.453153],[45.089097,43.453835],[45.065303,43.453831],[45.064975,43.461253],[45.064386,43.4629],[45.015317,43.462656],[45.011074,43.461314],[44.998842,43.463898],[44.999528,43.440316],[44.999871,43.439287],[45.000164,43.432341],[45.000558,43.359502],[44.993963,43.354475]]]}},{"type":"Feature","id":"253252-527","properties":{"id":"253252-527","name":"городской округ Карабулак","name_ru":"городской округ Карабулак","subject_id":"253252","subject_name":"Ингушетия","source_gid":527,"source_fid":627,"names_rosstat":"Городской округ г Карабулак","population":44643,"area_km2":85.05941419830394,"density_km2":524.8449030688265,"source":"Актуализированный объединённый GeoJSON, предоставленный преподавателем","name_en":"Karabulak Urban Okrug","name_zh":"Karabulak城市辖区","subject_name_en":"Ingushetia","subject_name_zh":"印古什共和国"},"geometry":{"type":"Polygon","coordinates":[[[44.823586,43.431753],[44.825539,43.42822],[44.826909,43.426975],[44.829454,43.423181],[44.83371,43.411172],[44.836156,43.408789],[44.84348,43.39644],[44.844467,43.393489],[44.844078,43.392076],[44.844569,43.390055],[44.842197,43.385598],[44.851912,43.368564],[44.853627,43.367809],[44.855236,43.365934],[44.856369,43.360875],[44.858738,43.337771],[44.858937,43.328773],[44.865291,43.306583],[44.86503,43.305042],[44.867152,43.29782],[44.869467,43.29273],[44.86921,43.29087],[44.878456,43.288711],[44.887607,43.28913],[44.902439,43.292469],[44.925584,43.300347],[44.926903,43.300145],[44.93011,43.303506],[44.937197,43.303636],[44.938034,43.304116],[44.937694,43.305211],[44.938833,43.30813],[44.935804,43.31478],[44.928588,43.328659],[44.921146,43.340357],[44.892763,43.428977],[44.895895,43.466697],[44.890458,43.46692],[44.883922,43.468512],[44.883843,43.471955],[44.879658,43.47361],[44.878425,43.470906],[44.877317,43.461998],[44.880373,43.460048],[44.881746,43.431922],[44.823586,43.431753]]]}},{"type":"Feature","id":"253252-528","properties":{"id":"253252-528","name":"Сунженский район","name_ru":"Сунженский район","subject_id":"253252","subject_name":"Ингушетия","source_gid":528,"source_fid":628,"names_rosstat":"Муниципальный район Сунженский","population":61771,"area_km2":905.2761180108575,"density_km2":68.23443010484802,"source":"Актуализированный объединённый GeoJSON, предоставленный преподавателем","name_en":"Sunzhenskii District","name_zh":"Sunzhenskii区","subject_name_en":"Ingushetia","subject_name_zh":"印古什共和国"},"geometry":{"type":"Polygon","coordinates":[[[44.854711,42.839395],[44.858064,42.84058],[44.863709,42.840534],[44.864973,42.841525],[44.867708,42.842103],[44.873905,42.840293],[44.877963,42.840166],[44.879903,42.840981],[44.895459,42.845157],[44.901192,42.845256],[44.906753,42.844639],[44.917159,42.845765],[44.922588,42.84702],[44.923048,42.851711],[44.925216,42.851982],[44.931024,42.85069],[44.939076,42.855037],[44.940332,42.853951],[44.950172,42.853343],[44.951595,42.852692],[44.953311,42.852571],[44.956893,42.853752],[44.960552,42.853139],[44.964169,42.851758],[44.96955,42.852244],[44.970807,42.85156],[44.975777,42.85124],[44.99125,42.848907],[44.99635,42.847757],[45.001863,42.847214],[45.011025,42.848524],[45.021988,42.846919],[45.038752,42.845187],[45.058465,42.844529],[45.068013,42.843225],[45.081262,42.842694],[45.086783,42.841772],[45.084431,42.844165],[45.084191,42.848309],[45.086528,42.853594],[45.089172,42.858],[45.088725,42.860058],[45.086785,42.863696],[45.086329,42.868653],[45.087218,42.869519],[45.084984,42.870967],[45.085206,42.871447],[45.084776,42.871842],[45.084781,42.872976],[45.084274,42.873107],[45.084499,42.87349],[45.08417,42.874219],[45.081882,42.875613],[45.082128,42.87583],[45.081661,42.876176],[45.081567,42.877281],[45.08261,42.877667],[45.082357,42.877933],[45.082991,42.878937],[45.084103,42.879509],[45.083726,42.880287],[45.083825,42.881808],[45.083229,42.882098],[45.083389,42.882417],[45.081787,42.884416],[45.080111,42.885408],[45.080325,42.88577],[45.079809,42.88632],[45.07924,42.886355],[45.079378,42.886968],[45.078138,42.887722],[45.078074,42.889856],[45.076236,42.891669],[45.074605,42.891723],[45.07421,42.893609],[45.07313,42.894535],[45.073123,42.89538],[45.072333,42.895957],[45.072845,42.897447],[45.071623,42.899027],[45.071965,42.89963],[45.073621,42.900645],[45.074348,42.904467],[45.075178,42.905163],[45.077173,42.905621],[45.078253,42.907226],[45.07978,42.908488],[45.082015,42.909438],[45.082103,42.91097],[45.081547,42.912392],[45.082104,42.912942],[45.081589,42.91328],[45.081227,42.914321],[45.081983,42.914801],[45.082959,42.917548],[45.083399,42.917568],[45.084022,42.918672],[45.084051,42.920189],[45.08553,42.920674],[45.085775,42.92157],[45.086816,42.92183],[45.087206,42.923669],[45.088259,42.924078],[45.089327,42.925213],[45.089921,42.926247],[45.089564,42.927439],[45.091425,42.927582],[45.091928,42.928379],[45.091279,42.931177],[45.091849,42.931788],[45.091048,42.932456],[45.09162,42.93367],[45.093188,42.934178],[45.092518,42.935118],[45.093884,42.936266],[45.094537,42.938295],[45.093851,42.939404],[45.093754,42.940927],[45.092457,42.942109],[45.092057,42.943136],[45.089399,42.944263],[45.088484,42.947265],[45.086915,42.948441],[45.086368,42.950096],[45.084072,42.952503],[45.081216,42.953107],[45.080033,42.954585],[45.080542,42.955579],[45.079963,42.955804],[45.078799,42.955149],[45.077767,42.955758],[45.077881,42.95676],[45.076474,42.957297],[45.076068,42.957875],[45.075528,42.960181],[45.074965,42.960456],[45.074261,42.959921],[45.073739,42.960939],[45.073856,42.963672],[45.072206,42.965615],[45.071627,42.967099],[45.070706,42.96778],[45.071651,42.969656],[45.068585,42.972146],[45.072401,42.974189],[45.073124,42.975512],[45.071555,42.977193],[45.072897,42.977749],[45.073625,42.978695],[45.073026,42.979076],[45.07191,42.97904],[45.071627,42.979909],[45.069952,42.98188],[45.070263,42.98219],[45.069042,42.983066],[45.069406,42.985153],[45.068734,42.986364],[45.069784,42.987173],[45.070009,42.988045],[45.069471,42.98892],[45.069864,42.990394],[45.068981,42.991907],[45.070588,42.9924],[45.070577,42.992938],[45.072154,42.994733],[45.073684,42.995884],[45.073375,42.997632],[45.074241,42.998344],[45.076903,42.998712],[45.077869,43.00391],[45.077801,43.00832],[45.07972,43.009206],[45.081056,43.009012],[45.081486,43.010104],[45.080891,43.011251],[45.080964,43.012019],[45.083136,43.013505],[45.083732,43.014503],[45.083256,43.01577],[45.084287,43.016553],[45.084682,43.016575],[45.08499,43.015825],[45.086131,43.0151],[45.087443,43.015293],[45.086562,43.016672],[45.086656,43.018841],[45.087046,43.01939],[45.088331,43.019675],[45.090179,43.018805],[45.091266,43.019779],[45.093241,43.020357],[45.094721,43.021999],[45.096061,43.021881],[45.096336,43.023748],[45.098379,43.024332],[45.098213,43.025413],[45.099112,43.026414],[45.100457,43.026334],[45.101582,43.025273],[45.102825,43.026291],[45.104353,43.026458],[45.10585,43.028174],[45.108822,43.027294],[45.110273,43.028808],[45.109985,43.029916],[45.111145,43.030946],[45.113968,43.031199],[45.116227,43.032474],[45.118018,43.032325],[45.11834,43.032517],[45.117385,43.033223],[45.117407,43.033795],[45.117965,43.035191],[45.119933,43.03734],[45.119966,43.038344],[45.123104,43.039936],[45.125544,43.039967],[45.125845,43.040802],[45.125309,43.041976],[45.12561,43.04218],[45.127658,43.041335],[45.128318,43.040563],[45.129766,43.041874],[45.12784,43.044168],[45.12806,43.044776],[45.133202,43.044562],[45.133224,43.04513],[45.132167,43.046689],[45.132413,43.047518],[45.135082,43.047418],[45.135377,43.047583],[45.134857,43.048414],[45.135796,43.048865],[45.137306,43.048386],[45.137585,43.048996],[45.13729,43.050235],[45.137681,43.051038],[45.141157,43.052152],[45.142516,43.052144],[45.142514,43.052902],[45.143306,43.053314],[45.143086,43.054515],[45.14462,43.054686],[45.147902,43.057144],[45.149374,43.057548],[45.150816,43.059302],[45.151525,43.059262],[45.151224,43.058172],[45.15186,43.057121],[45.152463,43.057008],[45.15249,43.059112],[45.155183,43.060146],[45.156888,43.061606],[45.155929,43.063275],[45.156684,43.065098],[45.159445,43.066715],[45.162228,43.066721],[45.162019,43.067844],[45.160836,43.069373],[45.162862,43.071258],[45.162844,43.073326],[45.165528,43.073747],[45.165568,43.07455],[45.166517,43.07521],[45.166963,43.076205],[45.169354,43.078071],[45.171963,43.0781],[45.17212,43.078882],[45.171458,43.080135],[45.169598,43.080255],[45.170376,43.080932],[45.171533,43.081012],[45.171686,43.08186],[45.171074,43.081993],[45.171057,43.082538],[45.174859,43.084421],[45.175585,43.084154],[45.175149,43.085792],[45.175451,43.086295],[45.17701,43.086081],[45.178033,43.086508],[45.178007,43.087109],[45.176847,43.088114],[45.177383,43.08909],[45.18036,43.091286],[45.182616,43.091731],[45.182701,43.092519],[45.181911,43.093072],[45.181893,43.093509],[45.183296,43.096063],[45.185544,43.096735],[45.186509,43.097785],[45.187283,43.100101],[45.189636,43.102437],[45.190497,43.102146],[45.18997,43.101296],[45.190821,43.101023],[45.194209,43.102423],[45.194767,43.103216],[45.194477,43.104298],[45.195382,43.105486],[45.194644,43.106323],[45.193341,43.106826],[45.192326,43.108401],[45.192552,43.109387],[45.193409,43.110425],[45.193436,43.111603],[45.193908,43.111682],[45.193727,43.112812],[45.195172,43.117791],[45.193721,43.118722],[45.193517,43.119706],[45.194202,43.120829],[45.193611,43.121007],[45.190838,43.119274],[45.19079,43.122329],[45.190379,43.123275],[45.189618,43.123888],[45.188304,43.124168],[45.176066,43.141385],[45.169357,43.141189],[45.169468,43.141577],[45.17439,43.141609],[45.185056,43.166356],[45.171372,43.166628],[45.165819,43.170608],[45.164445,43.172462],[45.164399,43.174028],[45.164528,43.174704],[45.166216,43.176637],[45.163227,43.177563],[45.159661,43.17688],[45.155629,43.176814],[45.15271,43.174962],[45.148155,43.174307],[45.145494,43.174765],[45.142736,43.173996],[45.138185,43.175644],[45.137639,43.175339],[45.136037,43.177154],[45.138196,43.179806],[45.141235,43.184716],[45.129305,43.191739],[45.126384,43.192984],[45.127484,43.211637],[45.128115,43.213308],[45.126629,43.222622],[45.106459,43.281321],[45.108706,43.306938],[45.09812,43.305344],[45.099564,43.288588],[45.097966,43.286899],[45.095697,43.288269],[45.094614,43.289808],[45.089922,43.291666],[45.089174,43.293242],[45.086467,43.293974],[45.085358,43.294762],[45.077959,43.297483],[45.074917,43.300091],[45.069735,43.30146],[45.059371,43.298496],[45.016924,43.284331],[45.018355,43.296054],[45.018934,43.30853],[44.99954,43.328908],[45.00268,43.330106],[45.006394,43.33018],[45.006455,43.336381],[44.993963,43.354475],[45.000558,43.359502],[45.000164,43.432341],[44.999871,43.439287],[44.999528,43.440316],[44.998842,43.463898],[44.972221,43.469033],[44.972336,43.480148],[44.956525,43.480221],[44.95689,43.521139],[44.953572,43.519976],[44.945751,43.520008],[44.942684,43.519194],[44.935622,43.51903],[44.90609,43.521283],[44.904001,43.511617],[44.902309,43.488478],[44.900054,43.466242],[44.899062,43.467207],[44.895895,43.466697],[44.892763,43.428977],[44.921146,43.340357],[44.928588,43.328659],[44.935804,43.31478],[44.938833,43.30813],[44.939767,43.30782],[44.950751,43.289715],[44.971673,43.288684],[44.978061,43.287961],[44.979295,43.271942],[44.981284,43.256423],[44.98484,43.258542],[44.987541,43.259216],[44.989477,43.259101],[44.990508,43.25861],[44.976729,43.22031],[44.969485,43.197972],[44.963396,43.181169],[44.958331,43.178623],[44.946286,43.168841],[44.945575,43.166782],[44.946529,43.164119],[44.944558,43.163396],[44.947769,43.159487],[44.946756,43.156407],[44.949152,43.152099],[44.943599,43.145963],[44.946789,43.134394],[44.953977,43.126887],[44.948,43.123137],[44.945225,43.120745],[44.941896,43.118591],[44.937588,43.114479],[44.93426,43.11115],[44.933281,43.107625],[44.93191,43.10508],[44.932889,43.100184],[44.944115,43.089355],[44.946195,43.086491],[44.944449,43.081689],[44.939818,43.078598],[44.935043,43.07649],[44.932233,43.073663],[44.930968,43.070046],[44.932786,43.064943],[44.9324,43.063231],[44.937637,43.061381],[44.940424,43.059305],[44.94597,43.057544],[44.947957,43.054838],[44.953887,43.052554],[44.955464,43.050321],[44.957475,43.048967],[44.958836,43.045599],[44.958358,43.043152],[44.960024,43.041069],[44.960431,43.037694],[44.957149,43.037383],[44.956272,43.035901],[44.956413,43.032145],[44.953815,43.031027],[44.946334,43.029322],[44.937588,43.026559],[44.934194,43.02251],[44.932243,43.016166],[44.935252,43.010987],[44.934194,43.001492],[44.934664,42.99961],[44.935723,42.996906],[44.937369,42.9962],[44.937722,42.994436],[44.943837,42.984794],[44.937487,42.984912],[44.925493,42.979503],[44.926199,42.977504],[44.92808,42.977739],[44.930667,42.979621],[44.934782,42.980914],[44.940897,42.980914],[44.941838,42.980326],[44.942073,42.97915],[44.946218,42.979138],[44.947851,42.972806],[44.949809,42.962571],[44.95143,42.95784],[44.953859,42.946579],[44.950657,42.946579],[44.948188,42.947167],[44.947953,42.945991],[44.94713,42.945873],[44.946072,42.946109],[44.943014,42.948225],[44.941015,42.948813],[44.94031,42.948225],[44.940898,42.947637],[44.941956,42.947519],[44.942426,42.946696],[44.942074,42.942698],[44.943014,42.940935],[44.942897,42.939641],[44.935959,42.936114],[44.927611,42.931116],[44.925847,42.930763],[44.905328,42.936994],[44.905318,42.924266],[44.902569,42.922201],[44.894618,42.919878],[44.881718,42.915109],[44.881283,42.905599],[44.880373,42.901734],[44.87885,42.882526],[44.865791,42.884097],[44.863459,42.884805],[44.859931,42.883509],[44.859528,42.88054],[44.862469,42.877555],[44.863881,42.874733],[44.864931,42.8639],[44.868467,42.862268],[44.870055,42.861107],[44.868814,42.858638],[44.865723,42.860607],[44.863087,42.859857],[44.860674,42.860325],[44.856564,42.856686],[44.859631,42.856113],[44.857529,42.852214],[44.859858,42.8471],[44.859564,42.844704],[44.854711,42.839395]]]}},{"type":"Feature","id":"253252-602","properties":{"id":"253252-602","name":"городской округ Назрань","name_ru":"городской округ Назрань","subject_id":"253252","subject_name":"Ингушетия","source_gid":602,"source_fid":702,"names_rosstat":"Городской округ г Назрань","population":127994,"area_km2":105.08496750498877,"density_km2":1218.0048492085575,"source":"Актуализированный объединённый GeoJSON, предоставленный преподавателем","name_en":"Nazran' Urban Okrug","name_zh":"Nazran'城市辖区","subject_name_en":"Ingushetia","subject_name_zh":"印古什共和国"},"geometry":{"type":"Polygon","coordinates":[[[44.68227,43.277312],[44.682319,43.275906],[44.697001,43.270951],[44.717531,43.240701],[44.721951,43.233416],[44.741585,43.205027],[44.738865,43.202823],[44.742688,43.202363],[44.742701,43.199934],[44.745029,43.199287],[44.745868,43.198264],[44.750267,43.192144],[44.748827,43.189635],[44.763021,43.173862],[44.772037,43.159858],[44.781797,43.186952],[44.783241,43.189491],[44.790715,43.197949],[44.791467,43.197846],[44.798841,43.206461],[44.798201,43.206896],[44.800655,43.209778],[44.799005,43.21004],[44.802049,43.2153],[44.80894,43.229242],[44.812931,43.230582],[44.813867,43.232146],[44.814096,43.234986],[44.815625,43.237161],[44.814173,43.241167],[44.815056,43.243532],[44.817413,43.246182],[44.818065,43.247446],[44.809424,43.248415],[44.808329,43.250564],[44.80746,43.249032],[44.805347,43.246938],[44.805679,43.245969],[44.8052,43.244324],[44.802793,43.242897],[44.80053,43.243983],[44.801431,43.245234],[44.801924,43.247516],[44.800873,43.247422],[44.799102,43.247985],[44.797204,43.249204],[44.79681,43.248776],[44.795358,43.24886],[44.795315,43.249188],[44.793792,43.249571],[44.795337,43.251103],[44.7948,43.251423],[44.79642,43.253096],[44.787228,43.258585],[44.781052,43.259129],[44.776501,43.262221],[44.771381,43.272053],[44.767264,43.276901],[44.771165,43.290071],[44.770455,43.2919],[44.772019,43.295151],[44.772371,43.298107],[44.76364,43.313304],[44.760503,43.326447],[44.761432,43.334918],[44.75877,43.343133],[44.759113,43.344362],[44.760272,43.345359],[44.760187,43.348632],[44.761506,43.348849],[44.761513,43.349615],[44.759952,43.350321],[44.758465,43.351732],[44.756897,43.354127],[44.752984,43.363881],[44.745669,43.365127],[44.745762,43.363717],[44.744829,43.360322],[44.738534,43.352199],[44.749416,43.347082],[44.74951,43.344451],[44.724695,43.329839],[44.720371,43.326597],[44.718197,43.325519],[44.699309,43.322341],[44.687281,43.32535],[44.684791,43.302657],[44.686749,43.294433],[44.683616,43.283467],[44.68227,43.277312]]]}},{"type":"Feature","id":"253252-603","properties":{"id":"253252-603","name":"городской округ Малгобек","name_ru":"городской округ Малгобек","subject_id":"253252","subject_name":"Ингушетия","source_gid":603,"source_fid":703,"names_rosstat":"Городской округ г Малгобек","population":38704,"area_km2":100.42211454156703,"density_km2":385.41311519565267,"source":"Актуализированный объединённый GeoJSON, предоставленный преподавателем","name_en":"Malgobek Urban Okrug","name_zh":"Malgobek城市辖区","subject_name_en":"Ingushetia","subject_name_zh":"印古什共和国"},"geometry":{"type":"Polygon","coordinates":[[[44.531649,43.552518],[44.53351,43.55238],[44.534626,43.551665],[44.53254,43.551439],[44.534214,43.548636],[44.534054,43.543971],[44.534708,43.541173],[44.535709,43.54076],[44.541359,43.541249],[44.543151,43.540068],[44.546254,43.540053],[44.5522,43.539099],[44.55342,43.538416],[44.55461,43.536131],[44.557603,43.533901],[44.553093,43.528829],[44.553075,43.526851],[44.552588,43.525413],[44.552991,43.519563],[44.552414,43.517899],[44.550855,43.515488],[44.543197,43.519525],[44.541976,43.520047],[44.541117,43.51989],[44.538792,43.519256],[44.537764,43.516671],[44.537431,43.51248],[44.552992,43.511758],[44.553082,43.505631],[44.559826,43.505156],[44.564567,43.502047],[44.563535,43.497553],[44.563616,43.496026],[44.565365,43.495158],[44.568142,43.487263],[44.577234,43.485954],[44.577799,43.488509],[44.579516,43.488235],[44.58272,43.499941],[44.584649,43.499748],[44.585508,43.502686],[44.604066,43.496577],[44.622323,43.48796],[44.622442,43.504178],[44.627214,43.505033],[44.628625,43.504423],[44.630137,43.504909],[44.632789,43.504357],[44.640636,43.506161],[44.642356,43.506828],[44.644131,43.508441],[44.64638,43.508815],[44.653421,43.507086],[44.656961,43.508001],[44.659649,43.509318],[44.661946,43.509777],[44.666577,43.509406],[44.669455,43.507937],[44.674213,43.506801],[44.678809,43.507117],[44.680458,43.507925],[44.684866,43.508532],[44.6873,43.508259],[44.691411,43.506137],[44.700469,43.505361],[44.700597,43.47998],[44.735915,43.479887],[44.735854,43.501736],[44.728788,43.502352],[44.724084,43.503878],[44.711721,43.503989],[44.711726,43.510535],[44.705966,43.51055],[44.710356,43.514521],[44.711725,43.51533],[44.711793,43.51979],[44.718324,43.51991],[44.719582,43.512828],[44.72366,43.512953],[44.723671,43.511405],[44.725901,43.510208],[44.728859,43.510532],[44.733938,43.510349],[44.737204,43.511768],[44.73719,43.51295],[44.739761,43.513041],[44.746015,43.514719],[44.745222,43.518616],[44.745461,43.523484],[44.746592,43.525347],[44.747459,43.528501],[44.742703,43.532134],[44.741809,43.533871],[44.740142,43.535226],[44.739705,43.536916],[44.739888,43.537516],[44.740739,43.538081],[44.740983,43.541018],[44.742103,43.5432],[44.744188,43.544476],[44.74898,43.545938],[44.748293,43.546523],[44.747261,43.546713],[44.740553,43.546843],[44.737659,43.548271],[44.736756,43.548105],[44.735563,43.548478],[44.735044,43.549535],[44.7352,43.5502],[44.736432,43.551805],[44.733088,43.552644],[44.731652,43.553674],[44.731211,43.555096],[44.731791,43.556533],[44.731473,43.557126],[44.733117,43.558577],[44.73377,43.560013],[44.733263,43.560812],[44.733876,43.562571],[44.736039,43.56533],[44.733314,43.567599],[44.73146,43.565618],[44.702505,43.55987],[44.705925,43.5517],[44.698609,43.547919],[44.684392,43.547965],[44.675587,43.550835],[44.669085,43.550938],[44.663353,43.548543],[44.654681,43.542144],[44.651809,43.541688],[44.648705,43.541663],[44.64328,43.542834],[44.640761,43.543509],[44.633804,43.546608],[44.628114,43.548016],[44.62187,43.54732],[44.62585,43.57142],[44.58481,43.565624],[44.574367,43.565055],[44.574445,43.566967],[44.573351,43.566952],[44.572542,43.556744],[44.557107,43.556435],[44.556862,43.558586],[44.547042,43.558119],[44.547139,43.555732],[44.532298,43.555675],[44.531649,43.552518]]]}},{"type":"Feature","id":"253252-605","properties":{"id":"253252-605","name":"Назрановский район","name_ru":"Назрановский район","subject_id":"253252","subject_name":"Ингушетия","source_gid":605,"source_fid":705,"names_rosstat":"Муниципальный район Назрановский","population":112346,"area_km2":522.2061114691645,"density_km2":215.1372753641813,"source":"Актуализированный объединённый GeoJSON, предоставленный преподавателем","name_en":"Nazranovskii District","name_zh":"Nazranovskii区","subject_name_en":"Ingushetia","subject_name_zh":"印古什共和国"},"geometry":{"type":"Polygon","coordinates":[[[44.570721,43.236097],[44.57892,43.233734],[44.588685,43.231844],[44.596776,43.228518],[44.606771,43.226283],[44.609377,43.226578],[44.614767,43.223109],[44.617118,43.222403],[44.619823,43.222756],[44.619823,43.22158],[44.620764,43.220757],[44.621822,43.222521],[44.624174,43.222991],[44.623586,43.221933],[44.623939,43.220404],[44.625653,43.220106],[44.627584,43.220992],[44.628642,43.22111],[44.630171,43.22064],[44.632405,43.221933],[44.63311,43.221227],[44.635344,43.220992],[44.634639,43.219934],[44.634639,43.218758],[44.635932,43.218523],[44.637461,43.220169],[44.644516,43.220993],[44.643105,43.219111],[44.642752,43.217582],[44.643928,43.216995],[44.645339,43.217582],[44.645574,43.218876],[44.649337,43.219581],[44.653688,43.219464],[44.654276,43.218171],[44.656039,43.218171],[44.65992,43.21676],[44.659097,43.215466],[44.65945,43.214996],[44.661213,43.215466],[44.662389,43.216289],[44.663095,43.213702],[44.664271,43.21382],[44.665094,43.214761],[44.665329,43.215936],[44.66627,43.215819],[44.667798,43.214643],[44.671032,43.214878],[44.670679,43.213232],[44.671973,43.212762],[44.674324,43.213467],[44.674854,43.210787],[44.675735,43.210252],[44.677734,43.209705],[44.681201,43.210885],[44.681987,43.233699],[44.668721,43.234416],[44.669618,43.278164],[44.680317,43.27823],[44.68227,43.277312],[44.683616,43.283467],[44.686749,43.294433],[44.684791,43.302657],[44.687281,43.32535],[44.699309,43.322341],[44.718197,43.325519],[44.720371,43.326597],[44.724695,43.329839],[44.74951,43.344451],[44.749416,43.347082],[44.738534,43.352199],[44.744829,43.360322],[44.745762,43.363717],[44.745669,43.365127],[44.752984,43.363881],[44.756897,43.354127],[44.758465,43.351732],[44.759952,43.350321],[44.761513,43.349615],[44.761506,43.348849],[44.760187,43.348632],[44.760272,43.345359],[44.759113,43.344362],[44.75877,43.343133],[44.761432,43.334918],[44.760503,43.326447],[44.76364,43.313304],[44.772371,43.298107],[44.772019,43.295151],[44.770455,43.2919],[44.771165,43.290071],[44.767264,43.276901],[44.771381,43.272053],[44.776501,43.262221],[44.781052,43.259129],[44.787228,43.258585],[44.79642,43.253096],[44.7948,43.251423],[44.795337,43.251103],[44.793792,43.249571],[44.795315,43.249188],[44.795358,43.24886],[44.79681,43.248776],[44.797204,43.249204],[44.799102,43.247985],[44.800873,43.247422],[44.801924,43.247516],[44.801431,43.245234],[44.80053,43.243983],[44.802793,43.242897],[44.8052,43.244324],[44.805679,43.245969],[44.805347,43.246938],[44.80746,43.249032],[44.808329,43.250564],[44.809424,43.248415],[44.818065,43.247446],[44.817413,43.246182],[44.815056,43.243532],[44.814173,43.241167],[44.815625,43.237161],[44.814096,43.234986],[44.813867,43.232146],[44.812931,43.230582],[44.80894,43.229242],[44.802049,43.2153],[44.799005,43.21004],[44.800655,43.209778],[44.798201,43.206896],[44.798841,43.206461],[44.791467,43.197846],[44.790715,43.197949],[44.783241,43.189491],[44.781797,43.186952],[44.772037,43.159858],[44.773407,43.157729],[44.796256,43.165436],[44.796021,43.167512],[44.797529,43.173667],[44.798426,43.176611],[44.799735,43.178104],[44.800103,43.180117],[44.799889,43.184256],[44.800883,43.187186],[44.800465,43.189169],[44.809531,43.18915],[44.815253,43.190372],[44.81691,43.194069],[44.821467,43.190765],[44.824254,43.189514],[44.838621,43.172722],[44.837572,43.172167],[44.835034,43.15786],[44.831773,43.150214],[44.800767,43.151841],[44.800613,43.149972],[44.79979,43.149267],[44.798251,43.146351],[44.807551,43.145739],[44.831421,43.13986],[44.84365,43.133863],[44.845179,43.132452],[44.842121,43.131159],[44.842121,43.130101],[44.844826,43.125397],[44.846708,43.119636],[44.840358,43.119165],[44.835419,43.120223],[44.834126,43.118695],[44.843886,43.113051],[44.847178,43.111757],[44.851646,43.108935],[44.855233,43.107465],[44.86622,43.105108],[44.870542,43.098236],[44.88851,43.097236],[44.894188,43.096135],[44.897035,43.09785],[44.898544,43.097717],[44.901748,43.096072],[44.905511,43.090428],[44.908617,43.088064],[44.909558,43.086418],[44.909368,43.084954],[44.910102,43.08292],[44.914512,43.078884],[44.91822,43.07934],[44.921276,43.077432],[44.921277,43.075694],[44.921983,43.074283],[44.927905,43.071891],[44.931195,43.071261],[44.932233,43.073663],[44.935043,43.07649],[44.939818,43.078598],[44.944449,43.081689],[44.946195,43.086491],[44.944115,43.089355],[44.932889,43.100184],[44.93191,43.10508],[44.933281,43.107625],[44.93426,43.11115],[44.941896,43.118591],[44.945225,43.120745],[44.948,43.123137],[44.953977,43.126887],[44.946789,43.134394],[44.943599,43.145963],[44.949152,43.152099],[44.946756,43.156407],[44.947769,43.159487],[44.944558,43.163396],[44.946529,43.164119],[44.945575,43.166782],[44.946286,43.168841],[44.958331,43.178623],[44.963396,43.181169],[44.969485,43.197972],[44.976729,43.22031],[44.990508,43.25861],[44.989477,43.259101],[44.987541,43.259216],[44.98484,43.258542],[44.981284,43.256423],[44.979295,43.271942],[44.978061,43.287961],[44.971673,43.288684],[44.950751,43.289715],[44.940873,43.306087],[44.939146,43.308183],[44.938833,43.30813],[44.937694,43.305211],[44.938034,43.304116],[44.937197,43.303636],[44.93011,43.303506],[44.926903,43.300145],[44.925584,43.300347],[44.902439,43.292469],[44.887607,43.28913],[44.878456,43.288711],[44.86921,43.29087],[44.869467,43.29273],[44.867152,43.29782],[44.86503,43.305042],[44.865291,43.306583],[44.858937,43.328773],[44.858738,43.337771],[44.856369,43.360875],[44.855236,43.365934],[44.853627,43.367809],[44.851912,43.368564],[44.842197,43.385598],[44.844569,43.390055],[44.844078,43.392076],[44.844467,43.393489],[44.84348,43.39644],[44.836156,43.408789],[44.83371,43.411172],[44.829454,43.423181],[44.826909,43.426975],[44.800549,43.406929],[44.79621,43.403111],[44.785166,43.395229],[44.768663,43.392438],[44.766652,43.388588],[44.750606,43.382403],[44.7475,43.386702],[44.7425,43.384693],[44.739587,43.374682],[44.739815,43.369084],[44.744552,43.365618],[44.742198,43.363795],[44.741523,43.361439],[44.737701,43.356966],[44.733872,43.349917],[44.737838,43.348846],[44.746196,43.345675],[44.731464,43.337275],[44.717319,43.327804],[44.699229,43.324868],[44.656511,43.337685],[44.626142,43.339173],[44.626461,43.353813],[44.626282,43.357946],[44.62506,43.36556],[44.62051,43.368175],[44.623674,43.369992],[44.61294,43.38237],[44.615522,43.385511],[44.617473,43.386472],[44.624087,43.384994],[44.631873,43.393245],[44.631255,43.394446],[44.625118,43.398819],[44.632334,43.403899],[44.633196,43.412956],[44.632651,43.41695],[44.62988,43.418525],[44.627283,43.418378],[44.625476,43.417647],[44.62332,43.418702],[44.622315,43.418535],[44.617415,43.415359],[44.612335,43.414592],[44.607865,43.414578],[44.601782,43.4136],[44.598086,43.413991],[44.596202,43.414615],[44.587764,43.414273],[44.583461,43.414596],[44.577704,43.413603],[44.57535,43.341488],[44.57338,43.308791],[44.573146,43.272015],[44.570721,43.236097]]]}},{"type":"Feature","id":"253252-606","properties":{"id":"253252-606","name":"Малгобекский район","name_ru":"Малгобекский район","subject_id":"253252","subject_name":"Ингушетия","source_gid":606,"source_fid":706,"names_rosstat":"Муниципальный район Малгобекский","population":62194,"area_km2":568.2252955302386,"density_km2":109.45306463691266,"source":"Актуализированный объединённый GeoJSON, предоставленный преподавателем","name_en":"Malgobekskii District","name_zh":"Malgobekskii区","subject_name_en":"Ingushetia","subject_name_zh":"印古什共和国"},"geometry":{"type":"Polygon","coordinates":[[[44.478436,43.467693],[44.479337,43.465029],[44.480988,43.465703],[44.480498,43.463451],[44.482262,43.461705],[44.484815,43.461364],[44.482216,43.460329],[44.481498,43.458164],[44.48286,43.453538],[44.481681,43.452698],[44.483186,43.45187],[44.486262,43.448247],[44.491609,43.448298],[44.49015,43.444827],[44.493314,43.442878],[44.491604,43.440762],[44.491231,43.43886],[44.492245,43.437969],[44.488745,43.436292],[44.489596,43.434471],[44.493482,43.430525],[44.51247,43.405754],[44.515142,43.410784],[44.519777,43.412109],[44.525635,43.414806],[44.530356,43.412546],[44.533853,43.416972],[44.544067,43.41691],[44.549809,43.417365],[44.553139,43.415826],[44.555569,43.415448],[44.557346,43.416257],[44.557403,43.417622],[44.557836,43.418146],[44.56084,43.419238],[44.56199,43.419265],[44.566047,43.417825],[44.569685,43.417323],[44.571726,43.416597],[44.572983,43.414442],[44.576488,43.414124],[44.577704,43.413603],[44.583461,43.414596],[44.587764,43.414273],[44.596202,43.414615],[44.598086,43.413991],[44.601782,43.4136],[44.607865,43.414578],[44.612335,43.414592],[44.617415,43.415359],[44.622315,43.418535],[44.62332,43.418702],[44.625476,43.417647],[44.627283,43.418378],[44.62988,43.418525],[44.632651,43.41695],[44.633196,43.412956],[44.632334,43.403899],[44.625118,43.398819],[44.631255,43.394446],[44.631873,43.393245],[44.624087,43.384994],[44.617473,43.386472],[44.615522,43.385511],[44.61294,43.38237],[44.623674,43.369992],[44.62051,43.368175],[44.62506,43.36556],[44.626282,43.357946],[44.626461,43.353813],[44.626142,43.339173],[44.656511,43.337685],[44.699229,43.324868],[44.717319,43.327804],[44.731464,43.337275],[44.746196,43.345675],[44.737838,43.348846],[44.733872,43.349917],[44.737701,43.356966],[44.741523,43.361439],[44.742198,43.363795],[44.744552,43.365618],[44.739815,43.369084],[44.739587,43.374682],[44.7425,43.384693],[44.7475,43.386702],[44.750606,43.382403],[44.766652,43.388588],[44.768663,43.392438],[44.785166,43.395229],[44.79621,43.403111],[44.800549,43.406929],[44.826909,43.426975],[44.825539,43.42822],[44.823586,43.431753],[44.881746,43.431922],[44.880373,43.460048],[44.877317,43.461998],[44.878425,43.470906],[44.879658,43.47361],[44.883843,43.471955],[44.883922,43.468512],[44.890458,43.46692],[44.895895,43.466697],[44.899062,43.467207],[44.900054,43.466242],[44.902309,43.488478],[44.904001,43.511617],[44.905997,43.519714],[44.899464,43.521747],[44.894745,43.52375],[44.882844,43.530692],[44.879022,43.531672],[44.873775,43.533746],[44.870902,43.535809],[44.86869,43.538765],[44.867115,43.540047],[44.862375,43.547127],[44.861269,43.548243],[44.860325,43.548511],[44.860019,43.549162],[44.859974,43.550119],[44.86107,43.551386],[44.864014,43.553228],[44.860842,43.563784],[44.847401,43.564661],[44.827732,43.553176],[44.815627,43.55479],[44.811992,43.558285],[44.800154,43.558237],[44.801129,43.555762],[44.792769,43.555693],[44.789316,43.557122],[44.798945,43.569757],[44.797611,43.581293],[44.802461,43.581922],[44.802416,43.587057],[44.798195,43.587065],[44.799545,43.590245],[44.798957,43.592714],[44.795215,43.596742],[44.695502,43.594965],[44.701772,43.570388],[44.702505,43.55987],[44.73146,43.565618],[44.733314,43.567599],[44.736039,43.56533],[44.733876,43.562571],[44.733263,43.560812],[44.73377,43.560013],[44.733117,43.558577],[44.731473,43.557126],[44.731791,43.556533],[44.731211,43.555096],[44.731652,43.553674],[44.733088,43.552644],[44.736432,43.551805],[44.7352,43.5502],[44.735044,43.549535],[44.735563,43.548478],[44.736756,43.548105],[44.737659,43.548271],[44.740553,43.546843],[44.747261,43.546713],[44.748293,43.546523],[44.74898,43.545938],[44.744188,43.544476],[44.742103,43.5432],[44.740983,43.541018],[44.740739,43.538081],[44.739888,43.537516],[44.739705,43.536916],[44.740142,43.535226],[44.741809,43.533871],[44.742703,43.532134],[44.747459,43.528501],[44.746592,43.525347],[44.745461,43.523484],[44.745222,43.518616],[44.746015,43.514719],[44.739761,43.513041],[44.73719,43.51295],[44.737204,43.511768],[44.733938,43.510349],[44.728859,43.510532],[44.725901,43.510208],[44.723671,43.511405],[44.72366,43.512953],[44.719582,43.512828],[44.718324,43.51991],[44.711793,43.51979],[44.711725,43.51533],[44.710356,43.514521],[44.705966,43.51055],[44.711726,43.510535],[44.711721,43.503989],[44.724084,43.503878],[44.728788,43.502352],[44.735854,43.501736],[44.735915,43.479887],[44.700597,43.47998],[44.700469,43.505361],[44.691411,43.506137],[44.6873,43.508259],[44.684866,43.508532],[44.680458,43.507925],[44.678809,43.507117],[44.674213,43.506801],[44.669455,43.507937],[44.666577,43.509406],[44.661946,43.509777],[44.659649,43.509318],[44.656961,43.508001],[44.653421,43.507086],[44.64638,43.508815],[44.644131,43.508441],[44.642356,43.506828],[44.640636,43.506161],[44.632789,43.504357],[44.630137,43.504909],[44.628625,43.504423],[44.627214,43.505033],[44.622442,43.504178],[44.622323,43.48796],[44.604066,43.496577],[44.585508,43.502686],[44.584649,43.499748],[44.58272,43.499941],[44.579516,43.488235],[44.577799,43.488509],[44.577234,43.485954],[44.568142,43.487263],[44.565365,43.495158],[44.563616,43.496026],[44.563535,43.497553],[44.564567,43.502047],[44.559826,43.505156],[44.553082,43.505631],[44.552992,43.511758],[44.537431,43.51248],[44.537764,43.516671],[44.538792,43.519256],[44.541117,43.51989],[44.541976,43.520047],[44.543197,43.519525],[44.550855,43.515488],[44.552414,43.517899],[44.552991,43.519563],[44.552588,43.525413],[44.553075,43.526851],[44.553093,43.528829],[44.557603,43.533901],[44.55461,43.536131],[44.55342,43.538416],[44.5522,43.539099],[44.546254,43.540053],[44.543151,43.540068],[44.541359,43.541249],[44.535709,43.54076],[44.534708,43.541173],[44.534054,43.543971],[44.534214,43.548636],[44.53254,43.551439],[44.534626,43.551665],[44.53351,43.55238],[44.531649,43.552518],[44.532298,43.555675],[44.547139,43.555732],[44.547042,43.558119],[44.556862,43.558586],[44.557107,43.556435],[44.572542,43.556744],[44.573351,43.566952],[44.574445,43.566967],[44.574367,43.565055],[44.58481,43.565624],[44.62585,43.57142],[44.630559,43.604306],[44.631067,43.614089],[44.58295,43.604304],[44.537151,43.594467],[44.503346,43.587919],[44.500061,43.561494],[44.507492,43.542611],[44.500231,43.528801],[44.482697,43.517597],[44.480739,43.515844],[44.480817,43.51294],[44.48301,43.510446],[44.482579,43.509155],[44.485004,43.504542],[44.483495,43.501722],[44.485631,43.499342],[44.489135,43.499331],[44.490516,43.498004],[44.489552,43.495349],[44.490897,43.493938],[44.491778,43.492094],[44.492194,43.489416],[44.491131,43.488418],[44.490339,43.486619],[44.488879,43.485962],[44.488073,43.484953],[44.493923,43.479832],[44.491634,43.477366],[44.49706,43.475792],[44.494609,43.473269],[44.482412,43.475518],[44.481705,43.470538],[44.478436,43.467693]]]}},{"type":"Feature","id":"253252-607","properties":{"id":"253252-607","name":"Джейрахский район","name_ru":"Джейрахский район","subject_id":"253252","subject_name":"Ингушетия","source_gid":607,"source_fid":707,"names_rosstat":"Муниципальный район Джейрахский","population":4262,"area_km2":619.1101141588275,"density_km2":6.884074258406671,"source":"Актуализированный объединённый GeoJSON, предоставленный преподавателем","name_en":"Dzheirakhskii District","name_zh":"Dzheirakhskii区","subject_name_en":"Ingushetia","subject_name_zh":"印古什共和国"},"geometry":{"type":"Polygon","coordinates":[[[44.631622,42.889869],[44.631969,42.886269],[44.631735,42.884182],[44.633697,42.877254],[44.63981,42.868253],[44.644299,42.863526],[44.647892,42.858971],[44.648108,42.857923],[44.647287,42.853388],[44.647767,42.851785],[44.647728,42.84758],[44.646508,42.844795],[44.647586,42.842955],[44.65446,42.841747],[44.662796,42.835024],[44.663918,42.832886],[44.666215,42.831799],[44.664887,42.828772],[44.664204,42.824631],[44.66047,42.816457],[44.658577,42.811263],[44.662174,42.806926],[44.663163,42.803267],[44.668001,42.797575],[44.667839,42.784082],[44.668707,42.77858],[44.668001,42.775367],[44.666699,42.773231],[44.678349,42.765261],[44.680169,42.756602],[44.679969,42.75591],[44.681247,42.754695],[44.687545,42.753083],[44.687958,42.751574],[44.689862,42.749764],[44.690954,42.747379],[44.695444,42.744206],[44.698468,42.742506],[44.705685,42.741761],[44.714347,42.74201],[44.715028,42.738865],[44.718011,42.735848],[44.72559,42.732353],[44.728108,42.729638],[44.730039,42.728546],[44.741342,42.727412],[44.743287,42.723397],[44.746536,42.721129],[44.748401,42.717721],[44.752849,42.714098],[44.752199,42.710896],[44.746985,42.704848],[44.744617,42.700113],[44.746014,42.697728],[44.746505,42.690791],[44.747443,42.687722],[44.749142,42.686816],[44.752239,42.683525],[44.755496,42.6783],[44.757208,42.674095],[44.757302,42.672345],[44.754524,42.668663],[44.756869,42.66455],[44.758944,42.663749],[44.761112,42.661024],[44.763749,42.656367],[44.76427,42.654742],[44.763761,42.653068],[44.763921,42.651547],[44.766573,42.642795],[44.767476,42.641407],[44.771044,42.641895],[44.773511,42.641217],[44.777525,42.638723],[44.779231,42.635655],[44.785094,42.632709],[44.787878,42.629302],[44.789436,42.625449],[44.792828,42.622942],[44.794222,42.620628],[44.800397,42.615748],[44.803788,42.61473],[44.810868,42.615879],[44.814117,42.615284],[44.817797,42.616118],[44.823493,42.616582],[44.827336,42.61571],[44.829035,42.617159],[44.828945,42.618332],[44.827293,42.620669],[44.826102,42.62541],[44.826429,42.628425],[44.825764,42.629432],[44.823806,42.630719],[44.823618,42.632037],[44.822626,42.633288],[44.823028,42.635679],[44.82372,42.637116],[44.823672,42.639661],[44.822937,42.641287],[44.827014,42.64311],[44.828939,42.644791],[44.829884,42.646239],[44.830356,42.650216],[44.831278,42.652316],[44.831193,42.653925],[44.831694,42.656097],[44.833269,42.659875],[44.833985,42.663928],[44.835377,42.664866],[44.8369,42.666947],[44.836586,42.668689],[44.835355,42.670998],[44.835597,42.673656],[44.836541,42.674579],[44.839363,42.675065],[44.840473,42.675057],[44.844308,42.673593],[44.845977,42.673601],[44.848412,42.674765],[44.8564,42.676768],[44.857022,42.677624],[44.8564,42.678579],[44.85633,42.679679],[44.859243,42.682242],[44.859415,42.68363],[44.860954,42.686426],[44.865058,42.688295],[44.866729,42.69045],[44.86899,42.691438],[44.868416,42.69402],[44.867418,42.69432],[44.867252,42.694959],[44.868465,42.696599],[44.86855,42.699217],[44.867102,42.700009],[44.86707,42.70064],[44.864109,42.703715],[44.863905,42.704476],[44.864586,42.705367],[44.867821,42.707661],[44.870433,42.711555],[44.869832,42.713766],[44.87016,42.715733],[44.868534,42.720388],[44.869382,42.724971],[44.870632,42.728072],[44.8748,42.730114],[44.876254,42.731268],[44.876205,42.731647],[44.87554,42.731903],[44.879164,42.7338],[44.881124,42.739338],[44.882573,42.74104],[44.884161,42.742103],[44.886156,42.746792],[44.888777,42.746981],[44.892926,42.748296],[44.89637,42.748084],[44.905447,42.748919],[44.907163,42.74925],[44.909545,42.750743],[44.910972,42.749805],[44.921165,42.747812],[44.924936,42.749143],[44.926078,42.750424],[44.936786,42.750219],[44.946011,42.75093],[44.957518,42.748804],[44.961708,42.748557],[44.966906,42.748994],[44.970799,42.748129],[44.979751,42.744936],[44.982066,42.741638],[44.983301,42.738568],[44.983148,42.736634],[44.984691,42.735497],[44.987987,42.734462],[44.994387,42.730181],[44.99472,42.727082],[44.996417,42.723329],[45.000914,42.721026],[45.005839,42.715364],[45.01092,42.712798],[45.016433,42.71232],[45.020091,42.71002],[45.020606,42.708324],[45.029402,42.704364],[45.031653,42.70217],[45.032466,42.700717],[45.031586,42.698131],[45.031978,42.69587],[45.034745,42.692732],[45.042644,42.692121],[45.051266,42.692517],[45.055779,42.695067],[45.058879,42.695253],[45.060703,42.695983],[45.063247,42.695577],[45.065593,42.696531],[45.069506,42.699832],[45.070247,42.702214],[45.069564,42.703112],[45.071381,42.705009],[45.074721,42.706771],[45.078762,42.707398],[45.080165,42.709878],[45.083926,42.710379],[45.086613,42.711754],[45.087856,42.712806],[45.088651,42.715951],[45.088344,42.716541],[45.086759,42.717268],[45.085772,42.71827],[45.085119,42.720307],[45.087955,42.723087],[45.086946,42.724367],[45.088713,42.725885],[45.091567,42.730805],[45.093387,42.731348],[45.093722,42.73185],[45.096443,42.733016],[45.097172,42.73379],[45.098719,42.734247],[45.100502,42.735558],[45.101791,42.737478],[45.1044,42.738174],[45.108273,42.74007],[45.109544,42.74132],[45.109643,42.741905],[45.110733,42.742475],[45.112318,42.744278],[45.113782,42.747009],[45.113897,42.748155],[45.11647,42.750865],[45.120179,42.751273],[45.123909,42.752542],[45.126986,42.755591],[45.132639,42.758707],[45.138068,42.763335],[45.143462,42.763912],[45.14362,42.7668],[45.144671,42.769554],[45.144736,42.770648],[45.144193,42.771528],[45.144486,42.773382],[45.146314,42.775683],[45.147953,42.776986],[45.153356,42.779024],[45.156126,42.782689],[45.157919,42.782787],[45.161681,42.780692],[45.164929,42.779819],[45.171391,42.780271],[45.171824,42.780808],[45.172232,42.783549],[45.175072,42.78558],[45.175783,42.788868],[45.177165,42.79185],[45.177993,42.792669],[45.179244,42.796045],[45.181532,42.798467],[45.183359,42.799776],[45.194232,42.804844],[45.19484,42.807747],[45.193901,42.811965],[45.193458,42.816392],[45.193813,42.817846],[45.193542,42.819648],[45.194208,42.823108],[45.192004,42.824544],[45.189807,42.825297],[45.188916,42.824944],[45.185788,42.824874],[45.183486,42.824142],[45.181954,42.822923],[45.180364,42.822819],[45.179625,42.825401],[45.176881,42.826389],[45.176713,42.826973],[45.177056,42.827369],[45.176284,42.828314],[45.175146,42.828282],[45.174763,42.828977],[45.174075,42.829227],[45.173023,42.828837],[45.171264,42.82913],[45.169404,42.830233],[45.169168,42.831458],[45.163136,42.833704],[45.160923,42.833209],[45.156137,42.833614],[45.153197,42.834849],[45.135918,42.835605],[45.124741,42.838177],[45.111573,42.838369],[45.09566,42.839888],[45.081262,42.842694],[45.068013,42.843225],[45.058465,42.844529],[45.038752,42.845187],[45.021988,42.846919],[45.011025,42.848524],[45.001863,42.847214],[44.99635,42.847757],[44.99125,42.848907],[44.975777,42.85124],[44.970807,42.85156],[44.96955,42.852244],[44.964169,42.851758],[44.960552,42.853139],[44.956893,42.853752],[44.953311,42.852571],[44.951595,42.852692],[44.950172,42.853343],[44.940332,42.853951],[44.939076,42.855037],[44.931024,42.85069],[44.925216,42.851982],[44.923048,42.851711],[44.922588,42.84702],[44.917159,42.845765],[44.906753,42.844639],[44.901192,42.845256],[44.895459,42.845157],[44.879903,42.840981],[44.877963,42.840166],[44.873905,42.840293],[44.867708,42.842103],[44.864973,42.841525],[44.863709,42.840534],[44.858064,42.84058],[44.854711,42.839395],[44.855068,42.838237],[44.854827,42.836752],[44.853651,42.835576],[44.830134,42.840044],[44.828018,42.842514],[44.824372,42.844865],[44.816494,42.848275],[44.812658,42.851368],[44.810034,42.85493],[44.807918,42.855063],[44.805793,42.856506],[44.802971,42.857241],[44.795798,42.860386],[44.790207,42.858313],[44.783753,42.859866],[44.777044,42.859798],[44.773398,42.855212],[44.766696,42.850744],[44.754391,42.849899],[44.753472,42.84332],[44.750836,42.842615],[44.740827,42.846393],[44.739118,42.848817],[44.736908,42.849572],[44.73389,42.852037],[44.724093,42.852596],[44.716536,42.855407],[44.706916,42.85689],[44.704999,42.857002],[44.702797,42.856581],[44.701882,42.85706],[44.700513,42.859648],[44.701999,42.863277],[44.703621,42.863705],[44.704157,42.864471],[44.70278,42.865234],[44.703674,42.866348],[44.701686,42.867934],[44.696983,42.86782],[44.693849,42.866067],[44.687441,42.867461],[44.681591,42.86926],[44.67898,42.868978],[44.67454,42.870229],[44.673564,42.873077],[44.663866,42.878641],[44.652601,42.881398],[44.648968,42.881702],[44.64701,42.88114],[44.640789,42.88524],[44.640269,42.887851],[44.637103,42.89069],[44.634543,42.891703],[44.631861,42.891994],[44.631622,42.889869]]]}}],"metadata":{"source_en":"Updated consolidated GeoJSON supplied by the instructor","source_zh":"教师提供的更新版合并GeoJSON","license_en":"Source-dataset terms were not specified; use within the author-created educational platform","license_zh":"原始数据集未注明许可条款；仅用于本作者教育平台"}}