{"type":"FeatureCollection","features":[{"type":"Feature","id":"3-17","properties":{"id":"3-17","name":"Пологовский район","name_ru":"Пологовский район","subject_id":"3","subject_name":"Запорожская область","source_gid":17,"source_fid":17,"names_rosstat":"","population":-1,"area_km2":6766.769289110032,"density_km2":-1.0,"source":"Актуализированный объединённый GeoJSON, предоставленный преподавателем","name_en":"Pologovskii District","name_zh":"Pologovskii区","subject_name_en":"Zaporozhye Oblast","subject_name_zh":"扎波罗热州"},"geometry":{"type":"Polygon","coordinates":[[[37.195971,47.478932],[37.190435,47.471769],[37.189947,47.469151],[37.206741,47.468718],[37.208277,47.466921],[37.211692,47.466662],[37.211478,47.468817],[37.213612,47.469498],[37.232792,47.468522],[37.245167,47.469181],[37.239552,47.459727],[37.248629,47.457234],[37.236753,47.436841],[37.232006,47.437834],[37.194574,47.373356],[37.20342,47.355756],[37.16198,47.341438],[37.146039,47.381105],[37.106553,47.375957],[37.122177,47.340373],[37.09227,47.330075],[37.095144,47.325968],[37.0832,47.321787],[37.084169,47.319968],[37.082564,47.319269],[37.082898,47.317637],[37.08052,47.317427],[37.083701,47.314719],[37.062753,47.309018],[37.036127,47.299984],[37.034758,47.301167],[37.035891,47.304059],[37.033964,47.309015],[37.032201,47.308741],[37.028912,47.310818],[37.026456,47.314784],[36.9466,47.310995],[36.944227,47.320636],[36.926022,47.319416],[36.928821,47.307916],[36.934867,47.293329],[36.941884,47.257262],[36.949167,47.228342],[36.955699,47.229027],[36.962581,47.201662],[36.931331,47.200565],[36.930851,47.20698],[36.894083,47.205907],[36.891762,47.200004],[36.854771,47.199156],[36.84588,47.196427],[36.845329,47.197243],[36.83487,47.197597],[36.813837,47.196532],[36.813919,47.194986],[36.786156,47.195355],[36.786033,47.196919],[36.790006,47.202241],[36.677607,47.197918],[36.677266,47.196611],[36.680003,47.193061],[36.683123,47.191338],[36.662375,47.189786],[36.668814,47.144922],[36.49037,47.116126],[36.482212,47.178974],[36.402238,47.174906],[36.447127,47.220907],[36.433674,47.260269],[36.433737,47.262537],[36.370145,47.295471],[36.362264,47.295233],[36.346402,47.263221],[36.32875,47.263839],[36.324621,47.267512],[36.319707,47.266958],[36.315843,47.268389],[36.314175,47.270786],[36.314606,47.274704],[36.271517,47.28351],[36.271176,47.278703],[36.262473,47.27821],[36.260926,47.283771],[36.238612,47.281864],[36.220378,47.277425],[36.188731,47.28225],[36.180175,47.293178],[36.192196,47.297643],[36.170108,47.327603],[36.163898,47.325907],[36.104992,47.341127],[36.017393,47.337236],[36.000278,47.34164],[35.975446,47.317396],[35.979051,47.311839],[35.968575,47.301684],[35.973482,47.284435],[35.976509,47.279244],[35.978142,47.279508],[35.995533,47.249362],[35.997593,47.251605],[36.007807,47.245313],[35.997035,47.215122],[35.997636,47.197337],[35.833227,47.194013],[35.837037,47.164584],[35.85138,47.155389],[35.85334,47.142413],[35.865601,47.143369],[35.86786,47.129162],[35.856723,47.128242],[35.861081,47.084326],[35.917094,47.087587],[35.922039,47.042642],[35.913996,47.028248],[35.922114,47.02588],[35.921794,47.010506],[35.883212,47.006697],[35.885858,46.992455],[35.861361,46.990187],[35.857971,47.004508],[35.763959,46.995938],[35.762196,46.999138],[35.72178,46.995633],[35.722529,46.990228],[35.689379,46.987243],[35.680383,47.044532],[35.673431,47.044562],[35.671778,47.042573],[35.665595,47.063798],[35.668919,47.063641],[35.622942,47.10157],[35.616793,47.103651],[35.604644,47.104842],[35.585628,47.094992],[35.55885,47.097232],[35.559807,47.099005],[35.526662,47.101323],[35.525332,47.099009],[35.505743,47.101126],[35.505527,47.103357],[35.50686,47.105349],[35.503037,47.107854],[35.505849,47.110722],[35.501262,47.111553],[35.499707,47.113741],[35.508933,47.126511],[35.507238,47.130414],[35.510086,47.141602],[35.509207,47.144164],[35.506399,47.145727],[35.450348,47.159436],[35.456892,47.169966],[35.490727,47.160839],[35.506188,47.197492],[35.48905,47.201061],[35.510036,47.234001],[35.502389,47.236902],[35.513045,47.249977],[35.523986,47.245849],[35.554424,47.275244],[35.57785,47.266271],[35.587597,47.278539],[35.575511,47.28329],[35.596819,47.307085],[35.59948,47.305804],[35.606174,47.311944],[35.60008,47.315377],[35.578708,47.333471],[35.622825,47.379987],[35.682491,47.433317],[35.675972,47.436556],[35.587998,47.437943],[35.55541,47.580005],[35.5668,47.576475],[35.615702,47.585181],[35.627718,47.590941],[35.714514,47.621612],[35.72078,47.615848],[35.719482,47.614973],[35.728097,47.607841],[35.735607,47.59864],[35.756732,47.596708],[35.79792,47.671514],[35.779896,47.755194],[35.782814,47.757041],[35.777578,47.781789],[35.786333,47.785538],[35.783501,47.79586],[35.77363,47.794822],[35.771999,47.801914],[35.791311,47.8052],[35.79114,47.816613],[35.789509,47.817996],[35.790367,47.81935],[35.788221,47.821454],[35.787148,47.828974],[35.845674,47.833263],[35.850051,47.810595],[35.842461,47.769004],[35.873274,47.771753],[35.891581,47.768918],[35.891097,47.76593],[35.910353,47.762703],[35.911259,47.761375],[35.908746,47.757962],[35.909156,47.756689],[35.942946,47.759166],[35.950305,47.755689],[35.953766,47.755519],[35.955158,47.754028],[35.952717,47.754204],[35.951909,47.752915],[35.953371,47.750951],[35.955804,47.750226],[35.957387,47.74759],[35.967122,47.745849],[35.973712,47.721106],[36.01246,47.725038],[36.011538,47.739294],[36.00693,47.766091],[36.109805,47.776727],[36.132611,47.778054],[36.149733,47.777966],[36.161285,47.775911],[36.184638,47.775682],[36.18504,47.77791],[36.18093,47.778956],[36.183525,47.780164],[36.18352,47.781543],[36.177274,47.780363],[36.175833,47.78195],[36.176677,47.784304],[36.174355,47.785776],[36.179878,47.790846],[36.179519,47.793843],[36.184476,47.792076],[36.184472,47.795835],[36.188442,47.795745],[36.191221,47.797193],[36.191426,47.798827],[36.189081,47.801226],[36.191286,47.806958],[36.198351,47.807325],[36.204152,47.805175],[36.206889,47.807208],[36.206158,47.808799],[36.199966,47.812495],[36.205442,47.815208],[36.202829,47.817834],[36.206069,47.819193],[36.201295,47.819971],[36.20033,47.821685],[36.202022,47.823327],[36.204754,47.822153],[36.205439,47.825527],[36.197279,47.828873],[36.197574,47.832545],[36.266186,47.833203],[36.273815,47.823359],[36.275453,47.81536],[36.298195,47.81774],[36.298596,47.815928],[36.332645,47.820649],[36.329745,47.82274],[36.33249,47.82604],[36.329465,47.827327],[36.330525,47.83068],[36.323121,47.835597],[36.324133,47.839467],[36.374419,47.837979],[36.376705,47.829989],[36.397788,47.830874],[36.411873,47.82765],[36.421847,47.828912],[36.449052,47.824087],[36.475956,47.824198],[36.522858,47.828813],[36.520917,47.836452],[36.604701,47.850838],[36.608341,47.83974],[36.59933,47.817848],[36.588527,47.816508],[36.587838,47.78457],[36.596096,47.7842],[36.671306,47.793582],[36.680176,47.7594],[36.678602,47.758116],[36.685659,47.730895],[36.699959,47.732498],[36.71338,47.678871],[36.791644,47.684922],[36.790287,47.683696],[36.791979,47.681006],[36.784241,47.679981],[36.780731,47.677],[36.780528,47.67515],[36.784517,47.673475],[36.779407,47.670349],[36.77869,47.667975],[36.774563,47.66957],[36.776059,47.66621],[36.774724,47.665137],[36.768868,47.666299],[36.76894,47.667918],[36.753445,47.666831],[36.752113,47.665655],[36.752336,47.66416],[36.754436,47.664487],[36.754807,47.661995],[36.718272,47.658847],[36.725195,47.631093],[36.765849,47.634113],[36.765093,47.629689],[36.766212,47.623444],[36.745258,47.62174],[36.748103,47.606596],[36.764917,47.60777],[36.762116,47.603148],[36.763144,47.600569],[36.764627,47.600787],[36.830317,47.624229],[36.893411,47.544915],[36.944339,47.576132],[36.966756,47.553407],[36.980061,47.560713],[37.001596,47.538865],[37.021027,47.552798],[37.026794,47.547966],[37.074217,47.493699],[37.07822,47.491744],[37.084339,47.496107],[37.128902,47.46966],[37.127401,47.468711],[37.12888,47.467728],[37.157702,47.45486],[37.179798,47.483657],[37.195971,47.478932]]]}},{"type":"Feature","id":"3-18","properties":{"id":"3-18","name":"Бердянский район","name_ru":"Бердянский район","subject_id":"3","subject_name":"Запорожская область","source_gid":18,"source_fid":18,"names_rosstat":"","population":-1,"area_km2":4509.909301100378,"density_km2":-1.0,"source":"Актуализированный объединённый GeoJSON, предоставленный преподавателем","name_en":"Berdianskii District","name_zh":"Berdianskii区","subject_name_en":"Zaporozhye Oblast","subject_name_zh":"扎波罗热州"},"geometry":{"type":"Polygon","coordinates":[[[36.668814,47.144922],[36.49037,47.116126],[36.482212,47.178974],[36.402238,47.174906],[36.447127,47.220907],[36.433674,47.260269],[36.433737,47.262537],[36.370145,47.295471],[36.362264,47.295233],[36.346402,47.263221],[36.32875,47.263839],[36.324621,47.267512],[36.319707,47.266958],[36.315843,47.268389],[36.314175,47.270786],[36.314606,47.274704],[36.271517,47.28351],[36.271176,47.278703],[36.262473,47.27821],[36.260926,47.283771],[36.238612,47.281864],[36.220378,47.277425],[36.188731,47.28225],[36.180175,47.293178],[36.192196,47.297643],[36.170108,47.327603],[36.163898,47.325907],[36.104992,47.341127],[36.017393,47.337236],[36.000278,47.34164],[35.975446,47.317396],[35.979051,47.311839],[35.968575,47.301684],[35.973482,47.284435],[35.976509,47.279244],[35.978142,47.279508],[35.995533,47.249362],[35.997593,47.251605],[36.007807,47.245313],[35.997035,47.215122],[35.997636,47.197337],[35.833227,47.194013],[35.837037,47.164584],[35.85138,47.155389],[35.85334,47.142413],[35.865601,47.143369],[35.86786,47.129162],[35.856723,47.128242],[35.861081,47.084326],[35.917094,47.087587],[35.919217,47.067661],[35.949303,47.069291],[35.950133,47.060245],[35.982409,47.062314],[35.981983,47.066159],[35.999691,47.068918],[35.99975,47.058554],[35.995817,47.056681],[35.985193,47.055126],[35.982736,47.052832],[35.983464,47.04319],[35.985062,47.04109],[35.98661,47.041428],[35.986891,47.039531],[35.990189,47.037326],[35.986428,47.032316],[35.99189,47.028878],[35.988257,47.024322],[35.983761,47.02249],[35.981796,46.975711],[36.068049,46.98517],[36.06461,46.953854],[36.057776,46.918333],[36.041552,46.90543],[35.987867,46.904993],[35.983516,46.869282],[36.059037,46.886744],[36.058188,46.88884],[36.060609,46.891501],[36.060735,46.893786],[36.101999,46.878058],[36.110136,46.884583],[36.144062,46.872333],[36.083712,46.850423],[36.091941,46.837779],[36.091716,46.821707],[36.025635,46.808939],[36.022261,46.780311],[36.029573,46.779954],[36.029578,46.755307],[35.961678,46.746096],[35.967242,46.723786],[35.901466,46.720951],[35.911408,46.680505],[35.919636,46.657024],[35.932202,46.660024],[35.941294,46.660648],[35.99314,46.660881],[36.023386,46.666624],[36.035987,46.667618],[36.052185,46.667323],[36.066826,46.665129],[36.106729,46.656006],[36.152092,46.668999],[36.18793,46.670029],[36.196951,46.668108],[36.205423,46.664745],[36.220979,46.656698],[36.234674,46.648461],[36.247881,46.637497],[36.258316,46.619753],[36.260154,46.612085],[36.258759,46.602768],[36.234901,46.570774],[36.219788,46.564198],[36.216685,46.558478],[36.196217,46.53784],[36.186051,46.530306],[36.172404,46.526113],[36.163902,46.526474],[36.162091,46.533427],[36.158426,46.540191],[36.152933,46.54234],[36.149805,46.538834],[36.150566,46.524286],[36.148542,46.515523],[36.144224,46.507132],[36.132965,46.504182],[36.126978,46.496845],[36.117981,46.497073],[36.114495,46.503211],[36.093938,46.494053],[36.104195,46.487183],[36.116605,46.485729],[36.134777,46.494041],[36.151469,46.503794],[36.157893,46.503654],[36.166202,46.49929],[36.172745,46.499986],[36.197009,46.518436],[36.213857,46.532844],[36.254012,46.577804],[36.293639,46.632056],[36.322277,46.664733],[36.346614,46.687389],[36.379327,46.708995],[36.400853,46.719007],[36.458652,46.73811],[36.498635,46.747941],[36.52999,46.757099],[36.57391,46.763156],[36.601155,46.772632],[36.601672,46.774295],[36.607227,46.776617],[36.626206,46.780132],[36.625406,46.781451],[36.626323,46.782042],[36.651636,46.782381],[36.674973,46.779661],[36.689178,46.781319],[36.704153,46.78157],[36.725474,46.777627],[36.72972,46.77584],[36.731121,46.773392],[36.743671,46.768524],[36.750242,46.768697],[36.771595,46.75799],[36.773095,46.756358],[36.771367,46.754423],[36.773511,46.752558],[36.772596,46.749755],[36.776209,46.746107],[36.778355,46.751801],[36.786713,46.748542],[36.795149,46.743349],[36.811265,46.730122],[36.818555,46.721038],[36.822108,46.71337],[36.827782,46.707795],[36.805518,46.706477],[36.802344,46.703679],[36.801126,46.699609],[36.799783,46.694347],[36.800356,46.688765],[36.767896,46.674866],[36.763043,46.670963],[36.758381,46.666647],[36.754624,46.642699],[36.745497,46.636141],[36.74296,46.630664],[36.753877,46.627356],[36.767715,46.630293],[36.783108,46.639161],[36.825037,46.679383],[36.834222,46.691839],[36.848041,46.723613],[36.872724,46.768347],[36.875418,46.777346],[36.880586,46.787594],[36.895085,46.80536],[36.901608,46.81143],[36.920481,46.82546],[36.9802,46.860447],[36.993689,46.866278],[36.998281,46.866489],[37.003058,46.868667],[37.035597,46.870944],[37.048786,46.878595],[37.062464,46.883956],[37.033565,46.917529],[37.021426,46.92795],[37.092348,46.968368],[37.102688,46.959976],[37.141133,46.981994],[37.089337,47.007462],[37.124917,47.039107],[37.098695,47.059249],[37.08654,47.052462],[37.081212,47.047479],[36.985453,47.07977],[36.993171,47.081078],[36.998531,47.083592],[37.008387,47.084512],[37.010702,47.088299],[37.012787,47.089367],[37.012347,47.090692],[37.008643,47.092203],[37.009425,47.095085],[37.011729,47.097304],[37.010935,47.098485],[37.009371,47.09917],[37.005991,47.097569],[37.002021,47.100858],[37.009337,47.106499],[37.010791,47.110608],[37.009495,47.114121],[37.005859,47.11298],[37.000089,47.113967],[36.999989,47.117418],[37.002749,47.121156],[37.0015,47.122646],[37.002973,47.125379],[37.001754,47.127629],[36.997734,47.129587],[36.992572,47.124019],[36.98819,47.12579],[36.983527,47.124404],[36.978976,47.127334],[36.980344,47.128974],[36.979866,47.130845],[36.977414,47.131532],[36.975447,47.134181],[36.970303,47.135735],[36.97378,47.13988],[36.970471,47.142512],[36.963689,47.145024],[36.963759,47.146616],[36.961758,47.14886],[36.954572,47.14956],[36.954683,47.153539],[36.950419,47.154908],[36.949535,47.158679],[36.945615,47.160102],[36.940401,47.157304],[36.936783,47.161374],[36.936667,47.165531],[36.93155,47.164214],[36.924543,47.160299],[36.92285,47.160474],[36.924157,47.163767],[36.923205,47.165792],[36.924874,47.167334],[36.92397,47.17045],[36.918323,47.171008],[36.91508,47.168232],[36.914338,47.165825],[36.912078,47.166614],[36.909322,47.165152],[36.906844,47.168198],[36.902635,47.169717],[36.902622,47.171304],[36.899598,47.173865],[36.888483,47.170832],[36.888365,47.172196],[36.88629,47.172657],[36.886436,47.176674],[36.882966,47.176403],[36.881471,47.174646],[36.878933,47.175574],[36.875881,47.181259],[36.873382,47.181754],[36.870344,47.18439],[36.864404,47.185494],[36.863572,47.187489],[36.859154,47.189448],[36.860065,47.192571],[36.85789,47.19241],[36.856094,47.194323],[36.857384,47.197748],[36.854771,47.199156],[36.84588,47.196427],[36.845329,47.197243],[36.83487,47.197597],[36.813837,47.196532],[36.813919,47.194986],[36.801804,47.194621],[36.786156,47.195355],[36.786033,47.196919],[36.790006,47.202241],[36.677607,47.197918],[36.677266,47.196611],[36.680003,47.193061],[36.683123,47.191338],[36.662375,47.189786],[36.668814,47.144922]]]}},{"type":"Feature","id":"3-19","properties":{"id":"3-19","name":"Запорожский район","name_ru":"Запорожский район","subject_id":"3","subject_name":"Запорожская область","source_gid":19,"source_fid":19,"names_rosstat":"","population":-1,"area_km2":4692.365412563516,"density_km2":-1.0,"source":"Актуализированный объединённый GeoJSON, предоставленный преподавателем","name_en":"Zaporozhskii District","name_zh":"Zaporozhskii区","subject_name_en":"Zaporozhye Oblast","subject_name_zh":"扎波罗热州"},"geometry":{"type":"Polygon","coordinates":[[[34.826275,47.867727],[34.837616,47.869886],[34.850252,47.87709],[34.857954,47.88055],[34.860842,47.88053],[34.864016,47.8794],[34.870804,47.850626],[34.897232,47.852815],[34.903377,47.829593],[34.878884,47.818401],[34.893618,47.760224],[34.957498,47.769588],[34.964927,47.740206],[34.954483,47.739081],[34.957522,47.727543],[34.951856,47.727049],[34.956041,47.712338],[34.929885,47.711593],[34.93824,47.6774],[34.905713,47.673885],[34.916182,47.633799],[34.933085,47.635652],[34.94209,47.601013],[34.937209,47.59798],[34.938701,47.594635],[34.934968,47.590782],[34.931587,47.591791],[34.931783,47.59334],[34.926082,47.594125],[34.929079,47.589844],[34.934468,47.588259],[34.935978,47.582498],[34.927307,47.581429],[34.927549,47.580309],[34.939111,47.580486],[34.945881,47.574246],[34.934882,47.569888],[34.936298,47.569186],[34.935815,47.568354],[34.946478,47.571906],[34.952348,47.571575],[34.956921,47.568584],[34.959344,47.563178],[34.952488,47.559963],[34.926546,47.557719],[34.923209,47.556408],[34.955685,47.55803],[34.961028,47.560738],[34.965195,47.551288],[34.965296,47.547848],[34.95536,47.535923],[34.944243,47.529882],[34.977035,47.510534],[35.024285,47.504707],[35.067329,47.509317],[35.103035,47.521722],[35.140377,47.536852],[35.164382,47.562222],[35.179062,47.593847],[35.182479,47.606736],[35.19023,47.614932],[35.200324,47.618488],[35.218992,47.621845],[35.24693,47.620252],[35.265941,47.616694],[35.280018,47.608536],[35.281527,47.608886],[35.282548,47.616513],[35.280412,47.623752],[35.281421,47.627391],[35.280827,47.629711],[35.279225,47.63043],[35.280768,47.63131],[35.278988,47.637148],[35.279463,47.643625],[35.285456,47.647582],[35.287295,47.65102],[35.298035,47.659574],[35.314133,47.667792],[35.31553,47.672424],[35.318885,47.671448],[35.320471,47.672691],[35.323034,47.671464],[35.328313,47.673003],[35.335842,47.677746],[35.347477,47.658768],[35.364322,47.655162],[35.399009,47.656343],[35.400382,47.63885],[35.42843,47.639042],[35.429963,47.618087],[35.469352,47.618641],[35.458103,47.605917],[35.549393,47.6072],[35.55541,47.580005],[35.5668,47.576475],[35.615702,47.585181],[35.627718,47.590941],[35.714514,47.621612],[35.72078,47.615848],[35.719482,47.614973],[35.728097,47.607841],[35.735607,47.59864],[35.756732,47.596708],[35.79792,47.671514],[35.779896,47.755194],[35.782814,47.757041],[35.777578,47.781789],[35.786333,47.785538],[35.783501,47.79586],[35.77363,47.794822],[35.771999,47.801914],[35.791311,47.8052],[35.79114,47.816613],[35.789509,47.817996],[35.790367,47.81935],[35.788221,47.821454],[35.787148,47.828974],[35.845674,47.833263],[35.850051,47.810595],[35.842461,47.769004],[35.873274,47.771753],[35.891581,47.768918],[35.891097,47.76593],[35.910353,47.762703],[35.911259,47.761375],[35.908746,47.757962],[35.909156,47.756689],[35.942946,47.759166],[35.950305,47.755689],[35.953766,47.755519],[35.955158,47.754028],[35.952717,47.754204],[35.951909,47.752915],[35.953371,47.750951],[35.955804,47.750226],[35.957387,47.74759],[35.967122,47.745849],[35.973712,47.721106],[36.01246,47.725038],[36.011538,47.739294],[36.00693,47.766091],[36.109805,47.776727],[36.132611,47.778054],[36.149733,47.777966],[36.161285,47.775911],[36.183954,47.775443],[36.18544,47.776434],[36.185219,47.77774],[36.180925,47.779029],[36.183525,47.780164],[36.183596,47.781466],[36.177274,47.780363],[36.175833,47.78195],[36.176677,47.784304],[36.174355,47.785776],[36.179878,47.790846],[36.179519,47.793843],[36.184476,47.792076],[36.184472,47.795835],[36.188442,47.795745],[36.191221,47.797193],[36.191426,47.798827],[36.189081,47.801226],[36.191286,47.806958],[36.198351,47.807325],[36.204152,47.805175],[36.20692,47.807437],[36.199966,47.812495],[36.205442,47.815208],[36.202829,47.817834],[36.206034,47.819238],[36.201419,47.819925],[36.200331,47.821069],[36.202022,47.823327],[36.204754,47.822153],[36.20538,47.825656],[36.197279,47.828873],[36.197847,47.833386],[36.194746,47.834686],[36.193161,47.838107],[36.190242,47.83659],[36.188678,47.838191],[36.188244,47.841524],[36.194395,47.848981],[36.1974,47.856906],[36.19721,47.859062],[36.177194,47.857196],[36.178775,47.850656],[36.101663,47.842589],[36.100218,47.848513],[36.095889,47.850081],[36.073651,47.848833],[36.068562,47.867489],[36.057519,47.868296],[36.054061,47.880001],[36.080787,47.88322],[36.087202,47.861227],[36.119227,47.864762],[36.118561,47.867766],[36.117118,47.868049],[36.116923,47.870936],[36.130186,47.890333],[36.122477,47.90019],[36.127713,47.901917],[36.110365,47.924578],[36.119729,47.927863],[36.108703,47.941769],[36.085012,47.930306],[36.07357,47.965212],[36.051624,47.958571],[36.047946,47.965521],[36.070745,47.971518],[36.066196,47.982096],[36.061998,48.001033],[36.041648,48.003919],[36.034433,48.018716],[36.065531,48.025199],[36.056088,48.046097],[36.058221,48.04654],[36.052484,48.059072],[35.975291,48.043179],[35.977963,48.051522],[35.982607,48.05679],[35.987942,48.057054],[35.988515,48.058354],[35.980656,48.0634],[35.977987,48.062722],[35.975185,48.059426],[35.972022,48.059939],[35.97154,48.061218],[35.974204,48.066509],[35.969435,48.073123],[35.97702,48.077975],[35.983961,48.078156],[35.985463,48.084641],[35.984037,48.08664],[35.976099,48.086348],[35.974749,48.087681],[35.975928,48.090455],[35.975402,48.092284],[35.966598,48.094795],[35.920633,48.082067],[35.816863,48.066123],[35.805906,48.100426],[35.794735,48.096335],[35.783156,48.094168],[35.776184,48.096718],[35.758155,48.098609],[35.756,48.098353],[35.75657,48.096443],[35.742825,48.095748],[35.703412,48.140215],[35.680581,48.130559],[35.582311,48.094371],[35.524139,48.074601],[35.518858,48.094861],[35.507969,48.097729],[35.50395,48.096419],[35.491443,48.096455],[35.485609,48.094967],[35.481643,48.095902],[35.480658,48.097404],[35.479405,48.096782],[35.479221,48.098108],[35.474476,48.097652],[35.473706,48.098772],[35.463654,48.100596],[35.46228,48.101704],[35.444371,48.104122],[35.44499,48.102167],[35.421262,48.100188],[35.420513,48.104587],[35.416268,48.109686],[35.404676,48.111658],[35.401711,48.114683],[35.394357,48.114148],[35.383003,48.120041],[35.37803,48.118087],[35.376325,48.119351],[35.368764,48.119243],[35.365691,48.121015],[35.358169,48.12189],[35.356493,48.120836],[35.355451,48.121747],[35.35342,48.12108],[35.352646,48.122313],[35.349874,48.122062],[35.349154,48.123167],[35.347693,48.122478],[35.345468,48.12397],[35.343534,48.12344],[35.343362,48.124544],[35.3385,48.12343],[35.332566,48.128131],[35.3214,48.132085],[35.303369,48.141642],[35.295021,48.14435],[35.273859,48.144118],[35.265394,48.142029],[35.253987,48.136089],[35.241864,48.134678],[35.219708,48.142725],[35.209678,48.140133],[35.194548,48.140368],[35.179022,48.131107],[35.163685,48.128763],[35.101746,48.131607],[35.094972,48.129403],[35.08905,48.124934],[35.084827,48.123401],[35.064564,48.122448],[35.057943,48.120485],[35.044694,48.108134],[35.041291,48.104083],[35.038915,48.098446],[35.020047,48.097035],[35.014651,48.09475],[35.006087,48.094149],[34.99635,48.091855],[34.990259,48.08919],[34.987314,48.095278],[34.985592,48.096606],[34.929738,48.090327],[34.930067,48.092634],[34.914723,48.090937],[34.910404,48.104058],[34.911686,48.113699],[34.920064,48.114585],[34.915813,48.130603],[34.881325,48.127116],[34.878301,48.133828],[34.855113,48.133049],[34.868918,48.076022],[34.875664,48.054464],[34.839214,48.050513],[34.843001,48.035219],[34.846519,48.01362],[34.858331,48.015178],[34.864465,48.001626],[34.869539,47.982394],[34.904884,47.985718],[34.912496,47.957789],[34.909278,47.9574],[34.913725,47.940708],[34.919089,47.933461],[34.881027,47.928908],[34.876423,47.941951],[34.8492,47.937773],[34.851681,47.920971],[34.801974,47.915638],[34.817113,47.864329],[34.826275,47.867727]]]}},{"type":"Feature","id":"3-20","properties":{"id":"3-20","name":"Мелитопольский район","name_ru":"Мелитопольский район","subject_id":"3","subject_name":"Запорожская область","source_gid":20,"source_fid":20,"names_rosstat":"","population":-1,"area_km2":6986.483703475823,"density_km2":-1.0,"source":"Актуализированный объединённый GeoJSON, предоставленный преподавателем","name_en":"Melitopol'skii District","name_zh":"Melitopol'skii区","subject_name_en":"Zaporozhye Oblast","subject_name_zh":"扎波罗热州"},"geometry":{"type":"Polygon","coordinates":[[[34.516782,47.118783],[34.549861,47.121367],[34.54246,47.158535],[34.594567,47.16334],[34.600983,47.133879],[34.716036,47.143999],[34.718429,47.145566],[34.718605,47.152127],[34.81168,47.159775],[34.829128,47.172267],[34.857237,47.154222],[34.850829,47.142421],[34.872642,47.144567],[34.874366,47.133132],[34.95529,47.14095],[34.963096,47.077775],[35.023568,47.082703],[35.025043,47.081612],[35.025547,47.078582],[35.065387,47.082674],[35.062907,47.091729],[35.104162,47.095712],[35.105992,47.087825],[35.139971,47.090176],[35.147284,47.115811],[35.174263,47.119003],[35.172404,47.12775],[35.178897,47.128452],[35.173049,47.151625],[35.205333,47.155283],[35.207624,47.146204],[35.218956,47.147411],[35.222351,47.133657],[35.264297,47.138599],[35.282917,47.175866],[35.289826,47.176653],[35.32015,47.173952],[35.32186,47.202909],[35.381108,47.179158],[35.391535,47.20216],[35.405957,47.196659],[35.446206,47.185001],[35.441283,47.174114],[35.456892,47.169966],[35.450348,47.159436],[35.508925,47.144438],[35.510107,47.141769],[35.507238,47.130414],[35.508933,47.126511],[35.499707,47.113741],[35.501262,47.111553],[35.505849,47.110722],[35.503037,47.107854],[35.50686,47.105349],[35.505527,47.103357],[35.505743,47.101126],[35.525332,47.099009],[35.526662,47.101323],[35.559807,47.099005],[35.55885,47.097232],[35.585628,47.094992],[35.604644,47.104842],[35.616793,47.103651],[35.622942,47.10157],[35.668919,47.063641],[35.665595,47.063798],[35.671778,47.042573],[35.673431,47.044562],[35.680383,47.044532],[35.689379,46.987243],[35.722529,46.990228],[35.72178,46.995633],[35.762196,46.999138],[35.763959,46.995938],[35.857971,47.004508],[35.861361,46.990187],[35.885858,46.992455],[35.883212,47.006697],[35.921794,47.010506],[35.922114,47.02588],[35.913996,47.028248],[35.922039,47.042642],[35.919217,47.067661],[35.949303,47.069291],[35.950133,47.060245],[35.982409,47.062314],[35.981983,47.066159],[35.999691,47.068918],[35.99975,47.058554],[35.995817,47.056681],[35.985193,47.055126],[35.982736,47.052832],[35.983464,47.04319],[35.985062,47.04109],[35.98661,47.041428],[35.986891,47.039531],[35.990189,47.037326],[35.986428,47.032316],[35.99189,47.028878],[35.988257,47.024322],[35.983761,47.02249],[35.981796,46.975711],[36.068049,46.98517],[36.06461,46.953854],[36.057776,46.918333],[36.041552,46.90543],[35.987867,46.904993],[35.983516,46.869282],[36.059037,46.886744],[36.058188,46.88884],[36.060609,46.891501],[36.060735,46.893786],[36.101999,46.878058],[36.110136,46.884583],[36.144062,46.872333],[36.083712,46.850423],[36.091941,46.837779],[36.091716,46.821707],[36.025635,46.808939],[36.022261,46.780311],[36.029573,46.779954],[36.029578,46.755307],[35.961678,46.746096],[35.967242,46.723786],[35.901466,46.720951],[35.911408,46.680505],[35.919636,46.657024],[35.907157,46.654063],[35.860989,46.639475],[35.852763,46.632345],[35.827197,46.620451],[35.72809,46.588505],[35.718746,46.577708],[35.696823,46.560152],[35.65212,46.521146],[35.635028,46.509789],[35.589381,46.482798],[35.565465,46.472741],[35.558785,46.470712],[35.550654,46.470276],[35.537501,46.466469],[35.515678,46.456475],[35.498519,46.451208],[35.470943,46.445869],[35.450247,46.43857],[35.444889,46.434998],[35.411114,46.404641],[35.34877,46.333393],[35.284075,46.263147],[35.253476,46.271059],[35.227445,46.2812],[35.16946,46.294409],[35.128223,46.302088],[35.105995,46.302046],[35.072034,46.299572],[35.065774,46.328673],[35.067751,46.329848],[35.064401,46.335589],[35.056754,46.375211],[35.065974,46.376136],[35.069503,46.379435],[35.059667,46.441384],[35.054677,46.481866],[35.021396,46.478951],[34.952601,46.503326],[34.948452,46.502859],[34.946873,46.512555],[34.890103,46.506956],[34.884867,46.536314],[34.894846,46.537169],[34.890706,46.563155],[34.756874,46.549349],[34.748275,46.58419],[34.723299,46.581467],[34.712764,46.620074],[34.756309,46.626976],[34.746177,46.683219],[34.685101,46.677029],[34.683569,46.677269],[34.680828,46.69199],[34.632236,46.687619],[34.625226,46.723972],[34.661275,46.727156],[34.658693,46.740332],[34.735005,46.747344],[34.735172,46.757063],[34.750486,46.757895],[34.750143,46.780513],[34.767576,46.780913],[34.758132,46.822707],[34.816554,46.828451],[34.813272,46.833088],[34.804683,46.882527],[34.752569,46.879537],[34.736441,46.96136],[34.685456,46.955863],[34.680971,46.979141],[34.654254,46.976629],[34.642599,46.974114],[34.623843,46.973397],[34.620582,46.988174],[34.618438,46.98971],[34.617482,46.993316],[34.599622,46.991773],[34.591657,47.026792],[34.56727,47.024492],[34.552911,47.102031],[34.553859,47.102157],[34.553497,47.105969],[34.519502,47.104749],[34.516782,47.118783]]]}},{"type":"Feature","id":"3-21","properties":{"id":"3-21","name":"Васильевский район","name_ru":"Васильевский район","subject_id":"3","subject_name":"Запорожская область","source_gid":21,"source_fid":21,"names_rosstat":"","population":-1,"area_km2":4305.668470796872,"density_km2":-1.0,"source":"Актуализированный объединённый GeoJSON, предоставленный преподавателем","name_en":"Vasil'evskii District","name_zh":"Vasil'evskii区","subject_name_en":"Zaporozhye Oblast","subject_name_zh":"扎波罗热州"},"geometry":{"type":"Polygon","coordinates":[[[35.381108,47.179158],[35.32186,47.202909],[35.32015,47.173952],[35.289826,47.176653],[35.282917,47.175866],[35.264297,47.138599],[35.222351,47.133657],[35.218956,47.147411],[35.207624,47.146204],[35.205333,47.155283],[35.173049,47.151625],[35.178897,47.128452],[35.172404,47.12775],[35.174263,47.119003],[35.147284,47.115811],[35.139971,47.090176],[35.105992,47.087825],[35.104162,47.095712],[35.062907,47.091729],[35.065387,47.082674],[35.025547,47.078582],[35.025043,47.081612],[35.023568,47.082703],[34.963096,47.077775],[34.95529,47.14095],[34.874366,47.133132],[34.872642,47.144567],[34.850829,47.142421],[34.857237,47.154222],[34.829128,47.172267],[34.81168,47.159775],[34.718605,47.152127],[34.718429,47.145566],[34.716036,47.143999],[34.600983,47.133879],[34.594567,47.16334],[34.54246,47.158535],[34.549861,47.121367],[34.516782,47.118783],[34.50919,47.157584],[34.507921,47.158355],[34.503856,47.177334],[34.502736,47.188716],[34.494101,47.22444],[34.490998,47.2406],[34.491878,47.241349],[34.490886,47.246844],[34.530098,47.25076],[34.529585,47.255798],[34.527205,47.267429],[34.523643,47.26717],[34.5182,47.283549],[34.487764,47.279949],[34.479435,47.315125],[34.516112,47.318444],[34.513961,47.32045],[34.513302,47.324016],[34.507016,47.325581],[34.507992,47.326869],[34.507252,47.32785],[34.510481,47.332119],[34.512535,47.332761],[34.512185,47.335043],[34.505439,47.335165],[34.490117,47.331983],[34.413839,47.323456],[34.419226,47.300658],[34.398764,47.298277],[34.401396,47.287083],[34.370868,47.283597],[34.357777,47.29356],[34.330236,47.290431],[34.305347,47.269141],[34.296428,47.272883],[34.296059,47.274758],[34.29352,47.273646],[34.281127,47.324039],[34.28245,47.325897],[34.272455,47.361137],[34.260787,47.359738],[34.251558,47.391539],[34.256435,47.395378],[34.249372,47.419327],[34.242689,47.433865],[34.230114,47.446015],[34.21845,47.452729],[34.169964,47.469081],[34.139465,47.47725],[34.207387,47.488257],[34.234154,47.494398],[34.251967,47.500947],[34.268116,47.508853],[34.299975,47.51914],[34.345729,47.521892],[34.424042,47.530168],[34.468861,47.532118],[34.4781,47.534221],[34.498459,47.543575],[34.528076,47.553681],[34.572379,47.561616],[34.588353,47.562352],[34.64782,47.559415],[34.669687,47.55565],[34.735501,47.538912],[34.796324,47.53702],[34.817103,47.530783],[34.840475,47.521018],[34.861459,47.515138],[34.876262,47.515005],[34.899621,47.518225],[34.929198,47.524718],[34.944243,47.529882],[34.977035,47.510534],[35.024285,47.504707],[35.067329,47.509317],[35.103035,47.521722],[35.140377,47.536852],[35.164382,47.562222],[35.179062,47.593847],[35.182479,47.606736],[35.19023,47.614932],[35.200324,47.618488],[35.218992,47.621845],[35.24693,47.620252],[35.265941,47.616694],[35.280018,47.608536],[35.281527,47.608886],[35.282548,47.616513],[35.280412,47.623752],[35.281421,47.627391],[35.280827,47.629711],[35.279225,47.63043],[35.280768,47.63131],[35.278988,47.637148],[35.279463,47.643625],[35.285456,47.647582],[35.287295,47.65102],[35.298035,47.659574],[35.314133,47.667792],[35.31553,47.672424],[35.318885,47.671448],[35.320471,47.672691],[35.323034,47.671464],[35.328313,47.673003],[35.335842,47.677746],[35.347477,47.658768],[35.364322,47.655162],[35.399009,47.656343],[35.400382,47.63885],[35.42843,47.639042],[35.429963,47.618087],[35.469352,47.618641],[35.458103,47.605917],[35.549393,47.6072],[35.587998,47.437943],[35.675972,47.436556],[35.682491,47.433317],[35.622825,47.379987],[35.578708,47.333471],[35.60008,47.315377],[35.606174,47.311944],[35.59948,47.305804],[35.596819,47.307085],[35.575511,47.28329],[35.587597,47.278539],[35.57785,47.266271],[35.554424,47.275244],[35.523986,47.245849],[35.513045,47.249977],[35.502389,47.236902],[35.510036,47.234001],[35.48905,47.201061],[35.506188,47.197492],[35.490727,47.160839],[35.441283,47.174114],[35.446206,47.185001],[35.405957,47.196659],[35.391535,47.20216],[35.381108,47.179158]]]}}],"metadata":{"source_en":"Updated consolidated GeoJSON supplied by the instructor","source_zh":"教师提供的更新版合并GeoJSON","license_en":"Source-dataset terms were not specified; use within the author-created educational platform","license_zh":"原始数据集未注明许可条款；仅用于本作者教育平台"}}