{"type":"FeatureCollection","features":[{"type":"Feature","id":"102269-53","properties":{"id":"102269-53","name":"Северо-Восточный административный округ","name_ru":"Северо-Восточный административный округ","subject_id":"102269","subject_name":"Москва","source_gid":53,"source_fid":54,"names_rosstat":"Северо-Восточный округ","population":1466720,"area_km2":101.70976279637237,"density_km2":14420.64124106199,"source":"Актуализированный объединённый GeoJSON, предоставленный преподавателем","name_en":"Severo-Vostochnyi administrativnyi Okrug","name_zh":"Severo-Vostochnyi administrativnyi专区","subject_name_en":"Moscow","subject_name_zh":"莫斯科市"},"geometry":{"type":"Polygon","coordinates":[[[37.519235,55.941938],[37.535988,55.908151],[37.538693,55.903999],[37.542885,55.901142],[37.564058,55.893273],[37.566755,55.890837],[37.568291,55.87759],[37.5746,55.862117],[37.574546,55.859893],[37.572707,55.854735],[37.572906,55.85142],[37.575262,55.844223],[37.578023,55.841026],[37.578719,55.839032],[37.578154,55.836786],[37.574677,55.833631],[37.573685,55.831844],[37.574142,55.821959],[37.577818,55.816641],[37.579308,55.811808],[37.58473,55.808682],[37.580652,55.808287],[37.58234,55.805521],[37.584531,55.794809],[37.5878,55.792637],[37.589165,55.792421],[37.599296,55.792482],[37.60172,55.785169],[37.604608,55.785312],[37.612449,55.782548],[37.613191,55.783422],[37.614835,55.783479],[37.615352,55.782837],[37.615287,55.783499],[37.616814,55.786534],[37.61631,55.793116],[37.634638,55.791892],[37.634431,55.794461],[37.635,55.79717],[37.640168,55.794791],[37.646119,55.790953],[37.651542,55.78936],[37.650116,55.792793],[37.65072,55.799419],[37.653824,55.803864],[37.668077,55.819874],[37.670694,55.824394],[37.671575,55.829026],[37.67021,55.83874],[37.673569,55.838336],[37.676316,55.838822],[37.678165,55.840172],[37.678346,55.841816],[37.680258,55.842475],[37.690318,55.848006],[37.692226,55.850307],[37.68997,55.851223],[37.692284,55.852909],[37.686768,55.854513],[37.68786,55.855492],[37.688603,55.855285],[37.68941,55.855957],[37.692521,55.856133],[37.693133,55.855797],[37.69243,55.85533],[37.694746,55.853375],[37.693765,55.852073],[37.696823,55.848161],[37.703587,55.848773],[37.705643,55.847944],[37.712503,55.847527],[37.714075,55.846915],[37.717128,55.849057],[37.71935,55.850009],[37.720169,55.850572],[37.719405,55.851423],[37.721639,55.852924],[37.718017,55.860607],[37.709438,55.860911],[37.709186,55.862956],[37.706813,55.86449],[37.707699,55.865519],[37.715813,55.870154],[37.719672,55.873699],[37.721065,55.873207],[37.721813,55.873875],[37.724256,55.873008],[37.727927,55.8739],[37.729047,55.874647],[37.73182,55.874945],[37.731077,55.875716],[37.73101,55.876893],[37.732895,55.878049],[37.733776,55.877913],[37.734784,55.878405],[37.730375,55.880607],[37.72945,55.881569],[37.729665,55.883091],[37.732099,55.885316],[37.731555,55.885619],[37.727524,55.883951],[37.724362,55.883802],[37.707582,55.891766],[37.707188,55.892331],[37.703052,55.893412],[37.694288,55.894875],[37.676955,55.895462],[37.673153,55.897033],[37.672669,55.897837],[37.671841,55.897727],[37.671564,55.896906],[37.669183,55.895678],[37.663293,55.895917],[37.647369,55.897285],[37.62927,55.899929],[37.617512,55.90242],[37.593153,55.908948],[37.590394,55.911532],[37.591202,55.913594],[37.590735,55.913656],[37.589876,55.91239],[37.588713,55.911931],[37.587256,55.910422],[37.578601,55.911434],[37.574149,55.911273],[37.555916,55.909283],[37.561385,55.928059],[37.560956,55.932271],[37.565921,55.933349],[37.566527,55.936473],[37.570215,55.936452],[37.570091,55.940927],[37.56754,55.940731],[37.564584,55.941401],[37.562808,55.947668],[37.562464,55.951074],[37.579422,55.949468],[37.580038,55.952025],[37.57912,55.953673],[37.580707,55.953989],[37.578405,55.955575],[37.574738,55.956187],[37.57443,55.957772],[37.555154,55.951529],[37.555104,55.953535],[37.551658,55.953631],[37.551894,55.951221],[37.548551,55.951158],[37.546934,55.954296],[37.542351,55.954142],[37.53744,55.952843],[37.543041,55.943904],[37.53778,55.943837],[37.537583,55.944381],[37.519235,55.941938]]]}},{"type":"Feature","id":"102269-58","properties":{"id":"102269-58","name":"Центральный административный округ","name_ru":"Центральный административный округ","subject_id":"102269","subject_name":"Москва","source_gid":58,"source_fid":59,"names_rosstat":"Центральный округ","population":783397,"area_km2":66.20039459137604,"density_km2":11833.721004769563,"source":"Актуализированный объединённый GeoJSON, предоставленный преподавателем","name_en":"Tsentral'nyi administrativnyi Okrug","name_zh":"Tsentral'nyi administrativnyi专区","subject_name_en":"Moscow","subject_name_zh":"莫斯科市"},"geometry":{"type":"Polygon","coordinates":[[[37.51393,55.758422],[37.516299,55.756833],[37.518503,55.752585],[37.52205,55.747583],[37.525569,55.745337],[37.527972,55.744612],[37.536727,55.744636],[37.540374,55.745458],[37.554535,55.751436],[37.560178,55.753078],[37.564021,55.753597],[37.567883,55.753356],[37.570802,55.752728],[37.573033,55.751472],[37.57402,55.750337],[37.574492,55.748863],[37.574449,55.746327],[37.573891,55.744709],[37.568327,55.738552],[37.563633,55.735095],[37.553035,55.729947],[37.544903,55.727056],[37.541863,55.72404],[37.541081,55.720125],[37.541885,55.717595],[37.543331,55.715617],[37.548516,55.712263],[37.552897,55.710973],[37.559232,55.71028],[37.565401,55.710757],[37.574928,55.713118],[37.577608,55.714206],[37.58214,55.710993],[37.585594,55.711091],[37.588336,55.713096],[37.587874,55.713295],[37.588445,55.713763],[37.587938,55.713953],[37.592671,55.716871],[37.590795,55.717873],[37.592715,55.719686],[37.592565,55.719146],[37.594084,55.718325],[37.596855,55.72013],[37.598128,55.719847],[37.60031,55.721301],[37.609347,55.719521],[37.610096,55.721427],[37.614304,55.721026],[37.615577,55.720083],[37.627893,55.721365],[37.633062,55.722565],[37.635802,55.72202],[37.636424,55.723543],[37.641765,55.722211],[37.643742,55.722404],[37.644911,55.728012],[37.645995,55.729465],[37.652286,55.728066],[37.654211,55.728821],[37.656718,55.726372],[37.663127,55.726758],[37.66069,55.730703],[37.665811,55.731635],[37.667463,55.730864],[37.670581,55.725825],[37.677734,55.727355],[37.678918,55.728265],[37.680568,55.727688],[37.680467,55.728405],[37.68157,55.728472],[37.681442,55.72904],[37.68333,55.729146],[37.684103,55.729584],[37.68406,55.730031],[37.685838,55.730113],[37.685409,55.733042],[37.692158,55.72954],[37.6937,55.729303],[37.698862,55.736436],[37.699835,55.736317],[37.69708,55.740791],[37.693703,55.743175],[37.683204,55.748001],[37.670531,55.750749],[37.67255,55.752388],[37.673047,55.753694],[37.670494,55.757956],[37.671278,55.758803],[37.673015,55.759329],[37.680216,55.759073],[37.682588,55.759536],[37.684159,55.760274],[37.68539,55.761526],[37.685845,55.763984],[37.68904,55.767774],[37.692199,55.76949],[37.697224,55.766822],[37.702518,55.770029],[37.713529,55.77526],[37.709336,55.779285],[37.70525,55.780994],[37.69956,55.781968],[37.688267,55.781899],[37.651823,55.78912],[37.646119,55.790953],[37.640168,55.794791],[37.635,55.79717],[37.634431,55.794461],[37.634638,55.791892],[37.61631,55.793116],[37.616716,55.786134],[37.615287,55.783499],[37.615352,55.782837],[37.614835,55.783479],[37.613191,55.783422],[37.612449,55.782548],[37.604608,55.785312],[37.60172,55.785169],[37.599296,55.792482],[37.59589,55.792226],[37.5878,55.792637],[37.588633,55.792057],[37.585444,55.781015],[37.584575,55.779677],[37.581096,55.777432],[37.575994,55.775608],[37.544434,55.772989],[37.541863,55.772406],[37.538963,55.771129],[37.537129,55.769761],[37.536061,55.766104],[37.534765,55.766193],[37.534036,55.765011],[37.531819,55.763216],[37.524285,55.759846],[37.522562,55.761688],[37.51393,55.758422]]]}},{"type":"Feature","id":"102269-59","properties":{"id":"102269-59","name":"Троицкий административный округ","name_ru":"Троицкий административный округ","subject_id":"102269","subject_name":"Москва","source_gid":59,"source_fid":60,"names_rosstat":"Троицкий округ","population":227105,"area_km2":1076.380548819905,"density_km2":210.98950575517893,"source":"Актуализированный объединённый GeoJSON, предоставленный преподавателем","name_en":"Troitskii administrativnyi Okrug","name_zh":"Troitskii administrativnyi专区","subject_name_en":"Moscow","subject_name_zh":"莫斯科市"},"geometry":{"type":"MultiPolygon","coordinates":[[[[36.803101,55.440833],[36.81136,55.436299],[36.819128,55.426764],[36.821924,55.429279],[36.824299,55.428575],[36.824781,55.429029],[36.828236,55.428643],[36.827783,55.428051],[36.826048,55.428162],[36.822602,55.424866],[36.821199,55.425229],[36.823068,55.423675],[36.824551,55.423337],[36.824295,55.422646],[36.825814,55.421434],[36.842088,55.418699],[36.834296,55.413987],[36.861874,55.401035],[36.848266,55.392082],[36.862865,55.384841],[36.855788,55.380502],[36.904085,55.357007],[36.903154,55.356413],[36.902944,55.355697],[36.906983,55.354765],[36.91559,55.354083],[36.915142,55.352626],[36.916144,55.35254],[36.91566,55.351701],[36.916241,55.350797],[36.936134,55.341257],[36.935775,55.34116],[36.936888,55.336592],[36.939171,55.336622],[36.940271,55.334271],[36.942217,55.332571],[36.946629,55.33067],[36.94473,55.329369],[36.960407,55.321905],[36.963683,55.324098],[36.986441,55.315589],[36.987851,55.309176],[36.988387,55.308317],[36.984659,55.301825],[36.985526,55.301726],[36.987366,55.299957],[36.985525,55.29795],[36.983812,55.296971],[36.992736,55.292743],[36.993351,55.291039],[36.997741,55.291558],[36.99834,55.290279],[37.002567,55.289009],[37.012663,55.289893],[37.021606,55.288792],[37.021884,55.288156],[37.021409,55.284429],[37.025987,55.284375],[37.026036,55.283021],[37.021259,55.281978],[36.990038,55.276139],[36.986797,55.276332],[36.983412,55.268138],[36.980483,55.269067],[36.975067,55.266208],[36.969327,55.267213],[36.9678,55.267194],[36.966255,55.266331],[36.961939,55.267354],[36.961503,55.266766],[36.956974,55.265401],[36.952517,55.264835],[36.957102,55.260762],[36.953654,55.25909],[36.950563,55.258978],[36.949073,55.257235],[36.94901,55.254583],[36.947826,55.252743],[36.947765,55.249706],[36.952616,55.249273],[36.951432,55.245651],[36.943783,55.24751],[36.942779,55.247401],[36.943416,55.246971],[36.943707,55.245667],[36.942891,55.245263],[36.943333,55.244782],[36.941043,55.244001],[36.941732,55.243428],[36.941047,55.242942],[36.938802,55.242665],[36.93724,55.241391],[36.941403,55.241694],[36.94678,55.241396],[36.949439,55.240237],[36.950132,55.238262],[36.948934,55.235642],[36.948856,55.234312],[36.945945,55.231378],[36.94583,55.230723],[36.947115,55.2278],[36.949641,55.224696],[36.945896,55.222805],[36.948459,55.220311],[36.947071,55.218513],[36.95147,55.218212],[36.957259,55.216611],[36.962275,55.214141],[36.962187,55.212571],[36.965032,55.21207],[36.962773,55.209604],[36.961636,55.208977],[36.966304,55.20535],[36.965866,55.204212],[36.967097,55.199737],[36.969057,55.19847],[36.973828,55.192027],[36.975029,55.191052],[36.97571,55.189543],[36.979765,55.186253],[36.981068,55.186116],[36.981594,55.182285],[36.982611,55.180466],[36.984111,55.181279],[36.985881,55.180902],[36.990263,55.181691],[36.991471,55.18286],[36.993547,55.182797],[36.995165,55.182189],[36.99636,55.180491],[36.997173,55.180142],[37.001207,55.181511],[37.006551,55.180604],[37.008231,55.182831],[37.010388,55.183332],[37.016474,55.184019],[37.019714,55.18295],[37.014219,55.1773],[37.014657,55.176594],[37.015905,55.176519],[37.018094,55.177269],[37.018236,55.174231],[37.019262,55.172964],[37.019465,55.171494],[37.01923,55.168954],[37.01982,55.167195],[37.01989,55.16112],[37.018547,55.160177],[37.015227,55.159999],[37.018106,55.157589],[37.020848,55.156065],[37.023227,55.1556],[37.027434,55.152613],[37.027937,55.150147],[37.032574,55.147703],[37.03784,55.146016],[37.039205,55.142522],[37.041524,55.14285],[37.045632,55.142175],[37.044816,55.143376],[37.064748,55.144277],[37.064394,55.147119],[37.11121,55.149187],[37.110583,55.154164],[37.14208,55.155676],[37.140777,55.164378],[37.156318,55.164762],[37.157176,55.161745],[37.162063,55.164718],[37.166096,55.164381],[37.166662,55.165377],[37.169879,55.164339],[37.171339,55.165471],[37.171128,55.170368],[37.169806,55.171446],[37.169585,55.172422],[37.170047,55.173786],[37.167387,55.180626],[37.168355,55.182837],[37.167281,55.185421],[37.173362,55.191614],[37.173409,55.193011],[37.174183,55.193859],[37.174439,55.195044],[37.168877,55.194637],[37.166668,55.211444],[37.167991,55.21161],[37.169608,55.214963],[37.169585,55.215765],[37.166274,55.216146],[37.163361,55.231579],[37.171514,55.231347],[37.175846,55.232556],[37.178098,55.234288],[37.18487,55.236885],[37.189001,55.236472],[37.19394,55.23481],[37.199844,55.237715],[37.204864,55.241634],[37.204158,55.242359],[37.20236,55.242739],[37.202673,55.243105],[37.201766,55.243162],[37.201184,55.244362],[37.203955,55.246887],[37.20396,55.247651],[37.205294,55.248447],[37.205944,55.249469],[37.20784,55.249102],[37.209767,55.250799],[37.212675,55.251616],[37.214206,55.252691],[37.216231,55.252232],[37.219005,55.25311],[37.234266,55.247916],[37.23485,55.247627],[37.233157,55.245576],[37.235532,55.244392],[37.234783,55.242765],[37.245516,55.239265],[37.247456,55.24193],[37.249979,55.240987],[37.251272,55.239997],[37.270155,55.240486],[37.269605,55.240722],[37.274493,55.244612],[37.276865,55.251582],[37.267885,55.256465],[37.271561,55.258824],[37.291024,55.248585],[37.29446,55.24238],[37.302983,55.242901],[37.306992,55.240122],[37.305211,55.238181],[37.304998,55.235807],[37.305047,55.234271],[37.306662,55.231698],[37.304333,55.231841],[37.299921,55.230608],[37.30008,55.227229],[37.300847,55.224526],[37.316968,55.220716],[37.317819,55.222722],[37.316663,55.228285],[37.326811,55.229014],[37.333392,55.228672],[37.335054,55.237498],[37.33441,55.238042],[37.353243,55.238853],[37.385121,55.246808],[37.40038,55.250092],[37.405315,55.250576],[37.406641,55.26084],[37.411629,55.27863],[37.410907,55.278741],[37.412834,55.282217],[37.414193,55.283615],[37.415446,55.286497],[37.415226,55.290026],[37.416634,55.290174],[37.416264,55.290569],[37.417987,55.291278],[37.414417,55.290496],[37.411513,55.290658],[37.409719,55.290172],[37.40857,55.291909],[37.412161,55.292792],[37.41198,55.293183],[37.41323,55.293588],[37.410898,55.296258],[37.410305,55.296009],[37.4091,55.296666],[37.408063,55.296187],[37.40701,55.2967],[37.406422,55.296227],[37.404908,55.296789],[37.403599,55.296139],[37.402864,55.296526],[37.403006,55.297766],[37.404095,55.298454],[37.404074,55.300486],[37.39945,55.301691],[37.39926,55.301021],[37.397522,55.301331],[37.392513,55.299521],[37.391503,55.301386],[37.389964,55.302541],[37.391431,55.304063],[37.392663,55.306618],[37.395385,55.307374],[37.395074,55.308066],[37.393651,55.307878],[37.393178,55.309608],[37.391424,55.309585],[37.390444,55.311197],[37.389653,55.311168],[37.389872,55.312224],[37.38792,55.31217],[37.386267,55.314563],[37.38273,55.316787],[37.389455,55.316283],[37.395524,55.314942],[37.396691,55.316038],[37.400344,55.314495],[37.401809,55.312976],[37.406978,55.311365],[37.409783,55.309415],[37.414647,55.311858],[37.422127,55.31152],[37.422337,55.312356],[37.427818,55.314727],[37.424914,55.317218],[37.424691,55.320631],[37.424104,55.321525],[37.424755,55.322492],[37.422913,55.323927],[37.420841,55.328921],[37.415328,55.33059],[37.41429,55.331838],[37.410728,55.332574],[37.407915,55.333821],[37.405853,55.335008],[37.405115,55.336534],[37.40584,55.33646],[37.41021,55.338872],[37.410028,55.339299],[37.410871,55.339196],[37.413788,55.340368],[37.413554,55.340811],[37.414254,55.34129],[37.414851,55.34101],[37.417288,55.341895],[37.419583,55.342042],[37.422863,55.343207],[37.422319,55.346369],[37.420918,55.349458],[37.419661,55.350623],[37.419933,55.351316],[37.441026,55.35195],[37.440313,55.352687],[37.443088,55.352922],[37.427572,55.364652],[37.4301,55.364701],[37.429946,55.365095],[37.431413,55.367148],[37.429332,55.368805],[37.433073,55.36944],[37.4342,55.370029],[37.4353,55.37279],[37.438234,55.374546],[37.440883,55.374066],[37.445128,55.375046],[37.445494,55.3774],[37.447108,55.381166],[37.448996,55.381598],[37.452571,55.380167],[37.453698,55.380333],[37.454321,55.379937],[37.454257,55.379286],[37.455944,55.377265],[37.455994,55.375304],[37.457117,55.374619],[37.456815,55.373979],[37.458327,55.372853],[37.458914,55.371322],[37.460958,55.369733],[37.462178,55.367675],[37.465469,55.369186],[37.467504,55.371291],[37.464488,55.37664],[37.46927,55.379818],[37.467053,55.384686],[37.463928,55.388229],[37.47054,55.390025],[37.468051,55.392404],[37.463993,55.398022],[37.463902,55.398655],[37.468518,55.399038],[37.46752,55.3997],[37.461309,55.399406],[37.460946,55.40157],[37.463384,55.402652],[37.462061,55.404868],[37.468959,55.406782],[37.466009,55.40837],[37.465587,55.409016],[37.467256,55.410941],[37.467688,55.412045],[37.467293,55.412565],[37.459977,55.413314],[37.458272,55.412409],[37.456127,55.412295],[37.452382,55.413307],[37.450491,55.414795],[37.450319,55.415661],[37.448065,55.415089],[37.448052,55.41444],[37.443536,55.413182],[37.44256,55.414132],[37.44122,55.413673],[37.440063,55.414214],[37.436928,55.413881],[37.436015,55.414586],[37.436407,55.415033],[37.436103,55.415264],[37.437936,55.417606],[37.439282,55.418589],[37.438837,55.420302],[37.435405,55.420764],[37.434899,55.419106],[37.433237,55.419173],[37.433566,55.421788],[37.432456,55.423293],[37.428585,55.424064],[37.426978,55.425361],[37.428923,55.42639],[37.430951,55.426731],[37.432232,55.426358],[37.433544,55.426792],[37.430293,55.429012],[37.424975,55.426603],[37.425765,55.427362],[37.426521,55.432391],[37.386684,55.434433],[37.386523,55.438436],[37.387864,55.438649],[37.389668,55.437829],[37.391481,55.437753],[37.395878,55.440258],[37.395527,55.44037],[37.40003,55.444393],[37.398986,55.445448],[37.39803,55.445108],[37.39656,55.44321],[37.395811,55.443226],[37.394818,55.442442],[37.390771,55.441942],[37.389387,55.442143],[37.390163,55.444124],[37.387714,55.44637],[37.378606,55.446336],[37.376888,55.44594],[37.376678,55.445442],[37.373596,55.445399],[37.371384,55.447864],[37.372717,55.449916],[37.374543,55.449854],[37.375766,55.45133],[37.376795,55.451329],[37.377031,55.451851],[37.380265,55.45201],[37.384475,55.451296],[37.38658,55.452323],[37.387902,55.453572],[37.386834,55.454084],[37.386474,55.455925],[37.383638,55.457031],[37.384323,55.457877],[37.38766,55.456687],[37.388768,55.4571],[37.391459,55.460007],[37.394207,55.463164],[37.392496,55.464125],[37.391032,55.466674],[37.394573,55.469007],[37.402785,55.4685],[37.400377,55.466989],[37.405076,55.465082],[37.407627,55.465085],[37.411257,55.462932],[37.412204,55.465628],[37.415716,55.466154],[37.419623,55.468701],[37.421082,55.468378],[37.424549,55.469847],[37.429091,55.469421],[37.429736,55.471774],[37.426225,55.475893],[37.4271,55.476261],[37.428471,55.475886],[37.432232,55.476231],[37.434524,55.476839],[37.43883,55.478713],[37.439173,55.479488],[37.444638,55.482118],[37.445841,55.483649],[37.447387,55.487104],[37.443968,55.488005],[37.444494,55.48858],[37.448122,55.48765],[37.447494,55.488232],[37.44545,55.488764],[37.445308,55.490458],[37.445799,55.49092],[37.448813,55.489886],[37.454627,55.494078],[37.455365,55.495455],[37.455099,55.49598],[37.453726,55.496369],[37.450851,55.495615],[37.449666,55.495921],[37.448885,55.497924],[37.447433,55.49916],[37.443694,55.500122],[37.441177,55.501362],[37.440864,55.501988],[37.439108,55.502116],[37.437577,55.500558],[37.434836,55.501056],[37.432548,55.502381],[37.432967,55.503213],[37.432088,55.504045],[37.432817,55.505683],[37.429231,55.505695],[37.42887,55.504282],[37.424307,55.504152],[37.424148,55.504654],[37.421532,55.504787],[37.420481,55.506422],[37.41782,55.506703],[37.41561,55.505891],[37.415153,55.504801],[37.416715,55.502382],[37.418222,55.501785],[37.417806,55.501125],[37.413651,55.501943],[37.408235,55.500575],[37.404915,55.501659],[37.409084,55.504794],[37.409845,55.50846],[37.40647,55.50975],[37.405458,55.50902],[37.40438,55.509641],[37.405313,55.510063],[37.407735,55.513895],[37.409002,55.513911],[37.408869,55.512745],[37.41365,55.511646],[37.413669,55.511219],[37.41666,55.511386],[37.416858,55.512407],[37.413506,55.512395],[37.412604,55.51293],[37.4113,55.515952],[37.406725,55.515943],[37.405583,55.516448],[37.405051,55.516827],[37.405309,55.517255],[37.407326,55.518819],[37.404107,55.521079],[37.401189,55.521128],[37.39967,55.520705],[37.398806,55.519768],[37.397386,55.520143],[37.396842,55.520585],[37.396548,55.52229],[37.3965,55.526576],[37.394292,55.526572],[37.389746,55.528493],[37.390036,55.531363],[37.392144,55.535125],[37.39483,55.537238],[37.412242,55.544478],[37.407164,55.548411],[37.408026,55.549571],[37.392208,55.553635],[37.394058,55.555663],[37.388878,55.557134],[37.388502,55.557549],[37.389037,55.558826],[37.38727,55.558943],[37.384506,55.560296],[37.378766,55.561723],[37.378495,55.561167],[37.376466,55.561484],[37.367958,55.555634],[37.36756,55.553814],[37.368051,55.551567],[37.369755,55.551117],[37.368728,55.548936],[37.365726,55.548495],[37.364874,55.547626],[37.357864,55.549485],[37.356724,55.548752],[37.353622,55.550478],[37.352395,55.54907],[37.351805,55.547384],[37.34356,55.547045],[37.342353,55.546062],[37.342031,55.544871],[37.336065,55.540638],[37.333312,55.539637],[37.330645,55.539384],[37.328744,55.539913],[37.327563,55.538492],[37.318919,55.538443],[37.318007,55.539431],[37.313656,55.539121],[37.312642,55.541575],[37.311795,55.541628],[37.31121,55.54265],[37.311304,55.543729],[37.304514,55.542447],[37.298089,55.539324],[37.299732,55.530191],[37.293497,55.529095],[37.284034,55.525657],[37.273928,55.520932],[37.27166,55.522177],[37.270395,55.519089],[37.273414,55.517554],[37.272429,55.515415],[37.272458,55.510875],[37.270101,55.508985],[37.270592,55.508573],[37.269858,55.508048],[37.269847,55.507446],[37.270563,55.506641],[37.269167,55.505698],[37.267936,55.506174],[37.265975,55.505181],[37.255651,55.503424],[37.25395,55.504258],[37.249709,55.501815],[37.246615,55.49781],[37.242196,55.498112],[37.239969,55.499282],[37.241593,55.49763],[37.243444,55.49726],[37.201532,55.492948],[37.195667,55.488472],[37.184026,55.48347],[37.152504,55.480564],[37.148559,55.479794],[37.14706,55.481748],[37.142968,55.480966],[37.142064,55.482401],[37.136055,55.482096],[37.138993,55.475088],[37.139191,55.473342],[37.112629,55.469838],[37.112671,55.468904],[37.093361,55.470404],[37.092279,55.464917],[37.095407,55.463119],[37.140967,55.443465],[37.150094,55.43896],[37.148848,55.438176],[37.148329,55.438124],[37.141397,55.442653],[37.135827,55.440637],[37.137105,55.439602],[37.135738,55.438162],[37.133995,55.443159],[37.130557,55.441568],[37.124408,55.441954],[37.118207,55.439884],[37.119516,55.439197],[37.117006,55.438057],[37.111395,55.4398],[37.108499,55.439512],[37.112566,55.441292],[37.110786,55.443165],[37.10794,55.445067],[37.110531,55.44705],[37.113107,55.44821],[37.112778,55.449227],[37.099812,55.44571],[37.100764,55.445123],[37.097078,55.442693],[37.096045,55.443277],[37.089283,55.441232],[37.087268,55.446272],[37.082522,55.445492],[37.080618,55.446685],[37.081423,55.448244],[37.079767,55.448935],[37.0786,55.450041],[37.080514,55.450744],[37.080325,55.452699],[37.07679,55.453568],[37.058612,55.45469],[37.060613,55.46266],[37.036819,55.464061],[37.035577,55.458441],[37.032128,55.455957],[37.020071,55.456786],[37.019234,55.445129],[37.006309,55.44617],[37.004642,55.447154],[37.003471,55.449597],[37.005573,55.45052],[37.002084,55.452596],[36.999775,55.452502],[36.998821,55.453628],[36.998056,55.453782],[36.997279,55.454909],[36.997598,55.455201],[36.996325,55.456447],[36.9944,55.456101],[36.993315,55.456652],[36.994017,55.458318],[36.989596,55.459224],[36.989287,55.456851],[36.98401,55.457787],[36.982959,55.454873],[36.973446,55.455461],[36.977791,55.493742],[36.935058,55.496155],[36.938066,55.499002],[36.936909,55.499481],[36.935228,55.505233],[36.937968,55.507008],[36.937128,55.508276],[36.937786,55.509462],[36.936019,55.509022],[36.939271,55.513148],[36.941981,55.515329],[36.939976,55.516559],[36.938093,55.516004],[36.935119,55.516573],[36.933594,55.515932],[36.93561,55.515013],[36.919754,55.515446],[36.919474,55.505845],[36.844517,55.507069],[36.827875,55.507513],[36.827976,55.508423],[36.81624,55.508351],[36.815916,55.475138],[36.815208,55.465972],[36.804512,55.465508],[36.803101,55.440833]]],[[[36.900752,55.314857],[36.90128,55.313961],[36.902997,55.312887],[36.906688,55.311275],[36.907889,55.311714],[36.911065,55.31357],[36.912009,55.316745],[36.913315,55.317243],[36.917608,55.316774],[36.918959,55.318643],[36.919453,55.318704],[36.922672,55.323856],[36.922567,55.32451],[36.913297,55.325975],[36.915847,55.330326],[36.910332,55.331303],[36.909673,55.329799],[36.908443,55.329893],[36.909117,55.32684],[36.910121,55.32617],[36.909091,55.31992],[36.906173,55.316745],[36.903941,55.317234],[36.903255,55.31611],[36.900752,55.314857]]]]}},{"type":"Feature","id":"102269-60","properties":{"id":"102269-60","name":"Зеленоградский административный округ","name_ru":"Зеленоградский административный округ","subject_id":"102269","subject_name":"Москва","source_gid":60,"source_fid":63,"names_rosstat":"Зеленоградский округ","population":276162,"area_km2":37.05478633708616,"density_km2":7452.802385304923,"source":"Актуализированный объединённый GeoJSON, предоставленный преподавателем","name_en":"Zelenogradskii administrativnyi Okrug","name_zh":"Zelenogradskii administrativnyi专区","subject_name_en":"Moscow","subject_name_zh":"莫斯科市"},"geometry":{"type":"Polygon","coordinates":[[[37.131602,56.016446],[37.139068,56.009594],[37.139417,56.009721],[37.151171,55.999549],[37.149199,55.998343],[37.150248,55.997534],[37.14993,55.996572],[37.151368,55.996213],[37.152711,55.994242],[37.152744,55.993058],[37.150691,55.993133],[37.148822,55.99212],[37.149662,55.991567],[37.149583,55.99117],[37.146925,55.991021],[37.145602,55.990116],[37.144087,55.989882],[37.148733,55.976992],[37.148774,55.970267],[37.14638,55.96997],[37.145597,55.966043],[37.148303,55.965604],[37.146611,55.963719],[37.149233,55.963042],[37.149624,55.962287],[37.150719,55.962526],[37.151623,55.961789],[37.154185,55.962426],[37.154456,55.961914],[37.156497,55.961978],[37.156853,55.962558],[37.159278,55.96189],[37.159026,55.962463],[37.15942,55.962495],[37.160332,55.961494],[37.161014,55.961861],[37.161678,55.96149],[37.161913,55.960019],[37.162757,55.96012],[37.162372,55.95955],[37.163057,55.959023],[37.16404,55.959492],[37.164037,55.958971],[37.166027,55.959067],[37.165994,55.958514],[37.167296,55.958521],[37.167185,55.958928],[37.167642,55.959057],[37.169145,55.958861],[37.169054,55.959321],[37.168106,55.959434],[37.168944,55.959915],[37.168642,55.960701],[37.17147,55.96068],[37.173222,55.960061],[37.173791,55.959396],[37.172492,55.958474],[37.17256,55.957934],[37.174864,55.957476],[37.177608,55.958712],[37.178528,55.958363],[37.18251,55.958733],[37.184411,55.957358],[37.183335,55.955633],[37.184238,55.955073],[37.183217,55.954262],[37.186403,55.953089],[37.187531,55.955447],[37.188825,55.956114],[37.19433,55.955039],[37.193865,55.954504],[37.195234,55.953765],[37.195905,55.954718],[37.202851,55.953217],[37.202917,55.951771],[37.201529,55.949413],[37.202348,55.948598],[37.204965,55.948203],[37.208104,55.949161],[37.208712,55.948756],[37.208443,55.948408],[37.211104,55.948072],[37.212262,55.948488],[37.21199,55.948796],[37.213537,55.948285],[37.214481,55.948803],[37.216507,55.948724],[37.217455,55.948008],[37.219908,55.95023],[37.218445,55.951466],[37.219285,55.953075],[37.220793,55.954029],[37.218556,55.955206],[37.219388,55.957118],[37.217245,55.957907],[37.215336,55.956323],[37.213827,55.956601],[37.212592,55.955844],[37.210178,55.957372],[37.209329,55.960172],[37.206876,55.961441],[37.20564,55.963121],[37.20928,55.964419],[37.211566,55.967151],[37.209116,55.968192],[37.208916,55.968681],[37.207675,55.968722],[37.208529,55.970097],[37.2124,55.969243],[37.213141,55.970173],[37.211303,55.970456],[37.21284,55.976596],[37.214923,55.976079],[37.215558,55.976683],[37.217001,55.975994],[37.218773,55.977241],[37.217051,55.977668],[37.217458,55.978365],[37.218912,55.98036],[37.220515,55.981306],[37.223772,55.981704],[37.224823,55.981264],[37.225855,55.98008],[37.227355,55.979816],[37.230172,55.980243],[37.230778,55.9799],[37.230653,55.97891],[37.232211,55.979063],[37.233266,55.978495],[37.235818,55.979799],[37.236564,55.979659],[37.236753,55.979095],[37.238372,55.978787],[37.240899,55.979483],[37.241926,55.979338],[37.242506,55.978981],[37.242368,55.978268],[37.243578,55.97785],[37.244078,55.977189],[37.243696,55.976698],[37.246497,55.975739],[37.25327,55.970414],[37.252488,55.967898],[37.260036,55.967909],[37.262262,55.966877],[37.268302,55.967836],[37.268137,55.968213],[37.261292,55.968073],[37.261581,55.96991],[37.261055,55.969902],[37.261461,55.971425],[37.263178,55.971898],[37.263798,55.972711],[37.266438,55.979466],[37.265408,55.979647],[37.266163,55.981144],[37.267743,55.981934],[37.267355,55.982428],[37.265174,55.983038],[37.265504,55.98449],[37.264458,55.987137],[37.263014,55.988541],[37.25555,55.987261],[37.253792,55.988269],[37.257308,55.990058],[37.260536,55.993153],[37.248444,55.997841],[37.248504,55.998394],[37.247451,55.999081],[37.246312,56.00081],[37.244367,56.001094],[37.242301,56.000282],[37.210665,56.012431],[37.211303,56.012976],[37.207375,56.01715],[37.20325,56.015486],[37.188978,56.021224],[37.186998,56.019994],[37.184512,56.020018],[37.184212,56.019721],[37.185285,56.018915],[37.177612,56.015132],[37.167744,56.013891],[37.164615,56.014233],[37.163825,56.013595],[37.162655,56.013937],[37.16173,56.013221],[37.158863,56.0137],[37.158661,56.014142],[37.159963,56.014441],[37.159186,56.015335],[37.159754,56.016362],[37.158256,56.017998],[37.15052,56.016499],[37.150095,56.017223],[37.145235,56.018092],[37.143349,56.017692],[37.138754,56.018372],[37.138927,56.017892],[37.136091,56.019108],[37.131602,56.016446]]]}},{"type":"Feature","id":"102269-62","properties":{"id":"102269-62","name":"Западный административный округ","name_ru":"Западный административный округ","subject_id":"102269","subject_name":"Москва","source_gid":62,"source_fid":67,"names_rosstat":"Западный округ","population":1420083,"area_km2":188.96066014497572,"density_km2":7515.230942305526,"source":"Актуализированный объединённый GeoJSON, предоставленный преподавателем","name_en":"Zapadnyi administrativnyi Okrug","name_zh":"Zapadnyi administrativnyi专区","subject_name_en":"Moscow","subject_name_zh":"莫斯科市"},"geometry":{"type":"MultiPolygon","coordinates":[[[[36.888079,55.734436],[36.889575,55.733027],[36.896065,55.733273],[36.904074,55.732151],[36.909303,55.732092],[36.914195,55.732839],[36.917755,55.732078],[36.918914,55.731049],[36.91939,55.731247],[36.917579,55.733076],[36.917711,55.733441],[36.920871,55.732897],[36.923712,55.736815],[36.916238,55.736902],[36.910926,55.736202],[36.910724,55.736235],[36.910261,55.736513],[36.910124,55.736857],[36.910467,55.738565],[36.906772,55.738602],[36.90639,55.73957],[36.904718,55.74087],[36.904767,55.741327],[36.908032,55.741245],[36.909444,55.739094],[36.910562,55.738593],[36.910196,55.736859],[36.910765,55.736283],[36.916204,55.736954],[36.924022,55.736889],[36.934079,55.743504],[36.937655,55.753919],[36.940818,55.753914],[36.941064,55.754316],[36.943632,55.754661],[36.943811,55.75365],[36.94566,55.751228],[36.948236,55.751736],[36.948608,55.751187],[36.947969,55.750321],[36.948438,55.75004],[36.944602,55.748226],[36.945861,55.747483],[36.944801,55.746974],[36.945383,55.74555],[36.943213,55.743399],[36.943857,55.743232],[36.942623,55.742083],[36.941123,55.742322],[36.940881,55.739079],[36.939692,55.738861],[36.936007,55.739559],[36.935228,55.737143],[36.946031,55.736758],[36.946866,55.735852],[36.947672,55.731761],[36.961998,55.732753],[36.963879,55.735095],[36.96384,55.73616],[36.971921,55.738088],[36.976391,55.738422],[36.974889,55.7396],[36.975466,55.74009],[36.974321,55.741106],[36.977584,55.742156],[36.981382,55.738666],[36.982811,55.73921],[36.983238,55.738794],[36.990052,55.739648],[36.990567,55.739916],[36.989143,55.741452],[36.990178,55.741844],[36.992794,55.741416],[36.994093,55.740582],[36.99252,55.739848],[36.983953,55.73853],[36.985608,55.737032],[36.989557,55.734738],[36.9901,55.735066],[36.99088,55.734624],[36.9924,55.735621],[36.991808,55.735922],[36.99353,55.737435],[36.995344,55.73834],[37.002545,55.73984],[37.005686,55.739656],[37.005114,55.738015],[37.003171,55.735171],[37.002343,55.735131],[36.999356,55.738356],[36.996595,55.736634],[36.996013,55.736961],[36.994271,55.736528],[36.99543,55.735919],[36.990856,55.733462],[36.993554,55.731561],[36.985648,55.727329],[36.984975,55.727334],[36.983916,55.72955],[36.980665,55.732113],[36.980357,55.732746],[36.980713,55.73318],[36.979722,55.734756],[36.973843,55.736257],[36.97063,55.736365],[36.965252,55.735449],[36.96327,55.733716],[36.962086,55.729929],[36.963395,55.729507],[36.962221,55.727957],[36.962567,55.727773],[36.967994,55.727806],[36.972227,55.725785],[36.975161,55.725086],[36.976297,55.724154],[36.977365,55.724197],[36.977403,55.723515],[36.981569,55.722545],[36.984648,55.720946],[36.985205,55.721342],[36.991238,55.718947],[36.996702,55.719261],[36.998983,55.721049],[36.999887,55.722957],[37.006073,55.725324],[37.006718,55.724793],[37.006541,55.723681],[37.007058,55.723203],[37.009324,55.722984],[37.008324,55.719819],[37.009664,55.719701],[37.01214,55.720425],[37.0128,55.718566],[37.011671,55.715865],[37.014759,55.716217],[37.017372,55.715662],[37.01484,55.710763],[37.019702,55.710704],[37.024252,55.709586],[37.020725,55.708416],[37.020646,55.706919],[37.01593,55.707057],[37.015861,55.706601],[37.015235,55.706601],[37.013521,55.706785],[37.013521,55.707295],[37.009432,55.707491],[37.011086,55.710404],[37.013024,55.710354],[37.013222,55.712159],[37.011936,55.71465],[37.011024,55.715229],[37.007813,55.71475],[37.006691,55.71583],[37.005058,55.715447],[37.003351,55.713803],[37.002976,55.714163],[36.998976,55.713186],[37.000017,55.711561],[37.002078,55.711937],[37.001326,55.711127],[37.003364,55.710749],[37.002935,55.709875],[37.001942,55.709583],[37.002044,55.708085],[37.000242,55.707885],[36.999412,55.709307],[36.997507,55.711059],[36.997969,55.711323],[36.997908,55.712477],[36.992044,55.71209],[37.00016,55.707391],[37.002922,55.707004],[37.002357,55.706249],[37.003711,55.706034],[37.004174,55.705413],[37.017235,55.705367],[37.017412,55.706555],[37.020086,55.706479],[37.020106,55.706793],[37.034435,55.706622],[37.03376,55.70682],[37.03378,55.707199],[37.03508,55.707119],[37.03527,55.707502],[37.029148,55.711818],[37.028318,55.711557],[37.028457,55.711033],[37.027563,55.710491],[37.026716,55.710827],[37.026293,55.710318],[37.027029,55.709971],[37.026644,55.709559],[37.024662,55.709727],[37.027515,55.712328],[37.03384,55.713987],[37.035394,55.711066],[37.037944,55.709174],[37.039969,55.708843],[37.046482,55.709071],[37.05454,55.709757],[37.058393,55.712052],[37.059182,55.713402],[37.060139,55.718883],[37.061654,55.720374],[37.067903,55.722878],[37.078846,55.715417],[37.096399,55.715583],[37.096402,55.7163],[37.104118,55.716368],[37.105807,55.715787],[37.107676,55.716064],[37.107667,55.715638],[37.113009,55.716103],[37.112087,55.717063],[37.116738,55.71994],[37.118898,55.720823],[37.119484,55.720013],[37.123062,55.721205],[37.11929,55.723861],[37.127775,55.728082],[37.121588,55.733888],[37.122016,55.734861],[37.116922,55.736586],[37.116402,55.737504],[37.111626,55.738008],[37.112068,55.738999],[37.107388,55.741574],[37.096967,55.74379],[37.092491,55.743649],[37.089784,55.741319],[37.085872,55.741638],[37.084327,55.739038],[37.081503,55.736152],[37.079664,55.735738],[37.080383,55.735369],[37.080015,55.735145],[37.079485,55.735409],[37.082354,55.732582],[37.087779,55.730724],[37.091341,55.730289],[37.094349,55.72872],[37.09588,55.730611],[37.096697,55.730601],[37.096878,55.730917],[37.096102,55.730944],[37.096266,55.73171],[37.099987,55.73175],[37.103283,55.732627],[37.105182,55.732639],[37.10287,55.734218],[37.105067,55.733919],[37.107665,55.734767],[37.110254,55.733229],[37.111008,55.732284],[37.115884,55.736173],[37.119474,55.734789],[37.120648,55.732789],[37.120316,55.731772],[37.115964,55.728745],[37.112571,55.727123],[37.108195,55.72638],[37.104137,55.72645],[37.101772,55.72562],[37.096985,55.726135],[37.096223,55.726517],[37.095037,55.728227],[37.088828,55.72792],[37.088474,55.72737],[37.085197,55.72802],[37.080993,55.728077],[37.073777,55.730138],[37.070237,55.729019],[37.069299,55.725985],[37.069164,55.723471],[37.068275,55.723129],[37.065377,55.72237],[37.064585,55.723191],[37.054814,55.723697],[37.052035,55.72232],[37.048983,55.721983],[37.048826,55.721388],[37.054257,55.720357],[37.05254,55.718353],[37.045021,55.71866],[37.042366,55.719407],[37.040976,55.719285],[37.04219,55.719443],[37.042751,55.720213],[37.042659,55.721028],[37.044764,55.720803],[37.047385,55.721845],[37.047758,55.723524],[37.046775,55.726823],[37.043381,55.728528],[37.041452,55.730354],[37.038907,55.731632],[37.035929,55.732185],[37.033284,55.731895],[37.029762,55.732212],[37.027251,55.73352],[37.024019,55.732258],[37.023305,55.733109],[37.024836,55.733786],[37.029118,55.733964],[37.021966,55.734914],[37.022917,55.736532],[37.024271,55.740883],[37.023843,55.74293],[37.02047,55.745418],[37.020235,55.745001],[37.016333,55.74626],[37.012451,55.74665],[37.010181,55.746388],[37.00664,55.745394],[37.001666,55.741644],[36.999276,55.742275],[36.999492,55.743149],[37.000108,55.74297],[36.999396,55.74361],[37.000656,55.743674],[37.001233,55.744184],[37.000767,55.744381],[37.000954,55.744991],[37.001512,55.745399],[37.003008,55.745421],[37.008156,55.747728],[37.006034,55.749596],[37.004581,55.748567],[36.995995,55.747346],[36.995013,55.748305],[36.992608,55.749166],[36.991574,55.748827],[36.992647,55.749065],[36.995163,55.74769],[36.993349,55.746953],[36.99205,55.744709],[36.988273,55.744932],[36.986177,55.744512],[36.985008,55.745484],[36.991117,55.748432],[36.989997,55.749399],[36.989554,55.748714],[36.988847,55.748614],[36.984541,55.75026],[36.987308,55.751787],[36.986711,55.752878],[36.986956,55.754664],[36.982714,55.757645],[36.984075,55.758105],[36.983642,55.758684],[36.978755,55.760487],[36.975743,55.758375],[36.974935,55.757214],[36.980792,55.75591],[36.980162,55.754206],[36.97766,55.751584],[36.978179,55.751185],[36.971834,55.752191],[36.972293,55.753399],[36.972013,55.753922],[36.97039,55.749543],[36.968132,55.74955],[36.968277,55.748792],[36.966959,55.747458],[36.964414,55.747677],[36.961273,55.749469],[36.959007,55.749875],[36.960609,55.750655],[36.958195,55.751205],[36.956371,55.753966],[36.95792,55.755763],[36.957107,55.758246],[36.957656,55.757222],[36.958262,55.757276],[36.959359,55.755276],[36.970658,55.75575],[36.971808,55.757945],[36.968056,55.760037],[36.933219,55.754407],[36.93292,55.752637],[36.928504,55.751175],[36.921019,55.74658],[36.915983,55.746672],[36.908079,55.748752],[36.90779,55.747319],[36.906049,55.746957],[36.904755,55.745394],[36.902874,55.744912],[36.899747,55.745367],[36.898583,55.741806],[36.897198,55.742446],[36.896871,55.742169],[36.899218,55.74104],[36.900555,55.735164],[36.89993,55.735142],[36.899728,55.73376],[36.898311,55.733295],[36.893616,55.733877],[36.890487,55.733601],[36.890038,55.734359],[36.889344,55.73403],[36.888541,55.734857],[36.888079,55.734436]]],[[[37.290502,55.80199],[37.293264,55.798065],[37.293168,55.796397],[37.302354,55.798634],[37.302923,55.802477],[37.303564,55.803559],[37.297769,55.803354],[37.290502,55.80199]]],[[[37.307919,55.797228],[37.309112,55.797129],[37.309374,55.795848],[37.311677,55.796395],[37.31144,55.796795],[37.311884,55.796858],[37.312662,55.795691],[37.315274,55.79689],[37.315545,55.796614],[37.315201,55.796163],[37.316292,55.796377],[37.316738,55.795791],[37.319386,55.796638],[37.319151,55.797273],[37.320955,55.79782],[37.324084,55.797117],[37.32497,55.796601],[37.324527,55.796288],[37.324615,55.796697],[37.323151,55.79703],[37.317992,55.795027],[37.31707,55.795039],[37.314389,55.793686],[37.316445,55.792779],[37.311533,55.792588],[37.310059,55.792087],[37.312822,55.790812],[37.315399,55.788404],[37.31288,55.78779],[37.310606,55.784464],[37.311552,55.78415],[37.311843,55.780165],[37.313146,55.779751],[37.312827,55.786384],[37.328409,55.781086],[37.326803,55.779328],[37.324337,55.778602],[37.323467,55.777706],[37.324024,55.777533],[37.322973,55.776733],[37.322415,55.776945],[37.315302,55.774603],[37.310852,55.775436],[37.309812,55.771972],[37.308494,55.770591],[37.312756,55.769081],[37.318937,55.769506],[37.320702,55.766821],[37.328719,55.767293],[37.332248,55.767984],[37.331959,55.771375],[37.332302,55.771934],[37.338284,55.771291],[37.340333,55.770404],[37.338344,55.769277],[37.339861,55.76902],[37.344497,55.768598],[37.344515,55.769756],[37.347067,55.769551],[37.348469,55.770175],[37.350631,55.772879],[37.35244,55.773762],[37.352232,55.778027],[37.360508,55.783099],[37.359489,55.783967],[37.37051,55.78803],[37.36801,55.789921],[37.357817,55.792568],[37.348679,55.796421],[37.349948,55.796993],[37.352094,55.797147],[37.353893,55.798865],[37.35754,55.800013],[37.359488,55.801255],[37.358251,55.803343],[37.349454,55.806478],[37.347848,55.806649],[37.342776,55.805111],[37.336104,55.802066],[37.334999,55.801097],[37.334486,55.799611],[37.32179,55.800752],[37.31477,55.799257],[37.314306,55.798133],[37.307919,55.797228]]],[[[37.326228,55.68276],[37.346086,55.676299],[37.348986,55.678562],[37.354299,55.676321],[37.357484,55.679243],[37.358096,55.679078],[37.3611,55.682098],[37.355072,55.685523],[37.356659,55.687706],[37.355801,55.687456],[37.357973,55.691738],[37.361083,55.690091],[37.359668,55.689036],[37.363951,55.687769],[37.364342,55.688217],[37.362687,55.688776],[37.363365,55.689964],[37.364321,55.690691],[37.366069,55.690103],[37.367904,55.691728],[37.372858,55.691066],[37.371502,55.69004],[37.374865,55.688936],[37.381071,55.692636],[37.382803,55.693222],[37.383693,55.693073],[37.384138,55.693826],[37.390196,55.696776],[37.393696,55.694813],[37.394322,55.696359],[37.396615,55.696523],[37.395277,55.698998],[37.396864,55.696521],[37.402162,55.698839],[37.411693,55.691286],[37.413783,55.688124],[37.41496,55.685267],[37.414683,55.683955],[37.41516,55.682426],[37.414209,55.682028],[37.415448,55.682043],[37.417481,55.680776],[37.410585,55.678048],[37.41129,55.677491],[37.405972,55.674458],[37.405707,55.673281],[37.404801,55.672829],[37.404032,55.671043],[37.405943,55.670104],[37.406732,55.670373],[37.407338,55.669683],[37.413074,55.66741],[37.415457,55.664765],[37.404661,55.661936],[37.394133,55.660937],[37.389061,55.661926],[37.386158,55.664576],[37.380579,55.664509],[37.379712,55.664028],[37.378003,55.659483],[37.376991,55.659102],[37.370952,55.659058],[37.369765,55.659519],[37.369999,55.667997],[37.369042,55.668919],[37.364617,55.669124],[37.358244,55.666045],[37.358452,55.662576],[37.352888,55.660338],[37.350238,55.661198],[37.350509,55.66241],[37.353582,55.663724],[37.351702,55.664877],[37.348047,55.665829],[37.348491,55.662906],[37.347653,55.662031],[37.343769,55.662331],[37.343872,55.661732],[37.34203,55.660129],[37.342325,55.659546],[37.341549,55.658862],[37.34187,55.658063],[37.34095,55.65773],[37.341529,55.656066],[37.342366,55.655497],[37.342126,55.655027],[37.343057,55.654058],[37.33786,55.652824],[37.336092,55.651879],[37.332845,55.648368],[37.330899,55.647306],[37.332047,55.645938],[37.330652,55.64225],[37.32999,55.64184],[37.33029,55.640915],[37.329818,55.639874],[37.330347,55.639324],[37.33244,55.639548],[37.334406,55.63848],[37.336056,55.635179],[37.338859,55.635394],[37.34212,55.633788],[37.343783,55.632428],[37.356117,55.630576],[37.359871,55.629725],[37.363892,55.627932],[37.368685,55.624894],[37.370954,55.622778],[37.372289,55.620327],[37.374229,55.614696],[37.44174,55.632182],[37.448574,55.634244],[37.455719,55.637049],[37.501653,55.658525],[37.52401,55.673706],[37.511662,55.679731],[37.536571,55.693563],[37.559232,55.71028],[37.552897,55.710973],[37.548516,55.712263],[37.543331,55.715617],[37.541885,55.717595],[37.541081,55.720125],[37.541863,55.72404],[37.544903,55.727056],[37.553035,55.729947],[37.56575,55.736401],[37.568327,55.738552],[37.573891,55.744709],[37.574449,55.746327],[37.574492,55.748863],[37.57402,55.750337],[37.573033,55.751472],[37.570802,55.752728],[37.564021,55.753597],[37.560178,55.753078],[37.554535,55.751436],[37.540374,55.745458],[37.536727,55.744636],[37.527972,55.744612],[37.525569,55.745337],[37.52205,55.747583],[37.518503,55.752585],[37.516299,55.756833],[37.511664,55.759659],[37.505828,55.761784],[37.498146,55.765502],[37.489716,55.76796],[37.484511,55.76817],[37.478866,55.767343],[37.476388,55.76451],[37.476173,55.761711],[37.476774,55.756906],[37.476173,55.752293],[37.475143,55.749878],[37.472783,55.747269],[37.467376,55.744033],[37.461796,55.741858],[37.455316,55.740602],[37.452527,55.740602],[37.444459,55.742607],[37.437378,55.746424],[37.436348,55.747873],[37.437376,55.749686],[37.439222,55.750531],[37.453083,55.753888],[37.457632,55.75582],[37.463426,55.760191],[37.46452,55.762383],[37.464272,55.765228],[37.46294,55.766951],[37.455266,55.774177],[37.450643,55.776869],[37.447353,55.777253],[37.434121,55.7742],[37.40858,55.775762],[37.401828,55.771798],[37.39826,55.771177],[37.386732,55.770902],[37.383403,55.772182],[37.379752,55.772348],[37.378835,55.771677],[37.370865,55.771014],[37.370261,55.771362],[37.370262,55.773027],[37.368885,55.773038],[37.368743,55.772499],[37.367872,55.772121],[37.36526,55.771728],[37.366756,55.770903],[37.366527,55.770008],[37.368644,55.76869],[37.368608,55.766941],[37.366839,55.765736],[37.366306,55.764607],[37.365612,55.764412],[37.367905,55.764136],[37.367872,55.763037],[37.368489,55.762557],[37.368312,55.75013],[37.368948,55.745982],[37.374518,55.734325],[37.373982,55.732513],[37.374796,55.731874],[37.375743,55.731887],[37.379268,55.725019],[37.379215,55.724195],[37.378454,55.723338],[37.381124,55.721383],[37.38431,55.715166],[37.381352,55.713094],[37.381562,55.712603],[37.382635,55.712639],[37.386661,55.711148],[37.392477,55.705919],[37.387941,55.70432],[37.388562,55.703556],[37.388239,55.703233],[37.390484,55.702436],[37.388646,55.700793],[37.392162,55.698423],[37.38983,55.696949],[37.387886,55.698104],[37.385447,55.696969],[37.382014,55.698537],[37.379034,55.697313],[37.379512,55.696923],[37.379157,55.69675],[37.378659,55.697125],[37.378194,55.696843],[37.377481,55.709397],[37.37674,55.710674],[37.37606,55.71072],[37.375467,55.711498],[37.371895,55.710956],[37.364421,55.708905],[37.365193,55.708044],[37.367507,55.707972],[37.369347,55.708495],[37.369086,55.707411],[37.366155,55.707003],[37.368481,55.70369],[37.370415,55.704178],[37.37094,55.703693],[37.36774,55.703299],[37.367951,55.702665],[37.369106,55.702475],[37.366819,55.702129],[37.366499,55.703085],[37.365914,55.702921],[37.365604,55.702051],[37.364668,55.701862],[37.365595,55.700943],[37.364439,55.700877],[37.363313,55.701825],[37.36332,55.700733],[37.35732,55.700549],[37.357436,55.699523],[37.355769,55.69946],[37.35563,55.700522],[37.353361,55.70045],[37.353114,55.701795],[37.354134,55.70234],[37.353968,55.703136],[37.35638,55.704602],[37.356089,55.704771],[37.351462,55.702251],[37.351814,55.700166],[37.347376,55.697649],[37.344965,55.698397],[37.344569,55.696905],[37.342496,55.69358],[37.342475,55.692508],[37.344006,55.6907],[37.343855,55.689222],[37.339762,55.688167],[37.339421,55.687344],[37.338542,55.687288],[37.33876,55.688654],[37.33786,55.69015],[37.3387,55.691365],[37.338691,55.692567],[37.337633,55.693516],[37.329428,55.685786],[37.333909,55.6842],[37.333607,55.683229],[37.334827,55.682453],[37.334106,55.682048],[37.332512,55.682941],[37.33097,55.681553],[37.326871,55.682963],[37.329821,55.685443],[37.329293,55.685653],[37.326228,55.68276]]],[[[37.371747,55.809242],[37.372913,55.808797],[37.372094,55.803353],[37.373562,55.802987],[37.375277,55.804517],[37.376057,55.804601],[37.37542,55.804768],[37.376167,55.805729],[37.378572,55.80568],[37.379123,55.806544],[37.377869,55.806986],[37.377896,55.807694],[37.379352,55.809172],[37.385051,55.809307],[37.380728,55.809657],[37.381081,55.810645],[37.379675,55.81069],[37.380197,55.811319],[37.377447,55.812688],[37.376431,55.812087],[37.373863,55.812592],[37.371747,55.809242]]]]}},{"type":"Feature","id":"102269-66","properties":{"id":"102269-66","name":"Северный административный округ","name_ru":"Северный административный округ","subject_id":"102269","subject_name":"Москва","source_gid":66,"source_fid":71,"names_rosstat":"Северный округ","population":1239752,"area_km2":102.34896643741423,"density_km2":12112.989931931563,"source":"Актуализированный объединённый GeoJSON, предоставленный преподавателем","name_en":"Severnyi administrativnyi Okrug","name_zh":"Severnyi administrativnyi专区","subject_name_en":"Moscow","subject_name_zh":"莫斯科市"},"geometry":{"type":"MultiPolygon","coordinates":[[[[37.33132,55.93387],[37.336686,55.932665],[37.339834,55.930731],[37.343527,55.926641],[37.343707,55.924183],[37.349223,55.926038],[37.349702,55.926776],[37.356463,55.929954],[37.377823,55.921114],[37.371735,55.919643],[37.368849,55.917956],[37.369671,55.917513],[37.366026,55.915381],[37.36584,55.91417],[37.369861,55.908196],[37.376795,55.911244],[37.387052,55.911731],[37.398713,55.916618],[37.394936,55.919329],[37.393851,55.921135],[37.394331,55.922658],[37.396846,55.92617],[37.408413,55.924135],[37.410625,55.925248],[37.410269,55.927206],[37.407747,55.92903],[37.409427,55.929638],[37.410162,55.930443],[37.409861,55.931407],[37.410168,55.931913],[37.407669,55.934691],[37.406664,55.939028],[37.40772,55.939293],[37.407453,55.939854],[37.408423,55.941133],[37.408579,55.942771],[37.410367,55.945258],[37.415558,55.94576],[37.416802,55.94674],[37.4193,55.946697],[37.420889,55.9472],[37.420708,55.949716],[37.421783,55.950236],[37.422458,55.951315],[37.419855,55.95158],[37.420458,55.952516],[37.419916,55.953031],[37.416789,55.953417],[37.416118,55.954397],[37.413763,55.954527],[37.413122,55.954139],[37.413401,55.953727],[37.412159,55.953906],[37.412167,55.953495],[37.411379,55.953187],[37.409723,55.954205],[37.407477,55.953354],[37.407632,55.952938],[37.408641,55.952768],[37.407396,55.951329],[37.393209,55.948636],[37.39208,55.949123],[37.391614,55.95003],[37.391887,55.950731],[37.392985,55.951287],[37.393178,55.95184],[37.392792,55.952273],[37.39026,55.95199],[37.38938,55.952321],[37.389219,55.953084],[37.387621,55.95333],[37.386365,55.952861],[37.384735,55.953204],[37.382883,55.952665],[37.38355,55.951314],[37.381582,55.950793],[37.375255,55.953592],[37.375158,55.954411],[37.376231,55.955442],[37.371972,55.956138],[37.358211,55.955642],[37.359208,55.954783],[37.357707,55.954484],[37.358177,55.953477],[37.356001,55.953544],[37.354762,55.951712],[37.353493,55.951126],[37.350388,55.952475],[37.348819,55.951895],[37.346434,55.953622],[37.346872,55.955013],[37.350195,55.95692],[37.349583,55.95729],[37.344571,55.956405],[37.34157,55.956828],[37.341017,55.956562],[37.341799,55.955979],[37.339468,55.954828],[37.335026,55.953589],[37.336442,55.950715],[37.340528,55.946266],[37.341698,55.94675],[37.347907,55.943229],[37.347453,55.942943],[37.351009,55.940787],[37.350395,55.940476],[37.354099,55.938907],[37.351452,55.937224],[37.350881,55.937448],[37.349548,55.93663],[37.343268,55.938958],[37.338666,55.937065],[37.338209,55.936378],[37.335815,55.935744],[37.33678,55.934995],[37.336301,55.934782],[37.334963,55.935385],[37.33132,55.93387]]],[[[37.436484,55.879579],[37.437785,55.878565],[37.437978,55.877216],[37.438724,55.876534],[37.44262,55.874411],[37.45145,55.870265],[37.453973,55.870116],[37.456083,55.861885],[37.458821,55.857639],[37.461326,55.851045],[37.462894,55.850076],[37.463603,55.849086],[37.463493,55.8482],[37.46538,55.846234],[37.468068,55.844678],[37.468845,55.843538],[37.472268,55.841775],[37.472586,55.840354],[37.471678,55.837786],[37.478983,55.831554],[37.479123,55.830748],[37.474419,55.829829],[37.478273,55.826608],[37.480385,55.827023],[37.488126,55.826533],[37.491075,55.827272],[37.493366,55.824478],[37.490261,55.822766],[37.48753,55.819869],[37.486701,55.817428],[37.487224,55.813278],[37.502854,55.794349],[37.506592,55.778895],[37.507566,55.776945],[37.521943,55.761509],[37.522562,55.761688],[37.524285,55.759846],[37.532202,55.763416],[37.534765,55.766193],[37.536061,55.766104],[37.537129,55.769761],[37.538963,55.771129],[37.541863,55.772406],[37.544434,55.772989],[37.575994,55.775608],[37.581307,55.777537],[37.58499,55.780154],[37.588633,55.792057],[37.584425,55.794996],[37.58234,55.805521],[37.580652,55.808287],[37.58473,55.808682],[37.579308,55.811808],[37.577818,55.816641],[37.574022,55.822393],[37.573685,55.831844],[37.574677,55.833631],[37.578154,55.836786],[37.578673,55.839444],[37.578023,55.841026],[37.575262,55.844223],[37.57309,55.850624],[37.572707,55.854735],[37.574546,55.859893],[37.5746,55.862117],[37.568291,55.87759],[37.567056,55.890163],[37.564748,55.892842],[37.541665,55.901731],[37.538693,55.903999],[37.536321,55.907567],[37.527938,55.906015],[37.524452,55.904917],[37.496254,55.89248],[37.494345,55.892677],[37.49286,55.890982],[37.485935,55.888399],[37.484849,55.888804],[37.483995,55.89065],[37.483598,55.89065],[37.482316,55.88838],[37.475935,55.885864],[37.467317,55.883793],[37.462832,55.883217],[37.447731,55.882797],[37.443964,55.883142],[37.442419,55.884165],[37.441535,55.883839],[37.441978,55.882763],[37.441202,55.881226],[37.436484,55.879579]]]]}},{"type":"Feature","id":"102269-68","properties":{"id":"102269-68","name":"Восточный административный округ","name_ru":"Восточный административный округ","subject_id":"102269","subject_name":"Москва","source_gid":68,"source_fid":79,"names_rosstat":"Восточный округ","population":1519259,"area_km2":154.90591979867216,"density_km2":9807.623891808316,"source":"Актуализированный объединённый GeoJSON, предоставленный преподавателем","name_en":"Vostochnyi administrativnyi Okrug","name_zh":"Vostochnyi administrativnyi专区","subject_name_en":"Moscow","subject_name_zh":"莫斯科市"},"geometry":{"type":"MultiPolygon","coordinates":[[[[37.879472,55.700268],[37.871532,55.695298],[37.860053,55.701137],[37.858781,55.700995],[37.85234,55.704195],[37.775897,55.729939],[37.762205,55.736708],[37.74935,55.739157],[37.746723,55.740368],[37.742374,55.743666],[37.739342,55.745177],[37.7224,55.750062],[37.719168,55.752411],[37.718133,55.753881],[37.717681,55.755507],[37.71818,55.758018],[37.720632,55.762465],[37.720628,55.766318],[37.713614,55.775303],[37.70992,55.778875],[37.707742,55.780161],[37.701244,55.78185],[37.688267,55.781899],[37.651823,55.78912],[37.650116,55.792793],[37.65072,55.799419],[37.653824,55.803864],[37.668077,55.819874],[37.670694,55.824394],[37.671575,55.829026],[37.67021,55.83874],[37.673569,55.838336],[37.676316,55.838822],[37.678165,55.840172],[37.678346,55.841816],[37.680258,55.842475],[37.690318,55.848006],[37.692226,55.850307],[37.68997,55.851223],[37.692284,55.852909],[37.686768,55.854513],[37.68786,55.855492],[37.688603,55.855285],[37.68941,55.855957],[37.692521,55.856133],[37.693133,55.855797],[37.69243,55.85533],[37.694746,55.853375],[37.693765,55.852073],[37.696823,55.848161],[37.703587,55.848773],[37.705643,55.847944],[37.712503,55.847527],[37.714075,55.846915],[37.717128,55.849057],[37.71935,55.850009],[37.720169,55.850572],[37.719405,55.851423],[37.721639,55.852924],[37.718017,55.860607],[37.709438,55.860911],[37.709186,55.862956],[37.706813,55.86449],[37.707699,55.865519],[37.715813,55.870154],[37.719672,55.873699],[37.721065,55.873207],[37.721813,55.873875],[37.724256,55.873008],[37.727927,55.8739],[37.729047,55.874647],[37.73182,55.874945],[37.731077,55.875716],[37.73101,55.876893],[37.732895,55.878049],[37.733776,55.877913],[37.734784,55.878405],[37.827385,55.830599],[37.830139,55.830303],[37.830081,55.829153],[37.83439,55.825961],[37.83737,55.82249],[37.838707,55.819106],[37.839174,55.816262],[37.843762,55.814774],[37.839762,55.811625],[37.843138,55.77924],[37.845557,55.778208],[37.850004,55.778929],[37.850679,55.778563],[37.845757,55.777006],[37.843401,55.774735],[37.843625,55.772557],[37.845934,55.768614],[37.845698,55.768071],[37.843498,55.766907],[37.842655,55.746735],[37.845706,55.744872],[37.847996,55.7445],[37.863233,55.745573],[37.882541,55.74934],[37.888246,55.748464],[37.890953,55.742195],[37.890085,55.741604],[37.885829,55.742613],[37.880753,55.742504],[37.880135,55.742293],[37.878009,55.73787],[37.873161,55.738157],[37.868489,55.73729],[37.864238,55.734717],[37.865471,55.733159],[37.868892,55.732973],[37.871234,55.730839],[37.873412,55.729648],[37.872167,55.727705],[37.870271,55.726586],[37.87245,55.723377],[37.876108,55.723385],[37.876996,55.721617],[37.876534,55.720471],[37.881005,55.719099],[37.886123,55.719594],[37.88692,55.720261],[37.887129,55.721653],[37.884156,55.723396],[37.885478,55.724192],[37.889851,55.723701],[37.890633,55.722309],[37.892308,55.723187],[37.899318,55.723619],[37.89933,55.724027],[37.900185,55.724343],[37.901823,55.724419],[37.902421,55.725251],[37.907788,55.724803],[37.915048,55.726984],[37.916928,55.728357],[37.918039,55.730622],[37.922866,55.731231],[37.92748,55.730227],[37.928523,55.729354],[37.930874,55.729755],[37.93429,55.727876],[37.937609,55.726887],[37.942273,55.722992],[37.94261,55.722052],[37.94565,55.720838],[37.936587,55.716238],[37.92807,55.716159],[37.926254,55.71515],[37.926115,55.712187],[37.921917,55.707961],[37.905442,55.706993],[37.886971,55.705215],[37.880573,55.70115],[37.88114,55.700862],[37.879472,55.700268]]],[[[37.792958,56.008254],[37.795319,56.009024],[37.794897,56.00932],[37.798514,56.009703],[37.79898,56.009275],[37.797986,56.008767],[37.798464,56.008712],[37.799,56.007689],[37.798144,56.007443],[37.799432,56.006153],[37.797346,56.00541],[37.796838,56.004761],[37.79315,56.005543],[37.791224,56.007285],[37.793192,56.008041],[37.792958,56.008254]]],[[[37.794094,56.003156],[37.792101,56.002493],[37.791633,56.002875],[37.790476,56.002477],[37.790034,56.002921],[37.792891,56.003881],[37.794094,56.003156]]],[[[37.868942,55.82287],[37.868496,55.823779],[37.872975,55.825126],[37.875665,55.825342],[37.876002,55.824903],[37.868942,55.82287]]],[[[37.870081,55.807761],[37.871199,55.806329],[37.866587,55.804211],[37.865743,55.804208],[37.863265,55.807421],[37.862823,55.807312],[37.861697,55.80869],[37.860034,55.808427],[37.860687,55.807541],[37.856369,55.806041],[37.856119,55.806649],[37.852185,55.80896],[37.850237,55.808557],[37.848872,55.809423],[37.849809,55.810466],[37.845327,55.813562],[37.852883,55.816721],[37.857321,55.817911],[37.857266,55.81834],[37.85811,55.818789],[37.857548,55.819572],[37.859173,55.819979],[37.85999,55.819392],[37.872216,55.822539],[37.873798,55.820004],[37.878339,55.820653],[37.878945,55.819897],[37.880538,55.819513],[37.883968,55.820339],[37.884278,55.819961],[37.885164,55.820624],[37.887908,55.82079],[37.889094,55.819423],[37.897824,55.817922],[37.899311,55.816291],[37.8993,55.815098],[37.898549,55.814387],[37.894541,55.81394],[37.891397,55.815122],[37.889296,55.815176],[37.886874,55.816532],[37.88614,55.816166],[37.884129,55.816661],[37.883065,55.816298],[37.880842,55.814319],[37.879825,55.814205],[37.879642,55.813267],[37.878148,55.811429],[37.874128,55.810694],[37.873582,55.808696],[37.870081,55.807761]]]]}},{"type":"Feature","id":"102269-72","properties":{"id":"102269-72","name":"Новомосковский административный округ","name_ru":"Новомосковский административный округ","subject_id":"102269","subject_name":"Москва","source_gid":72,"source_fid":86,"names_rosstat":"Новомосковский округ","population":582748,"area_km2":383.63006761581903,"density_km2":1519.0363039624538,"source":"Актуализированный объединённый GeoJSON, предоставленный преподавателем","name_en":"Novomoskovskii administrativnyi Okrug","name_zh":"Novomoskovskii administrativnyi专区","subject_name_en":"Moscow","subject_name_zh":"莫斯科市"},"geometry":{"type":"Polygon","coordinates":[[[37.0872,55.590485],[37.096494,55.577403],[37.114692,55.565551],[37.122874,55.553114],[37.12547,55.549963],[37.115177,55.547446],[37.11356,55.538946],[37.122508,55.538365],[37.122165,55.535145],[37.119922,55.531409],[37.117979,55.530384],[37.115906,55.529998],[37.117422,55.527929],[37.116951,55.526885],[37.118855,55.523517],[37.119949,55.519131],[37.117394,55.518868],[37.11758,55.517634],[37.118511,55.517621],[37.118631,55.513137],[37.128017,55.513011],[37.12997,55.513388],[37.130837,55.512658],[37.136395,55.513026],[37.136086,55.515709],[37.138466,55.51488],[37.136196,55.500022],[37.132427,55.499428],[37.13162,55.49846],[37.129711,55.498688],[37.128926,55.497968],[37.125581,55.497232],[37.12396,55.496136],[37.12659,55.4952],[37.123881,55.492745],[37.125059,55.492263],[37.124181,55.491553],[37.128697,55.488544],[37.126898,55.487449],[37.13207,55.484376],[37.133424,55.484198],[37.135602,55.482645],[37.138281,55.482656],[37.139207,55.482085],[37.142064,55.482401],[37.142968,55.480966],[37.14706,55.481748],[37.148559,55.479794],[37.152504,55.480564],[37.184026,55.48347],[37.195667,55.488472],[37.201532,55.492948],[37.243444,55.49726],[37.241593,55.49763],[37.239969,55.499282],[37.242196,55.498112],[37.246615,55.49781],[37.249709,55.501815],[37.25395,55.504258],[37.255651,55.503424],[37.265975,55.505181],[37.267936,55.506174],[37.269167,55.505698],[37.270563,55.506641],[37.269847,55.507446],[37.269858,55.508048],[37.270592,55.508573],[37.270101,55.508985],[37.272458,55.510875],[37.272429,55.515415],[37.273414,55.517554],[37.270395,55.519089],[37.27166,55.522177],[37.273928,55.520932],[37.284034,55.525657],[37.293497,55.529095],[37.299732,55.530191],[37.298089,55.539324],[37.304514,55.542447],[37.311304,55.543729],[37.31121,55.54265],[37.311795,55.541628],[37.312642,55.541575],[37.313656,55.539121],[37.318007,55.539431],[37.318919,55.538443],[37.327563,55.538492],[37.328744,55.539913],[37.330645,55.539384],[37.333312,55.539637],[37.336065,55.540638],[37.342031,55.544871],[37.342353,55.546062],[37.34356,55.547045],[37.351805,55.547384],[37.352395,55.54907],[37.353622,55.550478],[37.356724,55.548752],[37.357864,55.549485],[37.364874,55.547626],[37.365726,55.548495],[37.368728,55.548936],[37.369755,55.551117],[37.368051,55.551567],[37.36756,55.553814],[37.367958,55.555634],[37.376466,55.561484],[37.378495,55.561167],[37.378766,55.561723],[37.384506,55.560296],[37.38727,55.558943],[37.389037,55.558826],[37.388502,55.557549],[37.388878,55.557134],[37.394058,55.555663],[37.392208,55.553635],[37.408026,55.549571],[37.407164,55.548411],[37.412242,55.544478],[37.39483,55.537238],[37.392144,55.535125],[37.390036,55.531363],[37.389746,55.528493],[37.394292,55.526572],[37.3965,55.526576],[37.396548,55.52229],[37.396842,55.520585],[37.397386,55.520143],[37.398806,55.519768],[37.39967,55.520705],[37.401189,55.521128],[37.404107,55.521079],[37.407326,55.518819],[37.405309,55.517255],[37.405051,55.516827],[37.405583,55.516448],[37.406725,55.515943],[37.4113,55.515952],[37.412604,55.51293],[37.413506,55.512395],[37.416858,55.512407],[37.41666,55.511386],[37.413669,55.511219],[37.41365,55.511646],[37.408869,55.512745],[37.409002,55.513911],[37.407735,55.513895],[37.405313,55.510063],[37.40438,55.509641],[37.405458,55.50902],[37.40647,55.50975],[37.409845,55.50846],[37.409084,55.504794],[37.404915,55.501659],[37.408235,55.500575],[37.413651,55.501943],[37.417806,55.501125],[37.418222,55.501785],[37.416715,55.502382],[37.415153,55.504801],[37.41561,55.505891],[37.41782,55.506703],[37.420481,55.506422],[37.421532,55.504787],[37.424148,55.504654],[37.424307,55.504152],[37.42887,55.504282],[37.429231,55.505695],[37.432817,55.505683],[37.432088,55.504045],[37.432967,55.503213],[37.432548,55.502381],[37.434836,55.501056],[37.437577,55.500558],[37.439108,55.502116],[37.440864,55.501988],[37.441177,55.501362],[37.443694,55.500122],[37.44702,55.499442],[37.448885,55.497924],[37.449477,55.496125],[37.45019,55.495698],[37.453726,55.496369],[37.455099,55.49598],[37.455365,55.495455],[37.454627,55.494078],[37.448813,55.489886],[37.445799,55.49092],[37.445308,55.490458],[37.44545,55.488764],[37.447494,55.488232],[37.448122,55.48765],[37.444494,55.48858],[37.443968,55.488005],[37.447387,55.487104],[37.445841,55.483649],[37.444638,55.482118],[37.44647,55.48208],[37.448159,55.480217],[37.449675,55.480124],[37.447613,55.475107],[37.45205,55.472555],[37.457012,55.472757],[37.458108,55.471311],[37.459555,55.471254],[37.460078,55.470209],[37.461621,55.469874],[37.462952,55.470889],[37.464672,55.470857],[37.464218,55.468447],[37.458514,55.467914],[37.458316,55.466205],[37.457648,55.465917],[37.457902,55.465684],[37.465322,55.464833],[37.470095,55.462273],[37.474084,55.461277],[37.477328,55.461661],[37.478047,55.460629],[37.479214,55.460663],[37.479884,55.459846],[37.48421,55.458303],[37.489935,55.460887],[37.496715,55.45914],[37.496887,55.45877],[37.496252,55.458098],[37.492149,55.456166],[37.496166,55.45236],[37.498518,55.45089],[37.498535,55.450038],[37.495462,55.449075],[37.486424,55.447828],[37.485772,55.446899],[37.486109,55.446204],[37.487209,55.446569],[37.489942,55.444472],[37.495528,55.443055],[37.495379,55.442272],[37.499488,55.441373],[37.503041,55.437886],[37.508542,55.436393],[37.513481,55.435923],[37.529394,55.435845],[37.535265,55.436279],[37.538392,55.437486],[37.536636,55.439225],[37.535807,55.439248],[37.535704,55.439808],[37.53667,55.439923],[37.534771,55.444951],[37.531521,55.446907],[37.53195,55.450965],[37.531608,55.451006],[37.531605,55.45175],[37.532764,55.453685],[37.536662,55.453348],[37.536819,55.454776],[37.539745,55.455539],[37.544316,55.457862],[37.548008,55.456897],[37.54786,55.45985],[37.54592,55.459719],[37.547579,55.461679],[37.547064,55.462117],[37.545909,55.461566],[37.547094,55.464585],[37.545602,55.46485],[37.54475,55.472646],[37.560845,55.473387],[37.560806,55.474251],[37.56176,55.47479],[37.562974,55.479301],[37.562762,55.479932],[37.564109,55.482498],[37.565485,55.487418],[37.567455,55.487662],[37.578667,55.486692],[37.57778,55.483765],[37.5798,55.483678],[37.583456,55.486291],[37.587027,55.486722],[37.583712,55.487675],[37.585965,55.489054],[37.583206,55.490638],[37.584503,55.491196],[37.581891,55.492018],[37.583357,55.493577],[37.595084,55.488728],[37.596909,55.489332],[37.600389,55.488858],[37.601931,55.489283],[37.603576,55.490483],[37.603523,55.491401],[37.604679,55.49167],[37.605884,55.490783],[37.606491,55.488299],[37.611354,55.489635],[37.611025,55.491407],[37.609617,55.491134],[37.607395,55.491815],[37.607928,55.492787],[37.610417,55.493241],[37.609104,55.500877],[37.605673,55.501871],[37.605693,55.502351],[37.608929,55.502407],[37.608096,55.509844],[37.602116,55.510456],[37.604768,55.512504],[37.603814,55.513038],[37.600892,55.510925],[37.598023,55.514707],[37.591828,55.512493],[37.589715,55.51401],[37.588698,55.515529],[37.585805,55.517129],[37.585523,55.517997],[37.578446,55.52168],[37.577127,55.517203],[37.567692,55.516684],[37.566179,55.517081],[37.566875,55.520291],[37.56536,55.520437],[37.564779,55.518411],[37.564099,55.518495],[37.564958,55.522015],[37.563305,55.525312],[37.560848,55.527333],[37.556466,55.529187],[37.552483,55.529955],[37.547156,55.529946],[37.543658,55.529362],[37.539096,55.527612],[37.536031,55.525321],[37.534544,55.522819],[37.534419,55.520075],[37.535123,55.517962],[37.527498,55.521193],[37.52281,55.521634],[37.520124,55.522484],[37.520202,55.523868],[37.519369,55.525497],[37.5082,55.527087],[37.504496,55.526409],[37.504128,55.526859],[37.502532,55.526675],[37.50192,55.527684],[37.499169,55.526755],[37.497719,55.526766],[37.497312,55.527309],[37.494803,55.527532],[37.494018,55.528441],[37.490294,55.529331],[37.489364,55.529997],[37.488232,55.529457],[37.485481,55.529624],[37.483115,55.528605],[37.482939,55.527159],[37.480173,55.526205],[37.476379,55.526421],[37.47415,55.527348],[37.472309,55.52882],[37.470983,55.528844],[37.471283,55.529563],[37.4709,55.529605],[37.47019,55.534052],[37.475709,55.535387],[37.475516,55.537295],[37.48748,55.540092],[37.488768,55.539628],[37.493449,55.539646],[37.507768,55.542945],[37.511115,55.544986],[37.514496,55.548505],[37.529188,55.555245],[37.544878,55.55202],[37.548822,55.552626],[37.549466,55.554131],[37.552147,55.554869],[37.554799,55.561478],[37.552012,55.561846],[37.550354,55.562929],[37.550587,55.563603],[37.553157,55.56406],[37.553494,55.567625],[37.547885,55.568923],[37.548878,55.569938],[37.547503,55.5704],[37.546116,55.569939],[37.540686,55.571127],[37.538908,55.572205],[37.537236,55.572387],[37.536884,55.573096],[37.539542,55.573263],[37.539947,55.576043],[37.538725,55.575921],[37.539296,55.57672],[37.536846,55.577289],[37.538651,55.57956],[37.541023,55.579232],[37.540913,55.578837],[37.541902,55.578553],[37.545742,55.578357],[37.551179,55.580321],[37.549641,55.581415],[37.548992,55.582465],[37.549515,55.582268],[37.549171,55.58295],[37.546246,55.584112],[37.545415,55.58494],[37.545671,55.585583],[37.547266,55.586663],[37.530424,55.590696],[37.529079,55.589526],[37.52724,55.589663],[37.527413,55.590362],[37.526291,55.591619],[37.511879,55.595596],[37.506553,55.598249],[37.494098,55.608574],[37.492747,55.608772],[37.491179,55.6101],[37.489845,55.609611],[37.488789,55.608164],[37.487842,55.60839],[37.48912,55.610722],[37.488895,55.613276],[37.467492,55.631362],[37.465974,55.633139],[37.464483,55.633696],[37.460407,55.637143],[37.457781,55.637382],[37.456003,55.636875],[37.455434,55.637223],[37.448574,55.634244],[37.44174,55.632182],[37.374229,55.614696],[37.372289,55.620327],[37.370954,55.622778],[37.368685,55.624894],[37.363892,55.627932],[37.359871,55.629725],[37.356117,55.630576],[37.343783,55.632428],[37.34212,55.633788],[37.338859,55.635394],[37.336056,55.635179],[37.334406,55.63848],[37.33244,55.639548],[37.330347,55.639324],[37.329818,55.639874],[37.33029,55.640915],[37.32999,55.64184],[37.330652,55.64225],[37.332047,55.645938],[37.330899,55.647306],[37.332845,55.648368],[37.336092,55.651879],[37.33786,55.652824],[37.343057,55.654058],[37.341019,55.657135],[37.33201,55.659675],[37.336882,55.661544],[37.337528,55.662536],[37.337184,55.663032],[37.331439,55.663877],[37.327562,55.663225],[37.325441,55.664447],[37.321168,55.664031],[37.319522,55.664281],[37.319153,55.661603],[37.32089,55.661034],[37.324046,55.661004],[37.322908,55.650889],[37.311538,55.651194],[37.311523,55.650083],[37.312791,55.649834],[37.312103,55.647261],[37.311203,55.646572],[37.305683,55.646307],[37.29027,55.64849],[37.290159,55.651942],[37.292624,55.652075],[37.292528,55.653694],[37.292921,55.654081],[37.292651,55.654724],[37.292102,55.654561],[37.290921,55.655349],[37.288586,55.654889],[37.289588,55.651948],[37.290096,55.651944],[37.290214,55.648494],[37.282813,55.649537],[37.275386,55.649604],[37.275378,55.650122],[37.271414,55.650525],[37.271491,55.651507],[37.266182,55.650372],[37.265688,55.649489],[37.262101,55.650067],[37.261602,55.649537],[37.257352,55.649298],[37.253273,55.647991],[37.248894,55.645637],[37.24082,55.64373],[37.241555,55.643225],[37.240615,55.641863],[37.238845,55.642089],[37.237192,55.640173],[37.235135,55.638703],[37.235969,55.637793],[37.23509,55.637361],[37.236357,55.635984],[37.23939,55.635326],[37.240052,55.634195],[37.240837,55.633838],[37.243271,55.634036],[37.243889,55.633564],[37.24011,55.632527],[37.235061,55.628902],[37.237623,55.627473],[37.237439,55.626491],[37.235783,55.624865],[37.23202,55.625403],[37.229205,55.624517],[37.228609,55.623784],[37.225635,55.62323],[37.229349,55.621363],[37.229013,55.620201],[37.227308,55.619641],[37.224791,55.621514],[37.2222,55.620488],[37.217715,55.622433],[37.216672,55.621949],[37.214556,55.622759],[37.211273,55.620105],[37.20684,55.622902],[37.188649,55.620173],[37.185474,55.618785],[37.18677,55.612726],[37.184519,55.612445],[37.182247,55.612898],[37.181428,55.610912],[37.18015,55.609625],[37.179612,55.609711],[37.17739,55.607262],[37.172043,55.605228],[37.163895,55.605526],[37.160157,55.604244],[37.151797,55.604223],[37.147166,55.605753],[37.147165,55.607219],[37.146117,55.60938],[37.145171,55.609142],[37.145754,55.608292],[37.144241,55.609157],[37.143496,55.608668],[37.142486,55.609161],[37.132659,55.605578],[37.134027,55.604047],[37.133144,55.60336],[37.134523,55.602189],[37.134781,55.601317],[37.132427,55.599185],[37.13045,55.598899],[37.12396,55.59896],[37.119697,55.600762],[37.118607,55.601714],[37.117747,55.60445],[37.116462,55.605636],[37.10221,55.602487],[37.095727,55.600114],[37.09914,55.596129],[37.091995,55.596184],[37.094865,55.592506],[37.0872,55.590485]]]}},{"type":"Feature","id":"102269-81","properties":{"id":"102269-81","name":"Северо-Западный административный округ","name_ru":"Северо-Западный административный округ","subject_id":"102269","subject_name":"Москва","source_gid":81,"source_fid":96,"names_rosstat":"Северо-Западный округ","population":1046502,"area_km2":93.25233265522694,"density_km2":11222.260829325667,"source":"Актуализированный объединённый GeoJSON, предоставленный преподавателем","name_en":"Severo-Zapadnyi administrativnyi Okrug","name_zh":"Severo-Zapadnyi administrativnyi专区","subject_name_en":"Moscow","subject_name_zh":"莫斯科市"},"geometry":{"type":"Polygon","coordinates":[[[37.332044,55.845948],[37.333004,55.845285],[37.342886,55.84484],[37.349002,55.843792],[37.348027,55.840999],[37.347465,55.840604],[37.340656,55.840255],[37.340371,55.839008],[37.345001,55.836466],[37.341868,55.83419],[37.343936,55.833096],[37.348729,55.832217],[37.348136,55.831026],[37.348651,55.830715],[37.348567,55.829075],[37.344823,55.826067],[37.349714,55.826374],[37.351589,55.824392],[37.349156,55.822225],[37.352312,55.821284],[37.354606,55.82176],[37.354146,55.822355],[37.356372,55.82266],[37.354013,55.826399],[37.356883,55.826527],[37.358925,55.822888],[37.362222,55.822199],[37.363538,55.824361],[37.365873,55.826481],[37.368916,55.828024],[37.379937,55.830666],[37.385429,55.83066],[37.393919,55.829862],[37.38789,55.809762],[37.386168,55.809815],[37.384934,55.809002],[37.38625,55.808749],[37.385982,55.807309],[37.386786,55.806952],[37.384654,55.803236],[37.374481,55.792364],[37.372152,55.791608],[37.367844,55.791361],[37.36724,55.790382],[37.370601,55.788192],[37.369072,55.782726],[37.368885,55.773038],[37.370262,55.773027],[37.370261,55.771362],[37.370865,55.771014],[37.378835,55.771677],[37.379752,55.772348],[37.383403,55.772182],[37.386732,55.770902],[37.400518,55.771434],[37.401828,55.771798],[37.40858,55.775762],[37.434121,55.7742],[37.447353,55.777253],[37.450643,55.776869],[37.455266,55.774177],[37.46294,55.766951],[37.464272,55.765228],[37.46452,55.762383],[37.463426,55.760191],[37.457632,55.75582],[37.453083,55.753888],[37.439222,55.750531],[37.437376,55.749686],[37.436348,55.747873],[37.437378,55.746424],[37.444459,55.742607],[37.452527,55.740602],[37.459136,55.741206],[37.464801,55.742897],[37.471023,55.74611],[37.474156,55.748501],[37.476173,55.752293],[37.476731,55.755964],[37.476173,55.761711],[37.476388,55.76451],[37.478056,55.766692],[37.479418,55.767545],[37.487181,55.768194],[37.492052,55.767361],[37.501064,55.764367],[37.505828,55.761784],[37.51393,55.758422],[37.521943,55.761509],[37.507427,55.777151],[37.506592,55.778895],[37.502854,55.794349],[37.487224,55.813278],[37.486701,55.817428],[37.48753,55.819869],[37.490261,55.822766],[37.493366,55.824478],[37.491075,55.827272],[37.488126,55.826533],[37.480385,55.827023],[37.478273,55.826608],[37.474419,55.829829],[37.479123,55.830748],[37.478983,55.831554],[37.471678,55.837786],[37.472586,55.840354],[37.472268,55.841775],[37.468845,55.843538],[37.468068,55.844678],[37.46538,55.846234],[37.463493,55.8482],[37.463603,55.849086],[37.462894,55.850076],[37.461326,55.851045],[37.458821,55.857639],[37.456083,55.861885],[37.453973,55.870116],[37.45145,55.870265],[37.44262,55.874411],[37.438724,55.876534],[37.437978,55.877216],[37.437785,55.878565],[37.436484,55.879579],[37.430951,55.877851],[37.426448,55.87747],[37.424095,55.878],[37.421162,55.877921],[37.421155,55.878322],[37.417164,55.87831],[37.415518,55.879189],[37.414374,55.878867],[37.414126,55.879094],[37.414932,55.879311],[37.409421,55.880688],[37.409398,55.884917],[37.405578,55.886235],[37.404224,55.887521],[37.404182,55.892069],[37.399291,55.900755],[37.398449,55.901531],[37.397478,55.901196],[37.392393,55.902121],[37.390228,55.903358],[37.389908,55.904605],[37.390018,55.912844],[37.386724,55.911657],[37.377709,55.911423],[37.372963,55.909638],[37.366284,55.906703],[37.367846,55.905344],[37.36859,55.905578],[37.370676,55.90363],[37.3638,55.902171],[37.362809,55.901457],[37.361814,55.901572],[37.361845,55.900972],[37.362693,55.900309],[37.364799,55.900074],[37.367633,55.898039],[37.367404,55.897073],[37.365523,55.896618],[37.365638,55.894733],[37.367275,55.894267],[37.371352,55.895043],[37.374135,55.89507],[37.377357,55.892708],[37.376615,55.892119],[37.37294,55.891101],[37.373475,55.890074],[37.372686,55.889258],[37.372559,55.887648],[37.374775,55.886927],[37.371194,55.88396],[37.371255,55.883352],[37.372864,55.881544],[37.375847,55.881289],[37.378165,55.880158],[37.379833,55.879936],[37.381057,55.878284],[37.382165,55.877869],[37.394436,55.877243],[37.404035,55.875996],[37.411428,55.870958],[37.406849,55.868429],[37.401662,55.86447],[37.39764,55.859974],[37.394556,55.854402],[37.392055,55.85501],[37.389969,55.854164],[37.387167,55.855861],[37.385516,55.85451],[37.381972,55.854568],[37.379872,55.853472],[37.374935,55.85517],[37.376155,55.856179],[37.375858,55.856994],[37.376515,55.858177],[37.38003,55.859472],[37.378496,55.860848],[37.378174,55.861992],[37.379771,55.863294],[37.37745,55.864719],[37.378352,55.866089],[37.378019,55.866573],[37.379305,55.866938],[37.379406,55.867353],[37.378569,55.868123],[37.377489,55.868362],[37.373123,55.867153],[37.372314,55.867686],[37.370618,55.867312],[37.369239,55.867795],[37.367857,55.867579],[37.367351,55.868019],[37.365205,55.867899],[37.364932,55.867402],[37.362822,55.867647],[37.357891,55.864265],[37.349819,55.863799],[37.34588,55.862944],[37.346585,55.862236],[37.342022,55.860207],[37.341454,55.858691],[37.340634,55.858049],[37.34007,55.856475],[37.34029,55.856001],[37.339551,55.855176],[37.340419,55.852967],[37.340942,55.85265],[37.340443,55.851538],[37.337644,55.849836],[37.338278,55.84896],[37.337333,55.848799],[37.336919,55.848464],[37.337168,55.848171],[37.334128,55.847728],[37.332044,55.845948]]]}},{"type":"Feature","id":"102269-82","properties":{"id":"102269-82","name":"Юго-Восточный административный округ","name_ru":"Юго-Восточный административный округ","subject_id":"102269","subject_name":"Москва","source_gid":82,"source_fid":97,"names_rosstat":"Юго-Восточный округ","population":1530881,"area_km2":122.8935687437563,"density_km2":12456.965939300038,"source":"Актуализированный объединённый GeoJSON, предоставленный преподавателем","name_en":"Iugo-Vostochnyi administrativnyi Okrug","name_zh":"Iugo-Vostochnyi administrativnyi专区","subject_name_en":"Moscow","subject_name_zh":"莫斯科市"},"geometry":{"type":"MultiPolygon","coordinates":[[[[37.66069,55.730703],[37.66624,55.731536],[37.667463,55.730864],[37.670581,55.725825],[37.677734,55.727355],[37.678918,55.728265],[37.680568,55.727688],[37.680467,55.728405],[37.68157,55.728472],[37.681442,55.72904],[37.68333,55.729146],[37.684103,55.729584],[37.68406,55.730031],[37.685838,55.730113],[37.685409,55.733042],[37.692158,55.72954],[37.6937,55.729303],[37.698862,55.736436],[37.699835,55.736317],[37.69708,55.740791],[37.693703,55.743175],[37.683204,55.748001],[37.670531,55.750749],[37.67255,55.752388],[37.673047,55.753694],[37.670494,55.757956],[37.671278,55.758803],[37.673015,55.759329],[37.680216,55.759073],[37.682588,55.759536],[37.684159,55.760274],[37.68539,55.761526],[37.685845,55.763984],[37.68904,55.767774],[37.692199,55.76949],[37.697224,55.766822],[37.702518,55.770029],[37.713614,55.775303],[37.720782,55.765883],[37.720632,55.762465],[37.71818,55.758018],[37.71766,55.755964],[37.718385,55.753419],[37.721365,55.750635],[37.724446,55.749232],[37.739342,55.745177],[37.742374,55.743666],[37.746723,55.740368],[37.74935,55.739157],[37.762205,55.736708],[37.775897,55.729939],[37.853435,55.703789],[37.858176,55.701254],[37.857315,55.700698],[37.858407,55.700125],[37.856167,55.698765],[37.864093,55.693688],[37.860005,55.691031],[37.864745,55.688264],[37.864792,55.68735],[37.858957,55.677212],[37.85689,55.675701],[37.836855,55.684258],[37.834658,55.684643],[37.832767,55.684032],[37.832464,55.683038],[37.8396,55.664007],[37.840133,55.658272],[37.841627,55.657845],[37.840962,55.655559],[37.841266,55.655347],[37.8391,55.655466],[37.835116,55.650242],[37.822657,55.641618],[37.824164,55.640487],[37.823511,55.639675],[37.821758,55.639082],[37.82072,55.639426],[37.818117,55.639092],[37.793561,55.62296],[37.789756,55.625752],[37.785035,55.633262],[37.783833,55.642588],[37.785507,55.645107],[37.785335,55.647335],[37.783447,55.648545],[37.779799,55.648739],[37.766195,55.645446],[37.749587,55.640626],[37.745381,55.639899],[37.729502,55.640892],[37.713278,55.639457],[37.699417,55.642122],[37.688945,55.645222],[37.674569,55.65176],[37.67165,55.654351],[37.672382,55.661983],[37.67324,55.665106],[37.675043,55.667647],[37.682424,55.670624],[37.687402,55.671156],[37.690748,55.67324],[37.702657,55.676577],[37.71195,55.68132],[37.712379,55.684659],[37.712122,55.688457],[37.707573,55.69327],[37.68427,55.697422],[37.674486,55.698509],[37.670955,55.700501],[37.667289,55.700741],[37.667811,55.705282],[37.663677,55.718132],[37.663598,55.725221],[37.662718,55.72766],[37.66069,55.730703]]],[[[37.907012,55.706991],[37.921917,55.707961],[37.926115,55.712187],[37.926254,55.71515],[37.92807,55.716159],[37.936587,55.716238],[37.945109,55.720872],[37.947475,55.72006],[37.955513,55.720222],[37.958474,55.717617],[37.967428,55.716249],[37.960666,55.714754],[37.959859,55.714091],[37.966706,55.710499],[37.964077,55.709311],[37.953098,55.711262],[37.949667,55.711341],[37.947302,55.708596],[37.957911,55.70594],[37.959745,55.704508],[37.95822,55.70294],[37.958926,55.702613],[37.95701,55.700874],[37.956038,55.701104],[37.956508,55.702207],[37.955756,55.702732],[37.954209,55.702775],[37.952903,55.701363],[37.95335,55.700609],[37.946632,55.700009],[37.945237,55.699123],[37.945539,55.69809],[37.944839,55.697767],[37.944716,55.697124],[37.946231,55.696673],[37.94866,55.695073],[37.949777,55.695242],[37.950877,55.696187],[37.955612,55.694513],[37.95393,55.692726],[37.956354,55.692743],[37.957578,55.693849],[37.960204,55.692774],[37.95788,55.689451],[37.961184,55.689027],[37.961167,55.688081],[37.963455,55.687366],[37.963245,55.686559],[37.964771,55.686174],[37.962873,55.685664],[37.962985,55.685036],[37.963799,55.684518],[37.963038,55.682816],[37.963588,55.681576],[37.96338,55.680907],[37.964402,55.679815],[37.961859,55.677714],[37.961356,55.675637],[37.963796,55.673904],[37.948626,55.675502],[37.920472,55.676143],[37.918945,55.680519],[37.913793,55.681604],[37.914267,55.683008],[37.913291,55.683317],[37.917258,55.686267],[37.917725,55.687694],[37.918603,55.68826],[37.923193,55.689271],[37.928253,55.694999],[37.935871,55.696811],[37.939877,55.696504],[37.939807,55.698015],[37.926609,55.698221],[37.924743,55.697042],[37.918938,55.699425],[37.915167,55.697047],[37.913437,55.697865],[37.913465,55.70217],[37.912206,55.70297],[37.911377,55.704777],[37.907254,55.704709],[37.906128,55.706258],[37.907012,55.706991]]]]}},{"type":"Feature","id":"102269-88","properties":{"id":"102269-88","name":"Юго-Западный административный округ","name_ru":"Юго-Западный административный округ","subject_id":"102269","subject_name":"Москва","source_gid":88,"source_fid":103,"names_rosstat":"Юго-Западный округ","population":1416152,"area_km2":103.74667354561439,"density_km2":13650.095483566123,"source":"Актуализированный объединённый GeoJSON, предоставленный преподавателем","name_en":"Iugo-Zapadnyi administrativnyi Okrug","name_zh":"Iugo-Zapadnyi administrativnyi专区","subject_name_en":"Moscow","subject_name_zh":"莫斯科市"},"geometry":{"type":"Polygon","coordinates":[[[37.455719,55.637049],[37.457959,55.637385],[37.460782,55.637064],[37.464483,55.633696],[37.465974,55.633139],[37.469392,55.629715],[37.487694,55.614354],[37.488895,55.613276],[37.48912,55.610722],[37.487842,55.60839],[37.488789,55.608164],[37.489845,55.609611],[37.491179,55.6101],[37.492747,55.608772],[37.494098,55.608574],[37.506553,55.598249],[37.511879,55.595596],[37.526291,55.591619],[37.527413,55.590362],[37.52724,55.589663],[37.529079,55.589526],[37.530424,55.590696],[37.547266,55.586663],[37.545671,55.585583],[37.545415,55.58494],[37.546246,55.584112],[37.549171,55.58295],[37.549515,55.582268],[37.548992,55.582465],[37.549641,55.581415],[37.551179,55.580321],[37.545742,55.578357],[37.541902,55.578553],[37.540913,55.578837],[37.541023,55.579232],[37.538651,55.57956],[37.536846,55.577289],[37.539296,55.57672],[37.538725,55.575921],[37.539947,55.576043],[37.539542,55.573263],[37.536884,55.573096],[37.537236,55.572387],[37.538908,55.572205],[37.540686,55.571127],[37.546116,55.569939],[37.547503,55.5704],[37.548878,55.569938],[37.547885,55.568923],[37.553494,55.567625],[37.553157,55.56406],[37.550587,55.563603],[37.550354,55.562929],[37.552012,55.561846],[37.554799,55.561478],[37.552147,55.554869],[37.549466,55.554131],[37.548822,55.552626],[37.544878,55.55202],[37.529188,55.555245],[37.514496,55.548505],[37.511115,55.544986],[37.507768,55.542945],[37.493449,55.539646],[37.488768,55.539628],[37.48748,55.540092],[37.475516,55.537295],[37.475709,55.535387],[37.47019,55.534052],[37.4709,55.529605],[37.471283,55.529563],[37.470983,55.528844],[37.472309,55.52882],[37.47415,55.527348],[37.476379,55.526421],[37.480173,55.526205],[37.482939,55.527159],[37.483115,55.528605],[37.485481,55.529624],[37.488232,55.529457],[37.489364,55.529997],[37.490294,55.529331],[37.494018,55.528441],[37.494803,55.527532],[37.497312,55.527309],[37.497719,55.526766],[37.499169,55.526755],[37.50192,55.527684],[37.502532,55.526675],[37.504128,55.526859],[37.504496,55.526409],[37.5082,55.527087],[37.519369,55.525497],[37.520202,55.523868],[37.520124,55.522484],[37.52281,55.521634],[37.527498,55.521193],[37.535123,55.517962],[37.534419,55.520075],[37.534544,55.522819],[37.536031,55.525321],[37.537967,55.526938],[37.543658,55.529362],[37.547156,55.529946],[37.552483,55.529955],[37.557883,55.528726],[37.562324,55.526277],[37.564203,55.524045],[37.564958,55.522015],[37.564099,55.518495],[37.564779,55.518411],[37.56536,55.520437],[37.566875,55.520291],[37.566179,55.517081],[37.567692,55.516684],[37.577127,55.517203],[37.580322,55.52776],[37.58072,55.527717],[37.583915,55.537199],[37.583317,55.537862],[37.589454,55.557683],[37.594241,55.560876],[37.603577,55.564592],[37.602288,55.566373],[37.597468,55.566872],[37.597196,55.569083],[37.59224,55.5754],[37.590093,55.576896],[37.57294,55.580967],[37.577479,55.58635],[37.576787,55.587867],[37.577622,55.58922],[37.576864,55.589315],[37.577139,55.591634],[37.578974,55.595913],[37.580237,55.595813],[37.580571,55.597761],[37.576663,55.597869],[37.576715,55.599287],[37.579296,55.601033],[37.58177,55.603494],[37.581565,55.604343],[37.577822,55.604366],[37.5749,55.606596],[37.573986,55.606651],[37.573616,55.60595],[37.571868,55.605989],[37.571299,55.606718],[37.569896,55.607243],[37.569798,55.608069],[37.569916,55.608469],[37.573616,55.608361],[37.574686,55.608817],[37.57571,55.612283],[37.574626,55.613228],[37.578087,55.614758],[37.575934,55.615507],[37.579425,55.619691],[37.580499,55.619386],[37.578885,55.620095],[37.577551,55.619254],[37.574745,55.620047],[37.576397,55.621756],[37.578843,55.621745],[37.578308,55.622052],[37.578715,55.622236],[37.580535,55.621789],[37.582633,55.623245],[37.581659,55.622919],[37.581926,55.623636],[37.581393,55.624071],[37.582354,55.624362],[37.58203,55.624585],[37.583816,55.626912],[37.58435,55.626684],[37.584682,55.627704],[37.584191,55.627585],[37.584088,55.627995],[37.584741,55.627925],[37.585027,55.628723],[37.584165,55.628693],[37.585147,55.629201],[37.585875,55.630871],[37.585243,55.631486],[37.577266,55.632677],[37.577406,55.63436],[37.57928,55.635781],[37.580158,55.635564],[37.580594,55.635911],[37.579845,55.636023],[37.581104,55.637278],[37.581666,55.6372],[37.582255,55.638467],[37.581491,55.63896],[37.581448,55.639487],[37.582155,55.639652],[37.581262,55.640895],[37.582001,55.641222],[37.580707,55.642333],[37.57929,55.642801],[37.580388,55.645326],[37.590224,55.642397],[37.60567,55.641372],[37.605414,55.65653],[37.613572,55.663479],[37.607646,55.664083],[37.608835,55.665153],[37.610689,55.664966],[37.611645,55.66608],[37.605907,55.669066],[37.60579,55.670559],[37.606693,55.671172],[37.605631,55.6723],[37.606625,55.672868],[37.607378,55.674668],[37.60859,55.675336],[37.608955,55.676305],[37.611292,55.677217],[37.611711,55.678606],[37.614694,55.680556],[37.614761,55.681998],[37.613702,55.684476],[37.608608,55.683887],[37.605713,55.684957],[37.604949,55.686055],[37.605101,55.68915],[37.603513,55.690347],[37.603786,55.69063],[37.60124,55.691755],[37.596121,55.696134],[37.587342,55.706327],[37.588753,55.707122],[37.584227,55.709514],[37.577608,55.714206],[37.56961,55.711617],[37.565401,55.710757],[37.559232,55.71028],[37.536571,55.693563],[37.511662,55.679731],[37.52401,55.673706],[37.520094,55.670885],[37.501653,55.658525],[37.455719,55.637049]]]}},{"type":"Feature","id":"102269-302","properties":{"id":"102269-302","name":"Южный административный округ","name_ru":"Южный административный округ","subject_id":"102269","subject_name":"Москва","source_gid":302,"source_fid":371,"names_rosstat":"Южный округ","population":1765524,"area_km2":131.58655254108317,"density_km2":13417.206894669413,"source":"Актуализированный объединённый GeoJSON, предоставленный преподавателем","name_en":"Iuzhnyi administrativnyi Okrug","name_zh":"Iuzhnyi administrativnyi专区","subject_name_en":"Moscow","subject_name_zh":"莫斯科市"},"geometry":{"type":"Polygon","coordinates":[[[37.569916,55.608469],[37.569896,55.607243],[37.571299,55.606718],[37.571868,55.605989],[37.573616,55.60595],[37.573986,55.606651],[37.5749,55.606596],[37.577822,55.604366],[37.581565,55.604343],[37.58177,55.603494],[37.579296,55.601033],[37.576715,55.599287],[37.576663,55.597869],[37.580571,55.597761],[37.580237,55.595813],[37.578974,55.595913],[37.577139,55.591634],[37.576864,55.589315],[37.577622,55.58922],[37.576787,55.587867],[37.577479,55.58635],[37.57294,55.580967],[37.590093,55.576896],[37.59224,55.5754],[37.597196,55.569083],[37.597468,55.566872],[37.602288,55.566373],[37.601097,55.568416],[37.600563,55.570735],[37.598512,55.572187],[37.597788,55.57378],[37.60032,55.575375],[37.603685,55.575211],[37.604163,55.574419],[37.605542,55.575057],[37.63504,55.573449],[37.649665,55.572479],[37.650752,55.571735],[37.653897,55.572285],[37.670724,55.571668],[37.676049,55.572088],[37.685182,55.57412],[37.689155,55.57348],[37.690925,55.572319],[37.691721,55.57295],[37.69138,55.574785],[37.691789,55.576407],[37.692564,55.577125],[37.726349,55.590067],[37.730252,55.589712],[37.732174,55.588797],[37.732804,55.589167],[37.732041,55.589935],[37.732099,55.590914],[37.732546,55.592134],[37.733529,55.592978],[37.753831,55.601597],[37.780072,55.61589],[37.784012,55.616821],[37.78693,55.616655],[37.787186,55.616907],[37.78683,55.617125],[37.784361,55.617467],[37.783736,55.618106],[37.793561,55.62296],[37.789756,55.625752],[37.785035,55.633262],[37.783833,55.642588],[37.785507,55.645107],[37.785335,55.647335],[37.783447,55.648545],[37.779799,55.648739],[37.766195,55.645446],[37.749587,55.640626],[37.745381,55.639899],[37.729502,55.640892],[37.713278,55.639457],[37.694482,55.643284],[37.688945,55.645222],[37.674569,55.65176],[37.67165,55.654351],[37.671522,55.655779],[37.67324,55.665106],[37.675043,55.667647],[37.682424,55.670624],[37.687402,55.671156],[37.690748,55.67324],[37.702657,55.676577],[37.71195,55.68132],[37.712379,55.684659],[37.712122,55.688457],[37.707573,55.69327],[37.68427,55.697422],[37.674486,55.698509],[37.670955,55.700501],[37.667289,55.700741],[37.667811,55.705282],[37.663677,55.718132],[37.663675,55.724564],[37.663127,55.726758],[37.656718,55.726372],[37.654211,55.728821],[37.652286,55.728066],[37.645995,55.729465],[37.644911,55.728012],[37.643742,55.722404],[37.641765,55.722211],[37.636424,55.723543],[37.635802,55.72202],[37.633062,55.722565],[37.627893,55.721365],[37.615577,55.720083],[37.614304,55.721026],[37.610096,55.721427],[37.609347,55.719521],[37.60031,55.721301],[37.598128,55.719847],[37.596855,55.72013],[37.594084,55.718325],[37.592565,55.719146],[37.592973,55.719575],[37.592228,55.719428],[37.592133,55.718828],[37.590812,55.717746],[37.592671,55.716871],[37.587938,55.713953],[37.588445,55.713763],[37.587874,55.713295],[37.588336,55.713096],[37.585594,55.711091],[37.58214,55.710993],[37.588753,55.707122],[37.587342,55.706327],[37.596121,55.696134],[37.60124,55.691755],[37.603786,55.69063],[37.603513,55.690347],[37.605244,55.688807],[37.604915,55.686326],[37.605713,55.684957],[37.608608,55.683887],[37.613702,55.684476],[37.614761,55.681998],[37.614694,55.680556],[37.611711,55.678606],[37.611292,55.677217],[37.608955,55.676305],[37.60859,55.675336],[37.607378,55.674668],[37.606625,55.672868],[37.605631,55.6723],[37.606693,55.671172],[37.60579,55.670559],[37.605907,55.669066],[37.611645,55.66608],[37.610689,55.664966],[37.608835,55.665153],[37.607646,55.664083],[37.613572,55.663479],[37.605414,55.65653],[37.60567,55.641372],[37.590224,55.642397],[37.580388,55.645326],[37.57929,55.642801],[37.580707,55.642333],[37.582001,55.641222],[37.581262,55.640895],[37.582155,55.639652],[37.581448,55.639487],[37.581491,55.63896],[37.582255,55.638467],[37.581666,55.6372],[37.581104,55.637278],[37.579845,55.636023],[37.580594,55.635911],[37.580158,55.635564],[37.57928,55.635781],[37.577406,55.63436],[37.577266,55.632677],[37.585243,55.631486],[37.585875,55.630871],[37.585147,55.629201],[37.584165,55.628693],[37.585027,55.628723],[37.584741,55.627925],[37.584088,55.627995],[37.584191,55.627585],[37.584682,55.627704],[37.58435,55.626684],[37.583816,55.626912],[37.58203,55.624585],[37.582354,55.624362],[37.581393,55.624071],[37.581926,55.623636],[37.581659,55.622919],[37.582633,55.623245],[37.580535,55.621789],[37.578715,55.622236],[37.578308,55.622052],[37.578843,55.621745],[37.576397,55.621756],[37.574745,55.620047],[37.577551,55.619254],[37.578885,55.620095],[37.580499,55.619386],[37.579425,55.619691],[37.575934,55.615507],[37.578087,55.614758],[37.574626,55.613228],[37.57571,55.612283],[37.574686,55.608817],[37.573616,55.608361],[37.569916,55.608469]]]}}],"metadata":{"source_en":"Updated consolidated GeoJSON supplied by the instructor","source_zh":"教师提供的更新版合并GeoJSON","license_en":"Source-dataset terms were not specified; use within the author-created educational platform","license_zh":"原始数据集未注明许可条款；仅用于本作者教育平台"}}