{"type":"FeatureCollection","features":[{"type":"Feature","id":"274048-1215","properties":{"id":"274048-1215","name":"Заполярный район","name_ru":"Заполярный район","subject_id":"274048","subject_name":"Ненецкий автономный округ","source_gid":1215,"source_fid":1324,"names_rosstat":"Заполярный муниципальный район","population":17850,"area_km2":176339.66263876687,"density_km2":0.10122510008747074,"source":"Актуализированный объединённый GeoJSON, предоставленный преподавателем","name_en":"Zapoliarnyi District","name_zh":"Zapoliarnyi区","subject_name_en":"Nenets Autonomous Okrug","subject_name_zh":"涅涅茨自治区"},"geometry":{"type":"MultiPolygon","coordinates":[[[[45.982965,66.850755],[45.984972,66.850084],[45.982128,66.850603],[45.982965,66.850755]]],[[[48.437696,67.642776],[48.437042,67.643162],[48.438104,67.64286],[48.437696,67.642776]]],[[[49.95887,68.02122],[49.95663,68.01398],[49.94679,68.01594],[49.94388,68.01833],[49.95887,68.02122]]],[[[49.94168,68.01763],[49.93786,68.01903],[49.94211,68.01967],[49.94168,68.01763]]],[[[44.143123,68.026081],[44.144781,68.026875],[44.145862,68.025948],[44.143123,68.026081]]],[[[49.94628,68.03595],[49.95221,68.03167],[49.94264,68.0317],[49.94628,68.03595]]],[[[49.96724,68.03788],[49.96485,68.03155],[49.95795,68.0297],[49.96027,68.03732],[49.96724,68.03788]]],[[[46.280579,68.255857],[46.33615,68.22611],[46.34246,68.21635],[46.300477,68.227688],[46.280579,68.255857]]],[[[46.268126,68.359328],[46.341339,68.349778],[46.367967,68.334747],[46.375067,68.3081],[46.330371,68.319858],[46.160831,68.334041],[46.163364,68.344176],[46.268126,68.359328]]],[[[50.890799,68.373012],[50.881553,68.357933],[50.888014,68.355801],[50.859749,68.357425],[50.875315,68.355574],[50.862105,68.348377],[50.842059,68.346242],[50.808929,68.355439],[50.862841,68.363416],[50.869173,68.377913],[50.890799,68.373012]]],[[[46.175696,68.371909],[46.120028,68.389681],[46.065061,68.394174],[46.135312,68.393296],[46.175696,68.371909]]],[[[46.073304,68.405016],[46.022053,68.411286],[46.014551,68.414794],[46.05823,68.420081],[46.090972,68.409867],[46.073304,68.405016]]],[[[51.482721,68.478997],[51.439216,68.455531],[51.386999,68.459032],[51.292,68.44047],[51.21603,68.44568],[51.150623,68.441395],[51.08122,68.42222],[50.966,68.42554],[50.96104,68.42061],[50.9729,68.41796],[50.96676,68.41748],[50.9742,68.41441],[50.96574,68.40564],[50.97097,68.40429],[50.93505,68.39798],[50.93451,68.39219],[50.86101,68.3936],[50.8284,68.37905],[50.846252,68.380814],[50.857181,68.369328],[50.851871,68.362889],[50.810367,68.378774],[50.95644,68.44303],[51.11735,68.48162],[51.229858,68.489637],[51.482721,68.478997]]],[[[51.49409,68.43828],[51.4993,68.43691],[51.49012,68.43738],[51.49409,68.43828]]],[[[51.50025,68.43874],[51.50188,68.43777],[51.4977,68.43776],[51.50025,68.43874]]],[[[51.54228,68.47833],[51.53695,68.47726],[51.53083,68.4795],[51.53769,68.47998],[51.54228,68.47833]]],[[[49.220896,68.658523],[49.17223,68.657773],[49.166651,68.666674],[49.226389,68.670077],[49.191198,68.660959],[49.220896,68.658523]]],[[[49.559433,68.689137],[49.607563,68.691671],[49.507828,68.667299],[49.407921,68.666487],[49.510917,68.675665],[49.559433,68.689137]]],[[[49.075692,68.671525],[48.749664,68.690595],[48.738281,68.692825],[49.075692,68.671525]]],[[[48.968698,68.681423],[48.957551,68.682973],[48.95716,68.683198],[48.961907,68.683677],[48.968698,68.681423]]],[[[48.953796,68.683671],[48.955432,68.684141],[48.956183,68.683843],[48.953796,68.683671]]],[[[48.908054,68.686485],[48.949038,68.684964],[48.950947,68.684508],[48.908054,68.686485]]],[[[48.79613,68.699292],[48.869537,68.691959],[48.891982,68.688209],[48.878378,68.688462],[48.79613,68.699292]]],[[[48.792161,68.69865],[48.788277,68.698822],[48.792912,68.698956],[48.792161,68.69865]]],[[[48.616787,68.708359],[48.560042,68.71583],[48.520904,68.728608],[48.515024,68.73299],[48.616787,68.708359]]],[[[49.588412,68.826036],[49.485673,68.78737],[49.450514,68.778913],[49.435934,68.776401],[49.432442,68.776284],[49.431032,68.776747],[49.490104,68.789625],[49.588412,68.826036]]],[[[48.260407,68.85334],[48.222041,68.866403],[48.248691,68.863865],[48.260407,68.85334]]],[[[49.741115,68.877564],[49.862051,68.911283],[49.76326,68.877904],[49.741115,68.877564]]],[[[49.973931,68.923123],[50.063109,68.943825],[50.108471,68.959654],[50.116947,68.96882],[50.12598,68.96708],[50.116239,68.958144],[50.056028,68.937919],[49.985175,68.920191],[49.973931,68.923123]]],[[[50.139113,68.982223],[50.121431,68.981161],[50.143018,68.986624],[50.195932,69.023634],[50.221789,69.037368],[50.139113,68.982223]]],[[[50.22181,69.037856],[50.251508,69.054239],[50.253954,69.054546],[50.22181,69.037856]]],[[[50.273566,69.065221],[50.255059,69.054691],[50.275251,69.067766],[50.273566,69.065221]]],[[[50.198078,69.068594],[50.193164,69.07989],[50.211725,69.076994],[50.190782,69.053165],[50.171899,69.046382],[50.198078,69.068594]]],[[[48.217964,68.884105],[48.22909,68.81759],[48.255424,68.800797],[48.236289,68.807695],[48.2865,68.782979],[48.264012,68.786889],[48.321401,68.762779],[48.276029,68.776144],[48.342118,68.751724],[48.312507,68.7581],[48.333359,68.748475],[48.390183,68.734142],[48.33063,68.74679],[48.429486,68.718258],[48.342138,68.7362],[48.275151,68.761461],[48.229318,68.805566],[48.218954,68.839288],[48.210561,68.920206],[48.214477,68.955821],[48.234406,68.94878],[48.225957,68.946922],[48.2285,68.942287],[48.237228,68.941626],[48.235481,68.939104],[48.257039,68.930461],[48.263261,68.930279],[48.235914,68.944376],[48.258931,68.948728],[48.249201,68.949248],[48.252254,68.955557],[48.222438,68.95935],[48.249406,68.966311],[48.25824,68.976712],[48.233902,68.977052],[48.23859,68.970298],[48.223392,68.971063],[48.217444,68.957141],[48.21356,68.956459],[48.230914,69.076906],[48.254029,69.137001],[48.312306,69.234903],[48.352305,69.279018],[48.402353,69.315545],[48.558932,69.392272],[48.735089,69.458028],[48.930375,69.491295],[49.129416,69.502433],[49.339042,69.490154],[49.442446,69.452045],[49.729191,69.367217],[50.049913,69.284859],[50.127772,69.258703],[50.264264,69.181948],[50.298763,69.147195],[50.310763,69.120234],[50.309283,69.102556],[50.301322,69.088112],[50.290732,69.077331],[50.283984,69.071779],[50.276675,69.066584],[50.275361,69.066274],[50.305699,69.098726],[50.306804,69.126547],[50.302159,69.133966],[50.296129,69.131841],[50.277187,69.163703],[50.245542,69.192066],[50.27686,69.153055],[50.263191,69.151422],[50.267944,69.157932],[50.253375,69.179001],[50.247087,69.182673],[50.260005,69.16347],[50.23755,69.189836],[50.222304,69.193502],[50.240629,69.169068],[50.227003,69.149341],[50.179496,69.137836],[50.154433,69.12098],[50.101991,69.128718],[50.06165,69.122081],[50.055385,69.116896],[50.063925,69.108328],[50.059719,69.099741],[50.009508,69.068165],[49.932354,69.060395],[49.923817,69.05366],[49.921961,69.035775],[49.888438,69.038308],[49.881488,69.033794],[49.886505,69.02715],[49.864691,69.024716],[49.853354,69.007472],[49.841902,69.002936],[49.80051,69.005983],[49.757552,68.993933],[49.768506,68.989898],[49.840454,69.001935],[49.835765,68.999793],[49.859777,68.997894],[49.851966,68.992171],[49.858259,68.989266],[49.902072,68.995847],[49.881282,68.979332],[49.794867,68.941982],[49.767755,68.947799],[49.789095,68.938921],[49.756755,68.91466],[49.725172,68.905125],[49.731406,68.902437],[49.724679,68.897022],[49.737897,68.898393],[49.71719,68.878225],[49.732876,68.87188],[49.727941,68.867184],[49.612799,68.831151],[49.606319,68.830341],[49.607649,68.836404],[49.647605,68.856903],[49.614033,68.847293],[49.586577,68.848699],[49.58986,68.844823],[49.578209,68.840835],[49.568649,68.850297],[49.553812,68.85219],[49.577801,68.838825],[49.565978,68.839301],[49.528438,68.832499],[49.577054,68.835023],[49.535605,68.832236],[49.521936,68.822347],[49.441395,68.804646],[49.42071,68.812725],[49.408672,68.808804],[49.430191,68.802456],[49.364383,68.792164],[49.335308,68.793212],[49.309891,68.803298],[49.342078,68.787071],[49.197587,68.758961],[49.106057,68.754049],[48.980049,68.728834],[48.972979,68.728777],[48.997291,68.734506],[48.935112,68.725716],[48.949982,68.741919],[48.9448,68.745669],[48.930659,68.747135],[48.945025,68.741807],[48.927194,68.725817],[48.825892,68.713563],[48.819938,68.726483],[48.815357,68.728258],[48.818125,68.713287],[48.739729,68.706641],[48.724869,68.714778],[48.734719,68.720036],[48.731543,68.724856],[48.748194,68.729795],[48.760425,68.723201],[48.763204,68.722699],[48.769169,68.723583],[48.750576,68.729951],[48.756477,68.7322],[48.730872,68.726981],[48.730706,68.732918],[48.705053,68.736955],[48.745919,68.750122],[48.713926,68.743402],[48.690998,68.751141],[48.686074,68.749006],[48.703433,68.74386],[48.691986,68.740103],[48.693928,68.733749],[48.707993,68.730075],[48.650057,68.729776],[48.715868,68.726919],[48.700783,68.716508],[48.710461,68.715433],[48.701835,68.713805],[48.714473,68.70659],[48.678961,68.696318],[48.722134,68.691998],[48.556631,68.704065],[48.438109,68.716698],[48.432015,68.72243],[48.657997,68.697518],[48.61609,68.706481],[48.640502,68.703317],[48.631089,68.706972],[48.639564,68.711553],[48.586049,68.719148],[48.596263,68.725253],[48.569924,68.724307],[48.594074,68.733138],[48.560235,68.72674],[48.55662,68.730768],[48.569924,68.732084],[48.571308,68.733084],[48.556738,68.731761],[48.552489,68.735162],[48.563948,68.736843],[48.542608,68.741064],[48.576415,68.749575],[48.542243,68.748714],[48.540569,68.740262],[48.510497,68.756117],[48.522041,68.7596],[48.504848,68.75797],[48.463204,68.773386],[48.491421,68.780521],[48.456632,68.772897],[48.407564,68.790588],[48.455608,68.798768],[48.393123,68.791131],[48.31933,68.82481],[48.325092,68.832522],[48.349339,68.829617],[48.353598,68.829992],[48.35767,68.84197],[48.366521,68.843224],[48.356559,68.842058],[48.351238,68.829911],[48.330424,68.83375],[48.322619,68.832706],[48.314513,68.825505],[48.305748,68.828299],[48.269656,68.850445],[48.34409,68.84352],[48.299428,68.861799],[48.269216,68.865935],[48.25316,68.87804],[48.279934,68.87621],[48.25103,68.88051],[48.244443,68.874563],[48.225024,68.877006],[48.228178,68.872723],[48.219368,68.879843],[48.221515,68.885585],[48.23999,68.885805],[48.222223,68.901077],[48.217964,68.884105]]],[[[50.128212,69.115137],[50.12259,69.105955],[50.110059,69.105848],[50.110842,69.116667],[50.128212,69.115137]]],[[[50.20296,69.120112],[50.202477,69.120556],[50.203292,69.120368],[50.20296,69.120112]]],[[[50.254356,69.131376],[50.25264,69.132341],[50.255821,69.132049],[50.254356,69.131376]]],[[[50.224214,69.133908],[50.226536,69.133602],[50.223843,69.133694],[50.224214,69.133908]]],[[[50.244952,69.146002],[50.244636,69.14651],[50.246326,69.146254],[50.244952,69.146002]]],[[[50.273216,69.150224],[50.272522,69.150016],[50.272511,69.150408],[50.273216,69.150224]]],[[[50.277182,69.151466],[50.276723,69.150397],[50.276299,69.151577],[50.277182,69.151466]]],[[[50.262218,69.158839],[50.262517,69.15893],[50.262619,69.158853],[50.262218,69.158839]]],[[[50.262462,69.159449],[50.261472,69.159721],[50.262149,69.160046],[50.262462,69.159449]]],[[[50.261797,69.160954],[50.260895,69.160724],[50.260826,69.16096],[50.261797,69.160954]]],[[[50.260938,69.162756],[50.259624,69.163071],[50.259715,69.163161],[50.260938,69.162756]]],[[[50.254576,69.166637],[50.25489,69.166928],[50.255233,69.16671],[50.254576,69.166637]]],[[[43.528143,68.53539],[43.39091,68.595758],[43.334713,68.61306],[43.286107,68.63978],[43.269396,68.658136],[43.314573,68.66759],[43.476226,68.664254],[43.566022,68.648159],[43.64757,68.623114],[43.74111,68.61494],[43.750632,68.604952],[43.854898,68.572238],[44.07051,68.531449],[44.781023,68.552083],[45.265628,68.539101],[45.537523,68.516991],[46.032196,68.428586],[45.971447,68.433089],[45.804502,68.467904],[45.859822,68.429323],[45.967484,68.377842],[46.035773,68.326556],[46.02175,68.316156],[46.006941,68.316297],[45.995175,68.312346],[46.012954,68.314964],[46.110766,68.294959],[46.304522,68.187348],[46.378968,68.171393],[46.379743,68.180109],[46.338669,68.206451],[46.354943,68.206019],[46.398536,68.178596],[46.541559,68.11636],[46.547313,68.099021],[46.507226,68.1056],[46.492795,68.095881],[46.449501,68.092142],[46.426251,68.103357],[46.408612,68.100068],[46.42144,68.09633],[46.416942,68.088933],[46.46754,68.082568],[46.478764,68.092441],[46.497605,68.083166],[46.501614,68.091245],[46.52767,68.097825],[46.522996,68.045927],[46.5413,68.012733],[46.640074,67.937218],[46.632285,67.929438],[46.653732,67.91062],[46.651039,67.909822],[46.644679,67.903196],[46.653498,67.910171],[46.685886,67.903644],[46.706097,67.890131],[46.698715,67.888338],[46.702629,67.881949],[46.681289,67.875699],[46.685275,67.864936],[46.713092,67.854042],[46.70912,67.831881],[46.699045,67.826549],[46.693085,67.80826],[46.6364,67.801203],[46.607634,67.810288],[46.518016,67.80857],[46.517017,67.809364],[46.510861,67.809969],[46.506551,67.814531],[46.504075,67.815396],[46.509558,67.809717],[46.517066,67.809221],[46.476733,67.808034],[46.333509,67.821789],[46.081327,67.787401],[45.980015,67.791595],[45.848131,67.753874],[45.66293,67.744918],[45.65757,67.748972],[45.656734,67.750719],[45.668085,67.758379],[45.658032,67.752957],[45.573757,67.75393],[45.470928,67.743015],[45.35785,67.713629],[45.288217,67.683616],[45.239983,67.679719],[45.229833,67.673264],[45.307531,67.677878],[45.339127,67.66641],[45.344954,67.650037],[45.338302,67.62089],[45.306721,67.574655],[45.24642,67.582764],[45.191885,67.576487],[44.997489,67.496076],[44.990934,67.49438],[44.987973,67.494133],[44.990966,67.494735],[44.989963,67.496107],[44.99456,67.496938],[44.994257,67.498825],[44.999743,67.500079],[44.995451,67.503946],[44.981643,67.505991],[44.974605,67.505199],[44.997897,67.499927],[44.993445,67.49885],[44.993702,67.496889],[44.988416,67.496112],[44.958512,67.471819],[44.932253,67.440947],[44.913139,67.382389],[44.916937,67.336959],[44.901145,67.327507],[44.937408,67.319673],[44.929308,67.307412],[44.9445,67.306518],[44.934586,67.308488],[44.94244,67.316193],[44.937462,67.318498],[44.950486,67.318117],[45.135816,67.250594],[45.262964,67.219931],[45.511851,67.176947],[45.581476,67.156505],[45.621629,67.122426],[45.616659,67.062706],[45.684854,67.028612],[45.697964,66.988575],[45.747285,66.957372],[45.81537,66.894248],[45.811164,66.888656],[45.845434,66.885261],[45.877168,66.86389],[46.000936,66.845166],[46.014841,66.831101],[46.016579,66.816487],[46.084997,66.8256],[46.167083,66.821977],[46.256679,66.828175],[46.354322,66.840314],[46.424961,66.858308],[46.519117,66.865905],[46.564683,66.860142],[46.59997,66.836195],[46.571914,66.834895],[46.556454,66.826917],[46.570723,66.819646],[46.658388,66.813294],[46.815362,66.837782],[46.892009,66.840162],[46.914208,66.828535],[46.977818,66.850405],[47.038071,66.854235],[47.068798,66.849169],[47.101629,66.862027],[47.25022,66.88236],[47.4007,66.91686],[47.46118,66.91555],[47.568843,66.889941],[47.594247,66.895922],[47.57442,66.900004],[47.592311,66.922765],[47.650111,66.94949],[47.646106,66.952337],[47.682081,66.961676],[47.665599,66.961434],[47.750383,67.00534],[47.742297,67.014717],[47.759296,67.075605],[47.758609,67.118759],[47.767454,67.131445],[47.747864,67.154121],[47.717029,67.162748],[47.707835,67.184616],[47.677617,67.188597],[47.71616,67.212172],[47.759791,67.2196],[47.794449,67.239074],[47.801439,67.254896],[47.763528,67.276024],[47.768984,67.287445],[47.760315,67.29483],[47.76127,67.303355],[47.785528,67.321234],[47.773919,67.33459],[47.894812,67.396859],[47.92692,67.425056],[47.940514,67.450329],[47.933858,67.4784],[47.896538,67.49059],[47.87462,67.508667],[47.873526,67.518819],[47.851102,67.527637],[47.860973,67.53059],[47.866772,67.542761],[47.86402,67.530475],[47.886786,67.533927],[47.878032,67.540281],[47.889533,67.548576],[47.858752,67.54765],[47.867981,67.543233],[47.848248,67.550387],[47.83076,67.571264],[47.832713,67.577698],[47.974484,67.619979],[47.999257,67.634239],[47.99268,67.641334],[48.012357,67.629801],[48.047622,67.626275],[48.051222,67.618224],[48.125787,67.613066],[48.071687,67.611599],[48.071784,67.59975],[48.088295,67.582576],[48.067321,67.576994],[48.098525,67.576348],[48.094733,67.581536],[48.103573,67.582512],[48.099303,67.58492],[48.112865,67.596744],[48.130873,67.5928],[48.118293,67.599848],[48.136361,67.614733],[48.211495,67.632921],[48.213104,67.638481],[48.235865,67.638744],[48.254968,67.653046],[48.331116,67.656138],[48.345455,67.665725],[48.383001,67.65626],[48.394877,67.644327],[48.463139,67.634395],[48.5447,67.649397],[48.55972,67.659859],[48.661312,67.692706],[48.711678,67.687942],[48.742025,67.696236],[48.741625,67.712526],[48.791029,67.760519],[48.776544,67.766791],[48.787022,67.79024],[48.780595,67.824664],[48.73753,67.855252],[48.687032,67.877127],[48.640093,67.885115],[48.5925,67.913904],[48.633007,67.913899],[48.650065,67.90243],[48.678239,67.89778],[48.699213,67.876833],[48.780014,67.846401],[48.91463,67.829525],[49.067184,67.835876],[49.025427,67.828707],[49.023292,67.8261],[49.06124,67.823358],[49.066969,67.813191],[49.076453,67.81202],[49.06852,67.815247],[49.06728,67.825464],[49.046807,67.831397],[49.174027,67.852587],[49.553436,67.942524],[49.86942,68.03183],[50.062659,68.097042],[50.034538,68.080755],[50.033808,68.067828],[50.017008,68.051075],[49.988523,68.054327],[49.985653,68.066813],[49.970799,68.043498],[49.92475,68.037588],[49.896409,68.030386],[49.894753,68.023452],[49.810477,68.006338],[49.829113,68.00522],[49.83028,67.99751],[49.821217,67.99226],[49.900334,67.990514],[49.9091,67.994315],[49.893888,67.998968],[49.91129,68.00342],[49.90381,68.01005],[49.92697,68.01602],[49.94121,68.01226],[49.93802,68.01646],[49.97407,68.00922],[49.96435,68.0149],[49.97822,68.01576],[49.96123,68.02268],[49.97421,68.03844],[49.9888,68.04261],[49.996275,68.038435],[50.000092,68.037899],[50.009922,68.03775],[50.016412,68.039702],[49.992016,68.042676],[50.010304,68.048845],[50.02186,68.048],[50.020099,68.042978],[50.022666,68.039912],[50.016135,68.040041],[50.02244,68.03929],[50.023968,68.039928],[50.022399,68.045969],[50.038649,68.05171],[50.043354,68.048291],[50.027586,68.0368],[50.051447,68.016003],[50.062586,68.012627],[50.07022,67.99706],[50.07633,67.99841],[50.06143,68.01473],[50.10024,68.02022],[50.09653,68.01544],[50.10109,68.01281],[50.14135,68.01578],[50.14646,68.01933],[50.19052,67.99647],[50.14608,68.020398],[50.102356,68.013527],[50.10186,68.02055],[50.05359,68.01568],[50.04455,68.04562],[50.05782,68.0449],[50.04173,68.05271],[50.06181,68.06923],[50.05132,68.07778],[50.05902,68.07963],[50.049374,68.082476],[50.09257,68.10984],[50.334706,68.184223],[50.61594,68.2845],[50.807567,68.373161],[50.822652,68.365858],[50.812816,68.360178],[50.804418,68.361352],[50.799858,68.355613],[50.790955,68.3552],[50.786167,68.353184],[50.786217,68.352639],[50.800308,68.355148],[50.83206,68.340062],[50.827248,68.336791],[50.828762,68.335325],[50.878055,68.332388],[51.031157,68.346228],[51.066939,68.34025],[51.089662,68.341508],[51.082538,68.347323],[51.106079,68.360726],[51.162949,68.374912],[51.177135,68.374226],[51.179524,68.367339],[51.194042,68.379226],[51.288488,68.379138],[51.32368,68.386051],[51.319063,68.388747],[51.356898,68.40487],[51.394697,68.408904],[51.405312,68.403437],[51.420438,68.410891],[51.401382,68.414528],[51.39879,68.419513],[51.407381,68.42457],[51.43842,68.427976],[51.472695,68.41812],[51.44722,68.42185],[51.46442,68.41704],[51.516,68.41695],[51.59577,68.43442],[51.587823,68.445672],[51.510298,68.447912],[51.511098,68.461903],[51.548642,68.469106],[51.542874,68.471106],[51.548723,68.483774],[51.707403,68.491803],[51.876556,68.510764],[52.237334,68.579291],[52.294064,68.576598],[52.307968,68.567943],[52.285566,68.556352],[52.257371,68.556603],[52.180241,68.544931],[52.176354,68.539515],[52.15947,68.539123],[52.15233,68.511953],[52.082239,68.518658],[51.98687,68.509414],[52.043973,68.507423],[52.045133,68.499579],[52.060917,68.490594],[52.041936,68.492633],[52.032205,68.484241],[52.074412,68.473242],[52.085591,68.476338],[52.087792,68.492607],[52.103605,68.489489],[52.124628,68.498593],[52.120551,68.507218],[52.169324,68.499204],[52.186765,68.489397],[52.161139,68.492272],[52.156206,68.490343],[52.202649,68.479589],[52.208013,68.479728],[52.18221,68.487146],[52.223623,68.488199],[52.255279,68.468582],[52.197488,68.452141],[52.22063,68.456721],[52.227432,68.446884],[52.225866,68.456335],[52.23505,68.459867],[52.265643,68.453258],[52.258736,68.455117],[52.25783,68.465301],[52.293959,68.455088],[52.305501,68.45728],[52.295602,68.447445],[52.313402,68.428336],[52.305544,68.416457],[52.203798,68.396327],[52.156624,68.373253],[52.166888,68.367508],[52.162702,68.363261],[52.14931,68.361817],[52.205022,68.345277],[52.215013,68.335242],[52.210829,68.331199],[52.261282,68.323284],[52.282841,68.312307],[52.296628,68.313548],[52.327725,68.324438],[52.416458,68.328885],[52.545558,68.367863],[52.548423,68.376339],[52.599385,68.400823],[52.708299,68.421084],[52.708148,68.427833],[52.739584,68.449209],[52.745832,68.471341],[52.752032,68.467244],[52.749766,68.473842],[52.763895,68.482855],[52.75322,68.483328],[52.746348,68.47413],[52.739605,68.484577],[52.672759,68.507224],[52.602314,68.516128],[52.575164,68.525869],[52.551363,68.56118],[52.558261,68.560282],[52.569687,68.562484],[52.48585,68.57535],[52.508764,68.5992],[52.484758,68.604958],[52.481824,68.614108],[52.549447,68.624211],[52.51438,68.628421],[52.473562,68.618759],[52.453762,68.59542],[52.378918,68.569637],[52.287267,68.58941],[52.299171,68.59982],[52.834883,68.75125],[53.37288,68.882933],[53.549895,68.916274],[53.897134,68.962637],[54.09242,68.979502],[54.361875,68.988829],[54.529352,68.98603],[54.575647,68.97981],[54.58909,68.970888],[54.565444,68.965659],[54.550166,68.973994],[54.522432,68.963687],[54.434252,68.975765],[54.368591,68.95272],[53.867952,68.912688],[53.816614,68.916401],[53.793021,68.926098],[53.706601,68.902468],[53.603303,68.902449],[53.569714,68.889868],[53.583957,68.885579],[53.600795,68.894931],[53.629626,68.895847],[53.636359,68.885888],[53.61429,68.883515],[53.603219,68.87281],[53.574636,68.877792],[53.573113,68.870758],[53.62277,68.86474],[53.642604,68.85092],[53.678279,68.840906],[53.71103,68.84344],[53.71332,68.83274],[53.738752,68.824761],[53.737359,68.822863],[53.728236,68.825766],[53.72336,68.82393],[53.73467,68.822606],[53.737929,68.822497],[53.73916,68.82313],[53.739638,68.824978],[53.734353,68.830919],[53.725084,68.834143],[53.735212,68.84412],[53.684145,68.851354],[53.674869,68.860131],[53.68131,68.865298],[53.670152,68.86963],[53.743966,68.859417],[53.799292,68.864905],[54.00013,68.83228],[53.993,68.83267],[54.00328,68.81418],[53.96649,68.81429],[53.961489,68.805979],[53.96705,68.7946],[53.91543,68.79994],[53.87026,68.79438],[53.87648,68.77274],[53.826163,68.739278],[53.85954,68.702893],[53.80141,68.671347],[53.734128,68.651087],[53.718811,68.631166],[53.725161,68.628769],[53.71746,68.61798],[53.73317,68.60165],[53.729225,68.597933],[53.758183,68.585054],[53.792215,68.580558],[53.806159,68.562497],[53.88042,68.54047],[53.8898,68.53322],[53.885345,68.526021],[53.917716,68.504193],[53.917181,68.490504],[53.938183,68.46393],[53.924894,68.438618],[53.94259,68.411911],[53.938151,68.396578],[53.89271,68.379672],[53.832584,68.372152],[53.80239,68.360361],[53.800857,68.351245],[53.81457,68.34629],[53.825964,68.326495],[53.739249,68.349539],[53.740059,68.357298],[53.725324,68.36845],[53.678534,68.38385],[53.631906,68.388988],[53.628087,68.382573],[53.608346,68.381985],[53.613893,68.373109],[53.600535,68.380688],[53.60311,68.391556],[53.590271,68.385137],[53.567079,68.393909],[53.554841,68.390173],[53.597199,68.376673],[53.612476,68.36142],[53.618367,68.363514],[53.615341,68.368423],[53.654802,68.367752],[53.656928,68.361498],[53.64558,68.350462],[53.631209,68.350547],[53.637233,68.341639],[53.642131,68.348904],[53.647892,68.341988],[53.655928,68.31792],[53.608083,68.336188],[53.583037,68.358426],[53.565753,68.360044],[53.568917,68.354512],[53.557261,68.352488],[53.462257,68.362173],[53.452923,68.365384],[53.471379,68.370673],[53.449374,68.370453],[53.458051,68.374641],[53.453202,68.378157],[53.423735,68.369398],[53.433217,68.365659],[53.372945,68.334265],[53.361899,68.337812],[53.359244,68.34642],[53.336475,68.336098],[53.318278,68.338691],[53.324965,68.342938],[53.317018,68.345191],[53.311688,68.34217],[53.317251,68.339289],[53.27867,68.318047],[53.272397,68.303514],[53.242655,68.302847],[53.23639,68.29165],[53.199531,68.27285],[53.192933,68.259589],[53.262663,68.259534],[53.340743,68.226568],[53.404126,68.229391],[53.40521,68.23326],[53.423672,68.234891],[53.432525,68.237703],[53.43968,68.2422],[53.461359,68.241148],[53.467459,68.25427],[53.493255,68.256552],[53.528129,68.252462],[53.523681,68.248432],[53.534426,68.245441],[53.53253,68.244326],[53.52103,68.24712],[53.51287,68.24631],[53.555749,68.236678],[53.570889,68.242932],[53.55838,68.24649],[53.59927,68.24989],[53.590379,68.246148],[53.592999,68.241263],[53.606,68.24645],[53.64159,68.23898],[53.631151,68.239129],[53.632694,68.234634],[53.721404,68.247341],[53.7521,68.24271],[53.735673,68.240984],[53.756334,68.233144],[53.808201,68.240994],[53.803787,68.238142],[53.846189,68.224522],[53.910097,68.222517],[53.9249,68.20916],[53.95147,68.21655],[53.97175,68.20899],[53.996641,68.218418],[54.010442,68.214741],[54.020524,68.2236],[54.022182,68.216234],[54.006711,68.206295],[54.023492,68.205699],[54.047083,68.216109],[54.06019,68.23361],[54.08148,68.23143],[54.064017,68.218718],[54.084127,68.223207],[54.09514,68.23244],[54.08428,68.24197],[54.093088,68.254372],[54.1304,68.26732],[54.1206,68.26844],[54.13093,68.27962],[54.146842,68.281397],[54.14,68.28438],[54.143801,68.287335],[54.231802,68.309638],[54.237023,68.319912],[54.232267,68.316314],[54.221667,68.319286],[54.236297,68.323474],[54.252614,68.31913],[54.301804,68.325839],[54.346911,68.339102],[54.353442,68.33539],[54.34906,68.326599],[54.333127,68.326918],[54.320065,68.315532],[54.338256,68.317187],[54.468521,68.290825],[54.518065,68.293637],[54.543858,68.285096],[54.542012,68.278791],[54.55965,68.262784],[54.583296,68.250293],[54.579123,68.247533],[54.598392,68.224094],[54.632971,68.206252],[54.617007,68.198407],[54.634087,68.182435],[54.651516,68.182758],[54.675565,68.168627],[54.741343,68.155145],[54.866517,68.146355],[54.905094,68.175866],[54.902088,68.198474],[54.879756,68.211413],[54.942434,68.231802],[54.957583,68.248109],[54.944537,68.263459],[54.862587,68.300589],[54.861027,68.313594],[54.896622,68.323441],[54.942808,68.350992],[54.990188,68.413908],[55.386736,68.547203],[55.497565,68.559372],[55.586625,68.547651],[55.650086,68.551904],[55.64646,68.548486],[55.654163,68.543648],[55.710908,68.564309],[55.793982,68.578314],[55.861439,68.605398],[55.920496,68.614625],[55.949292,68.635084],[56.006075,68.642414],[56.092822,68.634155],[56.204338,68.595181],[56.345755,68.581958],[56.437326,68.583768],[56.537162,68.608971],[56.60539,68.619773],[56.638011,68.618143],[56.783732,68.597009],[56.866892,68.553308],[57.05417,68.52215],[57.300823,68.526231],[57.335695,68.531324],[57.496438,68.592],[57.500785,68.606186],[57.489765,68.625325],[57.498638,68.637803],[57.587306,68.678154],[57.661829,68.731332],[57.727862,68.738278],[57.78513,68.735232],[57.842486,68.745016],[57.916065,68.744263],[57.985352,68.758968],[57.984574,68.748755],[57.961134,68.741711],[57.963293,68.734638],[57.971925,68.734255],[58.03044,68.759173],[58.034506,68.79918],[57.97612,68.802062],[58.001278,68.811991],[58.310851,68.866507],[58.790838,68.963721],[58.87205,68.97541],[59.052713,68.982616],[59.275124,68.978459],[59.326687,68.968936],[59.306774,68.970591],[59.315443,68.963098],[59.288428,68.959808],[59.230213,68.970445],[59.14361,68.952111],[59.121552,68.963883],[59.133493,68.954211],[59.012686,68.950146],[59.007976,68.947032],[59.013308,68.943243],[59.004296,68.940066],[59.013898,68.933901],[59.000777,68.930457],[58.967013,68.94529],[58.977849,68.935914],[58.964793,68.93392],[58.991475,68.923202],[58.96137,68.93429],[58.908219,68.934009],[58.899808,68.930113],[58.914034,68.922271],[58.894476,68.914429],[58.883157,68.916911],[58.879246,68.9162],[58.876414,68.913854],[58.886633,68.910217],[58.877857,68.91434],[58.883436,68.916386],[58.891633,68.913661],[58.916502,68.915699],[59.030356,68.897752],[59.099622,68.900131],[59.16378,68.884367],[59.214635,68.857914],[59.234183,68.855349],[59.233689,68.848099],[59.281969,68.835149],[59.285518,68.814518],[59.311348,68.813931],[59.318238,68.801571],[59.356841,68.783081],[59.354611,68.776136],[59.29096,68.776595],[59.280763,68.760488],[59.297181,68.748462],[59.329845,68.738348],[59.37716,68.707506],[59.447171,68.699313],[59.468515,68.692879],[59.476805,68.682468],[59.441244,68.66798],[59.319649,68.672419],[59.287351,68.680748],[59.253441,68.671466],[59.189092,68.667632],[59.193564,68.632156],[59.178795,68.622811],[59.178478,68.614057],[59.150017,68.614641],[59.126766,68.606454],[59.124361,68.58246],[59.114339,68.5788],[59.042001,68.573807],[59.028462,68.563287],[59.059821,68.573676],[59.099507,68.572943],[59.104718,68.568843],[59.092692,68.553898],[59.095525,68.547439],[59.123559,68.531168],[59.17006,68.519281],[59.111533,68.449299],[59.108727,68.434864],[59.121555,68.405081],[59.170862,68.388108],[59.392543,68.366837],[59.517661,68.332396],[59.5818,68.336836],[59.688806,68.313294],[59.695416,68.325042],[59.722795,68.32612],[59.720521,68.332934],[59.749811,68.337743],[59.763351,68.354732],[59.781504,68.348868],[59.878621,68.358984],[59.873396,68.369008],[59.877945,68.374718],[59.945612,68.409921],[59.9475,68.424633],[59.986897,68.448608],[59.971898,68.49886],[59.937201,68.524704],[59.892547,68.539268],[59.876432,68.562609],[59.846086,68.572418],[59.809205,68.618621],[59.808535,68.636356],[59.83893,68.657617],[59.950268,68.698387],[59.949431,68.707576],[60.037735,68.683615],[60.062427,68.668048],[60.09691,68.679188],[60.371504,68.685697],[60.523295,68.706614],[60.625863,68.749119],[60.741348,68.808668],[60.809522,68.86896],[60.890238,68.885911],[60.942137,68.886087],[60.957383,68.905929],[60.936258,68.914276],[60.936237,68.929506],[60.954778,68.940716],[60.953736,68.952462],[60.968237,68.96262],[60.963615,68.971284],[60.969155,68.979491],[60.953981,69.025908],[60.94335,69.034601],[60.942787,69.049389],[60.968659,69.062764],[60.930084,69.085263],[60.922044,69.10423],[60.890892,69.132206],[60.833423,69.155811],[60.782441,69.159035],[60.759283,69.143264],[60.750707,69.123403],[60.770441,69.100969],[60.750279,69.09722],[60.771717,69.095163],[60.766282,69.093272],[60.770681,69.09152],[60.765096,69.090497],[60.713289,69.098645],[60.662418,69.120065],[60.641375,69.147263],[60.653023,69.222329],[60.650405,69.239063],[60.637885,69.254492],[60.594636,69.273896],[60.579953,69.293888],[60.488376,69.34052],[60.474331,69.357734],[60.451207,69.364061],[60.453568,69.371881],[60.451916,69.374955],[60.425047,69.39402],[60.388199,69.397905],[60.383381,69.405496],[60.389481,69.410526],[60.378178,69.421445],[60.313601,69.443515],[60.302721,69.451926],[60.309875,69.46331],[60.307121,69.473496],[60.255056,69.485389],[60.258015,69.493774],[60.247627,69.501025],[60.220951,69.501777],[60.218939,69.50667],[60.238786,69.511234],[60.245323,69.53724],[60.190672,69.556874],[60.195157,69.560133],[60.19167,69.567279],[60.219637,69.579415],[60.219365,69.587864],[60.194355,69.599016],[60.217691,69.614395],[60.214118,69.623191],[60.256903,69.633125],[60.32777,69.65994],[60.376694,69.665925],[60.454466,69.648977],[60.613409,69.650958],[60.65833,69.65694],[60.71409,69.67497],[60.713576,69.688658],[60.690575,69.692982],[60.695428,69.711506],[60.77824,69.72505],[60.73294,69.781673],[60.724226,69.81084],[60.774425,69.83197],[60.784226,69.843856],[60.828863,69.838372],[60.851684,69.856455],[60.863947,69.848698],[60.898177,69.856558],[60.996019,69.845597],[61.053686,69.827187],[61.095688,69.837154],[61.106067,69.844782],[61.096309,69.85642],[61.103183,69.860722],[61.128877,69.841058],[61.1269,69.830142],[61.179561,69.813541],[61.208426,69.813174],[61.228681,69.82153],[61.297407,69.816549],[61.352883,69.800032],[61.342544,69.790361],[61.350013,69.786303],[61.461468,69.771356],[61.645102,69.762577],[61.719715,69.771181],[61.815607,69.74983],[61.969841,69.746935],[62.000097,69.737517],[62.635164,69.72249],[63.022483,69.693295],[63.766351,69.592207],[64.14337,69.52864],[64.34911,69.4848],[64.677266,69.387224],[64.91855,69.30673],[64.887963,69.311525],[64.938683,69.255906],[65.083832,69.260505],[65.077194,69.24894],[65.059665,69.246381],[65.062962,69.238952],[65.077134,69.235888],[65.055012,69.237242],[65.033576,69.225393],[65.025041,69.193918],[64.85469,69.171267],[64.849121,69.160043],[64.829639,69.155967],[64.802182,69.136521],[64.740301,69.12381],[64.720055,69.112431],[64.716773,69.086571],[64.696729,69.072201],[64.643723,69.062067],[64.608467,69.037853],[64.538948,69.028795],[64.53918,69.008155],[64.522811,68.99425],[64.519241,68.97709],[64.557475,68.972606],[64.578206,68.958973],[64.608392,68.962312],[64.607656,68.955676],[64.628733,68.948163],[64.617819,68.937984],[64.62344,68.930788],[64.551408,68.910664],[64.550566,68.905453],[64.576281,68.895315],[64.557261,68.867616],[64.590996,68.86092],[64.658342,68.866176],[64.746879,68.853111],[64.758995,68.859455],[64.742446,68.872436],[64.788541,68.893577],[64.790816,68.885567],[64.809513,68.877657],[64.861583,68.873683],[64.864041,68.869568],[64.852159,68.865757],[64.857945,68.862344],[64.921725,68.876112],[64.911532,68.863604],[64.935868,68.858799],[64.952217,68.846917],[64.998475,68.840353],[65.02436,68.844186],[65.035802,68.837911],[65.032073,68.829034],[65.129166,68.802739],[65.140741,68.804012],[65.144286,68.813395],[65.212654,68.81426],[65.202729,68.821892],[65.207491,68.824457],[65.229886,68.817603],[65.234126,68.801811],[65.256346,68.810369],[65.297046,68.80284],[65.346071,68.8123],[65.347474,68.798005],[65.340648,68.793631],[65.347424,68.788339],[65.400418,68.791138],[65.394143,68.78548],[65.398303,68.778002],[65.352782,68.743846],[65.357626,68.737052],[65.351219,68.72863],[65.387839,68.72065],[65.44161,68.736859],[65.449557,68.732725],[65.449651,68.722297],[65.469064,68.709635],[65.46184,68.695072],[65.426367,68.697146],[65.403089,68.682931],[65.41628,68.673483],[65.437569,68.675074],[65.425481,68.661362],[65.436069,68.646778],[65.490877,68.63879],[65.522491,68.615555],[65.562329,68.608662],[65.560999,68.59034],[65.592155,68.589589],[65.60576,68.581174],[65.656614,68.582671],[65.670455,68.564179],[65.668588,68.553912],[65.654941,68.548357],[65.658052,68.540296],[65.627646,68.534855],[65.592198,68.515649],[65.608184,68.489531],[65.53997,68.480642],[65.541647,68.469678],[65.513363,68.464906],[65.507505,68.454897],[65.51332,68.450901],[65.508041,68.44685],[65.510852,68.434021],[65.466542,68.426046],[65.473816,68.418383],[65.463967,68.415471],[65.392541,68.421509],[65.379473,68.418434],[65.377321,68.408671],[65.355796,68.413745],[65.333504,68.398754],[65.300372,68.394449],[65.280922,68.406671],[65.259532,68.404327],[65.247195,68.394794],[65.222864,68.401943],[65.164593,68.403134],[65.169852,68.407664],[65.147027,68.405401],[65.11511,68.415053],[65.055715,68.401974],[65.061522,68.387001],[65.04354,68.388087],[65.029558,68.380541],[64.989913,68.388201],[64.96845,68.403247],[64.940796,68.403795],[64.923266,68.394481],[64.884505,68.389407],[64.875321,68.391483],[64.875569,68.404743],[64.848751,68.398792],[64.804173,68.409016],[64.74844,68.386739],[64.691125,68.395494],[64.662365,68.384575],[64.663638,68.376259],[64.650656,68.366543],[64.581196,68.3555],[64.583587,68.343125],[64.548951,68.341796],[64.542035,68.337499],[64.556587,68.331903],[64.528203,68.325795],[64.540104,68.307589],[64.529039,68.301762],[64.526869,68.2856],[64.546351,68.274081],[64.566971,68.27622],[64.564689,68.269779],[64.579706,68.265214],[64.56208,68.254029],[64.576646,68.246825],[64.568203,68.235267],[64.57568,68.211914],[64.560126,68.208594],[64.582783,68.202131],[64.57754,68.195278],[64.549616,68.197305],[64.50669,68.187837],[64.497978,68.199969],[64.45121,68.200579],[64.404,68.178686],[64.374844,68.176728],[64.372902,68.16372],[64.351486,68.161868],[64.397421,68.160367],[64.37237,68.145857],[64.375139,68.136289],[64.367725,68.127566],[64.339245,68.131008],[64.340775,68.123532],[64.323043,68.12337],[64.307626,68.113217],[64.27082,68.119785],[64.257463,68.110453],[64.216921,68.113787],[64.198591,68.104551],[64.16814,68.109839],[64.178143,68.1007],[64.160343,68.092786],[64.082628,68.091964],[64.11096,68.082784],[64.079951,68.08643],[64.076597,68.080182],[64.093691,68.075381],[64.046941,68.067921],[64.03272,68.056696],[63.98512,68.057271],[63.976195,68.048742],[63.953831,68.047552],[63.964233,68.044161],[63.867711,68.03291],[63.878727,68.031238],[63.894975,68.000676],[63.910899,67.998044],[63.896983,67.99306],[63.911887,67.986116],[63.9119,67.975375],[63.940434,67.963181],[63.927924,67.952404],[63.949833,67.945189],[63.922806,67.931234],[63.930816,67.920959],[63.99778,67.901403],[63.996795,67.89269],[63.950828,67.889654],[63.956587,67.88387],[63.94919,67.872939],[63.92683,67.873141],[63.931751,67.868422],[63.911736,67.854679],[63.92596,67.85071],[63.924583,67.84599],[63.91069,67.846187],[63.868333,67.82666],[63.813445,67.821332],[63.798547,67.829297],[63.768419,67.816332],[63.764019,67.811449],[63.775724,67.808056],[63.763365,67.800209],[63.747815,67.815794],[63.706185,67.806255],[63.717393,67.797395],[63.701701,67.794464],[63.712566,67.793323],[63.699972,67.783411],[63.702024,67.777301],[63.691442,67.774719],[63.731083,67.753459],[63.759161,67.748618],[63.749406,67.745063],[63.773911,67.746686],[63.770795,67.740557],[63.753923,67.74032],[63.758026,67.724401],[63.744245,67.721429],[63.721018,67.736712],[63.704028,67.738479],[63.698271,67.73256],[63.676919,67.73869],[63.612064,67.731989],[63.560206,67.742465],[63.551289,67.733134],[63.495105,67.742578],[63.491743,67.75571],[63.428918,67.769546],[63.384428,67.753289],[63.33421,67.752481],[63.32481,67.741368],[63.330444,67.739369],[63.301373,67.732892],[63.316959,67.722793],[63.307946,67.714335],[63.266295,67.71524],[63.231452,67.710063],[63.228197,67.699059],[63.153326,67.694415],[63.146122,67.69023],[63.150212,67.684372],[63.136659,67.677026],[63.144725,67.670943],[63.116488,67.663085],[63.122022,67.651278],[63.107575,67.651729],[63.117138,67.648728],[63.077215,67.635907],[63.093499,67.633163],[63.094144,67.630974],[63.061348,67.635589],[63.066646,67.6296],[63.058558,67.625771],[62.972503,67.615265],[62.967045,67.608214],[62.944337,67.604839],[62.943617,67.597642],[62.953398,67.594991],[62.914607,67.60025],[62.93085,67.586533],[62.914213,67.567499],[62.91838,67.554404],[62.926897,67.551313],[62.926757,67.540431],[62.905809,67.537525],[62.909417,67.530244],[62.898047,67.522424],[62.845351,67.52249],[62.837773,67.516904],[62.844926,67.509352],[62.835363,67.505511],[62.857059,67.500573],[62.853993,67.489527],[62.884241,67.481697],[62.894268,67.464324],[62.908896,67.460832],[62.90704,67.449874],[62.917302,67.448067],[62.900929,67.436998],[62.908694,67.430348],[62.905158,67.419702],[62.914845,67.412399],[62.896379,67.399558],[62.87681,67.404995],[62.882866,67.388085],[62.849778,67.38278],[62.865602,67.37002],[62.753512,67.350323],[62.150142,67.19611],[61.846651,67.126153],[61.849631,67.12011],[61.809406,67.114451],[61.809088,67.106923],[61.784875,67.110094],[61.776886,67.100717],[61.780596,67.096849],[61.758957,67.093444],[61.738617,67.102118],[61.731061,67.094224],[61.742924,67.083934],[61.719605,67.080601],[61.744928,67.075485],[61.726775,67.060268],[61.707111,67.055352],[61.71605,67.030566],[61.678633,67.021105],[61.685427,67.015502],[61.681022,67.014261],[61.638947,67.019144],[61.646091,67.00337],[61.603845,67.005793],[61.598023,67.002756],[61.601011,66.992219],[61.557807,67.009519],[61.514526,66.994524],[61.501619,66.998865],[61.514526,67.010177],[61.479021,67.001828],[61.467377,67.01106],[61.449337,67.000272],[61.45899,66.983894],[61.387444,66.979298],[61.39301,66.976518],[61.385293,66.972808],[61.374211,66.988413],[61.380548,66.994193],[61.369038,66.991737],[61.34511,67.001358],[61.337799,66.997377],[61.345728,66.993733],[61.33503,66.992889],[61.320977,67.000619],[60.109855,67.000637],[60.048007,66.964781],[60.016762,66.961007],[60.015954,66.96614],[59.928119,66.950658],[59.910253,66.962477],[59.916188,66.973178],[59.971817,66.97864],[59.966813,66.993609],[59.978111,67.000496],[53.87548,67.00148],[52.15223,67.101172],[52.072821,67.067101],[52.064708,67.055663],[52.029644,67.05719],[52.030564,67.049707],[52.052007,67.049989],[52.042938,67.046292],[52.055407,67.043089],[52.048897,67.036427],[52.059514,67.029529],[52.01088,67.025092],[52.004928,67.032734],[51.99629,67.024783],[51.929816,67.014191],[51.954034,67.00544],[51.949098,67.000529],[51.931363,67.006379],[51.889184,66.993509],[51.866261,67.003503],[51.825347,66.998807],[51.869666,66.996694],[51.838066,66.987103],[51.866136,66.972115],[51.844476,66.976724],[51.84658,66.971534],[51.823444,66.962952],[51.831656,66.945523],[51.801905,66.949122],[51.786984,66.960846],[51.749077,66.948857],[51.750079,66.943974],[51.801921,66.943686],[51.776901,66.937461],[51.777953,66.921784],[51.755219,66.929445],[51.726633,66.919044],[51.697632,66.920793],[51.611215,66.949724],[51.520095,66.939229],[51.499744,66.915906],[51.506909,66.912911],[51.510072,66.897966],[51.543806,66.883916],[51.52924,66.874286],[51.535846,66.857503],[51.508052,66.852353],[51.48392,66.83455],[51.491011,66.83066],[51.487647,66.822452],[51.516591,66.813302],[51.519866,66.801891],[51.536015,66.798627],[51.546364,66.784819],[51.544947,66.774975],[50.346629,66.473057],[49.000469,66.113571],[48.084647,66.129254],[48.072645,66.113106],[48.055726,66.050586],[48.029132,66.013281],[47.911042,66.032277],[47.849174,65.982969],[47.824563,65.981587],[47.749226,65.906458],[47.84353,65.855339],[47.738354,65.820969],[47.471346,65.843935],[47.144758,65.821305],[46.770449,65.935343],[46.558159,65.978016],[46.347105,66.038287],[46.139164,66.0521],[46.134673,66.058836],[45.848494,66.085428],[45.72583,66.069019],[45.697851,66.07584],[45.70329,66.083267],[45.515382,66.115301],[45.267541,66.178248],[44.989002,66.225047],[44.854938,66.230571],[44.589523,66.297577],[44.520753,66.361621],[44.250263,66.43597],[44.31305,66.48008],[44.382435,66.499213],[44.3782,66.52459],[44.391224,66.576002],[44.439607,66.633085],[44.482465,66.648546],[44.55714,66.64626],[44.58177,66.655313],[44.550472,66.653082],[44.47802,66.67095],[44.398501,66.720266],[44.360797,66.770236],[44.379784,66.78721],[44.45207,66.79358],[44.44935,66.79971],[44.46657,66.81306],[44.49105,66.82132],[44.50984,66.83851],[44.49517,66.84102],[44.49817,66.85382],[44.47375,66.87163],[44.47859,66.88852],[44.50116,66.89844],[44.52854,66.8961],[44.524416,66.899536],[44.534615,66.904773],[44.49619,66.91785],[44.485529,66.933793],[44.471539,66.932986],[44.428195,66.95964],[44.403823,66.995128],[44.312666,67.033818],[44.305714,67.048832],[44.323019,67.063006],[44.22924,67.094165],[44.178617,67.130811],[44.057064,67.161928],[43.943123,67.161755],[43.904975,67.15333],[43.921025,67.15123],[43.910472,67.150833],[43.829826,67.173603],[43.778735,67.196051],[43.770687,67.236326],[43.774702,67.270332],[43.805097,67.341597],[43.838529,67.390703],[43.92631,67.504179],[44.035328,67.605747],[44.070218,67.66242],[44.070766,67.682505],[44.101455,67.704659],[44.137262,67.745557],[44.143217,67.794271],[44.101192,67.820855],[44.096257,67.838536],[44.113863,67.85617],[44.118304,67.875517],[44.141747,67.882563],[44.149118,67.896749],[44.139972,67.905888],[44.167335,67.940151],[44.161906,67.984876],[44.138502,68.011795],[44.164202,68.020135],[44.160061,68.042178],[44.200627,68.088202],[44.205793,68.137228],[44.228648,68.203362],[44.231054,68.228801],[44.223036,68.267871],[44.200144,68.303955],[44.038074,68.37479],[43.528143,68.53539]],[[52.903121,67.624036],[52.981198,67.608464],[53.059731,67.606139],[53.054312,67.610357],[53.116454,67.621155],[53.153693,67.640878],[53.151071,67.646784],[53.132855,67.645787],[53.14272,67.654072],[53.13242,67.657481],[53.098762,67.652449],[53.088031,67.665034],[53.098718,67.667519],[53.096707,67.669585],[53.041837,67.660396],[52.933723,67.659265],[52.930498,67.651997],[52.946857,67.645918],[52.934436,67.63658],[52.912317,67.635055],[52.903121,67.624036]]],[[[53.980601,68.225838],[53.97885,68.21845],[53.967529,68.221152],[53.973375,68.225543],[53.980601,68.225838]]],[[[53.428068,68.239999],[53.430298,68.237894],[53.425646,68.238568],[53.428068,68.239999]]],[[[53.682385,68.245062],[53.68092,68.24361],[53.68001,68.24513],[53.682385,68.245062]]],[[[53.687578,68.245448],[53.69423,68.24695],[53.687517,68.243982],[53.687578,68.245448]]],[[[53.892735,68.238966],[53.849092,68.243401],[53.894539,68.254104],[53.892735,68.238966]]],[[[53.705769,68.249492],[53.721052,68.249222],[53.702089,68.247715],[53.705769,68.249492]]],[[[54.118039,68.2722],[54.119676,68.271042],[54.117551,68.271591],[54.118039,68.2722]]],[[[54.149482,68.294036],[54.150544,68.293248],[54.14891,68.293868],[54.149482,68.294036]]],[[[54.15417,68.295253],[54.153513,68.293994],[54.152165,68.294511],[54.15417,68.295253]]],[[[54.146918,68.315334],[54.147846,68.314451],[54.145106,68.314117],[54.146918,68.315334]]],[[[54.144621,68.317048],[54.150018,68.316824],[54.142926,68.315708],[54.144621,68.317048]]],[[[54.150417,68.3176],[54.148615,68.317606],[54.15045,68.317637],[54.150417,68.3176]]],[[[52.274499,68.321398],[52.290861,68.319864],[52.293822,68.316251],[52.274499,68.321398]]],[[[52.291317,68.321546],[52.298387,68.32118],[52.298656,68.320118],[52.29717,68.318855],[52.291317,68.321546]]],[[[53.837192,68.323497],[53.830991,68.315221],[53.80845,68.323758],[53.822054,68.325511],[53.837192,68.323497]]],[[[54.140076,68.31926],[54.147005,68.32225],[54.150303,68.321489],[54.140076,68.31926]]],[[[54.343572,68.323414],[54.344132,68.322488],[54.343404,68.323297],[54.343572,68.323414]]],[[[54.344364,68.323584],[54.345954,68.324138],[54.346663,68.323931],[54.344364,68.323584]]],[[[52.317812,68.323209],[52.315371,68.324796],[52.320907,68.32469],[52.317812,68.323209]]],[[[54.348509,68.325852],[54.347641,68.325075],[54.345796,68.325273],[54.348509,68.325852]]],[[[54.137434,68.326456],[54.141271,68.325047],[54.136543,68.324704],[54.137434,68.326456]]],[[[53.949613,68.283734],[53.884172,68.297622],[53.859361,68.310576],[53.869549,68.330849],[53.853113,68.345157],[53.92735,68.369619],[53.985661,68.366669],[53.996418,68.317707],[53.949613,68.283734]]],[[[53.824543,68.326599],[53.813048,68.32666],[53.809638,68.328573],[53.824543,68.326599]]],[[[54.136708,68.330756],[54.135047,68.327035],[54.132084,68.329452],[54.136708,68.330756]]],[[[54.333833,68.336915],[54.331848,68.337006],[54.333865,68.336949],[54.333833,68.336915]]],[[[54.404479,68.344146],[54.406003,68.347451],[54.411313,68.345971],[54.404479,68.344146]]],[[[54.407172,68.349146],[54.417214,68.352546],[54.416812,68.347402],[54.407172,68.349146]]],[[[53.82167,68.35],[53.852651,68.366008],[53.86141,68.36585],[53.82167,68.35]]],[[[53.65713,68.373844],[53.65728,68.380668],[53.667912,68.376849],[53.65713,68.373844]]],[[[53.895508,68.379212],[53.904294,68.382621],[53.912362,68.384187],[53.903292,68.380306],[53.895508,68.379212]]],[[[52.31924,68.46522],[52.30956,68.46982],[52.33831,68.47754],[52.38239,68.46672],[52.33365,68.46973],[52.30392,68.45839],[52.2659,68.47013],[52.29823,68.47232],[52.31924,68.46522]]],[[[52.323267,68.523679],[52.334879,68.522503],[52.342697,68.520352],[52.334576,68.520803],[52.323267,68.523679]]],[[[52.329951,68.528494],[52.33861,68.526585],[52.357061,68.52501],[52.335972,68.524777],[52.329951,68.528494]]],[[[52.3105,68.532994],[52.328696,68.526436],[52.307977,68.531104],[52.3105,68.532994]]],[[[52.179758,68.530693],[52.178664,68.528015],[52.174888,68.530159],[52.179758,68.530693]]],[[[52.198172,68.536911],[52.199285,68.527292],[52.187912,68.532735],[52.190723,68.536606],[52.198172,68.536911]]],[[[52.315949,68.535643],[52.324696,68.534612],[52.325478,68.534184],[52.315949,68.535643]]],[[[52.352905,68.538374],[52.358061,68.538125],[52.358957,68.53747],[52.352905,68.538374]]],[[[52.325355,68.544422],[52.350808,68.531514],[52.305105,68.542659],[52.325355,68.544422]]],[[[52.330585,68.548679],[52.368897,68.537858],[52.313032,68.547337],[52.330585,68.548679]]],[[[52.184075,68.544254],[52.190745,68.542814],[52.182757,68.540555],[52.184075,68.544254]]],[[[52.346871,68.547368],[52.361247,68.543754],[52.343759,68.546926],[52.346871,68.547368]]],[[[52.267885,68.555061],[52.252414,68.546976],[52.243981,68.547706],[52.260879,68.55607],[52.267885,68.555061]]],[[[52.389679,68.563474],[52.397618,68.567779],[52.409635,68.564681],[52.404206,68.562227],[52.389679,68.563474]]],[[[54.372711,68.785666],[54.22961,68.806256],[54.198389,68.822447],[54.241197,68.826904],[54.302244,68.820517],[54.337671,68.805123],[54.408588,68.789004],[54.372711,68.785666]]],[[[54.854905,68.148095],[54.859822,68.149228],[54.860775,68.148191],[54.854905,68.148095]]],[[[54.736119,68.159319],[54.739603,68.158563],[54.735536,68.158558],[54.736119,68.159319]]],[[[54.727224,68.159429],[54.731891,68.160135],[54.733576,68.159123],[54.727224,68.159429]]],[[[57.195282,68.677447],[57.174765,68.660053],[57.166214,68.663393],[57.174641,68.673331],[57.195282,68.677447]]],[[[57.798811,68.739658],[57.792469,68.737412],[57.790595,68.737019],[57.798811,68.739658]]],[[[57.938338,68.760734],[57.891695,68.759419],[57.909972,68.748316],[57.836775,68.745592],[57.801935,68.741164],[57.783068,68.736192],[57.753802,68.740105],[57.671465,68.735783],[57.651643,68.746022],[57.557269,68.745791],[57.461152,68.732588],[57.411978,68.711615],[57.305546,68.717089],[57.229171,68.708403],[57.410936,68.742188],[57.809538,68.778616],[57.951363,68.800971],[57.965154,68.792948],[57.963195,68.782665],[57.913357,68.76813],[57.938338,68.760734]]],[[[56.547566,68.810695],[56.511903,68.802736],[56.500359,68.792725],[56.478558,68.79732],[56.517353,68.814355],[56.547566,68.810695]]],[[[55.479296,68.892281],[55.525473,68.894136],[55.589503,68.87348],[55.570963,68.870139],[55.479296,68.892281]]],[[[55.358189,68.904147],[55.324629,68.895403],[55.32051,68.898184],[55.335101,68.911437],[55.358189,68.904147]]],[[[55.36969,68.906557],[55.376729,68.907638],[55.379303,68.905877],[55.37218,68.901089],[55.36969,68.906557]]],[[[55.375548,68.923025],[55.508364,68.91891],[55.599587,68.896719],[55.537446,68.89301],[55.415116,68.919352],[55.349369,68.911571],[55.375548,68.923025]]],[[[54.926567,68.934782],[55.012055,68.932283],[55.040636,68.918642],[55.038319,68.912806],[54.985619,68.909594],[54.904852,68.928087],[54.926567,68.934782]]],[[[55.231524,68.924959],[55.240837,68.92178],[55.228842,68.924334],[55.231524,68.924959]]],[[[54.689598,68.941157],[54.67844,68.954199],[54.670715,68.946986],[54.627972,68.946307],[54.597416,68.936376],[54.550381,68.938412],[54.598961,68.946307],[54.611633,68.980924],[54.633091,68.985018],[54.691486,68.975457],[54.698524,68.967942],[54.677582,68.974964],[54.695949,68.957528],[54.697151,68.947849],[54.689598,68.941157]]],[[[54.874833,68.971278],[54.862473,68.965149],[54.856723,68.974081],[54.874833,68.971278]]],[[[58.474688,70.176987],[58.478267,70.178608],[58.478764,70.176855],[58.474688,70.176987]]],[[[58.482518,70.192811],[58.443162,70.195671],[58.467736,70.194307],[58.455005,70.201855],[58.459459,70.20197],[58.482518,70.192811]]],[[[58.481287,70.198037],[58.478371,70.197629],[58.478009,70.198062],[58.481287,70.198037]]],[[[58.47363,70.201915],[58.474838,70.199658],[58.464611,70.20418],[58.47363,70.201915]]],[[[58.447448,70.204188],[58.444637,70.206855],[58.449937,70.205111],[58.447448,70.204188]]],[[[58.432338,70.202464],[58.417118,70.210687],[58.444924,70.202037],[58.432338,70.202464]]],[[[58.455403,70.20839],[58.457824,70.207354],[58.455092,70.208235],[58.455403,70.20839]]],[[[58.354463,70.214642],[58.347123,70.21233],[58.337263,70.212694],[58.341476,70.214541],[58.354463,70.214642]]],[[[58.440957,70.216018],[58.440983,70.217131],[58.442545,70.216218],[58.440957,70.216018]]],[[[58.337909,70.223331],[58.339891,70.220746],[58.335224,70.220989],[58.337909,70.223331]]],[[[58.327898,70.224877],[58.324333,70.226121],[58.331001,70.225254],[58.327898,70.224877]]],[[[58.421522,70.226852],[58.42353,70.225594],[58.419188,70.226136],[58.421522,70.226852]]],[[[58.437285,70.22775],[58.436816,70.227396],[58.436766,70.227651],[58.437285,70.22775]]],[[[58.419008,70.228995],[58.42227,70.226869],[58.418522,70.228731],[58.419008,70.228995]]],[[[58.354602,70.230904],[58.362907,70.225118],[58.35192,70.229183],[58.354602,70.230904]]],[[[58.4102,70.229759],[58.4056,70.23032],[58.403753,70.231364],[58.4102,70.229759]]],[[[58.307952,70.232412],[58.312517,70.232665],[58.308956,70.231734],[58.307952,70.232412]]],[[[58.33933,70.23313],[58.353225,70.234352],[58.35511,70.232353],[58.33933,70.23313]]],[[[58.371478,70.237184],[58.36956,70.239019],[58.372228,70.237734],[58.371478,70.237184]]],[[[58.36416,70.24575],[58.36919,70.23929],[58.362318,70.245293],[58.36416,70.24575]]],[[[58.328583,70.250974],[58.3348,70.249402],[58.33538,70.24798],[58.328583,70.250974]]],[[[58.371284,70.249238],[58.364031,70.247148],[58.360892,70.249587],[58.366383,70.253157],[58.371284,70.249238]]],[[[58.461539,70.322682],[58.46184,70.32049],[58.448811,70.323779],[58.461539,70.322682]]],[[[58.438264,70.326932],[58.448518,70.324114],[58.435915,70.326188],[58.438264,70.326932]]],[[[58.467886,70.331533],[58.470633,70.33037],[58.468273,70.331056],[58.467886,70.331533]]],[[[58.461841,70.33278],[58.460156,70.333246],[58.462994,70.332605],[58.461841,70.33278]]],[[[58.428377,70.350294],[58.444724,70.35007],[58.453543,70.345355],[58.428377,70.350294]]],[[[58.40585,70.3612],[58.39437,70.36563],[58.3944,70.36614],[58.41764,70.36136],[58.41047,70.35656],[58.39404,70.36078],[58.40585,70.3612]]],[[[58.287942,70.371137],[58.285791,70.371236],[58.284933,70.371842],[58.287942,70.371137]]],[[[58.47206,70.39964],[58.469914,70.40073],[58.475354,70.399305],[58.47206,70.39964]]],[[[58.468573,70.400018],[58.468187,70.400356],[58.469185,70.400266],[58.468573,70.400018]]],[[[58.946972,68.924065],[58.933024,68.917644],[58.925214,68.9208],[58.9337,68.9232],[58.946972,68.924065]]],[[[58.642965,69.383269],[58.663457,69.38478],[58.686057,69.380001],[58.658881,69.376908],[58.642965,69.383269]]],[[[58.552494,69.479589],[58.57172,69.467189],[58.566399,69.457373],[58.500137,69.453397],[58.468037,69.460204],[58.510265,69.459963],[58.486748,69.481213],[58.513184,69.471705],[58.552494,69.479589]]],[[[58.610443,70.085764],[58.606589,70.088533],[58.612931,70.085908],[58.610443,70.085764]]],[[[58.553653,70.115313],[58.561506,70.117444],[58.559618,70.112896],[58.553653,70.115313]]],[[[58.491597,70.191146],[58.491785,70.189755],[58.490231,70.191192],[58.491597,70.191146]]],[[[58.501226,70.194459],[58.498191,70.190594],[58.494947,70.19172],[58.501226,70.194459]]],[[[58.510044,70.197572],[58.508999,70.199911],[58.512787,70.198166],[58.510044,70.197572]]],[[[58.517095,70.204391],[58.510881,70.203791],[58.50868,70.204144],[58.517095,70.204391]]],[[[58.536835,70.205438],[58.533972,70.204252],[58.531728,70.204533],[58.536835,70.205438]]],[[[58.693793,70.250208],[58.690091,70.249272],[58.689539,70.25098],[58.693793,70.250208]]],[[[58.53578,70.25456],[58.5341,70.25228],[58.53051,70.25486],[58.53578,70.25456]]],[[[58.649386,70.276785],[58.661084,70.275036],[58.645062,70.278135],[58.649386,70.276785]]],[[[58.625578,70.281495],[58.6225,70.280209],[58.619637,70.282677],[58.625578,70.281495]]],[[[58.617002,70.281001],[58.616009,70.283663],[58.619284,70.282496],[58.617002,70.281001]]],[[[58.63388,70.284173],[58.636557,70.284134],[58.641301,70.282462],[58.63388,70.284173]]],[[[58.608749,70.284918],[58.60764,70.283688],[58.606661,70.285293],[58.608749,70.284918]]],[[[58.604721,70.285809],[58.60461,70.28413],[58.603027,70.285469],[58.604721,70.285809]]],[[[58.494762,70.287253],[58.502084,70.28522],[58.487189,70.287582],[58.494762,70.287253]]],[[[58.489065,70.328398],[58.484343,70.330874],[58.494688,70.328862],[58.489065,70.328398]]],[[[58.650084,70.331425],[58.651639,70.331161],[58.652873,70.330923],[58.650084,70.331425]]],[[[58.637532,70.336614],[58.646336,70.332998],[58.633244,70.334935],[58.637532,70.336614]]],[[[58.673483,70.342514],[58.671893,70.342668],[58.673542,70.342605],[58.673483,70.342514]]],[[[58.679097,70.34285],[58.679835,70.34263],[58.679043,70.342703],[58.679097,70.34285]]],[[[58.677681,70.343014],[58.677745,70.343228],[58.677971,70.343109],[58.677681,70.343014]]],[[[58.480466,70.350268],[58.48594,70.34956],[58.488743,70.348238],[58.480466,70.350268]]],[[[58.506915,70.358486],[58.531766,70.360776],[58.537602,70.357249],[58.529105,70.351013],[58.506915,70.358486]]],[[[58.768895,70.376369],[58.770523,70.376152],[58.770837,70.375893],[58.768895,70.376369]]],[[[58.769377,70.376906],[58.766609,70.377532],[58.76941,70.376982],[58.769377,70.376906]]],[[[58.769613,70.377315],[58.769882,70.377254],[58.769517,70.377299],[58.769613,70.377315]]],[[[58.763702,70.378699],[58.763879,70.378746],[58.763943,70.378699],[58.763702,70.378699]]],[[[58.765376,70.378636],[58.763836,70.380041],[58.76552,70.378758],[58.765376,70.378636]]],[[[58.760671,70.379911],[58.760655,70.380095],[58.761368,70.379963],[58.760671,70.379911]]],[[[58.760167,70.380401],[58.76036,70.380338],[58.759888,70.380414],[58.760167,70.380401]]],[[[58.761143,70.38016],[58.760231,70.38057],[58.76184,70.380369],[58.761143,70.38016]]],[[[58.759432,70.381565],[58.758016,70.382033],[58.760483,70.381896],[58.759432,70.381565]]],[[[58.508983,70.400964],[58.508565,70.40124],[58.50938,70.401056],[58.508983,70.400964]]],[[[58.502128,70.402028],[58.503968,70.4019],[58.504407,70.40152],[58.502128,70.402028]]],[[[58.762168,70.402238],[58.762983,70.402156],[58.76146,70.40217],[58.762168,70.402238]]],[[[58.500583,70.402447],[58.500448,70.402503],[58.500824,70.402449],[58.500583,70.402447]]],[[[58.496876,70.403242],[58.491758,70.404865],[58.500277,70.402623],[58.496876,70.403242]]],[[[58.762951,70.405166],[58.763198,70.404993],[58.761669,70.405038],[58.762951,70.405166]]],[[[58.648678,70.448888],[58.647444,70.448705],[58.647283,70.448805],[58.648678,70.448888]]],[[[58.677173,70.456748],[58.666785,70.459876],[58.720379,70.452965],[58.666134,70.443796],[58.677654,70.449003],[58.677173,70.456748]]],[[[58.661284,70.461486],[58.655648,70.461474],[58.653484,70.463059],[58.661284,70.461486]]],[[[58.686948,70.462405],[58.688139,70.461816],[58.686669,70.462437],[58.686948,70.462405]]],[[[59.589435,66.834299],[59.518431,66.823185],[59.522986,66.829296],[59.494723,66.839633],[59.533936,66.850434],[59.562702,66.847566],[59.553564,66.838352],[59.579458,66.841119],[59.589435,66.834299]]],[[[59.370345,68.77377],[59.392237,68.786556],[59.417362,68.777462],[59.411475,68.769416],[59.38751,68.762899],[59.372169,68.764161],[59.370345,68.77377]]],[[[58.941736,68.919867],[58.94518,68.91655],[58.936672,68.917428],[58.941736,68.919867]]],[[[59.014714,68.932458],[59.018855,68.930831],[59.010529,68.931247],[59.014714,68.932458]]],[[[59.511073,68.998397],[59.51482,69.00987],[59.529934,68.999401],[59.520621,68.993798],[59.511073,68.998397]]],[[[59.487577,69.042883],[59.504077,69.028865],[59.450755,69.0256],[59.44067,69.040258],[59.39842,69.064247],[59.411681,69.078304],[59.426079,69.073086],[59.421058,69.065673],[59.439383,69.053625],[59.487577,69.042883]]],[[[59.276841,69.112865],[59.254519,69.129051],[59.285048,69.1148],[59.276841,69.112865]]],[[[59.275119,69.152967],[59.281905,69.176926],[59.295101,69.182356],[59.306581,69.176819],[59.309928,69.165661],[59.293299,69.149548],[59.295981,69.138234],[59.332201,69.118808],[59.336321,69.107478],[59.294329,69.118611],[59.278042,69.129758],[59.274073,69.135979],[59.281926,69.149517],[59.275119,69.152967]]],[[[59.27114,69.20598],[59.2762,69.20617],[59.27031,69.20497],[59.27114,69.20598]]],[[[59.274175,69.210419],[59.27468,69.21233],[59.276363,69.211797],[59.274175,69.210419]]],[[[59.26321,69.21273],[59.25964,69.21304],[59.26755,69.21293],[59.26321,69.21273]]],[[[58.978397,69.284718],[58.957347,69.281299],[58.881022,69.290846],[58.828365,69.318756],[58.764893,69.329556],[58.762264,69.337712],[58.739347,69.34759],[58.735313,69.357986],[58.767317,69.375476],[58.734584,69.388484],[58.765172,69.380235],[58.767961,69.375374],[58.755494,69.365523],[58.757425,69.360123],[58.796543,69.340207],[58.88114,69.333725],[58.915547,69.319286],[59.137387,69.283454],[59.251145,69.247715],[59.253452,69.239734],[59.286582,69.222348],[59.281132,69.216722],[59.285681,69.208345],[59.256713,69.219288],[59.2518,69.215222],[59.252744,69.196909],[59.27712,69.180351],[59.271905,69.181048],[59.261262,69.149815],[59.249268,69.144877],[59.256842,69.129448],[59.239536,69.13766],[59.242187,69.151243],[59.227627,69.159737],[59.222639,69.198738],[59.189551,69.230849],[59.079194,69.265488],[58.978397,69.284718]]],[[[59.989777,69.654141],[59.988227,69.654437],[59.987923,69.65516],[59.989777,69.654141]]],[[[59.951362,69.663746],[59.950845,69.663784],[59.949522,69.664555],[59.951362,69.663746]]],[[[59.866791,69.678895],[59.869549,69.675888],[59.867832,69.676405],[59.866791,69.678895]]],[[[59.849583,69.677206],[59.845561,69.677985],[59.848284,69.678283],[59.849583,69.677206]]],[[[59.865942,69.678035],[59.865981,69.678426],[59.866356,69.67835],[59.865942,69.678035]]],[[[59.845394,69.678229],[59.842663,69.678332],[59.841249,69.678664],[59.845394,69.678229]]],[[[59.886729,69.682869],[59.886549,69.682794],[59.886452,69.682823],[59.886729,69.682869]]],[[[59.834298,69.683153],[59.834136,69.683201],[59.834336,69.683189],[59.834298,69.683153]]],[[[59.837662,69.682596],[59.832124,69.683674],[59.839943,69.683384],[59.837662,69.682596]]],[[[59.831238,69.683709],[59.831322,69.683969],[59.831935,69.683931],[59.831238,69.683709]]],[[[59.831013,69.683971],[59.831109,69.684033],[59.831211,69.683972],[59.831013,69.683971]]],[[[59.830872,69.684045],[59.829374,69.683988],[59.829131,69.684093],[59.830872,69.684045]]],[[[59.813961,69.690893],[59.812985,69.691079],[59.812234,69.691439],[59.813961,69.690893]]],[[[59.630383,69.705044],[59.622823,69.703976],[59.619289,69.70472],[59.630383,69.705044]]],[[[59.603355,69.706153],[59.614523,69.705756],[59.617996,69.705533],[59.603355,69.706153]]],[[[59.52676,69.72048],[59.525606,69.722301],[59.52975,69.72082],[59.52676,69.72048]]],[[[59.550007,69.72638],[59.577908,69.722339],[59.57698,69.72116],[59.55179,69.72012],[59.538479,69.721051],[59.550007,69.72638]]],[[[59.588036,69.725511],[59.591991,69.726418],[59.593242,69.724614],[59.588036,69.725511]]],[[[59.572888,69.727066],[59.579442,69.726703],[59.577713,69.726167],[59.572888,69.727066]]],[[[59.704395,69.777806],[59.703017,69.778598],[59.705881,69.777847],[59.704395,69.777806]]],[[[59.707472,69.782465],[59.70668,69.78393],[59.71108,69.78361],[59.707472,69.782465]]],[[[59.376211,69.812885],[59.366806,69.812155],[59.371405,69.814922],[59.376211,69.812885]]],[[[59.469273,69.818046],[59.465078,69.817376],[59.463286,69.817939],[59.469273,69.818046]]],[[[59.369923,69.82208],[59.363272,69.820296],[59.361409,69.82084],[59.369923,69.82208]]],[[[59.390318,69.823545],[59.382155,69.823279],[59.392321,69.824174],[59.390318,69.823545]]],[[[59.444618,69.823346],[59.401756,69.827756],[59.456463,69.825892],[59.444618,69.823346]]],[[[59.331946,69.832278],[59.339057,69.838109],[59.356181,69.839261],[59.340087,69.830582],[59.331946,69.832278]]],[[[59.481466,69.832399],[59.456605,69.843148],[59.496047,69.845892],[59.516802,69.838849],[59.481466,69.832399]]],[[[59.404755,69.852852],[59.422442,69.860673],[59.415216,69.869231],[59.447853,69.876645],[59.486821,69.861974],[59.475305,69.852231],[59.429807,69.85917],[59.421573,69.852214],[59.43993,69.851756],[59.415178,69.85008],[59.404755,69.852852]]],[[[58.999834,69.923334],[58.996044,69.923903],[58.995149,69.924339],[58.999834,69.923334]]],[[[59.00825,69.936166],[58.998374,69.936345],[58.983064,69.94008],[58.989651,69.942461],[58.9889,69.945927],[59.006828,69.9422],[59.00825,69.936166]]],[[[58.476416,70.244622],[58.4572,70.256266],[58.530897,70.249905],[58.564596,70.236453],[58.613552,70.240806],[58.639526,70.229193],[58.678987,70.224896],[58.688064,70.213781],[58.711935,70.206854],[58.762318,70.197544],[58.83095,70.203501],[58.817228,70.199013],[58.864982,70.186252],[58.883779,70.184281],[58.856227,70.190456],[58.850021,70.201993],[58.855181,70.206128],[58.842355,70.211166],[58.827989,70.197821],[58.839362,70.211831],[58.817132,70.224845],[58.822313,70.228307],[58.815758,70.235039],[58.747072,70.240077],[58.728694,70.24737],[58.732696,70.255176],[58.702548,70.274485],[58.683439,70.279782],[58.675511,70.274098],[58.612447,70.296013],[58.594058,70.294453],[58.554103,70.309071],[58.541296,70.307381],[58.531712,70.309747],[58.548675,70.311532],[58.510523,70.323536],[58.52299,70.329583],[58.513259,70.3341],[58.53801,70.337238],[58.643915,70.310556],[58.663001,70.312844],[58.673623,70.317416],[58.663173,70.324674],[58.675811,70.328879],[58.663859,70.333291],[58.66858,70.336884],[58.663838,70.342143],[58.71406,70.33797],[58.779269,70.362285],[58.797541,70.385066],[58.764174,70.399496],[58.764153,70.405059],[58.795406,70.414002],[58.796457,70.42494],[58.936243,70.425957],[58.9624,70.431984],[58.969052,70.441433],[59.052887,70.455493],[59.044744,70.465435],[59.073261,70.464708],[59.074677,70.455191],[59.060612,70.449257],[59.087327,70.441508],[59.082316,70.451365],[59.091715,70.451806],[59.098967,70.443624],[59.088947,70.442194],[59.090556,70.431661],[59.153491,70.417111],[59.225825,70.385876],[59.258527,70.381509],[59.289662,70.365092],[59.387476,70.339696],[59.380025,70.327375],[59.385399,70.321331],[59.526847,70.256282],[59.539461,70.24646],[59.538174,70.23822],[59.572291,70.222975],[59.587677,70.209666],[59.585092,70.20539],[59.643756,70.198126],[59.773232,70.160357],[59.812886,70.136668],[59.814591,70.130747],[59.772996,70.114361],[59.796782,70.116058],[59.801009,70.123303],[59.8555,70.119469],[59.892483,70.099035],[59.932254,70.090926],[60.00241,70.087839],[60.024458,70.097074],[60.044521,70.092544],[60.054853,70.086308],[60.045261,70.078698],[60.057535,70.061692],[60.164008,70.021658],[60.16875,70.013152],[60.235655,69.985666],[60.338724,69.953222],[60.338437,69.942233],[60.348287,69.937942],[60.331464,69.930109],[60.334446,69.925278],[60.350947,69.933238],[60.345755,69.936602],[60.398819,69.946067],[60.41516,69.931997],[60.453966,69.928945],[60.469007,69.907291],[60.481807,69.903351],[60.447024,69.885368],[60.474265,69.871095],[60.474399,69.853835],[60.53425,69.830011],[60.546368,69.821029],[60.540773,69.818783],[60.548015,69.806965],[60.565889,69.796767],[60.512819,69.782374],[60.502224,69.767011],[60.474683,69.749899],[60.497374,69.726629],[60.518736,69.720111],[60.511365,69.713703],[60.503941,69.715634],[60.513339,69.72021],[60.499252,69.724212],[60.468493,69.714164],[60.479522,69.7121],[60.485873,69.715604],[60.489521,69.715433],[60.4898,69.716009],[60.490862,69.716537],[60.494692,69.716574],[60.493534,69.710452],[60.502728,69.710005],[60.499156,69.70512],[60.400278,69.724205],[60.384872,69.740309],[60.379078,69.742189],[60.381857,69.735861],[60.371531,69.723536],[60.390655,69.721615],[60.382083,69.709717],[60.394201,69.703806],[60.412011,69.710461],[60.405729,69.703627],[60.31934,69.70046],[60.307646,69.684821],[60.266619,69.680932],[60.268164,69.67462],[60.209531,69.671046],[60.215002,69.665275],[60.166905,69.684955],[60.175595,69.687603],[60.166969,69.692117],[60.080924,69.700988],[60.028825,69.717274],[60.002797,69.711225],[60.021036,69.706493],[60.052825,69.681543],[60.001541,69.699619],[59.963014,69.696388],[59.99924,69.67008],[60.000351,69.663279],[59.98547,69.656258],[59.931235,69.671646],[59.925603,69.677068],[59.932887,69.679188],[59.923639,69.687507],[59.929712,69.69199],[59.922534,69.694321],[59.897,69.691223],[59.8917,69.685376],[59.899454,69.681585],[59.823883,69.694038],[59.81074,69.69256],[59.812167,69.686922],[59.793799,69.684806],[59.637051,69.714633],[59.618769,69.70877],[59.600315,69.706277],[59.585724,69.707363],[59.599871,69.708327],[59.586067,69.71287],[59.61136,69.71579],[59.602718,69.722971],[59.633188,69.7398],[59.573493,69.757551],[59.598169,69.767757],[59.595852,69.783053],[59.602053,69.785418],[59.595444,69.792542],[59.612578,69.793732],[59.621859,69.788588],[59.601345,69.781807],[59.612246,69.774472],[59.66692,69.782],[59.713783,69.780079],[59.692132,69.778967],[59.708762,69.774524],[59.742558,69.780606],[59.695501,69.795033],[59.707839,69.785463],[59.701681,69.78263],[59.692454,69.796055],[59.6525,69.815299],[59.647372,69.825762],[59.653863,69.828008],[59.668851,69.82759],[59.676297,69.829632],[59.655987,69.82897],[59.647361,69.826684],[59.621848,69.835332],[59.611484,69.829003],[59.576744,69.851388],[59.451057,69.888471],[59.428364,69.889035],[59.4236,69.885597],[59.439275,69.883586],[59.410951,69.878655],[59.41594,69.885715],[59.403773,69.888736],[59.405844,69.901574],[59.388399,69.891536],[59.411455,69.883268],[59.411133,69.882241],[59.347007,69.884471],[59.333489,69.892322],[59.318597,69.890264],[59.326032,69.886777],[59.318651,69.884457],[59.263118,69.885198],[59.245432,69.899124],[59.200462,69.913416],[59.165486,69.91118],[59.193681,69.915006],[59.19911,69.920635],[59.164145,69.919429],[59.160304,69.912466],[59.165111,69.910756],[59.144683,69.9062],[59.106166,69.922442],[59.036364,69.928017],[59.013426,69.934637],[59.01303,69.94253],[59.004307,69.945464],[58.986432,69.950636],[58.950148,69.955865],[58.955821,69.966771],[58.951456,69.969386],[58.948023,69.954541],[58.987441,69.945147],[58.980553,69.939966],[58.993621,69.925587],[58.983493,69.923849],[58.989587,69.92021],[59.019499,69.922133],[59.068151,69.904424],[59.115586,69.899484],[59.109042,69.904859],[59.116316,69.899911],[59.118719,69.894549],[59.166977,69.878198],[59.171671,69.86154],[59.18335,69.853291],[59.067038,69.857478],[59.057305,69.872878],[59.021419,69.878094],[59.000788,69.892093],[58.995385,69.909275],[58.979888,69.922346],[58.797927,69.966064],[58.730829,70.007762],[58.682914,70.024011],[58.634774,70.059578],[58.610301,70.064173],[58.603778,70.071173],[58.61573,70.071751],[58.612232,70.078632],[58.633432,70.085964],[58.633668,70.09772],[58.659911,70.097735],[58.620987,70.114638],[58.610413,70.113714],[58.610408,70.104213],[58.601063,70.105773],[58.604422,70.10774],[58.58777,70.117156],[58.593092,70.111916],[58.585925,70.110572],[58.599014,70.101007],[58.564875,70.118499],[58.566291,70.124197],[58.653109,70.12098],[58.662057,70.126415],[58.590667,70.147689],[58.611074,70.146829],[58.612447,70.154355],[58.643045,70.146589],[58.647509,70.147288],[58.630257,70.151252],[58.627467,70.158405],[58.612271,70.156858],[58.606224,70.153394],[58.594851,70.151675],[58.625343,70.165396],[58.59895,70.182848],[58.595002,70.179057],[58.603671,70.167689],[58.576977,70.168672],[58.582191,70.158952],[58.565712,70.163248],[58.590517,70.149427],[58.54655,70.153999],[58.545027,70.158944],[58.554404,70.161078],[58.533971,70.180383],[58.550906,70.18124],[58.55715,70.184033],[58.557022,70.186623],[58.517904,70.179006],[58.523698,70.168927],[58.501511,70.169844],[58.479441,70.182891],[58.469045,70.180069],[58.476394,70.184837],[58.468471,70.18813],[58.506124,70.184659],[58.513243,70.194693],[58.53138,70.198718],[58.551636,70.200158],[58.570787,70.19685],[58.576988,70.19705],[58.570873,70.203875],[58.531734,70.207788],[58.519267,70.218383],[58.500652,70.207443],[58.505105,70.212285],[58.489881,70.222492],[58.497605,70.225749],[58.493303,70.228525],[58.483862,70.226496],[58.490664,70.218542],[58.479495,70.213593],[58.496887,70.208191],[58.498035,70.199387],[58.490889,70.19677],[58.477821,70.212899],[58.465548,70.209049],[58.452094,70.216106],[58.458402,70.219439],[58.450946,70.223168],[58.471996,70.224315],[58.464422,70.232923],[58.42761,70.229069],[58.404854,70.236083],[58.436086,70.238278],[58.420894,70.249571],[58.423941,70.259155],[58.445485,70.243171],[58.476416,70.244622]]],[[[59.125671,70.445728],[59.125113,70.446047],[59.125929,70.445774],[59.125671,70.445728]]],[[[59.127517,70.446346],[59.12153,70.447204],[59.132179,70.446978],[59.127517,70.446346]]],[[[60.950118,69.026156],[60.950186,69.026733],[60.950568,69.026225],[60.950118,69.026156]]],[[[60.95166,69.026899],[60.951373,69.026098],[60.951087,69.026889],[60.95166,69.026899]]],[[[60.953904,69.060132],[60.94985,69.060127],[60.954654,69.060878],[60.953904,69.060132]]],[[[60.947339,69.068944],[60.949618,69.069212],[60.949809,69.067642],[60.947339,69.068944]]],[[[60.943122,69.073317],[60.938441,69.078327],[60.946015,69.073156],[60.943122,69.073317]]],[[[60.937049,69.079769],[60.937786,69.080145],[60.938223,69.079599],[60.937049,69.079769]]],[[[65.054394,69.265921],[65.085547,69.262957],[65.049105,69.265013],[65.054394,69.265921]]],[[[64.96908,69.2908],[64.949026,69.294223],[64.945528,69.295839],[64.949412,69.297401],[64.96908,69.2908]]],[[[64.93692,69.300478],[64.938974,69.299809],[64.939114,69.299718],[64.937123,69.299814],[64.93692,69.300478]]],[[[60.451344,69.371635],[60.451085,69.372967],[60.452695,69.371804],[60.451344,69.371635]]],[[[60.382658,69.40383],[60.382098,69.404353],[60.38304,69.403902],[60.382658,69.40383]]],[[[60.28766,69.433084],[60.286328,69.433902],[60.286987,69.433897],[60.28766,69.433084]]],[[[60.226916,69.515258],[60.226534,69.514111],[60.22577,69.515157],[60.226916,69.515258]]],[[[60.226698,69.516122],[60.227762,69.517717],[60.229769,69.515993],[60.226698,69.516122]]],[[[60.203022,69.533851],[60.203712,69.53287],[60.202481,69.533505],[60.203022,69.533851]]],[[[60.192261,69.559481],[60.191821,69.558784],[60.191294,69.559358],[60.192261,69.559481]]],[[[60.191607,69.568255],[60.191875,69.568389],[60.192159,69.568222],[60.191607,69.568255]]],[[[60.18718,69.567833],[60.18729,69.569152],[60.1891,69.568068],[60.18718,69.567833]]],[[[60.212815,69.588705],[60.212434,69.588673],[60.212376,69.588716],[60.212815,69.588705]]],[[[60.180488,69.599992],[60.184135,69.599571],[60.181861,69.599462],[60.180488,69.599992]]],[[[60.186242,69.600412],[60.186444,69.600444],[60.186496,69.60042],[60.186242,69.600412]]],[[[60.17624,69.613231],[60.175092,69.612793],[60.174813,69.61304],[60.17624,69.613231]]],[[[60.176191,69.613462],[60.175757,69.613462],[60.176218,69.613521],[60.176191,69.613462]]],[[[60.17295,69.613409],[60.174082,69.61346],[60.175109,69.613569],[60.173347,69.613274],[60.17295,69.613409]]],[[[60.176661,69.613486],[60.176344,69.613411],[60.176269,69.61345],[60.176661,69.613486]]],[[[60.178055,69.61386],[60.178184,69.613766],[60.177872,69.613878],[60.178055,69.61386]]],[[[60.178373,69.613979],[60.178652,69.614017],[60.178748,69.613923],[60.178373,69.613979]]],[[[60.176693,69.6144],[60.177846,69.614662],[60.179209,69.614409],[60.176693,69.6144]]],[[[60.221065,69.626232],[60.222034,69.625999],[60.220683,69.62616],[60.221065,69.626232]]],[[[60.22505,69.625809],[60.222334,69.625894],[60.222416,69.62675],[60.22505,69.625809]]],[[[60.240944,69.631991],[60.241858,69.631687],[60.24063,69.631877],[60.240944,69.631991]]],[[[59.991522,69.652634],[59.991412,69.65296],[59.992021,69.652703],[59.991522,69.652634]]],[[[60.619651,69.686251],[60.614008,69.692173],[60.62052,69.688486],[60.638866,69.687853],[60.639875,69.68636],[60.622891,69.687853],[60.626743,69.68364],[60.643083,69.684631],[60.627719,69.683145],[60.619651,69.686251]]],[[[60.120375,69.692829],[60.1228,69.69159],[60.120269,69.6923],[60.120375,69.692829]]],[[[60.497428,69.715043],[60.50114,69.715822],[60.502894,69.715616],[60.497428,69.715043]]],[[[60.506741,69.721632],[60.502685,69.717056],[60.498238,69.720174],[60.506741,69.721632]]],[[[60.744191,69.83005],[60.738816,69.82786],[60.731993,69.83352],[60.744191,69.83005]]],[[[61.003805,69.843469],[61.004147,69.843739],[61.004669,69.843468],[61.003805,69.843469]]],[[[61.246376,69.831515],[61.215992,69.836072],[61.172733,69.863628],[61.223373,69.858959],[61.266117,69.841042],[61.246376,69.831515]]],[[[60.880583,69.853213],[60.881177,69.853329],[60.881203,69.85311],[60.880583,69.853213]]],[[[60.337772,69.931141],[60.332553,69.928688],[60.332311,69.928827],[60.337772,69.931141]]]]}},{"type":"Feature","id":"274048-1216","properties":{"id":"274048-1216","name":"городской округ Нарьян-Мар","name_ru":"городской округ Нарьян-Мар","subject_id":"274048","subject_name":"Ненецкий автономный округ","source_gid":1216,"source_fid":1325,"names_rosstat":"Городской округ город Нарьян-Мар","population":24056,"area_km2":46.17172375442376,"density_km2":521.0115205563485,"source":"Актуализированный объединённый GeoJSON, предоставленный преподавателем","name_en":"Nar'ian-Mar Urban Okrug","name_zh":"Nar'ian-Mar城市辖区","subject_name_en":"Nenets Autonomous Okrug","subject_name_zh":"涅涅茨自治区"},"geometry":{"type":"Polygon","coordinates":[[[52.903121,67.624036],[52.981198,67.608464],[53.059731,67.606139],[53.054312,67.610357],[53.116454,67.621155],[53.153693,67.640878],[53.151071,67.646784],[53.132855,67.645787],[53.14272,67.654072],[53.13242,67.657481],[53.098762,67.652449],[53.088031,67.665034],[53.098718,67.667519],[53.096707,67.669585],[53.041837,67.660396],[52.933723,67.659265],[52.930498,67.651997],[52.946857,67.645918],[52.941557,67.639558],[52.912759,67.635246],[52.903121,67.624036]]]}}],"metadata":{"source_en":"Updated consolidated GeoJSON supplied by the instructor","source_zh":"教师提供的更新版合并GeoJSON","license_en":"Source-dataset terms were not specified; use within the author-created educational platform","license_zh":"原始数据集未注明许可条款；仅用于本作者教育平台"}}