{"type":"FeatureCollection","features":[{"type":"Feature","id":"253256-309","properties":{"id":"253256-309","name":"Шовгеновский район","name_ru":"Шовгеновский район","subject_id":"253256","subject_name":"Адыгея","source_gid":309,"source_fid":381,"names_rosstat":"Шовгеновский муниципальный район","population":16193,"area_km2":516.6652306319824,"density_km2":31.341377433493644,"source":"Актуализированный объединённый GeoJSON, предоставленный преподавателем","name_en":"Shovgenovskii District","name_zh":"Shovgenovskii区","subject_name_en":"Adygea","subject_name_zh":"阿迪格共和国"},"geometry":{"type":"Polygon","coordinates":[[[39.884117,45.02683],[39.891236,45.000498],[39.903691,45.002109],[39.924413,44.927093],[39.992858,44.936776],[40.00022,44.931873],[40.001816,44.926145],[40.004714,44.924469],[40.033413,44.928367],[40.021157,44.973533],[40.05636,44.981592],[40.082368,44.935857],[40.110551,44.945106],[40.113624,44.945147],[40.156371,44.957514],[40.158369,44.961184],[40.167066,44.971548],[40.169625,44.97297],[40.171116,44.972603],[40.172176,44.969172],[40.17325,44.968627],[40.176154,44.968341],[40.246314,44.940826],[40.228061,44.932076],[40.22802,44.911184],[40.245083,44.911296],[40.254134,44.91558],[40.295664,44.9157],[40.297392,44.91695],[40.266829,44.93934],[40.318598,44.973593],[40.32192,44.969655],[40.319413,44.970357],[40.314723,44.968095],[40.315954,44.966929],[40.318465,44.96794],[40.318739,44.967038],[40.316255,44.964752],[40.318212,44.962581],[40.316341,44.961928],[40.318611,44.959553],[40.322001,44.961773],[40.322383,44.959556],[40.334018,44.955242],[40.360273,44.974103],[40.358748,44.975306],[40.375569,44.986312],[40.372268,44.987039],[40.372268,44.989733],[40.368591,44.989671],[40.368315,44.99074],[40.366493,44.991365],[40.365234,44.991349],[40.36466,44.990514],[40.362374,44.99099],[40.362032,44.991881],[40.362794,44.99295],[40.360762,44.993286],[40.361789,44.996527],[40.360674,44.998088],[40.357096,44.997862],[40.355749,44.9968],[40.352823,44.998159],[40.353231,44.999025],[40.352017,44.999556],[40.353238,45.001917],[40.352254,45.0028],[40.347351,45.001829],[40.3444,45.003308],[40.34365,45.005362],[40.341729,45.006786],[40.337544,45.006101],[40.334983,45.006565],[40.330985,45.013316],[40.334561,45.016054],[40.334592,45.019299],[40.332281,45.019653],[40.331001,45.017324],[40.328096,45.017213],[40.328003,45.018483],[40.329471,45.020028],[40.327784,45.01952],[40.327019,45.021871],[40.321132,45.025194],[40.341363,45.039607],[40.350737,45.04517],[40.350125,45.047306],[40.349071,45.047579],[40.347092,45.047681],[40.341572,45.044512],[40.338943,45.044373],[40.337235,45.045951],[40.337629,45.046973],[40.345943,45.051477],[40.347684,45.053636],[40.347092,45.055843],[40.342517,45.055743],[40.341105,45.054927],[40.340719,45.052433],[40.339115,45.051254],[40.336997,45.051163],[40.331991,45.05674],[40.329488,45.057556],[40.328223,45.057314],[40.328157,45.053646],[40.324477,45.0523],[40.321782,45.052277],[40.320205,45.05353],[40.320139,45.054784],[40.323455,45.059188],[40.322388,45.060508],[40.319751,45.061534],[40.310701,45.059765],[40.308648,45.060264],[40.306979,45.061987],[40.304155,45.06167],[40.300818,45.063256],[40.289436,45.061979],[40.285049,45.062713],[40.284139,45.063926],[40.284753,45.064814],[40.290995,45.065565],[40.292973,45.066259],[40.293188,45.067313],[40.291424,45.069612],[40.287231,45.069652],[40.284213,45.070738],[40.28367,45.071496],[40.284552,45.07322],[40.292871,45.075056],[40.294227,45.076102],[40.293397,45.077215],[40.288563,45.079017],[40.289777,45.082627],[40.284408,45.084581],[40.284041,45.086219],[40.289283,45.086722],[40.292693,45.084314],[40.294089,45.084865],[40.294664,45.086084],[40.292528,45.088288],[40.287846,45.090492],[40.285997,45.09258],[40.284313,45.097857],[40.279542,45.100062],[40.280774,45.103904],[40.276512,45.105571],[40.26994,45.10568],[40.261257,45.100056],[40.255751,45.100215],[40.253083,45.101201],[40.251462,45.100461],[40.25041,45.097954],[40.24866,45.097347],[40.247734,45.098892],[40.248387,45.101386],[40.249542,45.102247],[40.249367,45.103354],[40.246361,45.104323],[40.243876,45.106833],[40.239621,45.108034],[40.238771,45.109085],[40.238946,45.10983],[40.242617,45.111169],[40.243189,45.113129],[40.241582,45.113783],[40.239458,45.113072],[40.231798,45.116586],[40.227033,45.117757],[40.220651,45.117367],[40.217796,45.114073],[40.215769,45.114259],[40.212415,45.116473],[40.206925,45.112999],[40.204899,45.112522],[40.203311,45.11266],[40.200436,45.116423],[40.193402,45.114024],[40.190893,45.117731],[40.18854,45.118284],[40.186625,45.117618],[40.186275,45.116265],[40.183987,45.116936],[40.178677,45.115952],[40.177452,45.113478],[40.178235,45.111556],[40.179563,45.111078],[40.179049,45.110311],[40.174083,45.110597],[40.174047,45.115538],[40.167811,45.117086],[40.168904,45.119334],[40.166283,45.121872],[40.164303,45.120849],[40.163385,45.117369],[40.164158,45.115315],[40.162424,45.114535],[40.161363,45.115049],[40.161409,45.116932],[40.160311,45.117904],[40.153941,45.121447],[40.141401,45.121963],[40.133856,45.119017],[40.13265,45.113936],[40.131021,45.11274],[40.126142,45.112936],[40.122062,45.116512],[40.119331,45.116645],[40.11282,45.115981],[40.109334,45.114762],[40.101964,45.109236],[40.089232,45.110053],[40.08688,45.107488],[40.090483,45.104537],[40.090588,45.10037],[40.089461,45.099146],[40.08596,45.099314],[40.08368,45.10085],[40.080851,45.104796],[40.080356,45.108624],[40.079008,45.109886],[40.076596,45.110125],[40.073808,45.109909],[40.070742,45.107861],[40.071726,45.106486],[40.075543,45.106118],[40.076698,45.104968],[40.076326,45.10363],[40.072008,45.10102],[40.069164,45.096512],[40.065039,45.09496],[40.063101,45.09583],[40.061404,45.09855],[40.059019,45.099194],[40.053464,45.09899],[40.050575,45.100555],[40.047776,45.099654],[40.047327,45.09821],[40.049168,45.095754],[40.04697,45.094383],[40.04428,45.096514],[40.04447,45.099186],[40.040385,45.10319],[40.02942,45.097593],[40.026536,45.092675],[40.022785,45.092489],[40.020326,45.095058],[40.013872,45.0962],[40.013305,45.094351],[40.009744,45.091083],[40.007984,45.087955],[40.010932,45.086993],[40.011988,45.085486],[40.010855,45.084013],[40.011125,45.081675],[40.011959,45.081705],[40.011126,45.080706],[40.011905,45.080433],[40.012513,45.078309],[40.017301,45.059021],[40.01682,45.057616],[40.012031,45.057859],[40.006915,45.056816],[40.005623,45.055371],[40.015515,45.019599],[39.965515,45.013092],[39.964506,45.015585],[39.940006,45.012154],[39.937744,45.018267],[39.908349,45.01424],[39.905776,45.016213],[39.903682,45.019829],[39.903637,45.022629],[39.908534,45.023955],[39.908935,45.025033],[39.907958,45.026869],[39.904428,45.029064],[39.884117,45.02683]]]}},{"type":"Feature","id":"253256-564","properties":{"id":"253256-564","name":"городской округ Майкоп","name_ru":"городской округ Майкоп","subject_id":"253256","subject_name":"Адыгея","source_gid":564,"source_fid":664,"names_rosstat":"Городской округ - Город Майкоп","population":161818,"area_km2":281.0736540189463,"density_km2":575.7138660498304,"source":"Актуализированный объединённый GeoJSON, предоставленный преподавателем","name_en":"Maikop Urban Okrug","name_zh":"Maikop城市辖区","subject_name_en":"Adygea","subject_name_zh":"阿迪格共和国"},"geometry":{"type":"Polygon","coordinates":[[[39.896248,44.661805],[39.915962,44.651074],[39.904418,44.641771],[39.920384,44.626109],[39.911108,44.62088],[39.91172,44.620261],[39.911132,44.618921],[39.914173,44.613169],[39.913551,44.612296],[39.915309,44.608266],[39.924037,44.610761],[39.943635,44.610525],[39.969571,44.591999],[39.980156,44.599818],[39.986016,44.606944],[39.990555,44.620673],[39.996865,44.619367],[40.001095,44.623676],[40.00317,44.624367],[40.005971,44.622735],[40.003162,44.618343],[40.008262,44.612901],[40.017606,44.607839],[40.026161,44.604686],[40.032247,44.606124],[40.039898,44.604709],[40.045913,44.597184],[40.046276,44.594544],[40.04869,44.592032],[40.048643,44.589396],[40.051672,44.586879],[40.056191,44.587423],[40.068651,44.58511],[40.073706,44.581401],[40.087141,44.582036],[40.088895,44.580409],[40.097817,44.579078],[40.10593,44.573184],[40.109921,44.56758],[40.122425,44.567897],[40.123584,44.564602],[40.132942,44.565438],[40.136329,44.563923],[40.137335,44.563926],[40.137503,44.565053],[40.13861,44.565013],[40.139243,44.566688],[40.143597,44.564591],[40.146272,44.560137],[40.153563,44.561739],[40.153799,44.563099],[40.15943,44.563481],[40.162291,44.565021],[40.164516,44.5645],[40.168265,44.567344],[40.1515,44.577274],[40.150044,44.578929],[40.167263,44.606218],[40.156153,44.610644],[40.157957,44.611564],[40.161093,44.615636],[40.156596,44.614419],[40.146794,44.615088],[40.14071,44.614077],[40.142322,44.614955],[40.139144,44.619583],[40.138676,44.623659],[40.13742,44.623633],[40.136413,44.628646],[40.135408,44.630368],[40.133679,44.629793],[40.133059,44.630435],[40.131119,44.640392],[40.12938,44.644013],[40.12967,44.646549],[40.119088,44.657088],[40.114578,44.663044],[40.118893,44.66723],[40.128543,44.672624],[40.131629,44.681127],[40.134522,44.693991],[40.133137,44.69518],[40.133071,44.696434],[40.129343,44.696295],[40.124367,44.694747],[40.126304,44.691326],[40.126131,44.689439],[40.118662,44.686658],[40.126703,44.67443],[40.123467,44.671664],[40.106431,44.672653],[40.089116,44.656522],[40.077886,44.666823],[40.072719,44.66295],[40.050247,44.679122],[40.056013,44.682558],[40.054206,44.683563],[40.060317,44.687219],[40.051481,44.69441],[40.062085,44.70228],[40.076713,44.691987],[40.065242,44.683855],[40.07391,44.677337],[40.084267,44.684399],[40.085551,44.683364],[40.092012,44.686577],[40.089406,44.690576],[40.08578,44.693058],[40.085135,44.694297],[40.117895,44.703794],[40.113065,44.712372],[40.12548,44.714725],[40.101035,44.757022],[40.089305,44.753768],[40.079965,44.772799],[40.032494,44.760134],[40.024307,44.773321],[40.03906,44.777856],[40.029058,44.794016],[39.994173,44.785128],[40.008347,44.759888],[40.013967,44.757433],[40.019119,44.752746],[40.029016,44.746998],[39.98751,44.717455],[39.96953,44.730059],[39.960817,44.723619],[39.942818,44.736303],[39.910078,44.713004],[39.912269,44.710246],[39.912344,44.708192],[39.912218,44.707005],[39.908209,44.701918],[39.90881,44.698695],[39.910423,44.698284],[39.912341,44.701352],[39.915864,44.70094],[39.918145,44.69797],[39.915373,44.691178],[39.91616,44.68961],[39.917906,44.688759],[39.922487,44.691775],[39.925138,44.691775],[39.927501,44.689666],[39.927357,44.68731],[39.926059,44.684134],[39.922952,44.682519],[39.914771,44.675124],[39.912489,44.676407],[39.896248,44.661805]]]}},{"type":"Feature","id":"253256-576","properties":{"id":"253256-576","name":"городской округ Адыгейск","name_ru":"городской округ Адыгейск","subject_id":"253256","subject_name":"Адыгея","source_gid":576,"source_fid":676,"names_rosstat":"Городской округ - Город Адыгейск","population":15659,"area_km2":33.5211646038417,"density_km2":467.13770792454505,"source":"Актуализированный объединённый GeoJSON, предоставленный преподавателем","name_en":"Adygeisk Urban Okrug","name_zh":"Adygeisk城市辖区","subject_name_en":"Adygea","subject_name_zh":"阿迪格共和国"},"geometry":{"type":"Polygon","coordinates":[[[39.16473,44.89357],[39.178389,44.878523],[39.167561,44.873255],[39.16847,44.872187],[39.178254,44.875572],[39.177896,44.876272],[39.17943,44.876919],[39.188133,44.866245],[39.191719,44.864315],[39.186307,44.862351],[39.186733,44.859525],[39.190222,44.857149],[39.190281,44.85613],[39.184846,44.85451],[39.184921,44.833016],[39.186146,44.832634],[39.186119,44.830747],[39.205871,44.827683],[39.216107,44.825294],[39.225367,44.825043],[39.225716,44.825948],[39.223616,44.828608],[39.212366,44.840599],[39.213822,44.840667],[39.21617,44.842917],[39.219492,44.843367],[39.220054,44.845516],[39.216714,44.846435],[39.218686,44.847209],[39.221772,44.846039],[39.222748,44.847898],[39.22978,44.851233],[39.230489,44.852767],[39.233428,44.853946],[39.238341,44.853151],[39.238514,44.85256],[39.23973,44.852912],[39.240242,44.855283],[39.238449,44.857196],[39.23894,44.858909],[39.235775,44.861145],[39.233401,44.861117],[39.232708,44.861992],[39.238151,44.866034],[39.236402,44.867567],[39.23299,44.866785],[39.231508,44.868277],[39.229156,44.86757],[39.228119,44.870382],[39.233505,44.875189],[39.240296,44.87695],[39.240658,44.878018],[39.239115,44.879617],[39.239889,44.882031],[39.243666,44.884238],[39.245453,44.884409],[39.246285,44.903488],[39.237543,44.903875],[39.236707,44.905573],[39.235482,44.905544],[39.22292,44.903079],[39.197283,44.900516],[39.17391,44.894118],[39.169919,44.894058],[39.16763,44.895423],[39.165027,44.894473],[39.16473,44.89357]]]}},{"type":"Feature","id":"253256-1842","properties":{"id":"253256-1842","name":"Теучежский район","name_ru":"Теучежский район","subject_id":"253256","subject_name":"Адыгея","source_gid":1842,"source_fid":1952,"names_rosstat":"Теучежский муниципальный район","population":22254,"area_km2":710.3215714333497,"density_km2":31.32947230518976,"source":"Актуализированный объединённый GeoJSON, предоставленный преподавателем","name_en":"Teuchezhskii District","name_zh":"Teuchezhskii区","subject_name_en":"Adygea","subject_name_zh":"阿迪格共和国"},"geometry":{"type":"Polygon","coordinates":[[[39.353308,44.809382],[39.353677,44.816],[39.335423,44.821255],[39.304931,44.825465],[39.256344,44.824874],[39.254147,44.822296],[39.248131,44.820278],[39.240997,44.823379],[39.23807,44.822892],[39.225367,44.825043],[39.225716,44.825948],[39.223616,44.828608],[39.212366,44.840599],[39.213822,44.840667],[39.21617,44.842917],[39.219492,44.843367],[39.220054,44.845516],[39.216714,44.846435],[39.218686,44.847209],[39.221772,44.846039],[39.222748,44.847898],[39.22978,44.851233],[39.230489,44.852767],[39.233428,44.853946],[39.238341,44.853151],[39.238514,44.85256],[39.23973,44.852912],[39.240242,44.855283],[39.238449,44.857196],[39.23894,44.858909],[39.235775,44.861145],[39.233401,44.861117],[39.232708,44.861992],[39.238151,44.866034],[39.236402,44.867567],[39.23299,44.866785],[39.231508,44.868277],[39.229156,44.86757],[39.22812,44.869757],[39.232677,44.874733],[39.240296,44.87695],[39.240658,44.878018],[39.239115,44.879617],[39.239889,44.882031],[39.243666,44.884238],[39.245453,44.884409],[39.246285,44.903488],[39.237543,44.903875],[39.236707,44.905573],[39.22292,44.903079],[39.197283,44.900516],[39.17391,44.894118],[39.169919,44.894058],[39.16763,44.895423],[39.165027,44.894473],[39.16473,44.89357],[39.165862,44.89181],[39.171645,44.886594],[39.178389,44.878523],[39.167561,44.873255],[39.16847,44.872187],[39.178254,44.875572],[39.177896,44.876272],[39.17943,44.876919],[39.188133,44.866245],[39.191719,44.864315],[39.186307,44.862351],[39.186733,44.859525],[39.190222,44.857149],[39.190281,44.85613],[39.184846,44.85451],[39.184921,44.833016],[39.186146,44.832634],[39.186119,44.830747],[39.156763,44.835473],[39.145809,44.835933],[39.148559,44.837153],[39.153577,44.837816],[39.163996,44.83654],[39.163027,44.839166],[39.148578,44.842517],[39.150522,44.84397],[39.15106,44.845463],[39.149787,44.847128],[39.150032,44.849315],[39.151843,44.850911],[39.150179,44.854833],[39.144794,44.85334],[39.141516,44.854474],[39.139854,44.854131],[39.138608,44.852462],[39.13436,44.852096],[39.13343,44.85161],[39.133528,44.848591],[39.131864,44.846925],[39.125794,44.848591],[39.124962,44.857301],[39.125647,44.863512],[39.12785,44.866738],[39.127605,44.868577],[39.117063,44.874268],[39.116879,44.875222],[39.120359,44.873971],[39.121027,44.874883],[39.113855,44.882465],[39.118756,44.884773],[39.119277,44.886714],[39.117033,44.888707],[39.110456,44.891848],[39.109258,44.893554],[39.108685,44.897288],[39.101914,44.905747],[39.110674,44.909217],[39.112685,44.908466],[39.126061,44.908246],[39.125712,44.913937],[39.131751,44.919831],[39.11413,44.917955],[39.111963,44.919275],[39.106385,44.945974],[39.102789,44.945401],[39.101484,44.946388],[39.107215,44.956559],[39.1029,44.96567],[39.093897,44.96287],[39.063395,44.967966],[39.063024,44.969058],[39.060627,44.970535],[39.061023,44.974478],[39.070306,44.975543],[39.075968,44.978716],[39.076022,44.983277],[39.077697,44.988021],[39.078688,44.988603],[39.08698,44.986755],[39.09886,44.98808],[39.100877,44.988877],[39.108512,44.995279],[39.116772,44.998242],[39.121413,44.998072],[39.123576,44.995839],[39.127743,44.995028],[39.130212,44.995324],[39.136319,44.998661],[39.139997,44.998949],[39.149023,44.994052],[39.164232,44.993825],[39.179219,44.989816],[39.190574,44.994943],[39.196145,44.998985],[39.20223,45.000622],[39.206348,44.9985],[39.214887,44.990231],[39.216924,44.989148],[39.221442,44.988988],[39.22314,44.990298],[39.22267,45.005813],[39.225555,45.013028],[39.228991,45.016932],[39.230468,45.018008],[39.233511,45.018226],[39.239331,45.01606],[39.23878,45.014252],[39.233643,45.011337],[39.232709,45.010014],[39.255826,45.001998],[39.257606,45.001959],[39.262346,45.00344],[39.264468,45.005642],[39.264661,45.012773],[39.263449,45.015053],[39.264582,45.019998],[39.268654,45.027905],[39.274101,45.030709],[39.276558,45.030677],[39.277155,45.029752],[39.273081,45.024235],[39.272706,45.019201],[39.274558,45.017253],[39.279764,45.016027],[39.286615,45.016816],[39.289095,45.01783],[39.30187,45.030151],[39.313515,45.029469],[39.319495,45.018254],[39.324662,45.016225],[39.328566,45.013303],[39.331781,45.009285],[39.342459,45.002587],[39.349464,45.001857],[39.355377,45.002709],[39.363702,45.007621],[39.365883,45.010421],[39.365768,45.01241],[39.366974,45.014886],[39.372715,45.015251],[39.373863,45.014358],[39.368122,45.007215],[39.36973,45.004982],[39.372773,45.002993],[39.375471,45.003115],[39.380465,45.005632],[39.382532,45.004861],[39.387986,44.999705],[39.392407,44.992032],[39.393383,44.991585],[39.397172,44.992682],[39.398837,44.994103],[39.398894,44.995321],[39.393842,44.99796],[39.392752,45.000679],[39.39499,45.006241],[39.396311,45.005266],[39.39677,44.999949],[39.399928,44.998528],[39.401421,45.000355],[39.399181,45.004982],[39.405841,45.007093],[39.413592,45.013587],[39.416634,45.012694],[39.416864,45.007174],[39.428289,45.003643],[39.446718,44.994468],[39.476863,44.991844],[39.473608,44.991064],[39.473901,44.989498],[39.475028,44.987667],[39.477984,44.986576],[39.483097,44.98719],[39.484008,44.989912],[39.485874,44.990418],[39.486333,44.989001],[39.491053,44.98516],[39.491512,44.981941],[39.488797,44.982059],[39.486972,44.980281],[39.49451,44.975211],[39.500989,44.978771],[39.501637,44.979933],[39.503019,44.980346],[39.504759,44.97936],[39.506545,44.979513],[39.504162,44.98263],[39.505736,44.984061],[39.507785,44.984137],[39.510877,44.98786],[39.513079,44.988242],[39.519562,44.987022],[39.519978,44.98549],[39.517544,44.983492],[39.512149,44.984093],[39.511441,44.983263],[39.512923,44.98252],[39.52077,44.982162],[39.522783,44.980095],[39.521822,44.978972],[39.518341,44.978904],[39.517478,44.976681],[39.511901,44.976485],[39.509117,44.973853],[39.511897,44.972234],[39.511939,44.971326],[39.505031,44.969518],[39.504456,44.968028],[39.508229,44.967962],[39.509547,44.966687],[39.51085,44.966593],[39.513256,44.967562],[39.517566,44.967231],[39.518423,44.965564],[39.521509,44.964583],[39.52348,44.961888],[39.524683,44.961463],[39.535413,44.962441],[39.536988,44.955771],[39.540053,44.955481],[39.543467,44.953138],[39.547838,44.952005],[39.548369,44.949742],[39.551279,44.947347],[39.55138,44.944887],[39.55305,44.944201],[39.557228,44.94488],[39.565313,44.943232],[39.565485,44.942073],[39.562633,44.942009],[39.559504,44.939122],[39.565473,44.936144],[39.566364,44.934314],[39.570017,44.933944],[39.57269,44.936853],[39.572289,44.940827],[39.573525,44.942104],[39.57487,44.941617],[39.576031,44.93929],[39.577501,44.938292],[39.576666,44.935742],[39.577267,44.93411],[39.573692,44.931863],[39.575188,44.930193],[39.575162,44.928764],[39.572991,44.925901],[39.575898,44.923701],[39.57954,44.922424],[39.580308,44.923394],[39.578771,44.925239],[39.579773,44.927557],[39.580773,44.927799],[39.584375,44.926408],[39.585102,44.92566],[39.584643,44.923427],[39.585411,44.923096],[39.587783,44.9239],[39.592094,44.922954],[39.593851,44.923321],[39.591693,44.918648],[39.594366,44.91737],[39.596033,44.915257],[39.598609,44.915549],[39.600747,44.914129],[39.597406,44.912402],[39.59754,44.911124],[39.59901,44.910343],[39.6039,44.910997],[39.605461,44.909134],[39.609103,44.909067],[39.613629,44.907127],[39.615081,44.909151],[39.617674,44.909075],[39.617941,44.90739],[39.616177,44.90563],[39.626067,44.902354],[39.626025,44.901121],[39.62386,44.899872],[39.623914,44.899057],[39.62787,44.898016],[39.628706,44.89987],[39.630661,44.898032],[39.626599,44.896093],[39.630255,44.895457],[39.634172,44.896526],[39.634673,44.894609],[39.635843,44.89442],[39.638148,44.896053],[39.640924,44.895562],[39.643009,44.893296],[39.644129,44.889544],[39.645733,44.888052],[39.645566,44.886277],[39.645098,44.885259],[39.639452,44.883578],[39.637661,44.880796],[39.638583,44.879577],[39.63711,44.878532],[39.640951,44.877248],[39.64227,44.87475],[39.646076,44.873701],[39.65031,44.874758],[39.65291,44.874174],[39.652032,44.873096],[39.652668,44.870717],[39.65201,44.869115],[39.650957,44.868664],[39.649487,44.86938],[39.64896,44.871727],[39.64602,44.870483],[39.643695,44.871214],[39.641523,44.870219],[39.641852,44.869271],[39.645229,44.868182],[39.644829,44.867453],[39.641483,44.867122],[39.64195,44.865606],[39.618549,44.860214],[39.617148,44.859186],[39.616896,44.856764],[39.615558,44.856329],[39.614615,44.854603],[39.607071,44.851791],[39.6075,44.85088],[39.606738,44.850574],[39.60676,44.84933],[39.607462,44.849252],[39.608274,44.846717],[39.607594,44.846157],[39.603513,44.847199],[39.602965,44.848428],[39.602116,44.848467],[39.594164,44.844657],[39.557787,44.836638],[39.557487,44.83592],[39.558996,44.835175],[39.558504,44.8345],[39.559058,44.833556],[39.560049,44.832789],[39.561242,44.83308],[39.564413,44.830275],[39.567662,44.830113],[39.5689,44.827708],[39.566349,44.821734],[39.56694,44.81815],[39.564428,44.815108],[39.565757,44.812483],[39.562808,44.809032],[39.559578,44.806959],[39.556268,44.806862],[39.48299,44.820153],[39.483719,44.819339],[39.483042,44.818699],[39.483516,44.817754],[39.480577,44.818071],[39.480693,44.816953],[39.477975,44.81535],[39.480219,44.814983],[39.480851,44.813974],[39.482658,44.814438],[39.483087,44.813893],[39.482906,44.812548],[39.480919,44.81077],[39.484897,44.810698],[39.486835,44.80952],[39.485255,44.807117],[39.483697,44.806829],[39.484871,44.805115],[39.484329,44.804442],[39.482861,44.805227],[39.48181,44.804534],[39.469797,44.811762],[39.459597,44.806435],[39.456121,44.817524],[39.413606,44.816314],[39.392659,44.813253],[39.386818,44.813144],[39.378415,44.814603],[39.369776,44.814924],[39.36838,44.809415],[39.36171,44.811527],[39.36029,44.811268],[39.361572,44.808911],[39.353308,44.809382]]]}},{"type":"Feature","id":"253256-1843","properties":{"id":"253256-1843","name":"Красногвардейский район","name_ru":"Красногвардейский район","subject_id":"253256","subject_name":"Адыгея","source_gid":1843,"source_fid":1953,"names_rosstat":"Красногвардейский муниципальный район","population":31858,"area_km2":726.2162462311276,"density_km2":43.86847604323738,"source":"Актуализированный объединённый GeoJSON, предоставленный преподавателем","name_en":"Krasnogvardeiskii District","name_zh":"Krasnogvardeiskii区","subject_name_en":"Adygea","subject_name_zh":"阿迪格共和国"},"geometry":{"type":"Polygon","coordinates":[[[39.349464,45.001857],[39.342459,45.002587],[39.331781,45.009285],[39.328566,45.013303],[39.324662,45.016225],[39.319495,45.018254],[39.313515,45.029469],[39.322074,45.030175],[39.326208,45.032877],[39.327,45.033851],[39.325346,45.041519],[39.32607,45.044812],[39.338104,45.042159],[39.344829,45.042471],[39.351333,45.044165],[39.357349,45.047887],[39.376052,45.056554],[39.377652,45.058272],[39.377708,45.064793],[39.380273,45.073131],[39.38225,45.076104],[39.386397,45.07788],[39.399087,45.076703],[39.400795,45.077482],[39.40311,45.080285],[39.403129,45.081519],[39.399831,45.085779],[39.399513,45.089266],[39.401347,45.092316],[39.404932,45.094292],[39.407627,45.094022],[39.418805,45.089092],[39.421669,45.08879],[39.423992,45.089677],[39.426912,45.092455],[39.429236,45.097674],[39.428717,45.101407],[39.429545,45.104097],[39.438549,45.110462],[39.442831,45.110448],[39.44583,45.108351],[39.456346,45.103867],[39.462905,45.101961],[39.467576,45.107913],[39.467267,45.110717],[39.459541,45.116982],[39.455043,45.118575],[39.454108,45.119645],[39.455061,45.121612],[39.457477,45.122284],[39.467574,45.119628],[39.47152,45.121248],[39.472,45.123256],[39.467802,45.128284],[39.467706,45.129933],[39.46892,45.131348],[39.471424,45.13309],[39.476761,45.133974],[39.481873,45.13738],[39.496602,45.139325],[39.498148,45.140322],[39.504129,45.151182],[39.513308,45.161176],[39.522635,45.162162],[39.534441,45.160654],[39.538692,45.161268],[39.540258,45.162549],[39.541531,45.165289],[39.541662,45.177418],[39.544279,45.187122],[39.545612,45.188588],[39.554409,45.19143],[39.557893,45.195223],[39.570841,45.200426],[39.582847,45.200939],[39.591697,45.208795],[39.595049,45.210617],[39.606669,45.213048],[39.616262,45.21681],[39.628562,45.216601],[39.63957,45.212296],[39.661852,45.205553],[39.670456,45.203953],[39.6861,45.194546],[39.690878,45.189538],[39.69165,45.187104],[39.689497,45.185845],[39.680763,45.187849],[39.6774,45.187054],[39.677971,45.185567],[39.682507,45.184565],[39.685304,45.182099],[39.687391,45.174775],[39.685956,45.16932],[39.685062,45.168705],[39.68059,45.168881],[39.679564,45.16692],[39.685865,45.161816],[39.688311,45.160759],[39.687271,45.155742],[39.687916,45.154833],[39.691556,45.153953],[39.700437,45.156724],[39.702147,45.15615],[39.702537,45.155215],[39.700431,45.152226],[39.698689,45.151126],[39.698065,45.149017],[39.699828,45.14705],[39.701913,45.146725],[39.703733,45.147716],[39.707945,45.153051],[39.711783,45.15317],[39.713709,45.151066],[39.713147,45.149101],[39.710838,45.146211],[39.712897,45.143805],[39.715248,45.143511],[39.716475,45.143981],[39.716849,45.148822],[39.71764,45.149555],[39.7195,45.150703],[39.727139,45.151785],[39.730579,45.149609],[39.73547,45.141658],[39.738854,45.139018],[39.740598,45.136095],[39.747819,45.132245],[39.750184,45.131603],[39.753772,45.132282],[39.758794,45.136373],[39.760989,45.137193],[39.76436,45.137176],[39.771179,45.134182],[39.780904,45.133246],[39.780956,45.131063],[39.778911,45.125715],[39.779327,45.124284],[39.780731,45.12355],[39.783651,45.124702],[39.785178,45.128256],[39.790427,45.127069],[39.795041,45.130515],[39.800659,45.130631],[39.802895,45.129017],[39.803493,45.125752],[39.80845,45.122291],[39.809698,45.115338],[39.810868,45.1142],[39.813026,45.113815],[39.815132,45.114732],[39.813549,45.120739],[39.815607,45.122632],[39.819203,45.12191],[39.820254,45.119422],[39.820189,45.117013],[39.822383,45.11533],[39.825035,45.116541],[39.826524,45.121197],[39.828246,45.121557],[39.829844,45.119761],[39.828885,45.115102],[39.829311,45.114097],[39.831293,45.113173],[39.834146,45.113516],[39.838704,45.117279],[39.841913,45.117768],[39.844285,45.116848],[39.844421,45.115685],[39.84116,45.112303],[39.840744,45.110342],[39.841613,45.108278],[39.844338,45.107],[39.846771,45.107074],[39.849517,45.109525],[39.849788,45.116237],[39.851806,45.118028],[39.854593,45.116707],[39.857188,45.11296],[39.858771,45.112429],[39.870594,45.112585],[39.873384,45.1108],[39.872084,45.107578],[39.873733,45.105409],[39.884156,45.10397],[39.895424,45.099747],[39.900147,45.096677],[39.900442,45.095264],[39.893788,45.088219],[39.892956,45.085392],[39.894074,45.084694],[39.900842,45.08709],[39.89934,45.0904],[39.899723,45.091199],[39.907427,45.09376],[39.920251,45.095937],[39.924574,45.094352],[39.933477,45.095993],[39.934347,45.095151],[39.93451,45.092599],[39.936366,45.09213],[39.942504,45.094507],[39.948421,45.094513],[39.950835,45.092191],[39.953208,45.091367],[39.952523,45.090326],[39.949476,45.089625],[39.948534,45.088466],[39.948805,45.086183],[39.950034,45.085129],[39.956713,45.083326],[39.959664,45.085469],[39.963664,45.085717],[39.966225,45.084397],[39.967247,45.081331],[39.969446,45.080813],[39.972554,45.083333],[39.973496,45.087663],[39.976494,45.091372],[39.978716,45.09101],[39.981566,45.087896],[39.984801,45.086854],[39.990675,45.088428],[39.991773,45.090426],[39.99047,45.092937],[39.991895,45.094573],[39.994495,45.095307],[39.996964,45.094793],[40.000043,45.093865],[40.005272,45.089966],[40.009744,45.091083],[40.007984,45.087955],[40.010932,45.086993],[40.011988,45.085486],[40.010855,45.084013],[40.011125,45.081675],[40.011959,45.081705],[40.011126,45.080706],[40.011905,45.080433],[40.012513,45.078309],[40.017301,45.059021],[40.01682,45.057616],[40.012031,45.057859],[40.006915,45.056816],[40.005623,45.055371],[40.015515,45.019599],[39.965515,45.013092],[39.964506,45.015585],[39.940006,45.012154],[39.937744,45.018267],[39.908349,45.01424],[39.905776,45.016213],[39.903682,45.019829],[39.903637,45.022629],[39.908534,45.023955],[39.908935,45.025033],[39.907958,45.026869],[39.904428,45.029064],[39.884117,45.02683],[39.885148,45.02305],[39.861253,45.019879],[39.860474,45.016313],[39.856364,45.014964],[39.850061,45.013272],[39.849412,45.014868],[39.7641,44.990373],[39.773753,44.97371],[39.696199,44.95165],[39.69813,44.953018],[39.695837,44.953742],[39.695299,44.952474],[39.692425,44.951403],[39.68909,44.952769],[39.688279,44.95398],[39.688542,44.955083],[39.691723,44.955537],[39.69066,44.956556],[39.691929,44.958909],[39.688932,44.959862],[39.688007,44.95831],[39.685408,44.957894],[39.681712,44.963087],[39.68259,44.96401],[39.688589,44.962579],[39.689412,44.963403],[39.689446,44.966072],[39.695103,44.967024],[39.696232,44.968418],[39.692606,44.970856],[39.687148,44.972369],[39.683555,44.972272],[39.681553,44.971302],[39.678673,44.972172],[39.679072,44.974369],[39.682435,44.975042],[39.683916,44.976439],[39.689319,44.976905],[39.691102,44.978961],[39.690909,44.981444],[39.687509,44.983539],[39.684821,44.98189],[39.677142,44.980183],[39.674455,44.97834],[39.671462,44.98012],[39.671409,44.981597],[39.672534,44.982658],[39.675854,44.98334],[39.677247,44.984818],[39.677408,44.988189],[39.67864,44.990008],[39.678693,44.992584],[39.677567,44.99369],[39.670445,44.991106],[39.667048,44.991909],[39.666544,44.993291],[39.64455,44.983232],[39.651649,44.975647],[39.620013,44.960311],[39.598616,44.982751],[39.630124,44.996744],[39.644205,45.004864],[39.641479,45.005354],[39.639987,45.007208],[39.644038,45.008418],[39.645134,45.009894],[39.643829,45.012921],[39.644612,45.014323],[39.646543,45.014729],[39.648997,45.013401],[39.655732,45.013327],[39.656828,45.01436],[39.657037,45.015947],[39.65333,45.018457],[39.649049,45.018088],[39.643933,45.015467],[39.637094,45.016058],[39.635528,45.017497],[39.640696,45.02259],[39.648578,45.022259],[39.650879,45.023204],[39.652967,45.025211],[39.653427,45.027159],[39.652424,45.033683],[39.645509,45.03622],[39.64098,45.039851],[39.633128,45.042271],[39.629704,45.045458],[39.62749,45.045842],[39.622129,45.049037],[39.620824,45.049111],[39.618317,45.047289],[39.616259,45.047666],[39.615494,45.045348],[39.607981,45.042397],[39.604726,45.04761],[39.602972,45.047521],[39.599965,45.044865],[39.596354,45.043528],[39.593282,45.044541],[39.588604,45.044777],[39.58589,45.046488],[39.582047,45.047307],[39.586906,45.048589],[39.588109,45.050005],[39.587607,45.053924],[39.585536,45.054892],[39.58303,45.055057],[39.579488,45.053381],[39.580745,45.04695],[39.579249,45.046227],[39.573245,45.047186],[39.570008,45.048735],[39.567972,45.04844],[39.566093,45.047076],[39.566197,45.043461],[39.570113,45.041469],[39.571835,45.038075],[39.571574,45.035861],[39.568703,45.033279],[39.561968,45.032615],[39.560559,45.033389],[39.561133,45.034718],[39.560298,45.039329],[39.55847,45.04051],[39.556852,45.039661],[39.558836,45.031028],[39.556904,45.029884],[39.552049,45.032873],[39.545419,45.033574],[39.545366,45.034607],[39.546776,45.035898],[39.552623,45.039329],[39.552937,45.040178],[39.550781,45.041],[39.550488,45.042682],[39.555077,45.045158],[39.554451,45.046818],[39.551892,45.047334],[39.549481,45.044026],[39.547328,45.042966],[39.543673,45.042551],[39.540998,45.043381],[39.540215,45.044856],[39.534407,45.041536],[39.53147,45.041905],[39.529773,45.043242],[39.529838,45.046424],[39.531992,45.051634],[39.534602,45.053109],[39.538192,45.051634],[39.542499,45.052371],[39.544195,45.053708],[39.54425,45.055085],[39.52318,45.054618],[39.523246,45.052416],[39.525792,45.051079],[39.526053,45.049373],[39.523964,45.047898],[39.521158,45.048221],[39.515807,45.050434],[39.513737,45.048745],[39.514716,45.04727],[39.51948,45.04538],[39.520002,45.043904],[39.51837,45.04289],[39.516282,45.04289],[39.510735,45.045472],[39.50618,45.045156],[39.505595,45.043621],[39.506556,45.042116],[39.511902,45.04067],[39.513113,45.039342],[39.512403,45.038073],[39.509062,45.036597],[39.50593,45.03642],[39.503382,45.037247],[39.501503,45.039312],[39.499457,45.039961],[39.495113,45.040024],[39.494534,45.041733],[39.495963,45.043821],[39.495662,45.044713],[39.493983,45.045165],[39.490775,45.044625],[39.486961,45.037741],[39.488645,45.034236],[39.48845,45.032885],[39.487434,45.032259],[39.481458,45.033964],[39.479982,45.036171],[39.471249,45.035691],[39.473908,44.999853],[39.475579,45.000189],[39.476448,44.999243],[39.475713,44.995888],[39.474777,44.995179],[39.471335,44.995652],[39.4705,44.994778],[39.471286,44.993774],[39.476545,44.992646],[39.476863,44.991844],[39.446718,44.994468],[39.428289,45.003643],[39.416864,45.007174],[39.416634,45.012694],[39.413592,45.013587],[39.405841,45.007093],[39.399181,45.004982],[39.401421,45.000355],[39.399928,44.998528],[39.39677,44.999949],[39.396311,45.005266],[39.39499,45.006241],[39.392752,45.000679],[39.393842,44.99796],[39.398894,44.995321],[39.398837,44.994103],[39.394646,44.991585],[39.392407,44.992032],[39.387986,44.999705],[39.382532,45.004861],[39.380465,45.005632],[39.375471,45.003115],[39.372773,45.002993],[39.36973,45.004982],[39.368122,45.007215],[39.373863,45.014358],[39.372715,45.015251],[39.366974,45.014886],[39.365252,45.009447],[39.358535,45.004089],[39.355377,45.002709],[39.349464,45.001857]]]}},{"type":"Feature","id":"253256-1955","properties":{"id":"253256-1955","name":"Тахтамукайский район","name_ru":"Тахтамукайский район","subject_id":"253256","subject_name":"Адыгея","source_gid":1955,"source_fid":2065,"names_rosstat":"Тахтамукайский муниципальный район","population":131771,"area_km2":467.8402588487855,"density_km2":281.65810339676386,"source":"Актуализированный объединённый GeoJSON, предоставленный преподавателем","name_en":"Takhtamukaiskii District","name_zh":"Takhtamukaiskii区","subject_name_en":"Adygea","subject_name_zh":"阿迪格共和国"},"geometry":{"type":"Polygon","coordinates":[[[38.684018,44.951415],[38.754197,44.949442],[38.755376,44.948062],[38.75714,44.948016],[38.75634,44.950262],[38.753801,44.951102],[38.757526,44.951903],[38.757664,44.952977],[38.756919,44.953367],[38.758272,44.953836],[38.758465,44.955028],[38.761694,44.954246],[38.775519,44.960608],[38.776113,44.961918],[38.775188,44.964077],[38.777485,44.965241],[38.777485,44.966066],[38.781855,44.967654],[38.786051,44.966051],[38.787875,44.96444],[38.786676,44.960777],[38.787327,44.956532],[38.783796,44.95481],[38.782282,44.952577],[38.783368,44.946963],[38.78634,44.943977],[38.789645,44.942656],[38.797499,44.94231],[38.806987,44.939036],[38.809578,44.939826],[38.811624,44.943221],[38.815726,44.943893],[38.824168,44.938145],[38.828519,44.937289],[38.829803,44.933514],[38.83435,44.932329],[38.83454,44.929328],[38.83604,44.926514],[38.839005,44.925615],[38.843114,44.925631],[38.845427,44.924432],[38.846289,44.921615],[38.843755,44.91871],[38.84378,44.917294],[38.845168,44.916557],[38.849729,44.916909],[38.852433,44.916106],[38.853279,44.914908],[38.849932,44.911502],[38.850822,44.909444],[38.853562,44.907735],[38.860234,44.907638],[38.861428,44.905916],[38.862296,44.90307],[38.861732,44.898379],[38.860452,44.897523],[38.857351,44.898017],[38.855228,44.897422],[38.854069,44.894496],[38.854755,44.893847],[38.860972,44.893484],[38.895747,44.885753],[38.918936,44.879079],[38.921839,44.8774],[38.942618,44.87083],[38.967456,44.860036],[38.979026,44.85857],[38.986299,44.855263],[38.986568,44.84603],[38.988045,44.844217],[39.022588,44.841185],[39.041929,44.835526],[39.075391,44.823141],[39.087168,44.824572],[39.089422,44.823327],[39.090759,44.817163],[39.148559,44.837153],[39.153577,44.837816],[39.163996,44.83654],[39.163027,44.839166],[39.148578,44.842517],[39.150522,44.84397],[39.15106,44.845463],[39.149787,44.847128],[39.150032,44.849315],[39.151843,44.850911],[39.150179,44.854833],[39.144794,44.85334],[39.141516,44.854474],[39.139854,44.854131],[39.138608,44.852462],[39.13436,44.852096],[39.13343,44.85161],[39.133528,44.848591],[39.131864,44.846925],[39.125794,44.848591],[39.124962,44.857301],[39.125647,44.863512],[39.12785,44.866738],[39.127605,44.868577],[39.117063,44.874268],[39.116879,44.875222],[39.120359,44.873971],[39.121027,44.874883],[39.113855,44.882465],[39.118756,44.884773],[39.119277,44.886714],[39.117033,44.888707],[39.110456,44.891848],[39.109258,44.893554],[39.108685,44.897288],[39.101914,44.905747],[39.110674,44.909217],[39.112685,44.908466],[39.126061,44.908246],[39.125712,44.913937],[39.131751,44.919831],[39.11413,44.917955],[39.111963,44.919275],[39.106385,44.945974],[39.102789,44.945401],[39.101484,44.946388],[39.107215,44.956559],[39.1029,44.96567],[39.093897,44.96287],[39.063395,44.967966],[39.063024,44.969058],[39.060627,44.970535],[39.061023,44.974478],[39.055932,44.975827],[39.049011,44.983391],[39.043148,44.984843],[39.040272,44.984406],[39.033606,44.980208],[39.030997,44.97331],[39.027507,44.969251],[39.023391,44.967958],[39.021587,44.968272],[39.019549,44.970353],[39.018569,44.973017],[39.019834,44.982922],[39.01851,44.988157],[39.015175,44.995604],[39.015488,44.996792],[39.019062,44.999212],[39.019053,45.000721],[39.014226,45.003979],[39.009558,45.003083],[39.006176,45.004072],[38.998967,45.003193],[38.996634,45.003599],[38.99099,45.005693],[38.984353,45.01023],[38.97845,45.010393],[38.974218,45.008284],[38.970995,45.001112],[38.97154,44.996545],[38.97092,44.992821],[38.966788,44.99139],[38.9629,44.992083],[38.953488,44.998205],[38.952232,45.000804],[38.951874,45.005434],[38.948474,45.01141],[38.947313,45.015486],[38.947413,45.018701],[38.948639,45.020805],[38.956158,45.026098],[38.957934,45.028264],[38.957292,45.032437],[38.953078,45.035525],[38.943863,45.03629],[38.93836,45.03563],[38.930181,45.032898],[38.925032,45.029567],[38.913694,45.025603],[38.907159,45.022266],[38.901308,45.021553],[38.899774,45.022454],[38.8993,45.027035],[38.900205,45.031668],[38.90898,45.042202],[38.909419,45.044448],[38.908258,45.051585],[38.90406,45.053362],[38.897701,45.053792],[38.889463,45.049617],[38.886677,45.047381],[38.880574,45.039872],[38.876111,45.037138],[38.867584,45.03495],[38.860841,45.034269],[38.856911,45.032772],[38.854638,45.029783],[38.853548,45.024905],[38.85529,45.021224],[38.866076,45.011896],[38.865892,45.006627],[38.860385,45.001621],[38.856138,45.001299],[38.849922,45.006981],[38.846311,45.008073],[38.843111,45.008021],[38.834527,45.005359],[38.830522,45.005818],[38.820932,45.012267],[38.817405,45.012503],[38.814371,45.01102],[38.813559,45.009571],[38.812921,45.001447],[38.811752,44.998205],[38.809261,44.995944],[38.806053,44.995686],[38.798707,44.998261],[38.785869,45.004562],[38.775175,45.016007],[38.771998,45.024645],[38.770011,45.027381],[38.766282,45.029755],[38.758699,45.031573],[38.756468,45.033123],[38.754909,45.037099],[38.755905,45.038901],[38.76104,45.044255],[38.768718,45.048869],[38.770092,45.05399],[38.76791,45.056639],[38.76011,45.060145],[38.748013,45.059552],[38.740653,45.053406],[38.737075,45.046932],[38.732806,45.043156],[38.727389,45.040833],[38.723285,45.040279],[38.721321,45.040611],[38.719475,45.042958],[38.718608,45.046757],[38.718479,45.05415],[38.71556,45.059579],[38.705554,45.065505],[38.699333,45.066337],[38.697952,45.064639],[38.693129,45.064639],[38.692988,45.060532],[38.691893,45.059791],[38.689718,45.059976],[38.689105,45.039192],[38.685907,45.039156],[38.684445,45.000459],[38.684018,44.951415]]]}},{"type":"Feature","id":"253256-1956","properties":{"id":"253256-1956","name":"Кошехабльский район","name_ru":"Кошехабльский район","subject_id":"253256","subject_name":"Адыгея","source_gid":1956,"source_fid":2066,"names_rosstat":"Кошехабльский муниципальный район","population":30200,"area_km2":603.203078982819,"density_km2":50.066057439438545,"source":"Актуализированный объединённый GeoJSON, предоставленный преподавателем","name_en":"Koshekhabl'skii District","name_zh":"Koshekhabl'skii区","subject_name_en":"Adygea","subject_name_zh":"阿迪格共和国"},"geometry":{"type":"Polygon","coordinates":[[[40.6681,44.538816],[40.670221,44.545973],[40.66681,44.552516],[40.648267,44.578532],[40.643364,44.584312],[40.643731,44.635806],[40.618459,44.635833],[40.61871,44.653771],[40.568425,44.654439],[40.56859,44.738863],[40.56737,44.740554],[40.565158,44.741087],[40.56584,44.741996],[40.564139,44.744198],[40.532637,44.74419],[40.518737,44.741186],[40.519466,44.747394],[40.521191,44.752494],[40.524555,44.755648],[40.527497,44.762615],[40.498094,44.761694],[40.46561,44.762412],[40.442486,44.7988],[40.415109,44.825237],[40.392302,44.825588],[40.392398,44.835308],[40.402671,44.836632],[40.406157,44.840374],[40.399307,44.846038],[40.404526,44.84649],[40.4308,44.858412],[40.435689,44.861043],[40.435508,44.862325],[40.437919,44.864715],[40.437724,44.866729],[40.436117,44.8684],[40.429526,44.869281],[40.428802,44.870439],[40.429797,44.871104],[40.428216,44.871841],[40.433953,44.876336],[40.418125,44.887858],[40.417776,44.900278],[40.377166,44.903341],[40.372791,44.90531],[40.371432,44.906716],[40.361481,44.908862],[40.360715,44.90998],[40.358965,44.908729],[40.358422,44.91022],[40.356499,44.909644],[40.356101,44.912075],[40.351194,44.91419],[40.349614,44.914127],[40.349061,44.913365],[40.349916,44.909631],[40.334931,44.917104],[40.297392,44.91695],[40.266829,44.93934],[40.318598,44.973593],[40.32192,44.969655],[40.319413,44.970357],[40.314723,44.968095],[40.315954,44.966929],[40.318465,44.96794],[40.318739,44.967038],[40.316255,44.964752],[40.318212,44.962581],[40.316341,44.961928],[40.318611,44.959553],[40.322001,44.961773],[40.322383,44.959556],[40.334018,44.955242],[40.360273,44.974103],[40.358748,44.975306],[40.375569,44.986312],[40.372268,44.987039],[40.372268,44.989733],[40.368591,44.989671],[40.368315,44.99074],[40.366493,44.991365],[40.365234,44.991349],[40.36466,44.990514],[40.362374,44.99099],[40.362032,44.991881],[40.362794,44.99295],[40.360762,44.993286],[40.361789,44.996527],[40.360674,44.998088],[40.357096,44.997862],[40.355749,44.9968],[40.352823,44.998159],[40.353231,44.999025],[40.352017,44.999556],[40.353238,45.001917],[40.352254,45.0028],[40.347351,45.001829],[40.3444,45.003308],[40.34365,45.005362],[40.341729,45.006786],[40.337544,45.006101],[40.334983,45.006565],[40.330985,45.013316],[40.334561,45.016054],[40.334592,45.019299],[40.332281,45.019653],[40.331001,45.017324],[40.328096,45.017213],[40.328003,45.018483],[40.329471,45.020028],[40.327784,45.01952],[40.327019,45.021871],[40.321132,45.025194],[40.341363,45.039607],[40.350737,45.04517],[40.359502,45.052339],[40.388946,45.033997],[40.412103,45.01289],[40.424498,45.00329],[40.426024,45.004031],[40.429074,45.000935],[40.430926,45.00169],[40.433169,45.001151],[40.434128,44.996098],[40.4417,44.988153],[40.446125,44.985914],[40.448201,44.983266],[40.447792,44.982135],[40.450416,44.980051],[40.488951,44.957383],[40.498279,44.953976],[40.500424,44.951308],[40.513905,44.944199],[40.527814,44.933474],[40.530939,44.916905],[40.536614,44.912752],[40.539629,44.906381],[40.533724,44.902619],[40.533928,44.901968],[40.532771,44.901293],[40.53318,44.900425],[40.537502,44.896567],[40.540219,44.896057],[40.541387,44.894254],[40.543867,44.893577],[40.549383,44.885654],[40.552243,44.884172],[40.567356,44.869688],[40.567098,44.868584],[40.5679,44.867538],[40.571917,44.866573],[40.578826,44.86761],[40.581007,44.865677],[40.587938,44.863535],[40.588461,44.862637],[40.587568,44.861038],[40.579481,44.855306],[40.581222,44.845096],[40.583502,44.843093],[40.584046,44.841108],[40.585178,44.840776],[40.584612,44.839347],[40.586115,44.835655],[40.586529,44.828765],[40.58984,44.828255],[40.592916,44.824479],[40.596488,44.824293],[40.594571,44.821682],[40.595528,44.820352],[40.597597,44.819927],[40.59727,44.816528],[40.59934,44.813997],[40.599036,44.810704],[40.6005,44.808169],[40.610541,44.805816],[40.613181,44.803804],[40.613211,44.802037],[40.614607,44.799839],[40.619746,44.798124],[40.622255,44.795125],[40.621634,44.792901],[40.62422,44.790041],[40.625473,44.784668],[40.628817,44.778399],[40.633071,44.775982],[40.633412,44.775185],[40.630655,44.773131],[40.631233,44.771198],[40.630008,44.770232],[40.63032,44.768727],[40.628578,44.766214],[40.628551,44.764745],[40.626563,44.763643],[40.626408,44.761383],[40.630492,44.75769],[40.631364,44.755215],[40.636129,44.749626],[40.636701,44.747923],[40.639156,44.746731],[40.63683,44.73972],[40.639042,44.737907],[40.640574,44.734183],[40.640509,44.726578],[40.641884,44.725167],[40.642293,44.723174],[40.645451,44.720582],[40.647739,44.719963],[40.650407,44.714332],[40.648692,44.711855],[40.649246,44.706232],[40.649798,44.703727],[40.653171,44.700761],[40.651861,44.698188],[40.648879,44.695862],[40.6524,44.691169],[40.652451,44.687853],[40.653816,44.686868],[40.659093,44.685841],[40.663783,44.685754],[40.665464,44.683881],[40.664318,44.682743],[40.664379,44.680411],[40.672597,44.677051],[40.67265,44.675844],[40.671121,44.674219],[40.669643,44.670567],[40.673025,44.667185],[40.675747,44.667569],[40.677749,44.66695],[40.677944,44.665435],[40.679806,44.664521],[40.680223,44.661819],[40.682701,44.658796],[40.682381,44.651828],[40.6836,44.648502],[40.688339,44.645561],[40.691936,44.638891],[40.696065,44.634485],[40.700139,44.633699],[40.70827,44.629312],[40.714894,44.627001],[40.718314,44.624145],[40.718752,44.621577],[40.722116,44.619316],[40.724395,44.618818],[40.728445,44.611884],[40.733466,44.608198],[40.734052,44.603685],[40.735291,44.602221],[40.733635,44.600809],[40.733423,44.599081],[40.730695,44.595679],[40.731647,44.588735],[40.730644,44.586746],[40.731062,44.583603],[40.729168,44.579475],[40.729004,44.577224],[40.730733,44.575443],[40.727785,44.572063],[40.728634,44.567765],[40.723702,44.56648],[40.725612,44.564932],[40.726995,44.56228],[40.723801,44.560709],[40.724394,44.557565],[40.730848,44.552168],[40.730163,44.548481],[40.734871,44.541342],[40.732483,44.53923],[40.734253,44.536237],[40.734171,44.533098],[40.736173,44.531805],[40.735945,44.529606],[40.743597,44.525528],[40.745326,44.525762],[40.746066,44.524823],[40.742448,44.520591],[40.746538,44.516853],[40.748711,44.513408],[40.748293,44.512285],[40.749569,44.510348],[40.748211,44.507471],[40.748869,44.505974],[40.751133,44.504946],[40.754097,44.500573],[40.756236,44.498902],[40.758547,44.491544],[40.761379,44.490487],[40.762861,44.488231],[40.765135,44.48862],[40.767018,44.486676],[40.771619,44.487161],[40.775638,44.484713],[40.774461,44.480517],[40.775295,44.478559],[40.777647,44.477266],[40.775638,44.474573],[40.776716,44.469852],[40.775565,44.468698],[40.776429,44.4664],[40.775739,44.465024],[40.70488,44.464312],[40.63609,44.4644],[40.619524,44.465084],[40.618016,44.476347],[40.619703,44.4832],[40.66125,44.482709],[40.661762,44.498621],[40.660889,44.519172],[40.658813,44.53044],[40.663427,44.533028],[40.6681,44.538816]]]}},{"type":"Feature","id":"253256-2281","properties":{"id":"253256-2281","name":"Гиагинский район","name_ru":"Гиагинский район","subject_id":"253256","subject_name":"Адыгея","source_gid":2281,"source_fid":2391,"names_rosstat":"Гиагинский муниципальный район","population":31735,"area_km2":798.6176889160131,"density_km2":39.73741183102873,"source":"Актуализированный объединённый GeoJSON, предоставленный преподавателем","name_en":"Giaginskii District","name_zh":"Giaginskii区","subject_name_en":"Adygea","subject_name_zh":"阿迪格共和国"},"geometry":{"type":"Polygon","coordinates":[[[39.933944,44.883853],[39.957683,44.842319],[39.975723,44.847356],[39.98539,44.830456],[39.955455,44.822145],[39.950767,44.830508],[39.939073,44.82703],[39.948496,44.810462],[39.945468,44.809625],[39.948998,44.803264],[39.951923,44.804219],[39.957632,44.793603],[39.981417,44.800436],[39.990726,44.783985],[39.995268,44.785872],[40.029058,44.794016],[40.03906,44.777856],[40.024307,44.773321],[40.032494,44.760134],[40.079965,44.772799],[40.089305,44.753768],[40.101035,44.757022],[40.12548,44.714725],[40.1412,44.718754],[40.14653,44.711727],[40.19982,44.727318],[40.200707,44.732418],[40.199138,44.734458],[40.199997,44.736643],[40.197063,44.744296],[40.203712,44.744957],[40.225361,44.744706],[40.229967,44.745572],[40.253986,44.744905],[40.254449,44.733955],[40.255793,44.732424],[40.253668,44.727007],[40.255105,44.725187],[40.29991,44.726721],[40.324479,44.726227],[40.332937,44.727452],[40.333298,44.726762],[40.34144,44.72611],[40.344201,44.727221],[40.346622,44.726678],[40.345959,44.725815],[40.348124,44.724245],[40.346953,44.722377],[40.348455,44.719912],[40.348014,44.718939],[40.344434,44.717652],[40.34682,44.715658],[40.34565,44.713366],[40.343595,44.712298],[40.346732,44.711105],[40.367478,44.710948],[40.368463,44.71531],[40.367756,44.716707],[40.369419,44.717263],[40.403955,44.717506],[40.403744,44.730119],[40.405954,44.734953],[40.429828,44.735372],[40.429997,44.762462],[40.46561,44.762412],[40.442486,44.7988],[40.415109,44.825237],[40.392302,44.825588],[40.392398,44.835308],[40.402671,44.836632],[40.406157,44.840374],[40.399307,44.846038],[40.404526,44.84649],[40.4308,44.858412],[40.435689,44.861043],[40.435508,44.862325],[40.437919,44.864715],[40.437724,44.866729],[40.436117,44.8684],[40.429526,44.869281],[40.428802,44.870439],[40.429797,44.871104],[40.428216,44.871841],[40.433953,44.876336],[40.418125,44.887858],[40.417776,44.900278],[40.377166,44.903341],[40.372791,44.90531],[40.371432,44.906716],[40.361481,44.908862],[40.360715,44.90998],[40.358965,44.908729],[40.358422,44.91022],[40.356499,44.909644],[40.356101,44.912075],[40.351194,44.91419],[40.349614,44.914127],[40.349061,44.913365],[40.349916,44.909631],[40.334931,44.917104],[40.297392,44.91695],[40.295664,44.9157],[40.254134,44.91558],[40.245083,44.911296],[40.22802,44.911184],[40.228061,44.932076],[40.246314,44.940826],[40.176154,44.968341],[40.17325,44.968627],[40.172176,44.969172],[40.171116,44.972603],[40.169625,44.97297],[40.167066,44.971548],[40.158369,44.961184],[40.156371,44.957514],[40.113624,44.945147],[40.110551,44.945106],[40.082368,44.935857],[40.05636,44.981592],[40.021157,44.973533],[40.033413,44.928367],[40.004714,44.924469],[40.001816,44.926145],[40.00022,44.931873],[39.992858,44.936776],[39.941894,44.929758],[39.963479,44.892425],[39.933944,44.883853]]]}},{"type":"Feature","id":"253256-2282","properties":{"id":"253256-2282","name":"Майкопский район","name_ru":"Майкопский район","subject_id":"253256","subject_name":"Адыгея","source_gid":2282,"source_fid":2392,"names_rosstat":"Майкопский муниципальный район","population":59243,"area_km2":3682.6980750583302,"density_km2":16.08684686948214,"source":"Актуализированный объединённый GeoJSON, предоставленный преподавателем","name_en":"Maikopskii District","name_zh":"Maikopskii区","subject_name_en":"Adygea","subject_name_zh":"阿迪格共和国"},"geometry":{"type":"Polygon","coordinates":[[[40.23681,43.771835],[40.233102,43.775383],[40.228996,43.777439],[40.224492,43.777143],[40.221367,43.778701],[40.216865,43.779116],[40.217089,43.780547],[40.215802,43.782246],[40.217009,43.784688],[40.214824,43.787107],[40.214757,43.789038],[40.213857,43.789995],[40.214396,43.792245],[40.21138,43.794689],[40.210453,43.796974],[40.205936,43.800014],[40.205482,43.801507],[40.206943,43.805062],[40.206404,43.809596],[40.207963,43.814658],[40.208118,43.818782],[40.203062,43.820612],[40.203062,43.821768],[40.200466,43.823718],[40.199669,43.825314],[40.201459,43.828629],[40.199896,43.831295],[40.199654,43.835012],[40.189373,43.844313],[40.188837,43.845807],[40.190479,43.84938],[40.191212,43.854083],[40.196095,43.858157],[40.197142,43.860907],[40.194397,43.867594],[40.192148,43.868538],[40.190797,43.871364],[40.189062,43.872921],[40.183671,43.87378],[40.18024,43.872291],[40.176863,43.87252],[40.170863,43.871154],[40.168442,43.871661],[40.167561,43.869856],[40.161518,43.866917],[40.160173,43.8625],[40.158305,43.860709],[40.150901,43.857695],[40.142876,43.859342],[40.133367,43.863448],[40.119591,43.865547],[40.112671,43.868134],[40.104578,43.866872],[40.105241,43.865245],[40.10436,43.861974],[40.102053,43.8595],[40.101634,43.85665],[40.098183,43.854218],[40.097914,43.852651],[40.099295,43.850769],[40.099052,43.849502],[40.093347,43.845227],[40.087885,43.846142],[40.086201,43.8498],[40.081075,43.852022],[40.080201,43.853958],[40.075791,43.856038],[40.0713,43.862455],[40.069003,43.863514],[40.069913,43.865782],[40.068064,43.867677],[40.065526,43.867797],[40.061138,43.869811],[40.058448,43.872362],[40.055675,43.873138],[40.054474,43.874988],[40.045285,43.878568],[40.043475,43.880652],[40.035306,43.881247],[40.026908,43.87966],[40.022756,43.880949],[40.021713,43.882357],[40.015616,43.884757],[40.012425,43.884577],[40.0136,43.885937],[40.012007,43.886686],[40.011481,43.888681],[40.009246,43.890459],[40.008451,43.892941],[40.005686,43.892571],[40.005868,43.89374],[40.003418,43.895959],[40.002806,43.898787],[39.991216,43.905968],[39.991332,43.907483],[39.986979,43.908006],[39.97807,43.912624],[39.976762,43.915081],[39.974996,43.915824],[39.971282,43.919482],[39.967954,43.920746],[39.965901,43.923954],[39.958914,43.928414],[39.95814,43.929905],[39.953484,43.933295],[39.952413,43.936697],[39.950451,43.938207],[39.948707,43.942825],[39.942636,43.948078],[39.943643,43.949766],[39.943563,43.951654],[39.942133,43.956326],[39.940146,43.958062],[39.931881,43.959158],[39.928106,43.961303],[39.925483,43.964478],[39.92721,43.967999],[39.926808,43.969245],[39.922985,43.972541],[39.90892,43.973883],[39.902747,43.953737],[39.912676,43.939498],[39.888005,43.933829],[39.88377,43.935031],[39.879652,43.931249],[39.874118,43.929976],[39.870045,43.931109],[39.866976,43.930388],[39.864068,43.928283],[39.851458,43.92423],[39.8442,43.924312],[39.835773,43.927519],[39.833571,43.927364],[39.828801,43.928893],[39.824399,43.930954],[39.811369,43.932682],[39.805651,43.934979],[39.804815,43.938804],[39.798305,43.942751],[39.797515,43.945894],[39.793722,43.948482],[39.790605,43.954545],[39.788299,43.956497],[39.781574,43.959053],[39.777775,43.961767],[39.78668,43.967097],[39.816449,43.981552],[39.819122,43.983654],[39.817716,43.986252],[39.810356,43.98766],[39.797083,43.997194],[39.796646,44.001343],[39.798997,44.010375],[39.796783,44.01746],[39.801633,44.030726],[39.808609,44.043209],[39.81428,44.050867],[39.828494,44.065343],[39.830801,44.075969],[39.830392,44.082114],[39.829143,44.084684],[39.815468,44.10002],[39.807299,44.114207],[39.801187,44.122377],[39.794054,44.127228],[39.776673,44.129454],[39.774509,44.132883],[39.773994,44.136866],[39.768291,44.141178],[39.767383,44.143597],[39.761805,44.148818],[39.764403,44.15544],[39.764601,44.163457],[39.769746,44.167273],[39.773648,44.168],[39.776328,44.16977],[39.775429,44.172042],[39.769026,44.1769],[39.768375,44.184755],[39.817054,44.18042],[39.865187,44.1836],[39.877101,44.168288],[39.877065,44.165606],[39.875636,44.162969],[39.876925,44.16083],[39.880287,44.158592],[39.880534,44.1551],[39.878037,44.148147],[39.885649,44.14243],[39.887344,44.139974],[39.890408,44.131983],[39.895369,44.124941],[39.89664,44.123925],[39.912395,44.120299],[39.920879,44.117122],[39.929985,44.111407],[39.935336,44.105114],[39.950266,44.09946],[39.95675,44.101452],[39.963151,44.102303],[39.964051,44.103342],[39.963663,44.104127],[39.964774,44.104659],[39.966661,44.103367],[39.969113,44.099909],[39.969341,44.097944],[39.970683,44.097997],[39.970647,44.095362],[39.969236,44.095514],[39.967077,44.094018],[39.965197,44.091156],[39.966026,44.089509],[39.972782,44.085062],[39.976592,44.085696],[39.977597,44.083643],[39.97892,44.084441],[39.981386,44.081904],[39.979747,44.079547],[39.980203,44.079129],[39.982146,44.079304],[39.985851,44.076929],[39.989799,44.075964],[39.993302,44.076403],[40.006797,44.081813],[40.010168,44.085146],[40.013961,44.085225],[40.017852,44.087841],[40.017096,44.092799],[40.019365,44.094137],[40.017931,44.095864],[40.016932,44.09587],[40.016316,44.098],[40.017194,44.100398],[40.016127,44.106438],[40.019522,44.107865],[40.025008,44.112678],[40.030719,44.115365],[40.034076,44.120431],[40.038201,44.123452],[40.038998,44.125079],[40.044886,44.128076],[40.054673,44.13651],[40.056938,44.137556],[40.059006,44.133646],[40.061931,44.131422],[40.061416,44.130585],[40.062477,44.129151],[40.06523,44.127101],[40.066386,44.126893],[40.066983,44.127647],[40.069594,44.124803],[40.073377,44.123521],[40.074463,44.122049],[40.077585,44.122074],[40.078881,44.125416],[40.080675,44.125075],[40.0839,44.126342],[40.085543,44.126381],[40.086147,44.124553],[40.085675,44.123737],[40.087065,44.123874],[40.091204,44.126141],[40.092788,44.128114],[40.092848,44.132256],[40.088946,44.135164],[40.087476,44.134392],[40.086111,44.135748],[40.087987,44.138516],[40.087209,44.139243],[40.080729,44.138669],[40.080073,44.139008],[40.080238,44.140967],[40.078209,44.141193],[40.077388,44.14222],[40.07561,44.142323],[40.068752,44.145664],[40.070383,44.146296],[40.071041,44.148271],[40.074152,44.150638],[40.07646,44.154208],[40.076046,44.156151],[40.070549,44.160946],[40.070481,44.161684],[40.073003,44.163328],[40.073306,44.164316],[40.072411,44.168011],[40.073273,44.171141],[40.079344,44.175472],[40.08458,44.176718],[40.087559,44.178697],[40.08229,44.190081],[40.079079,44.193419],[40.080178,44.195316],[40.07962,44.196963],[40.075869,44.198481],[40.077481,44.203776],[40.075841,44.214691],[40.080352,44.221457],[40.079562,44.22944],[40.076285,44.229992],[40.079547,44.2341],[40.084007,44.236382],[40.089131,44.244413],[40.093517,44.246829],[40.077182,44.25204],[40.077554,44.254197],[40.072183,44.258289],[40.071358,44.259965],[40.068182,44.261788],[40.06524,44.26679],[40.060989,44.268669],[40.048615,44.269097],[40.045659,44.269877],[40.032105,44.267665],[40.010212,44.267078],[40.003091,44.264718],[39.999876,44.264977],[39.993956,44.263289],[39.991882,44.261297],[39.989763,44.26131],[39.977942,44.274004],[39.974057,44.275414],[39.97453,44.276598],[39.973115,44.279173],[39.974602,44.291077],[39.968459,44.293466],[39.966303,44.306452],[39.971904,44.322514],[39.977208,44.326815],[39.974286,44.334561],[39.974611,44.338574],[39.961862,44.347928],[39.959894,44.348628],[39.944473,44.347975],[39.940567,44.340774],[39.932896,44.339705],[39.932066,44.338106],[39.922257,44.337314],[39.907281,44.351023],[39.895499,44.351638],[39.878466,44.346915],[39.874037,44.341965],[39.870402,44.340634],[39.869771,44.338186],[39.862651,44.341636],[39.861469,44.343349],[39.845903,44.353173],[39.844313,44.353393],[39.847463,44.357479],[39.84901,44.357227],[39.858854,44.371486],[39.862033,44.377606],[39.879092,44.396542],[39.863059,44.407026],[39.862597,44.414315],[39.864751,44.419771],[39.86605,44.420005],[39.870627,44.431669],[39.871724,44.432111],[39.876543,44.431196],[39.879406,44.432766],[39.884823,44.555065],[39.872395,44.555554],[39.874164,44.591394],[39.883077,44.591123],[39.883723,44.58982],[39.929128,44.590294],[39.932877,44.602892],[39.930488,44.606428],[39.924037,44.610761],[39.943635,44.610525],[39.969571,44.591999],[39.980156,44.599818],[39.986016,44.606944],[39.990555,44.620673],[39.996865,44.619367],[40.001095,44.623676],[40.00317,44.624367],[40.005971,44.622735],[40.003162,44.618343],[40.008262,44.612901],[40.017606,44.607839],[40.026161,44.604686],[40.032247,44.606124],[40.039898,44.604709],[40.045913,44.597184],[40.046276,44.594544],[40.04869,44.592032],[40.048643,44.589396],[40.051672,44.586879],[40.056191,44.587423],[40.068651,44.58511],[40.073706,44.581401],[40.087141,44.582036],[40.088895,44.580409],[40.097817,44.579078],[40.10593,44.573184],[40.109921,44.56758],[40.122425,44.567897],[40.123584,44.564602],[40.132942,44.565438],[40.137335,44.563926],[40.13735,44.564949],[40.13861,44.565013],[40.139243,44.566688],[40.143597,44.564591],[40.146272,44.560137],[40.153563,44.561739],[40.153799,44.563099],[40.15943,44.563481],[40.162291,44.565021],[40.164516,44.5645],[40.168265,44.567344],[40.1515,44.577274],[40.150044,44.578929],[40.167263,44.606218],[40.156153,44.610644],[40.157957,44.611564],[40.161093,44.615636],[40.156596,44.614419],[40.146794,44.615088],[40.14071,44.614077],[40.142322,44.614955],[40.139144,44.619583],[40.138676,44.623659],[40.13742,44.623633],[40.136413,44.628646],[40.135408,44.630368],[40.133679,44.629793],[40.133059,44.630435],[40.131119,44.640392],[40.12938,44.644013],[40.12967,44.646549],[40.119088,44.657088],[40.114578,44.663044],[40.118893,44.66723],[40.128543,44.672624],[40.131629,44.681127],[40.134522,44.693991],[40.133137,44.69518],[40.133071,44.696434],[40.129343,44.696295],[40.124367,44.694747],[40.126304,44.691326],[40.126131,44.689439],[40.118662,44.686658],[40.126703,44.67443],[40.123467,44.671664],[40.106431,44.672653],[40.089116,44.656522],[40.077886,44.666823],[40.072719,44.66295],[40.050247,44.679122],[40.056013,44.682558],[40.054206,44.683563],[40.060317,44.687219],[40.051481,44.69441],[40.062085,44.70228],[40.076713,44.691987],[40.065242,44.683855],[40.07391,44.677337],[40.084267,44.684399],[40.085551,44.683364],[40.092012,44.686577],[40.089406,44.690576],[40.08578,44.693058],[40.085135,44.694297],[40.117895,44.703794],[40.113065,44.712372],[40.1412,44.718754],[40.14653,44.711727],[40.19982,44.727318],[40.200707,44.732418],[40.199138,44.734458],[40.199997,44.736643],[40.197063,44.744296],[40.203712,44.744957],[40.225361,44.744706],[40.229967,44.745572],[40.253986,44.744905],[40.254449,44.733955],[40.255793,44.732424],[40.253668,44.727007],[40.255105,44.725187],[40.29991,44.726721],[40.324479,44.726227],[40.332937,44.727452],[40.333298,44.726762],[40.34144,44.72611],[40.344201,44.727221],[40.346091,44.726961],[40.346622,44.726678],[40.345959,44.725815],[40.348345,44.723743],[40.346953,44.722377],[40.348455,44.719912],[40.348014,44.718939],[40.344434,44.717652],[40.34682,44.715658],[40.34565,44.713366],[40.343595,44.712298],[40.346732,44.711105],[40.367478,44.710948],[40.366843,44.70785],[40.36786,44.706335],[40.37256,44.705164],[40.373192,44.703962],[40.369169,44.702719],[40.366407,44.697623],[40.364507,44.697115],[40.366552,44.696176],[40.369508,44.698174],[40.37067,44.698071],[40.370186,44.695488],[40.368587,44.694558],[40.368829,44.693525],[40.368103,44.692836],[40.366064,44.693617],[40.365487,44.692388],[40.367328,44.691045],[40.366165,44.689047],[40.369798,44.687015],[40.373531,44.687755],[40.373965,44.686395],[40.376775,44.684363],[40.377114,44.682675],[40.376244,44.681011],[40.38442,44.680484],[40.381979,44.67668],[40.385506,44.676102],[40.387715,44.676956],[40.387521,44.678113],[40.388529,44.678499],[40.391087,44.675082],[40.390273,44.672711],[40.391746,44.672491],[40.392366,44.671306],[40.394885,44.671912],[40.396358,44.673401],[40.395428,44.674641],[40.394226,44.674062],[40.393381,44.675363],[40.397172,44.676019],[40.398412,44.675909],[40.398955,44.674723],[40.40185,44.673129],[40.402904,44.674166],[40.404299,44.673173],[40.404888,44.671321],[40.404361,44.670065],[40.40092,44.668697],[40.401802,44.667352],[40.39936,44.665644],[40.398863,44.660894],[40.397642,44.659698],[40.399008,44.659712],[40.39904,44.658811],[40.401407,44.659438],[40.401735,44.657468],[40.399934,44.656621],[40.401496,44.656231],[40.401672,44.654888],[40.397856,44.654789],[40.396458,44.653996],[40.395956,44.652942],[40.396864,44.651603],[40.396014,44.649538],[40.391442,44.6478],[40.386497,44.647297],[40.38771,44.643837],[40.386865,44.643121],[40.387754,44.642774],[40.385652,44.640516],[40.383302,44.639622],[40.37767,44.635344],[40.362381,44.641734],[40.35046,44.649307],[40.348572,44.648159],[40.34706,44.648332],[40.342875,44.645264],[40.34303,44.643526],[40.342139,44.64292],[40.342816,44.640537],[40.341131,44.638452],[40.340976,44.636742],[40.341867,44.635722],[40.341712,44.631971],[40.339891,44.631475],[40.339658,44.629323],[40.341557,44.624496],[40.343573,44.622151],[40.343263,44.619944],[40.344795,44.618924],[40.346191,44.619652],[40.347028,44.618416],[40.348609,44.618482],[40.348609,44.614686],[40.350501,44.614642],[40.351896,44.612987],[40.351183,44.611552],[40.352057,44.610797],[40.352035,44.609052],[40.348262,44.603342],[40.354494,44.597283],[40.341541,44.579779],[40.34036,44.572704],[40.336893,44.573485],[40.336646,44.567563],[40.341386,44.567487],[40.342765,44.563077],[40.342235,44.55796],[40.349652,44.557908],[40.349582,44.547917],[40.387266,44.548857],[40.396893,44.532526],[40.402986,44.534758],[40.407598,44.533819],[40.413257,44.535504],[40.415038,44.534995],[40.413063,44.532299],[40.410897,44.532038],[40.411114,44.529081],[40.410416,44.527727],[40.413168,44.526539],[40.415959,44.523776],[40.419641,44.523168],[40.419292,44.522008],[40.416967,44.520847],[40.416967,44.520128],[40.418323,44.519742],[40.417044,44.517641],[40.418013,44.514518],[40.419951,44.514795],[40.421385,44.513606],[40.423981,44.514585],[40.424346,44.513916],[40.423051,44.512307],[40.421152,44.513026],[40.420145,44.512528],[40.420067,44.511202],[40.41716,44.51181],[40.417703,44.50993],[40.416961,44.50902],[40.415546,44.508478],[40.414525,44.510085],[40.412221,44.508862],[40.41288,44.506125],[40.412027,44.50513],[40.40912,44.506291],[40.406833,44.50513],[40.40695,44.504052],[40.408422,44.504412],[40.409973,44.503417],[40.409856,44.502504],[40.407352,44.502511],[40.406322,44.500222],[40.40287,44.499531],[40.400928,44.496273],[40.402594,44.494753],[40.397207,44.492043],[40.398563,44.488947],[40.397827,44.487675],[40.392866,44.487647],[40.392839,44.484807],[40.390424,44.485546],[40.389758,44.484064],[40.386246,44.483862],[40.385328,44.482694],[40.384014,44.482517],[40.386072,44.481296],[40.383468,44.479314],[40.383443,44.477279],[40.384228,44.476814],[40.385714,44.478026],[40.388877,44.476522],[40.39083,44.477186],[40.39114,44.476057],[40.388815,44.474044],[40.388629,44.471632],[40.391512,44.471654],[40.392965,44.470864],[40.392536,44.469375],[40.394024,44.468513],[40.39359,44.467495],[40.395884,44.466698],[40.395264,44.465547],[40.397311,44.464662],[40.396691,44.462958],[40.40038,44.460745],[40.397063,44.459395],[40.396815,44.458532],[40.400628,44.458001],[40.399884,44.456518],[40.400969,44.455434],[40.403419,44.456209],[40.404444,44.455781],[40.402737,44.453862],[40.403357,44.452977],[40.405744,44.453287],[40.407884,44.451561],[40.407698,44.44886],[40.409343,44.446875],[40.403605,44.443813],[40.407264,44.442817],[40.405985,44.440988],[40.408628,44.441246],[40.407202,44.439652],[40.410116,44.439497],[40.410767,44.4385],[40.408993,44.437789],[40.409768,44.437258],[40.408373,44.435531],[40.410047,44.434336],[40.409559,44.433484],[40.413047,44.431131],[40.411535,44.429775],[40.414027,44.427941],[40.415566,44.424821],[40.414772,44.42303],[40.412621,44.423686],[40.411972,44.422941],[40.434918,44.421517],[40.462765,44.348229],[40.482902,44.315372],[40.472186,44.311258],[40.469929,44.309688],[40.460103,44.30841],[40.454634,44.305363],[40.453786,44.300162],[40.451546,44.295048],[40.448518,44.292013],[40.446973,44.291527],[40.443491,44.287808],[40.442341,44.285424],[40.436051,44.282668],[40.429321,44.282346],[40.42431,44.28116],[40.398791,44.268272],[40.359823,44.246747],[40.363121,44.243],[40.396194,44.191404],[40.395101,44.184447],[40.398588,44.17878],[40.398506,44.17706],[40.401152,44.174038],[40.403578,44.169154],[40.406098,44.167313],[40.405666,44.163961],[40.402912,44.161502],[40.400526,44.16137],[40.399557,44.159563],[40.40164,44.157025],[40.401301,44.155531],[40.403385,44.153619],[40.402926,44.152134],[40.40591,44.15081],[40.406462,44.149839],[40.410176,44.149636],[40.405574,44.140652],[40.405546,44.132848],[40.418441,44.127737],[40.427153,44.118049],[40.429459,44.114159],[40.432671,44.114017],[40.428623,44.110993],[40.425862,44.10633],[40.426183,44.095518],[40.42136,44.079186],[40.421243,44.074393],[40.413768,44.063817],[40.430464,44.051796],[40.431837,44.036452],[40.43901,44.030034],[40.440596,44.024659],[40.447684,44.016713],[40.450247,44.007],[40.451438,44.005559],[40.457038,44.002901],[40.456827,43.999815],[40.460376,43.995927],[40.463046,43.994379],[40.468179,43.985505],[40.469243,43.982712],[40.469078,43.978999],[40.472575,43.96948],[40.479667,43.96725],[40.480475,43.964506],[40.477349,43.963149],[40.47669,43.959051],[40.470999,43.957587],[40.46297,43.958714],[40.45526,43.957852],[40.452506,43.956359],[40.453159,43.95247],[40.450345,43.94835],[40.445457,43.946494],[40.427418,43.943086],[40.412941,43.9419],[40.409687,43.938769],[40.408318,43.934826],[40.406221,43.921883],[40.40664,43.91667],[40.403605,43.911221],[40.402915,43.90834],[40.403884,43.906273],[40.402683,43.902113],[40.403262,43.898977],[40.402758,43.894816],[40.409155,43.889824],[40.409621,43.888511],[40.414602,43.886876],[40.420424,43.882593],[40.419916,43.880442],[40.416972,43.878359],[40.417457,43.876177],[40.41561,43.872557],[40.407826,43.868788],[40.404216,43.864868],[40.403054,43.86134],[40.403929,43.856819],[40.401176,43.854573],[40.396319,43.842195],[40.39617,43.839658],[40.393422,43.831516],[40.393716,43.827757],[40.38508,43.823625],[40.380234,43.820099],[40.380379,43.810073],[40.382285,43.804254],[40.382041,43.801973],[40.378082,43.797685],[40.376518,43.793196],[40.373635,43.791238],[40.373178,43.780896],[40.371329,43.777262],[40.365667,43.773269],[40.3566,43.774178],[40.347726,43.772198],[40.343063,43.773776],[40.335768,43.774395],[40.331487,43.776521],[40.323549,43.77782],[40.321103,43.779218],[40.319573,43.781878],[40.306339,43.782482],[40.298526,43.779058],[40.297937,43.775947],[40.294491,43.770559],[40.289537,43.768506],[40.287579,43.766258],[40.28392,43.764207],[40.274475,43.760338],[40.271182,43.761753],[40.26593,43.761715],[40.261698,43.760146],[40.255725,43.761686],[40.249407,43.762116],[40.244347,43.766775],[40.241817,43.766191],[40.240413,43.766928],[40.237295,43.769777],[40.23681,43.771835]]]}}],"metadata":{"source_en":"Updated consolidated GeoJSON supplied by the instructor","source_zh":"教师提供的更新版合并GeoJSON","license_en":"Source-dataset terms were not specified; use within the author-created educational platform","license_zh":"原始数据集未注明许可条款；仅用于本作者教育平台"}}