{"type":"FeatureCollection","features":[{"type":"Feature","id":"115136-213","properties":{"id":"115136-213","name":"Койгородский район","name_ru":"Койгородский район","subject_id":"115136","subject_name":"Республика Коми","source_gid":213,"source_fid":268,"names_rosstat":"Муниципальный район Койгородский","population":7407,"area_km2":10518.805836104342,"density_km2":0.7041673851015008,"source":"Актуализированный объединённый GeoJSON, предоставленный преподавателем","name_en":"Koigorodskii District","name_zh":"Koigorodskii区","subject_name_en":"Komi Republic","subject_name_zh":"科米共和国"},"geometry":{"type":"Polygon","coordinates":[[[49.925172,60.539611],[49.929494,60.526439],[50.065861,60.513639],[50.04845,60.466554],[50.063695,60.464637],[50.058462,60.448564],[50.467636,60.412825],[50.408323,60.262774],[50.176901,60.283458],[49.991028,59.779092],[50.270358,59.747937],[50.290289,59.805919],[50.402734,59.839064],[50.474025,59.835323],[50.734864,59.870817],[50.780869,59.860047],[50.831023,59.863324],[50.872707,59.886182],[50.866568,59.900354],[50.873173,59.911696],[50.911463,59.922936],[51.047665,60.031904],[51.112404,60.040558],[51.123986,60.035088],[51.179066,60.048892],[51.390272,59.994091],[51.418478,59.937686],[51.467194,59.915573],[51.504669,59.932109],[51.551321,59.941533],[51.665251,60.027746],[51.766358,60.085865],[51.857857,60.190557],[51.973869,60.279334],[52.065457,60.308487],[52.317417,60.227461],[52.370807,60.357173],[52.333858,60.361323],[52.330348,60.374317],[52.352251,60.437479],[52.123716,60.464581],[52.152814,60.541242],[51.772377,60.580038],[51.892312,60.881543],[50.944858,60.978658],[50.877114,60.823968],[50.641357,60.848841],[50.583103,60.71326],[50.299709,60.743322],[50.31429,60.732591],[50.312214,60.727643],[50.341925,60.718125],[50.347374,60.699654],[50.358613,60.696393],[50.358712,60.686282],[50.330329,60.675111],[50.32538,60.661621],[50.017547,60.690712],[49.991035,60.614659],[49.954961,60.617286],[49.925172,60.539611]]]}},{"type":"Feature","id":"115136-818","properties":{"id":"115136-818","name":"район Печора","name_ru":"район Печора","subject_id":"115136","subject_name":"Республика Коми","source_gid":818,"source_fid":920,"names_rosstat":"Муниципальный район Печора","population":41636,"area_km2":29110.685622297933,"density_km2":1.430265179604978,"source":"Актуализированный объединённый GeoJSON, предоставленный преподавателем","name_en":"Pechora District","name_zh":"Pechora区","subject_name_en":"Komi Republic","subject_name_zh":"科米共和国"},"geometry":{"type":"Polygon","coordinates":[[[55.980367,64.345631],[55.235682,64.466889],[54.757402,64.382764],[54.559417,64.494228],[54.640298,64.813962],[54.709959,65.008184],[54.75939,65.172437],[54.781637,65.212058],[55.005622,65.356996],[56.11643,65.653847],[56.361787,65.491071],[56.839341,65.611423],[56.879016,65.588559],[56.907096,65.581688],[56.92394,65.588194],[56.920074,65.596752],[57.33836,65.528759],[57.34869,65.539582],[57.3379,65.542809],[57.333304,65.56745],[57.483767,65.609763],[57.552316,65.702416],[57.556665,65.719887],[57.644937,65.77711],[57.720263,65.807058],[57.738071,65.821147],[57.799887,65.807142],[57.86375,65.829361],[58.053871,65.794238],[58.199333,65.812996],[58.25943,65.798434],[58.294964,65.798031],[58.40611,65.820476],[58.700698,65.78665],[58.905501,65.789794],[58.950543,65.764524],[59.026482,65.776789],[59.15329,65.748668],[59.130615,65.741198],[59.160017,65.724375],[59.138787,65.714828],[59.139932,65.698836],[59.109919,65.698993],[59.10839,65.687203],[59.074683,65.67637],[59.078401,65.67056],[59.061542,65.652265],[59.028946,65.630784],[59.024346,65.619176],[59.038371,65.614886],[59.036848,65.610021],[59.007483,65.607671],[58.991949,65.59715],[58.974767,65.599059],[58.974752,65.585656],[59.004757,65.578653],[58.983249,65.566433],[58.941159,65.558022],[58.938874,65.549535],[58.951977,65.533765],[58.933109,65.529305],[58.935502,65.516797],[58.915346,65.512715],[58.919948,65.503406],[58.889115,65.500887],[58.87623,65.477366],[58.856258,65.474157],[58.862424,65.468655],[58.839403,65.458699],[58.82156,65.436574],[58.800759,65.435962],[58.77278,65.416365],[58.7737,65.409204],[58.802876,65.394646],[58.834721,65.387134],[58.839783,65.369111],[58.893717,65.343936],[58.975259,65.350673],[58.973847,65.340941],[58.985919,65.329565],[59.049445,65.319121],[59.084769,65.29871],[59.068957,65.285972],[59.122799,65.28247],[59.144855,65.267073],[59.254413,65.272655],[59.292302,65.2907],[59.310763,65.293314],[59.321778,65.287532],[59.327447,65.292618],[59.363293,65.274156],[59.406643,65.274849],[59.402961,65.266918],[59.41557,65.261488],[59.47383,65.256249],[59.499325,65.24334],[59.49868,65.231968],[59.863139,65.262035],[60.05913,65.153383],[60.221447,65.079535],[60.203559,65.076943],[60.173897,65.05166],[60.124019,65.05449],[60.100455,65.037841],[60.034962,65.029011],[60.036908,65.009899],[60.057463,64.996658],[60.04991,64.979848],[60.028878,64.975863],[60.03617,64.96018],[60.009951,64.955301],[60.004264,64.940776],[59.946883,64.944257],[59.927969,64.934904],[59.89229,64.93224],[59.880203,64.920624],[59.888641,64.902518],[59.865213,64.895313],[59.811143,64.910905],[59.764515,64.879618],[59.739131,64.876181],[59.749399,64.869135],[59.72739,64.85199],[59.736829,64.845162],[59.707385,64.837403],[59.72413,64.825948],[59.705603,64.8225],[59.675885,64.801337],[59.625113,64.803649],[59.632805,64.796463],[59.624457,64.784944],[59.645246,64.778884],[59.650593,64.768984],[59.630037,64.762903],[59.62872,64.754813],[59.640086,64.742883],[59.625835,64.724431],[59.661486,64.711317],[59.659485,64.703004],[59.671465,64.698248],[59.72439,64.692999],[59.744983,64.681397],[59.751588,64.667875],[59.735353,64.652616],[59.69369,64.657119],[59.673356,64.650808],[59.65633,64.6571],[59.621863,64.651646],[59.615421,64.645103],[59.631458,64.6379],[59.615665,64.615516],[59.515585,64.625405],[59.398327,64.653897],[59.344354,64.655018],[59.239291,64.634318],[59.112089,64.635328],[59.060344,64.609838],[58.982398,64.612759],[58.923841,64.590509],[58.890829,64.586349],[58.891484,64.575778],[58.862533,64.555524],[58.767688,64.565821],[58.743584,64.582582],[58.635901,64.578702],[58.614548,64.561039],[58.591884,64.554004],[58.602365,64.54753],[58.585465,64.539591],[58.577736,64.527367],[58.470911,64.522204],[58.278058,64.553616],[58.270293,64.545359],[58.255408,64.546774],[57.821654,64.597767],[57.811092,64.565009],[57.817206,64.546115],[57.847623,64.504825],[57.846968,64.49418],[57.832612,64.482201],[57.796338,64.477797],[57.722422,64.492523],[57.679675,64.481909],[57.618805,64.522608],[57.55833,64.506251],[57.058974,64.57775],[56.890202,64.368346],[56.857152,64.373861],[56.70508,64.208488],[56.556378,64.235401],[56.559993,64.247732],[56.484852,64.264141],[56.501211,64.297109],[56.177382,64.36237],[56.167443,64.353491],[56.007264,64.37778],[55.980367,64.345631]]]}},{"type":"Feature","id":"115136-1602","properties":{"id":"115136-1602","name":"Княжпогостский муниципальный округ","name_ru":"Княжпогостский муниципальный округ","subject_id":"115136","subject_name":"Республика Коми","source_gid":1602,"source_fid":1712,"names_rosstat":"Муниципальный округ Княжпогостский","population":14753,"area_km2":24804.430863512047,"density_km2":0.5947727678647141,"source":"Актуализированный объединённый GeoJSON, предоставленный преподавателем","name_en":"Kniazhpogostskii Municipal Okrug","name_zh":"Kniazhpogostskii市政专区","subject_name_en":"Komi Republic","subject_name_zh":"科米共和国"},"geometry":{"type":"Polygon","coordinates":[[[50.049671,62.732885],[49.818312,62.754147],[49.963017,63.061044],[50.048788,63.055848],[50.111014,63.198441],[50.611583,63.158063],[50.695652,63.316313],[50.592508,63.320801],[50.624577,63.391953],[50.467212,63.40144],[50.499358,63.475294],[50.398613,63.481007],[50.437592,63.559573],[49.969346,63.620032],[49.990334,63.673272],[49.751464,63.705611],[49.90401,63.998805],[50.653329,63.936727],[50.784557,64.202377],[50.91636,64.195581],[51.028134,64.401245],[51.274185,64.382099],[51.303976,64.456921],[51.381013,64.450219],[51.419175,64.517526],[51.957696,64.472581],[51.940967,64.464083],[51.983892,64.459751],[51.869845,64.260085],[52.132745,64.233543],[52.062004,64.092981],[52.385884,64.062411],[52.314746,63.924029],[52.624989,63.89503],[52.496747,63.613764],[52.562637,63.606308],[52.485163,63.455103],[52.585389,63.445141],[52.526156,63.32118],[52.82643,63.291342],[52.767698,63.154577],[53.011569,63.129207],[52.931618,62.965643],[53.258388,62.933412],[53.193448,62.783471],[52.540943,62.852374],[52.478136,62.688357],[52.446496,62.627961],[51.745344,62.700394],[51.722881,62.649216],[51.406701,62.681379],[51.375645,62.603332],[51.291049,62.612547],[51.208966,62.475764],[51.28922,62.467746],[51.224532,62.320161],[51.18593,62.324898],[51.133058,62.207984],[51.159532,62.205124],[51.14325,62.171713],[50.69068,62.212019],[50.706066,62.246051],[50.63209,62.254535],[50.637486,62.263336],[50.607739,62.261885],[50.627545,62.303954],[50.374164,62.325348],[50.402942,62.394011],[49.920589,62.43992],[50.049671,62.732885]]]}},{"type":"Feature","id":"115136-1604","properties":{"id":"115136-1604","name":"Сысольский район","name_ru":"Сысольский район","subject_id":"115136","subject_name":"Республика Коми","source_gid":1604,"source_fid":1714,"names_rosstat":"Муниципальный район Сысольский","population":11396,"area_km2":6167.604098945569,"density_km2":1.8477191170471354,"source":"Актуализированный объединённый GeoJSON, предоставленный преподавателем","name_en":"Sysol'skii District","name_zh":"Sysol'skii区","subject_name_en":"Komi Republic","subject_name_zh":"科米共和国"},"geometry":{"type":"Polygon","coordinates":[[[49.650657,60.710394],[49.454417,60.728237],[49.430244,60.769778],[49.419632,60.773022],[49.425052,60.781632],[49.398483,60.819476],[49.17756,61.023488],[49.009892,61.061442],[48.959356,61.105673],[49.126753,61.17223],[49.320819,61.152773],[49.441473,61.455714],[49.82624,61.42039],[49.871911,61.532223],[50.111266,61.50926],[50.095105,61.472416],[50.251034,61.458425],[50.219238,61.384527],[50.337718,61.373441],[50.321191,61.335654],[50.400777,61.32992],[50.351243,61.203778],[50.45843,61.1804],[50.464653,61.194423],[50.483311,61.192686],[50.487103,61.184252],[50.542663,61.158355],[50.536238,61.151449],[50.541368,61.14955],[50.585012,61.164707],[50.728303,61.150521],[50.720712,61.132794],[50.764242,61.127338],[50.719085,61.020335],[50.800807,61.010815],[50.822968,61.064526],[50.974468,61.046615],[50.877114,60.823968],[50.641357,60.848841],[50.583103,60.71326],[50.299709,60.743322],[50.31429,60.732591],[50.312214,60.727643],[50.341925,60.718125],[50.347374,60.699654],[50.358613,60.696393],[50.358712,60.686282],[50.330329,60.675111],[50.32538,60.661621],[50.017547,60.690712],[49.991035,60.614659],[49.73366,60.638139],[49.735976,60.645147],[49.634285,60.653582],[49.650657,60.710394]]]}},{"type":"Feature","id":"115136-1605","properties":{"id":"115136-1605","name":"муниципальный округ Вуктыл","name_ru":"муниципальный округ Вуктыл","subject_id":"115136","subject_name":"Республика Коми","source_gid":1605,"source_fid":1715,"names_rosstat":"Муниципальный округ Вуктыл","population":9896,"area_km2":22672.984097876593,"density_km2":0.4364665876040021,"source":"Актуализированный объединённый GeoJSON, предоставленный преподавателем","name_en":"Vuktyl Municipal Okrug","name_zh":"Vuktyl市政专区","subject_name_en":"Komi Republic","subject_name_zh":"科米共和国"},"geometry":{"type":"Polygon","coordinates":[[[55.808768,63.682265],[56.039696,63.646615],[56.054244,63.66361],[56.298071,63.628407],[56.247,63.562629],[56.257173,63.561146],[56.191063,63.470089],[56.258724,63.459249],[56.207442,63.38839],[56.483119,63.348107],[56.492937,63.314656],[56.482776,63.295936],[57.478808,63.139959],[57.791785,63.56354],[57.797938,63.562731],[57.850944,63.634988],[57.896752,63.679304],[57.949078,63.632998],[57.949429,63.602769],[57.986266,63.592233],[57.988014,63.578197],[58.023828,63.569288],[58.067801,63.543735],[58.109467,63.571177],[58.123126,63.604694],[58.138827,63.613137],[58.253942,63.570816],[58.353278,63.358934],[58.347741,63.346519],[58.365701,63.302373],[58.712034,63.33477],[58.833408,63.286411],[58.870841,63.290034],[58.979174,63.271973],[59.022376,63.27695],[59.066192,63.26717],[59.071075,63.217534],[59.094413,63.205459],[59.099096,63.190642],[59.131921,63.173918],[59.112739,63.153771],[59.133095,63.135468],[59.134074,63.113082],[59.225312,63.089303],[59.256881,63.104891],[59.289411,63.104993],[59.322729,63.123803],[59.309309,63.131782],[59.307997,63.145629],[59.287804,63.164708],[59.291923,63.176342],[59.287023,63.183193],[59.32032,63.196928],[59.304599,63.203292],[59.331562,63.229375],[59.33408,63.248236],[59.365877,63.251827],[59.358059,63.257037],[59.366262,63.266174],[59.339437,63.281208],[59.342785,63.293371],[59.331812,63.299938],[59.33497,63.308197],[59.32203,63.314058],[59.321766,63.321088],[59.335346,63.341409],[59.32712,63.34951],[59.365401,63.35941],[59.373906,63.369468],[59.31083,63.387493],[59.377966,63.422055],[59.405096,63.464208],[59.404394,63.479046],[59.443717,63.50197],[59.450336,63.515241],[59.437531,63.529337],[59.439594,63.536424],[59.471299,63.5528],[59.478645,63.572226],[59.478206,63.623542],[59.487851,63.627083],[59.473758,63.638907],[59.497666,63.654699],[59.503867,63.666915],[59.500314,63.687782],[59.533146,63.712847],[59.521965,63.724038],[59.533813,63.745989],[59.525568,63.769192],[59.540537,63.777135],[59.533397,63.785843],[59.53333,63.806853],[59.541601,63.820747],[59.571,63.841078],[59.58006,63.862522],[59.576776,63.873708],[59.559964,63.884864],[59.561302,63.908559],[59.593018,63.924348],[59.688065,63.94595],[59.720931,63.960818],[59.724087,63.975114],[59.753821,63.983875],[59.769151,64.000561],[59.756648,64.013925],[59.768227,64.040679],[59.811302,64.063284],[59.809797,64.075234],[59.836947,64.087144],[59.822797,64.094158],[59.824417,64.106087],[59.815258,64.113685],[59.828359,64.134407],[59.768183,64.142667],[59.744113,64.136433],[59.681714,64.147693],[59.677796,64.164328],[59.665219,64.168997],[59.663953,64.176156],[59.621019,64.196979],[59.633636,64.214421],[59.582875,64.225081],[59.582699,64.234297],[59.558743,64.243126],[59.573857,64.252405],[59.57123,64.273784],[59.577959,64.27693],[59.58462,64.30018],[59.601371,64.311549],[59.600077,64.333729],[59.625999,64.340828],[59.653528,64.37572],[59.62263,64.387376],[59.628571,64.402161],[59.616166,64.408627],[59.651362,64.434677],[59.629247,64.461526],[59.600329,64.465922],[59.590241,64.475978],[59.601522,64.488403],[59.598435,64.497467],[59.507163,64.490439],[59.464282,64.495798],[59.466195,64.505842],[59.48561,64.509437],[59.496195,64.519733],[59.527299,64.522615],[59.538832,64.534722],[59.536323,64.540316],[59.556749,64.544007],[59.552363,64.557212],[59.573207,64.576099],[59.572228,64.593267],[59.615665,64.615516],[59.515585,64.625405],[59.398327,64.653897],[59.344354,64.655018],[59.239291,64.634318],[59.112089,64.635328],[59.060344,64.609838],[58.982398,64.612759],[58.923841,64.590509],[58.890829,64.586349],[58.891484,64.575778],[58.862533,64.555524],[58.767688,64.565821],[58.743584,64.582582],[58.635901,64.578702],[58.614548,64.561039],[58.591884,64.554004],[58.602365,64.54753],[58.585465,64.539591],[58.577736,64.527367],[58.470911,64.522204],[58.278058,64.553616],[58.270293,64.545359],[58.255408,64.546774],[57.821654,64.597767],[57.811092,64.565009],[57.817206,64.546115],[57.847623,64.504825],[57.846968,64.49418],[57.832612,64.482201],[57.796338,64.477797],[57.722422,64.492523],[57.679675,64.481909],[57.618805,64.522608],[57.55833,64.506251],[57.058974,64.57775],[56.890202,64.368346],[56.857152,64.373861],[56.70508,64.208488],[56.556378,64.235401],[56.559993,64.247732],[56.484852,64.264141],[56.501211,64.297109],[56.177382,64.36237],[55.881952,63.964876],[55.960848,63.95257],[55.879729,63.849137],[55.934764,63.841411],[55.808768,63.682265]]]}},{"type":"Feature","id":"115136-1606","properties":{"id":"115136-1606","name":"район Сосногорск","name_ru":"район Сосногорск","subject_id":"115136","subject_name":"Республика Коми","source_gid":1606,"source_fid":1716,"names_rosstat":"Муниципальный район Сосногорск","population":33512,"area_km2":16593.593574836614,"density_km2":2.0195745935840765,"source":"Актуализированный объединённый GeoJSON, предоставленный преподавателем","name_en":"Sosnogorsk District","name_zh":"Sosnogorsk区","subject_name_en":"Komi Republic","subject_name_zh":"科米共和国"},"geometry":{"type":"Polygon","coordinates":[[[55.012618,62.592836],[54.627048,62.969015],[54.607142,62.981657],[54.577818,62.97013],[54.540049,62.985196],[54.57985,62.99898],[54.569539,63.005523],[54.683045,63.058357],[54.507148,63.195082],[54.547095,63.213956],[54.516278,63.228301],[54.504143,63.244252],[54.514033,63.251082],[54.362417,63.268696],[54.117041,63.393075],[54.060598,63.494703],[53.923545,63.508564],[53.936298,63.542335],[53.849708,63.56484],[53.861212,63.578199],[53.801897,63.583776],[53.85189,63.614945],[53.843093,63.615952],[53.85269,63.633774],[53.845892,63.634889],[53.850557,63.646843],[53.813237,63.65477],[53.821139,63.662121],[53.811417,63.664453],[53.744641,63.670621],[53.686963,63.694822],[53.68074,63.700074],[53.683887,63.710339],[53.577176,63.724802],[53.603883,63.762913],[53.486827,63.774222],[53.553191,63.929831],[53.374433,64.1124],[53.445306,64.125802],[53.545524,64.157111],[53.605907,64.160011],[53.744242,64.34545],[53.904666,64.332931],[54.242555,64.289794],[55.235682,64.466889],[55.980367,64.345631],[56.007264,64.37778],[56.167443,64.353491],[55.958756,64.06114],[55.881952,63.964876],[55.960848,63.95257],[55.879729,63.849137],[55.934764,63.841411],[55.808768,63.682265],[56.039696,63.646615],[56.054244,63.66361],[56.298071,63.628407],[56.247,63.562629],[56.257173,63.561146],[56.191063,63.470089],[56.258724,63.459249],[56.207442,63.38839],[56.483119,63.348107],[56.492937,63.314656],[56.482776,63.295936],[56.795754,63.244367],[56.773644,63.214846],[56.723752,63.221891],[56.684864,63.163868],[56.307028,63.22422],[56.33361,63.255426],[56.322846,63.296686],[56.166041,63.319666],[56.157711,63.312486],[56.057271,63.326803],[56.090559,63.370314],[55.787854,63.412538],[55.799318,63.404697],[55.78541,63.402124],[55.771063,63.41089],[55.749513,63.4077],[55.756552,63.411523],[55.747608,63.417793],[55.711756,63.422296],[55.581778,63.244517],[55.59705,63.243134],[55.454589,63.044215],[55.379617,63.04296],[55.281821,62.847857],[55.337538,62.856145],[55.374705,62.823454],[55.463543,62.839597],[55.523373,62.779948],[55.498897,62.772069],[55.4019,62.773728],[55.319408,62.781192],[55.259425,62.796839],[55.189383,62.674021],[55.156734,62.586032],[55.012618,62.592836]]]}},{"type":"Feature","id":"115136-1607","properties":{"id":"115136-1607","name":"Усть-Вымский район","name_ru":"Усть-Вымский район","subject_id":"115136","subject_name":"Республика Коми","source_gid":1607,"source_fid":1717,"names_rosstat":"Муниципальный район Усть-Вымский","population":23279,"area_km2":4790.441762214332,"density_km2":4.859468323697881,"source":"Актуализированный объединённый GeoJSON, предоставленный преподавателем","name_en":"Ust'-Vymskii District","name_zh":"Ust'-Vymskii区","subject_name_en":"Komi Republic","subject_name_zh":"科米共和国"},"geometry":{"type":"Polygon","coordinates":[[[49.750347,61.767354],[49.431746,61.796934],[49.361251,61.618437],[49.04031,61.64869],[49.227948,62.102039],[49.286776,62.099473],[49.304896,62.10824],[49.295588,62.116695],[49.279798,62.117846],[49.288488,62.140472],[49.374573,62.133906],[49.566573,62.622246],[49.575721,62.621394],[49.640276,62.771121],[50.049671,62.732885],[49.920589,62.43992],[50.402942,62.394011],[50.374164,62.325348],[50.627545,62.303954],[50.607739,62.261885],[50.637486,62.263336],[50.63209,62.254535],[50.706066,62.246051],[50.69068,62.212019],[50.712474,62.209904],[50.65234,62.063954],[50.539695,62.074008],[50.534624,62.061327],[50.31534,62.078874],[50.208183,62.075472],[50.191172,62.063891],[50.191974,62.055921],[50.235837,62.052066],[50.250747,62.041114],[50.247717,62.034823],[50.186154,62.043498],[50.162452,62.038357],[50.147394,62.006594],[50.050562,62.01574],[50.033702,61.977825],[49.937227,61.986274],[49.91056,61.909239],[49.808882,61.919948],[49.750347,61.767354]]]}},{"type":"Feature","id":"115136-1608","properties":{"id":"115136-1608","name":"муниципальный округ Инта","name_ru":"муниципальный округ Инта","subject_id":"115136","subject_name":"Республика Коми","source_gid":1608,"source_fid":1718,"names_rosstat":"Муниципальный округ Инта","population":20198,"area_km2":30939.553465841473,"density_km2":0.6528213156760461,"source":"Актуализированный объединённый GeoJSON, предоставленный преподавателем","name_en":"Inta Municipal Okrug","name_zh":"Inta市政专区","subject_name_en":"Komi Republic","subject_name_zh":"科米共和国"},"geometry":{"type":"Polygon","coordinates":[[[58.851144,65.792211],[58.83629,67.000428],[59.978111,67.000496],[59.966813,66.993609],[59.971817,66.97864],[59.916188,66.973178],[59.910253,66.962477],[59.928119,66.950658],[60.015954,66.96614],[60.016762,66.961007],[60.048007,66.964781],[60.109855,67.000637],[61.320977,67.000619],[61.33503,66.992889],[61.345728,66.993733],[61.337799,66.997377],[61.34511,67.001358],[61.369038,66.991737],[61.380548,66.994193],[61.374211,66.988413],[61.385293,66.972808],[61.39301,66.976518],[61.387444,66.979298],[61.45899,66.983894],[61.449337,67.000272],[61.467377,67.01106],[61.479021,67.001828],[61.514526,67.010177],[61.50181,67.000676],[61.510926,66.994599],[61.554819,67.009564],[61.601011,66.992219],[61.598023,67.002756],[61.611161,67.006497],[61.662376,66.993787],[61.7837,67.001238],[61.783556,66.990438],[61.910647,66.996971],[61.914173,66.989573],[61.935908,66.993033],[61.932742,66.987181],[61.948287,66.984002],[61.965632,66.984986],[61.961897,66.991216],[61.973405,66.995508],[61.987007,66.989629],[61.995443,66.996377],[62.017224,66.992698],[62.010405,66.984999],[62.024924,66.974543],[62.016339,66.765576],[61.892711,66.694773],[62.326937,66.575033],[62.529436,66.511833],[62.536581,66.503841],[62.532643,66.496584],[62.597394,66.489599],[62.603525,66.485643],[62.598732,66.483919],[62.652358,66.464718],[62.693409,66.455591],[62.738912,66.436518],[62.752122,66.419377],[62.881241,66.371094],[62.936241,66.3428],[62.945946,66.32724],[62.991524,66.307451],[62.992148,66.29536],[63.013149,66.285865],[63.025863,66.27027],[63.066045,66.255024],[63.067956,66.224316],[63.064291,66.208741],[63.030058,66.202599],[63.031789,66.185552],[62.997722,66.180883],[62.986638,66.172368],[62.991419,66.151487],[62.95792,66.128139],[62.973753,66.125232],[62.972626,66.115341],[62.943328,66.116773],[62.933434,66.110584],[62.95528,66.099891],[62.868316,66.063781],[62.858527,66.048791],[62.865927,66.041777],[62.851146,66.023981],[62.792307,66.000908],[62.801772,65.995059],[62.83326,65.996814],[62.904436,65.965945],[62.822601,65.942017],[62.77538,65.903169],[62.837356,65.886295],[62.84062,65.878156],[62.826238,65.868164],[62.799675,65.857698],[62.755016,65.866892],[62.747294,65.855978],[62.69978,65.858899],[62.6846,65.844809],[62.646035,65.855802],[62.613948,65.848199],[62.566383,65.85178],[62.554122,65.838281],[62.496709,65.847722],[62.483805,65.844034],[62.482627,65.833576],[62.468014,65.82277],[62.353648,65.806328],[62.308086,65.784367],[62.266518,65.782875],[62.229096,65.757906],[62.131557,65.752208],[62.066415,65.728674],[62.008935,65.721421],[61.961464,65.7052],[61.955117,65.69501],[61.858602,65.686944],[61.863674,65.675076],[61.878141,65.667982],[61.855128,65.660797],[61.821452,65.66195],[61.814891,65.652638],[61.83037,65.644097],[61.822042,65.637697],[61.78545,65.624826],[61.748573,65.621697],[61.702932,65.602738],[61.742886,65.589903],[61.736205,65.58468],[61.68843,65.574578],[61.669245,65.558472],[61.620124,65.560072],[61.595475,65.537747],[61.571082,65.528201],[61.563079,65.513536],[61.524417,65.494941],[61.493378,65.456103],[61.46257,65.444986],[61.455524,65.428191],[61.41767,65.386712],[61.347974,65.358507],[61.298457,65.327348],[61.284586,65.310261],[61.284792,65.296569],[61.29793,65.288524],[61.295144,65.277068],[61.358588,65.282884],[61.359735,65.267047],[61.351023,65.256621],[61.364979,65.250371],[61.323386,65.219914],[61.297899,65.220694],[61.281404,65.211969],[61.298304,65.204766],[61.295941,65.183228],[61.28627,65.172494],[61.27206,65.16841],[61.193366,65.176767],[61.166163,65.167684],[61.136253,65.174133],[61.091864,65.151089],[61.097518,65.138433],[61.081824,65.127035],[61.091847,65.107287],[61.083391,65.101921],[61.077514,65.082692],[60.995155,65.066361],[60.987326,65.045153],[60.957047,65.02931],[60.946262,65.013068],[60.849878,65.027732],[60.807603,65.024967],[60.794563,65.004511],[60.768256,64.991089],[60.773757,64.982517],[60.752001,64.979377],[60.765621,64.967302],[60.753212,64.960118],[60.753755,64.939347],[60.73882,64.930471],[60.717308,64.922273],[60.646167,64.925972],[60.618781,64.918553],[60.590947,64.930639],[60.594204,64.941655],[60.544697,64.960223],[60.514977,64.963025],[60.48998,64.988787],[60.435716,65.005599],[60.428405,65.023475],[60.448852,65.0377],[60.439589,65.043188],[60.443906,65.056199],[60.377065,65.072458],[60.35556,65.060169],[60.288767,65.076503],[60.221447,65.079535],[60.05913,65.153383],[59.863139,65.262035],[59.49868,65.231968],[59.499325,65.24334],[59.47383,65.256249],[59.41557,65.261488],[59.402961,65.266918],[59.406643,65.274849],[59.363293,65.274156],[59.327447,65.292618],[59.321778,65.287532],[59.310763,65.293314],[59.292302,65.2907],[59.254413,65.272655],[59.143107,65.267303],[59.122799,65.28247],[59.068957,65.285972],[59.084769,65.29871],[59.049445,65.319121],[58.985919,65.329565],[58.973847,65.340941],[58.975259,65.350673],[58.890184,65.34462],[58.839783,65.369111],[58.834721,65.387134],[58.7737,65.409204],[58.77278,65.416365],[58.800759,65.435962],[58.82156,65.436574],[58.836286,65.447744],[58.839403,65.458699],[58.862424,65.468655],[58.856258,65.474157],[58.87623,65.477366],[58.889115,65.500887],[58.919948,65.503406],[58.915346,65.512715],[58.935502,65.516797],[58.933109,65.529305],[58.951977,65.533765],[58.938874,65.549535],[58.941159,65.558022],[58.983249,65.566433],[59.004757,65.578653],[58.974752,65.585656],[58.974767,65.599059],[58.991949,65.59715],[59.007483,65.607671],[59.036848,65.610021],[59.038371,65.614886],[59.024346,65.619176],[59.028946,65.630784],[59.061542,65.652265],[59.078401,65.67056],[59.074683,65.67637],[59.10839,65.687203],[59.109919,65.698993],[59.139932,65.698836],[59.138787,65.714828],[59.160552,65.726761],[59.130615,65.741198],[59.15329,65.748668],[59.026482,65.776789],[58.950543,65.764524],[58.905501,65.789794],[58.851144,65.792211]],[[59.496429,66.838391],[59.522986,66.829296],[59.518431,66.823185],[59.589435,66.834299],[59.579458,66.841119],[59.553564,66.838352],[59.562702,66.847566],[59.533936,66.850434],[59.496429,66.838391]]]}},{"type":"Feature","id":"115136-1609","properties":{"id":"115136-1609","name":"Усть-Цилемский район","name_ru":"Усть-Цилемский район","subject_id":"115136","subject_name":"Республика Коми","source_gid":1609,"source_fid":1719,"names_rosstat":"Муниципальный район Усть-Цилемский","population":10217,"area_km2":42539.52988233103,"density_km2":0.24017660816330913,"source":"Актуализированный объединённый GeoJSON, предоставленный преподавателем","name_en":"Ust'-Tsilemskii District","name_zh":"Ust'-Tsilemskii区","subject_name_en":"Komi Republic","subject_name_zh":"科米共和国"},"geometry":{"type":"Polygon","coordinates":[[[49.052161,65.225453],[49.000889,65.997492],[49.000469,66.113571],[50.346629,66.473057],[51.544947,66.774975],[51.546364,66.784819],[51.536015,66.798627],[51.519866,66.801891],[51.516591,66.813302],[51.487647,66.822452],[51.491011,66.83066],[51.48392,66.83455],[51.508052,66.852353],[51.535846,66.857503],[51.52924,66.874286],[51.543806,66.883916],[51.510072,66.897966],[51.506909,66.912911],[51.499744,66.915906],[51.520095,66.939229],[51.611215,66.949724],[51.697632,66.920793],[51.726633,66.919044],[51.755219,66.929445],[51.777953,66.921784],[51.776901,66.937461],[51.801921,66.943686],[51.750079,66.943974],[51.749077,66.948857],[51.786984,66.960846],[51.801905,66.949122],[51.831656,66.945523],[51.823444,66.962952],[51.84658,66.971534],[51.844476,66.976724],[51.866136,66.972115],[51.838066,66.987103],[51.869666,66.996694],[51.825347,66.998807],[51.866261,67.003503],[51.889184,66.993509],[51.931363,67.006379],[51.949098,67.000529],[51.954034,67.00544],[51.929816,67.014191],[51.99629,67.024783],[52.004928,67.032734],[52.01088,67.025092],[52.059514,67.029529],[52.048897,67.036427],[52.055407,67.043089],[52.042938,67.046292],[52.052007,67.049989],[52.030564,67.049707],[52.029644,67.05719],[52.064708,67.055663],[52.072821,67.067101],[52.15223,67.101172],[53.758878,67.007585],[53.790957,66.358903],[53.152701,65.708715],[52.830216,65.351738],[52.84846,65.342624],[52.853834,65.33194],[52.813389,65.333306],[52.753791,65.320641],[52.736164,65.258448],[53.244477,64.878809],[53.122712,64.771365],[52.327732,64.66185],[51.957696,64.472581],[51.419175,64.517526],[51.381013,64.450219],[51.303976,64.456921],[51.274185,64.382099],[51.028134,64.401245],[51.062418,64.466369],[50.968261,64.475741],[50.991726,64.507715],[50.953182,64.513972],[50.995362,64.573709],[50.983347,64.578238],[50.985807,64.592051],[50.9675,64.599333],[50.969947,64.606122],[50.943764,64.611498],[50.951266,64.621172],[50.927794,64.622253],[50.923774,64.635002],[50.937154,64.637769],[50.926949,64.649501],[50.894534,64.649369],[50.894612,64.657731],[50.869755,64.657951],[50.855416,64.668273],[50.83162,64.662136],[50.775811,64.663725],[50.754771,64.672213],[50.758987,64.684228],[50.745254,64.682567],[50.730747,64.690689],[50.726106,64.705377],[50.748511,64.709617],[50.741117,64.711045],[50.735452,64.724376],[50.64777,64.736532],[50.525714,64.774428],[50.49675,64.772394],[50.498912,64.792683],[50.367924,64.817163],[50.232932,64.83088],[49.635408,65.287998],[49.052161,65.225453]]]}},{"type":"Feature","id":"115136-1610","properties":{"id":"115136-1610","name":"муниципальный округ Ухта","name_ru":"муниципальный округ Ухта","subject_id":"115136","subject_name":"Республика Коми","source_gid":1610,"source_fid":1720,"names_rosstat":"Муниципальный округ Ухта","population":92872,"area_km2":13578.570707349054,"density_km2":6.839600573699219,"source":"Актуализированный объединённый GeoJSON, предоставленный преподавателем","name_en":"Ukhta Municipal Okrug","name_zh":"Ukhta市政专区","subject_name_en":"Komi Republic","subject_name_zh":"科米共和国"},"geometry":{"type":"Polygon","coordinates":[[[55.012618,62.592836],[53.523052,62.756984],[53.518939,62.748955],[53.193448,62.783471],[53.258388,62.933412],[52.931618,62.965643],[53.011569,63.129207],[52.767698,63.154577],[52.82643,63.291342],[52.526156,63.32118],[52.585389,63.445141],[52.485163,63.455103],[52.562637,63.606308],[52.496747,63.613764],[52.624989,63.89503],[52.314746,63.924029],[52.385884,64.062411],[52.062004,64.092981],[52.132745,64.233543],[51.869845,64.260085],[51.983892,64.459751],[53.120944,64.333832],[53.18381,64.34521],[53.573152,64.354775],[53.67239,64.338967],[53.682118,64.350465],[53.744242,64.34545],[53.605907,64.160011],[53.545524,64.157111],[53.445306,64.125802],[53.374433,64.1124],[53.553191,63.929831],[53.486827,63.774222],[53.603883,63.762913],[53.577176,63.724802],[53.683887,63.710339],[53.68074,63.700074],[53.686963,63.694822],[53.744641,63.670621],[53.811417,63.664453],[53.821139,63.662121],[53.813237,63.65477],[53.850557,63.646843],[53.845892,63.634889],[53.85269,63.633774],[53.843093,63.615952],[53.85189,63.614945],[53.801897,63.583776],[53.861212,63.578199],[53.849708,63.56484],[53.936298,63.542335],[53.923545,63.508564],[54.060598,63.494703],[54.117041,63.393075],[54.362417,63.268696],[54.514033,63.251082],[54.504143,63.244252],[54.516278,63.228301],[54.547095,63.213956],[54.507148,63.195082],[54.683045,63.058357],[54.569539,63.005523],[54.57985,62.99898],[54.540049,62.985196],[54.577818,62.97013],[54.607142,62.981657],[54.627048,62.969015],[55.012618,62.592836]]]}},{"type":"Feature","id":"115136-1611","properties":{"id":"115136-1611","name":"Прилузский район","name_ru":"Прилузский район","subject_id":"115136","subject_name":"Республика Коми","source_gid":1611,"source_fid":1721,"names_rosstat":"Муниципальный район Прилузский","population":16768,"area_km2":13253.512330293974,"density_km2":1.2651740596847563,"source":"Актуализированный объединённый GeoJSON, предоставленный преподавателем","name_en":"Priluzskii District","name_zh":"Priluzskii区","subject_name_en":"Komi Republic","subject_name_zh":"科米共和国"},"geometry":{"type":"Polygon","coordinates":[[[49.728482,59.198289],[49.521869,59.216969],[49.531788,59.234912],[49.504614,59.247567],[49.525183,59.260177],[49.530687,59.272065],[49.571821,59.393145],[49.344454,59.409332],[49.36179,59.458752],[49.350446,59.459322],[49.35172,59.465125],[49.216094,59.47503],[49.22026,59.489612],[49.196698,59.488283],[49.151193,59.507078],[49.117862,59.499706],[49.096541,59.481431],[49.039664,59.482398],[49.101547,59.661699],[48.84728,59.679033],[48.807418,59.702446],[48.801186,59.686542],[48.523224,59.706844],[48.51212,59.778201],[48.499928,60.021452],[48.483754,60.030736],[48.48129,60.0938],[48.472056,60.13227],[48.492226,60.195156],[48.77375,60.317715],[48.785089,60.352692],[48.680117,60.400813],[48.676327,60.390446],[48.530512,60.400429],[48.562553,60.420854],[48.605496,60.415556],[48.632908,60.423506],[48.566645,60.440491],[48.555107,60.458759],[48.496136,60.472218],[48.513762,60.478949],[48.507672,60.483435],[48.520811,60.503947],[48.496803,60.517251],[48.560666,60.551513],[48.419677,60.837206],[48.448547,60.95772],[48.474967,61.02214],[48.930736,61.138642],[49.009892,61.061442],[49.17756,61.023488],[49.398483,60.819476],[49.425052,60.781632],[49.419632,60.773022],[49.430244,60.769778],[49.454417,60.728237],[49.650657,60.710394],[49.634285,60.653582],[49.954961,60.617286],[49.925172,60.539611],[49.929494,60.526439],[50.065861,60.513639],[50.04845,60.466554],[50.063695,60.464637],[50.058462,60.448564],[50.467636,60.412825],[50.408323,60.262774],[50.176901,60.283458],[49.981684,59.752037],[49.974224,59.751006],[49.985762,59.723025],[50.084932,59.680315],[50.066664,59.670379],[50.016551,59.674443],[49.978286,59.658352],[49.859414,59.655265],[49.798428,59.48507],[49.872191,59.478513],[49.831454,59.363961],[49.868893,59.360469],[49.8174,59.210535],[49.804182,59.21178],[49.796922,59.221588],[49.794826,59.215071],[49.768789,59.220993],[49.728482,59.198289]],[[48.598303,60.024397],[48.613815,60.014325],[48.62699,60.019151],[48.620745,60.023859],[48.598303,60.024397]]]}},{"type":"Feature","id":"115136-1612","properties":{"id":"115136-1612","name":"Сыктывдинский район","name_ru":"Сыктывдинский район","subject_id":"115136","subject_name":"Республика Коми","source_gid":1612,"source_fid":1722,"names_rosstat":"Муниципальный район Сыктывдинский","population":21462,"area_km2":7517.956156089123,"density_km2":2.854765251938452,"source":"Актуализированный объединённый GeoJSON, предоставленный преподавателем","name_en":"Syktyvdinskii District","name_zh":"Syktyvdinskii区","subject_name_en":"Komi Republic","subject_name_zh":"科米共和国"},"geometry":{"type":"Polygon","coordinates":[[[49.82624,61.42039],[49.441473,61.455714],[49.502104,61.605036],[49.361251,61.618437],[49.431746,61.796934],[49.750347,61.767354],[49.808882,61.919948],[49.91056,61.909239],[49.937227,61.986274],[50.033702,61.977825],[50.050562,62.01574],[50.147394,62.006594],[50.162452,62.038357],[50.186154,62.043498],[50.247717,62.034823],[50.250747,62.041114],[50.235837,62.052066],[50.191974,62.055921],[50.191172,62.063891],[50.208183,62.075472],[50.31534,62.078874],[50.534624,62.061327],[50.539695,62.074008],[50.65234,62.063954],[50.712474,62.209904],[51.14325,62.171713],[51.023169,61.89842],[51.300937,61.871537],[51.281021,61.825463],[51.231465,61.788447],[51.235366,61.778433],[51.222636,61.770034],[51.228664,61.76146],[51.166683,61.743779],[51.166751,61.735777],[51.071516,61.729003],[51.039528,61.733112],[51.035141,61.740073],[50.948893,61.763097],[50.964933,61.797287],[50.840111,61.810944],[50.814449,61.827232],[50.78256,61.835822],[50.746574,61.833608],[50.741406,61.848867],[50.706968,61.850227],[50.690998,61.843172],[50.673461,61.861527],[50.681801,61.879698],[50.601963,61.8876],[50.548457,61.87395],[50.467436,61.881991],[50.442169,61.812047],[50.520078,61.805215],[50.50281,61.772682],[50.541034,61.761024],[50.533239,61.746742],[50.577079,61.741425],[50.57184,61.723422],[50.650035,61.716196],[50.636529,61.692169],[50.676917,61.684677],[50.668705,61.671326],[50.679525,61.6631],[50.677429,61.65757],[50.71655,61.656563],[50.714446,61.644917],[50.720315,61.642879],[50.802689,61.636766],[50.830447,61.629838],[50.820113,61.625725],[50.842472,61.623128],[50.843042,61.61609],[50.865814,61.616703],[50.877068,61.599808],[50.848152,61.532283],[50.909564,61.525572],[50.922138,61.549686],[50.897386,61.553376],[50.898288,61.567238],[50.88169,61.575854],[50.92411,61.585933],[50.959325,61.582104],[50.969398,61.600573],[51.047363,61.592638],[51.012532,61.514285],[51.093215,61.505823],[51.059467,61.427278],[51.38384,61.39593],[51.35186,61.325199],[51.500757,61.30919],[51.402394,61.080704],[51.565335,61.063622],[51.502571,60.921586],[50.944858,60.978658],[50.974468,61.046615],[50.822968,61.064526],[50.800807,61.010815],[50.719085,61.020335],[50.764242,61.127338],[50.720712,61.132794],[50.728303,61.150521],[50.585012,61.164707],[50.541368,61.14955],[50.536238,61.151449],[50.542663,61.158355],[50.487103,61.184252],[50.483311,61.192686],[50.464653,61.194423],[50.45843,61.1804],[50.351243,61.203778],[50.400777,61.32992],[50.321191,61.335654],[50.337718,61.373441],[50.219238,61.384527],[50.251034,61.458425],[50.095105,61.472416],[50.111266,61.50926],[49.871911,61.532223],[49.82624,61.42039]]]}},{"type":"Feature","id":"115136-1613","properties":{"id":"115136-1613","name":"Ижемский район","name_ru":"Ижемский район","subject_id":"115136","subject_name":"Республика Коми","source_gid":1613,"source_fid":1723,"names_rosstat":"Муниципальный район Ижемский","population":16012,"area_km2":18533.260711974417,"density_km2":0.8639602198902097,"source":"Актуализированный объединённый GeoJSON, предоставленный преподавателем","name_en":"Izhemskii District","name_zh":"Izhemskii区","subject_name_en":"Komi Republic","subject_name_zh":"科米共和国"},"geometry":{"type":"Polygon","coordinates":[[[55.532223,65.817876],[55.4929,65.798823],[55.442475,65.798519],[55.363942,65.77745],[55.292899,65.547452],[54.781637,65.212058],[54.75939,65.172437],[54.709959,65.008184],[54.640298,64.813962],[54.559417,64.494228],[54.757402,64.382764],[54.242555,64.289794],[53.904666,64.332931],[53.682118,64.350465],[53.67239,64.338967],[53.573152,64.354775],[53.18381,64.34521],[53.120944,64.333832],[51.940967,64.464083],[52.327732,64.66185],[53.122712,64.771365],[53.244477,64.878809],[52.736164,65.258448],[52.753791,65.320641],[52.813389,65.333306],[52.853834,65.33194],[52.84846,65.342624],[52.830216,65.351738],[53.152701,65.708715],[53.790957,66.358903],[54.245727,66.186049],[55.061979,65.853482],[55.505334,65.85297],[55.528896,65.83416],[55.524211,65.823277],[55.532223,65.817876]]]}},{"type":"Feature","id":"115136-1614","properties":{"id":"115136-1614","name":"Удорский район","name_ru":"Удорский район","subject_id":"115136","subject_name":"Республика Коми","source_gid":1614,"source_fid":1724,"names_rosstat":"Муниципальный район Удорский","population":11912,"area_km2":36039.90390348171,"density_km2":0.3305225239196383,"source":"Актуализированный объединённый GeoJSON, предоставленный преподавателем","name_en":"Udorskii District","name_zh":"Udorskii区","subject_name_en":"Komi Republic","subject_name_zh":"科米共和国"},"geometry":{"type":"Polygon","coordinates":[[[49.818312,62.754147],[48.741332,62.8517],[48.681413,62.702136],[48.352231,62.733736],[48.253994,62.50747],[48.298019,62.476922],[48.322901,62.307153],[47.659359,62.328386],[47.642617,62.175714],[47.389083,62.18141],[47.402889,62.334427],[47.231909,62.337187],[47.245359,62.638732],[47.085075,62.809017],[47.060895,62.826287],[47.44274,62.964975],[47.409062,62.964802],[47.530814,63.049948],[47.54238,63.115058],[47.559824,63.113331],[47.567357,63.144878],[47.39005,63.156332],[47.16017,63.245445],[47.051019,63.253906],[47.032018,63.292419],[46.942724,63.34941],[46.945829,63.403812],[46.939262,63.453552],[47.011967,63.517972],[47.017316,63.577728],[46.991237,63.588608],[46.999526,63.599661],[46.809881,63.756648],[46.499691,63.864584],[46.408327,63.889107],[46.199539,63.925025],[46.151162,63.94385],[45.943394,63.956627],[45.594518,64.056964],[45.39935,64.174919],[45.714043,64.257442],[45.852006,64.278031],[46.321081,64.247987],[46.350094,64.263531],[46.392926,64.266813],[46.399144,64.260423],[46.630221,64.316902],[47.344535,64.35439],[48.16144,64.345249],[48.156606,64.331605],[48.165764,64.276167],[48.18875,64.230636],[48.464726,64.204326],[48.52447,64.355617],[48.893116,64.329284],[48.898902,64.333343],[48.885516,64.342669],[48.961064,64.477553],[49.483163,64.425059],[49.552407,64.575832],[49.905423,64.547513],[49.912503,64.557875],[50.360683,64.510388],[50.443223,64.690694],[50.494273,64.78464],[50.497022,64.772322],[50.525714,64.774428],[50.64777,64.736532],[50.735452,64.724376],[50.741117,64.711045],[50.748511,64.709617],[50.726106,64.705377],[50.730747,64.690689],[50.745254,64.682567],[50.758987,64.684228],[50.754771,64.672213],[50.775811,64.663725],[50.83162,64.662136],[50.855416,64.668273],[50.869755,64.657951],[50.894612,64.657731],[50.894534,64.649369],[50.906295,64.65361],[50.93026,64.647141],[50.937154,64.637769],[50.923774,64.635002],[50.927794,64.622253],[50.951266,64.621172],[50.943764,64.611498],[50.969947,64.606122],[50.9675,64.599333],[50.985807,64.592051],[50.983347,64.578238],[50.995362,64.573709],[50.953182,64.513972],[50.991726,64.507715],[50.968261,64.475741],[51.062418,64.466369],[50.91636,64.195581],[50.784557,64.202377],[50.653329,63.936727],[49.90401,63.998805],[49.751464,63.705611],[49.990334,63.673272],[49.969346,63.620032],[50.437592,63.559573],[50.398613,63.481007],[50.499358,63.475294],[50.467212,63.40144],[50.624577,63.391953],[50.592508,63.320801],[50.695652,63.316313],[50.611583,63.158063],[50.111014,63.198441],[50.048788,63.055848],[49.963017,63.061044],[49.818312,62.754147]]]}},{"type":"Feature","id":"115136-1615","properties":{"id":"115136-1615","name":"муниципальный округ Воркута","name_ru":"муниципальный округ Воркута","subject_id":"115136","subject_name":"Республика Коми","source_gid":1615,"source_fid":1725,"names_rosstat":"Муниципальный округ Воркута","population":66860,"area_km2":21901.96514361308,"density_km2":3.05269411039572,"source":"Актуализированный объединённый GeoJSON, предоставленный преподавателем","name_en":"Vorkuta Municipal Okrug","name_zh":"Vorkuta市政专区","subject_name_en":"Komi Republic","subject_name_zh":"科米共和国"},"geometry":{"type":"Polygon","coordinates":[[[64.53158,66.71483],[64.458896,66.71398],[64.441215,66.72095],[64.395068,66.72215],[64.337775,66.699157],[64.33264,66.691181],[64.338364,66.684537],[64.316376,66.675752],[64.325124,66.667262],[64.266613,66.659059],[64.263616,66.645543],[64.189491,66.652432],[64.158192,66.641769],[64.126543,66.647845],[64.038427,66.634758],[63.985081,66.637837],[63.935018,66.595537],[63.903159,66.589339],[63.884043,66.577639],[63.853769,66.577704],[63.840357,66.547989],[63.818982,66.544996],[63.804552,66.532505],[63.767974,66.533668],[63.7477,66.524034],[63.685402,66.515906],[63.630876,66.519558],[63.626707,66.510935],[63.585738,66.498387],[63.554035,66.474148],[63.532868,66.471077],[63.510363,66.457538],[63.419527,66.466994],[63.404916,66.457324],[63.415112,66.447935],[63.382189,66.443279],[63.363217,66.425653],[63.323822,66.417351],[63.329908,66.407653],[63.308494,66.391886],[63.306105,66.381457],[63.31217,66.378134],[63.29842,66.367012],[63.302604,66.358524],[63.28396,66.350307],[63.291295,66.338066],[63.229665,66.330948],[63.243029,66.315291],[63.236948,66.295738],[63.257772,66.288943],[63.270776,66.265564],[63.311965,66.247792],[63.278412,66.219457],[63.249158,66.222082],[63.224358,66.236735],[63.201038,66.233903],[63.138085,66.256855],[63.107787,66.247136],[63.089207,66.220227],[63.064291,66.208741],[63.068011,66.252891],[63.025863,66.27027],[63.013149,66.285865],[62.992148,66.29536],[62.991524,66.307451],[62.945946,66.32724],[62.936241,66.3428],[62.881241,66.371094],[62.752122,66.419377],[62.733318,66.43909],[62.598732,66.483919],[62.603525,66.485643],[62.597394,66.489599],[62.532643,66.496584],[62.536581,66.503841],[62.529436,66.511833],[62.326937,66.575033],[61.892711,66.694773],[62.016339,66.765576],[62.024924,66.974543],[62.010405,66.984999],[62.017224,66.992698],[61.995443,66.996377],[61.987007,66.989629],[61.973405,66.995508],[61.961897,66.991216],[61.965632,66.984986],[61.948287,66.984002],[61.932742,66.987181],[61.935908,66.993033],[61.914173,66.989573],[61.910647,66.996971],[61.783556,66.990438],[61.7837,67.001238],[61.662376,66.993787],[61.65036,66.995284],[61.654211,66.998693],[61.642061,66.997039],[61.62206,67.002928],[61.646091,67.00337],[61.638947,67.019144],[61.681022,67.014261],[61.685427,67.015502],[61.678633,67.021105],[61.71605,67.030566],[61.707111,67.055352],[61.726775,67.060268],[61.744928,67.075485],[61.719605,67.080601],[61.742924,67.083934],[61.731061,67.094224],[61.738617,67.102118],[61.758957,67.093444],[61.780596,67.096849],[61.776886,67.100717],[61.784875,67.110094],[61.809088,67.106923],[61.809406,67.114451],[61.849631,67.12011],[61.846651,67.126153],[62.150142,67.19611],[62.753512,67.350323],[62.865602,67.37002],[62.849778,67.38278],[62.882866,67.388085],[62.87681,67.404995],[62.896379,67.399558],[62.914845,67.412399],[62.905158,67.419702],[62.908694,67.430348],[62.900929,67.436998],[62.917302,67.448067],[62.90704,67.449874],[62.908896,67.460832],[62.894268,67.464324],[62.884241,67.481697],[62.853993,67.489527],[62.857059,67.500573],[62.835363,67.505511],[62.844926,67.509352],[62.837773,67.516904],[62.845351,67.52249],[62.898047,67.522424],[62.909417,67.530244],[62.905809,67.537525],[62.926757,67.540431],[62.926897,67.551313],[62.91838,67.554404],[62.914213,67.567499],[62.93085,67.586533],[62.914607,67.60025],[62.925413,67.594727],[62.935194,67.593808],[62.937078,67.60064],[62.944421,67.594621],[62.953398,67.594991],[62.943617,67.597642],[62.944337,67.604839],[62.967045,67.608214],[62.972503,67.615265],[63.058558,67.625771],[63.066646,67.6296],[63.061348,67.635589],[63.085789,67.629155],[63.094144,67.630974],[63.077215,67.635907],[63.117138,67.648728],[63.107575,67.651729],[63.122022,67.651278],[63.116488,67.663085],[63.144725,67.670943],[63.136659,67.677026],[63.150212,67.684372],[63.146122,67.69023],[63.153326,67.694415],[63.228197,67.699059],[63.231452,67.710063],[63.266295,67.71524],[63.307946,67.714335],[63.316959,67.722793],[63.301373,67.732892],[63.330444,67.739369],[63.32481,67.741368],[63.33421,67.752481],[63.384428,67.753289],[63.428918,67.769546],[63.491743,67.75571],[63.495105,67.742578],[63.551289,67.733134],[63.560206,67.742465],[63.612064,67.731989],[63.676919,67.73869],[63.698271,67.73256],[63.704028,67.738479],[63.721018,67.736712],[63.744245,67.721429],[63.758026,67.724401],[63.753923,67.74032],[63.770795,67.740557],[63.773911,67.746686],[63.749406,67.745063],[63.759161,67.748618],[63.731083,67.753459],[63.691442,67.774719],[63.702024,67.777301],[63.699972,67.783411],[63.712566,67.793323],[63.701701,67.794464],[63.717393,67.797395],[63.706185,67.806255],[63.747815,67.815794],[63.763365,67.800209],[63.775724,67.808056],[63.764019,67.811449],[63.768419,67.816332],[63.798547,67.829297],[63.813445,67.821332],[63.868333,67.82666],[63.91069,67.846187],[63.924583,67.84599],[63.92596,67.85071],[63.911736,67.854679],[63.931751,67.868422],[63.92683,67.873141],[63.94919,67.872939],[63.956587,67.88387],[63.950828,67.889654],[63.996795,67.89269],[63.99778,67.901403],[63.930816,67.920959],[63.922806,67.931234],[63.949833,67.945189],[63.927924,67.952404],[63.940434,67.963181],[63.9119,67.975375],[63.911887,67.986116],[63.896983,67.99306],[63.910899,67.998044],[63.894975,68.000676],[63.878727,68.031238],[63.867711,68.03291],[63.964233,68.044161],[63.953831,68.047552],[63.976195,68.048742],[63.98512,68.057271],[64.03272,68.056696],[64.046941,68.067921],[64.093691,68.075381],[64.076597,68.080182],[64.079951,68.08643],[64.11096,68.082784],[64.082628,68.091964],[64.160343,68.092786],[64.178143,68.1007],[64.16814,68.109839],[64.198591,68.104551],[64.216921,68.113787],[64.257463,68.110453],[64.27082,68.119785],[64.307626,68.113217],[64.323043,68.12337],[64.340775,68.123532],[64.339245,68.131008],[64.367725,68.127566],[64.375139,68.136289],[64.37237,68.145857],[64.397421,68.160367],[64.351486,68.161868],[64.372902,68.16372],[64.374844,68.176728],[64.404,68.178686],[64.45121,68.200579],[64.497978,68.199969],[64.50669,68.187837],[64.549616,68.197305],[64.57754,68.195278],[64.582783,68.202131],[64.560126,68.208594],[64.57568,68.211914],[64.568203,68.235267],[64.576646,68.246825],[64.56208,68.254029],[64.580134,68.264422],[64.564689,68.269779],[64.566971,68.27622],[64.546351,68.274081],[64.527815,68.281457],[64.529039,68.301762],[64.540104,68.307589],[64.528203,68.325795],[64.556587,68.331903],[64.542035,68.337499],[64.548951,68.341796],[64.583587,68.343125],[64.577997,68.352258],[64.58474,68.356818],[64.655778,68.368539],[64.662365,68.384575],[64.691125,68.395494],[64.74844,68.386739],[64.77723,68.393805],[64.779304,68.402969],[64.823283,68.409277],[64.848751,68.398792],[64.875569,68.404743],[64.875321,68.391483],[64.884505,68.389407],[64.949662,68.40451],[65.029558,68.380541],[65.04354,68.388087],[65.061522,68.387001],[65.055715,68.401974],[65.11511,68.415053],[65.147027,68.405401],[65.169852,68.407664],[65.164593,68.403134],[65.222864,68.401943],[65.247195,68.394794],[65.259532,68.404327],[65.280922,68.406671],[65.300372,68.394449],[65.333504,68.398754],[65.355796,68.413745],[65.377321,68.408671],[65.379473,68.418434],[65.392541,68.421509],[65.473816,68.418383],[65.471317,68.409549],[65.434931,68.392136],[65.428236,68.378696],[65.441109,68.371163],[65.439384,68.366159],[65.411423,68.361759],[65.405622,68.33647],[65.363692,68.304032],[65.368203,68.297594],[65.358376,68.276083],[65.335636,68.271308],[65.327955,68.277528],[65.297229,68.252275],[65.302982,68.244302],[65.274676,68.234566],[65.284441,68.228104],[65.277985,68.22318],[65.283358,68.218144],[65.277407,68.2079],[65.280852,68.197882],[65.313269,68.191504],[65.296434,68.184998],[65.316253,68.184235],[65.288958,68.153982],[65.303943,68.152425],[65.300276,68.146949],[65.323174,68.119358],[65.320964,68.110753],[65.352871,68.109193],[65.334939,68.103752],[65.351891,68.098485],[65.336759,68.08832],[65.347949,68.078513],[65.336186,68.072272],[65.34884,68.062143],[65.331144,68.053331],[65.325435,68.041402],[65.331318,68.036204],[65.328858,68.02569],[65.319447,68.013158],[65.330936,68.006606],[65.327685,67.995796],[65.338881,67.99189],[65.337714,67.984717],[65.355359,67.978994],[65.342685,67.971156],[65.35577,67.962407],[65.352029,67.956015],[65.381451,67.946022],[65.378418,67.938796],[65.385561,67.928762],[65.431781,67.909761],[65.453839,67.913311],[65.45414,67.919402],[65.550222,67.932918],[65.692934,67.928811],[65.748496,67.918067],[65.866145,67.956043],[65.909949,67.961606],[66.020693,67.932718],[66.07661,67.938814],[66.133509,67.914682],[66.119239,67.902136],[66.124597,67.893257],[66.119031,67.88728],[66.057176,67.879331],[66.046565,67.865365],[66.080581,67.849508],[66.074298,67.831083],[66.021725,67.809505],[66.065043,67.798447],[66.054098,67.784123],[66.063023,67.781019],[66.14297,67.778795],[66.188346,67.757595],[66.236363,67.748457],[66.251686,67.733913],[66.224767,67.718531],[66.220695,67.684884],[66.161257,67.649424],[66.117604,67.647701],[66.047728,67.673837],[65.991271,67.677303],[65.977154,67.673293],[65.97241,67.666612],[65.976867,67.660449],[65.960725,67.653882],[65.904437,67.666742],[65.852,67.668486],[65.78579,67.642054],[65.813709,67.626718],[65.815977,67.616506],[65.836791,67.601611],[65.787276,67.574144],[65.822687,67.538601],[65.876801,67.542269],[65.893079,67.552989],[65.971078,67.560416],[66.042141,67.58007],[66.055761,67.576352],[66.060745,67.540621],[66.091752,67.514165],[66.093311,67.495058],[66.011854,67.410304],[65.992447,67.403085],[65.891805,67.40256],[65.828435,67.387105],[65.795274,67.391766],[65.698554,67.380796],[65.689655,67.370656],[65.692722,67.364241],[65.746952,67.345361],[65.746773,67.333938],[65.665897,67.32427],[65.669706,67.314294],[65.664395,67.310003],[65.672048,67.304893],[65.662009,67.294487],[65.619662,67.303601],[65.601854,67.299745],[65.586559,67.283509],[65.570202,67.279413],[65.572052,67.266657],[65.556663,67.256931],[65.512548,67.250877],[65.427562,67.209456],[65.405533,67.219455],[65.36408,67.215417],[65.319701,67.203618],[65.306259,67.187331],[65.26325,67.171558],[65.261287,67.162639],[65.223308,67.161529],[65.207172,67.152309],[65.181366,67.150023],[65.18091,67.142545],[65.216429,67.131246],[65.205183,67.110883],[65.244671,67.092926],[65.205406,67.067292],[65.127977,67.061901],[65.081782,67.039776],[65.11319,67.002925],[65.117673,66.960843],[65.140761,66.956678],[65.133321,66.948821],[65.145955,66.935037],[65.139159,66.907727],[65.060016,66.88697],[65.040455,66.872459],[65.016568,66.872455],[64.979456,66.860543],[64.939573,66.863404],[64.922921,66.850217],[64.877128,66.834849],[64.8333,66.828811],[64.812359,66.831226],[64.811935,66.837642],[64.78227,66.835751],[64.755591,66.82483],[64.708453,66.831029],[64.701001,66.822561],[64.713863,66.809706],[64.677713,66.801214],[64.630697,66.808178],[64.628473,66.801239],[64.611988,66.797124],[64.559188,66.799337],[64.553023,66.796298],[64.553114,66.765478],[64.50608,66.75086],[64.507607,66.740316],[64.544723,66.728846],[64.543837,66.723013],[64.53158,66.71483]]]}},{"type":"Feature","id":"115136-1616","properties":{"id":"115136-1616","name":"Усть-Куломский район","name_ru":"Усть-Куломский район","subject_id":"115136","subject_name":"Республика Коми","source_gid":1616,"source_fid":1726,"names_rosstat":"Муниципальный район Усть-Куломский","population":21419,"area_km2":26371.41338806418,"density_km2":0.8122052346915292,"source":"Актуализированный объединённый GeoJSON, предоставленный преподавателем","name_en":"Ust'-Kulomskii District","name_zh":"Ust'-Kulomskii区","subject_name_en":"Komi Republic","subject_name_zh":"科米共和国"},"geometry":{"type":"Polygon","coordinates":[[[53.523052,62.756984],[55.02976,62.590364],[55.130452,62.585764],[55.132357,62.572569],[55.498904,62.549301],[55.247597,62.254329],[55.538603,62.074334],[55.550596,62.053056],[55.438102,61.970464],[55.542035,61.877678],[55.654447,61.90323],[55.728059,61.935716],[56.325383,61.683841],[56.18464,61.418845],[56.316901,61.315364],[56.311972,61.301255],[56.326083,61.291241],[56.274501,61.191858],[55.813087,61.246778],[55.731499,61.095603],[55.275878,61.148713],[55.199961,60.991563],[55.05005,61.009161],[54.976851,60.859908],[53.875831,60.982651],[53.813824,60.831604],[53.663977,60.84712],[53.355153,60.882661],[53.413588,61.033485],[52.720381,61.105122],[52.815098,61.330894],[52.738661,61.338114],[52.766984,61.413556],[52.542645,61.436454],[52.605076,61.587455],[52.987612,61.550538],[53.053409,61.697466],[52.976514,61.70419],[53.004048,61.768974],[52.985524,61.76348],[52.963612,61.778618],[52.97075,61.81004],[53.003816,61.804227],[53.015284,61.793861],[53.029117,61.824211],[53.004561,61.829357],[52.960962,61.823975],[53.016201,61.840333],[53.00499,61.84293],[52.999305,61.858147],[52.949839,61.872673],[52.924377,61.867413],[52.932696,61.884206],[52.895412,61.884101],[52.885607,61.896717],[52.913761,61.8952],[52.945042,61.910573],[53.089109,61.869464],[53.119191,61.929541],[53.235403,61.917181],[53.253962,61.955397],[53.334996,61.947228],[53.351724,61.984613],[53.392961,61.98061],[53.42938,62.055092],[53.464498,62.051784],[53.500137,62.126874],[53.418354,62.134779],[53.450985,62.210185],[53.534377,62.202368],[53.568586,62.276759],[53.486182,62.284754],[53.552115,62.437168],[53.469969,62.445615],[53.5397,62.59614],[53.445904,62.605193],[53.523052,62.756984]]]}},{"type":"Feature","id":"115136-1618","properties":{"id":"115136-1618","name":"муниципальный округ Усинск","name_ru":"муниципальный округ Усинск","subject_id":"115136","subject_name":"Республика Коми","source_gid":1618,"source_fid":1728,"names_rosstat":"Муниципальный округ Усинск","population":35749,"area_km2":30963.965644971417,"density_km2":1.1545355788691,"source":"Актуализированный объединённый GeoJSON, предоставленный преподавателем","name_en":"Usinsk Municipal Okrug","name_zh":"Usinsk市政专区","subject_name_en":"Komi Republic","subject_name_zh":"科米共和国"},"geometry":{"type":"Polygon","coordinates":[[[55.005622,65.356996],[55.292899,65.547452],[55.363942,65.77745],[55.442475,65.798519],[55.495514,65.799517],[55.501814,65.804816],[55.497435,65.808626],[55.531528,65.816808],[55.524211,65.823277],[55.528896,65.83416],[55.505334,65.85297],[55.061979,65.853482],[54.245727,66.186049],[53.790957,66.358903],[53.758878,67.007585],[54.282416,67.000366],[58.83629,67.000428],[58.851144,65.792211],[58.700698,65.78665],[58.40611,65.820476],[58.294964,65.798031],[58.25943,65.798434],[58.199333,65.812996],[58.053871,65.794238],[57.86375,65.829361],[57.799887,65.807142],[57.738071,65.821147],[57.720263,65.807058],[57.644937,65.77711],[57.556665,65.719887],[57.552316,65.702416],[57.483767,65.609763],[57.333304,65.56745],[57.3379,65.542809],[57.34869,65.539582],[57.33836,65.528759],[56.920074,65.596752],[56.92394,65.588194],[56.907096,65.581688],[56.879016,65.588559],[56.839341,65.611423],[56.361787,65.491071],[56.11643,65.653847],[55.005622,65.356996]]]}},{"type":"Feature","id":"115136-1619","properties":{"id":"115136-1619","name":"Корткеросский район","name_ru":"Корткеросский район","subject_id":"115136","subject_name":"Республика Коми","source_gid":1619,"source_fid":1729,"names_rosstat":"Муниципальный район Корткеросский","population":18024,"area_km2":19834.1468144311,"density_km2":0.908735836667597,"source":"Актуализированный объединённый GeoJSON, предоставленный преподавателем","name_en":"Kortkerosskii District","name_zh":"Kortkerosskii区","subject_name_en":"Komi Republic","subject_name_zh":"科米共和国"},"geometry":{"type":"Polygon","coordinates":[[[53.445904,62.605193],[53.5397,62.59614],[53.469969,62.445615],[53.552115,62.437168],[53.486182,62.284754],[53.568586,62.276759],[53.534377,62.202368],[53.450985,62.210185],[53.418354,62.134779],[53.500137,62.126874],[53.464498,62.051784],[53.42938,62.055092],[53.392961,61.98061],[53.351724,61.984613],[53.334996,61.947228],[53.253962,61.955397],[53.235403,61.917181],[53.119191,61.929541],[53.089109,61.869464],[52.945042,61.910573],[52.913761,61.8952],[52.885607,61.896717],[52.895412,61.884101],[52.932696,61.884206],[52.924377,61.867413],[52.949839,61.872673],[52.999305,61.858147],[53.00499,61.84293],[53.016201,61.840333],[52.960962,61.823975],[53.004561,61.829357],[53.029117,61.824211],[53.015284,61.793861],[53.003816,61.804227],[52.97075,61.81004],[52.963612,61.778618],[52.985524,61.76348],[53.004048,61.768974],[52.976514,61.70419],[53.053409,61.697466],[52.987612,61.550538],[52.605076,61.587455],[52.542645,61.436454],[52.766984,61.413556],[52.738661,61.338114],[52.815098,61.330894],[52.720381,61.105122],[52.870744,61.090149],[52.806464,60.937746],[52.431433,60.976416],[52.361145,60.830191],[51.502571,60.921586],[51.565335,61.063622],[51.402394,61.080704],[51.500757,61.30919],[51.35186,61.325199],[51.38384,61.39593],[51.059467,61.427278],[51.093215,61.505823],[51.012532,61.514285],[51.047363,61.592638],[51.204445,61.576752],[51.259384,61.698768],[51.20813,61.687525],[51.222319,61.716465],[51.165759,61.720463],[51.169456,61.728169],[51.163665,61.732486],[51.172151,61.733817],[51.166683,61.743779],[51.228664,61.76146],[51.222636,61.770034],[51.235366,61.778433],[51.231465,61.788447],[51.281021,61.825463],[51.300937,61.871537],[51.023169,61.89842],[51.159532,62.205124],[51.133058,62.207984],[51.18593,62.324898],[51.224532,62.320161],[51.28922,62.467746],[51.208966,62.475764],[51.291049,62.612547],[51.375645,62.603332],[51.406701,62.681379],[51.722881,62.649216],[51.745344,62.700394],[52.446496,62.627961],[52.478136,62.688357],[52.540943,62.852374],[53.518939,62.748955],[53.445904,62.605193]]]}},{"type":"Feature","id":"115136-1690","properties":{"id":"115136-1690","name":"Троицко-Печорский район","name_ru":"Троицко-Печорский район","subject_id":"115136","subject_name":"Республика Коми","source_gid":1690,"source_fid":1800,"names_rosstat":"Муниципальный район Троицко-Печорский","population":9204,"area_km2":40123.443322305735,"density_km2":0.22939207699762001,"source":"Актуализированный объединённый GeoJSON, предоставленный преподавателем","name_en":"Troitsko-Pechorskii District","name_zh":"Troitsko-Pechorskii区","subject_name_en":"Komi Republic","subject_name_zh":"科米共和国"},"geometry":{"type":"Polygon","coordinates":[[[59.425788,62.633464],[59.471717,62.604623],[59.469099,62.592542],[59.456884,62.586855],[59.444198,62.56477],[59.5085,62.562821],[59.551061,62.545566],[59.635486,62.547535],[59.629845,62.522176],[59.619188,62.514127],[59.623762,62.504515],[59.609656,62.480006],[59.605768,62.443456],[59.582433,62.419287],[59.619666,62.406555],[59.614206,62.374869],[59.588479,62.36416],[59.567799,62.333369],[59.514311,62.321539],[59.516362,62.312962],[59.492303,62.29769],[59.510373,62.278926],[59.501466,62.258452],[59.489865,62.24596],[59.471871,62.245798],[59.454645,62.236215],[59.457766,62.226984],[59.449206,62.217826],[59.456758,62.206849],[59.435055,62.192892],[59.442216,62.184506],[59.399401,62.157112],[59.404955,62.136903],[59.399029,62.127798],[59.401369,62.104504],[59.432863,62.095088],[59.429432,62.072893],[59.436954,62.057123],[59.424375,62.049368],[59.442716,62.016351],[59.437612,62.000134],[59.466478,61.993857],[59.489022,61.946615],[59.403866,61.910663],[59.397491,61.899704],[59.402838,61.883955],[59.364757,61.87433],[59.330105,61.846598],[59.333569,61.830729],[59.315659,61.802337],[59.325909,61.783388],[59.345143,61.784627],[59.359748,61.769613],[59.42219,61.754598],[59.403658,61.741174],[59.40039,61.729225],[59.369296,61.713822],[59.371342,61.700983],[59.352281,61.693278],[59.360437,61.671885],[59.348927,61.663234],[59.294842,61.65446],[59.280248,61.64092],[59.239947,61.626507],[59.206699,61.639798],[59.191045,61.62765],[59.148321,61.629707],[59.12526,61.609704],[59.119408,61.593025],[59.048309,61.536394],[58.997164,61.535161],[58.973993,61.522035],[58.920975,61.532128],[58.846249,61.518965],[58.845858,61.495859],[57.092687,61.50185],[57.080551,61.475297],[56.653124,61.5243],[56.639471,61.488492],[56.597365,61.492892],[56.566341,61.418999],[56.37827,61.443122],[56.316901,61.315364],[56.18464,61.418845],[56.325383,61.683841],[55.728059,61.935716],[55.654447,61.90323],[55.542035,61.877678],[55.438102,61.970464],[55.550596,62.053056],[55.538603,62.074334],[55.247597,62.254329],[55.498904,62.549301],[55.132357,62.572569],[55.130452,62.585764],[55.156734,62.586032],[55.189383,62.674021],[55.259425,62.796839],[55.319408,62.781192],[55.4019,62.773728],[55.498897,62.772069],[55.523373,62.779948],[55.463543,62.839597],[55.374705,62.823454],[55.337538,62.856145],[55.281821,62.847857],[55.379617,63.04296],[55.454589,63.044215],[55.59705,63.243134],[55.581778,63.244517],[55.711756,63.422296],[55.747608,63.417793],[55.756552,63.411523],[55.749513,63.4077],[55.771063,63.41089],[55.78541,63.402124],[55.799318,63.404697],[55.787854,63.412538],[56.090559,63.370314],[56.057271,63.326803],[56.157711,63.312486],[56.166041,63.319666],[56.322846,63.296686],[56.33361,63.255426],[56.307028,63.22422],[56.684864,63.163868],[56.723752,63.221891],[56.773644,63.214846],[56.795754,63.244367],[57.478808,63.139959],[57.791785,63.56354],[57.797938,63.562731],[57.850944,63.634988],[57.896752,63.679304],[57.949078,63.632998],[57.949429,63.602769],[57.986266,63.592233],[57.988014,63.578197],[58.023828,63.569288],[58.067801,63.543735],[58.109467,63.571177],[58.123126,63.604694],[58.138827,63.613137],[58.253942,63.570816],[58.353278,63.358934],[58.347741,63.346519],[58.365701,63.302373],[58.712034,63.33477],[58.833408,63.286411],[58.870841,63.290034],[58.979174,63.271973],[59.022376,63.27695],[59.066192,63.26717],[59.071075,63.217534],[59.094413,63.205459],[59.099096,63.190642],[59.131921,63.173918],[59.112739,63.153771],[59.133095,63.135468],[59.134074,63.113082],[59.242477,63.08081],[59.230315,63.063538],[59.233202,63.055274],[59.203794,63.027597],[59.22443,62.982778],[59.273633,62.982215],[59.294269,62.974472],[59.295147,62.963801],[59.325204,62.942026],[59.377201,62.941711],[59.414852,62.933238],[59.434059,62.91825],[59.448785,62.917722],[59.462157,62.898072],[59.461376,62.885201],[59.442511,62.875595],[59.447386,62.861126],[59.440126,62.8548],[59.444318,62.829926],[59.433324,62.778261],[59.417943,62.770025],[59.414437,62.759843],[59.358958,62.750549],[59.389112,62.74109],[59.386174,62.729578],[59.370275,62.725215],[59.395532,62.721523],[59.410605,62.705249],[59.404044,62.671574],[59.442652,62.659514],[59.428198,62.646889],[59.425788,62.633464]]]}},{"type":"Feature","id":"115136-2122","properties":{"id":"115136-2122","name":"городской округ Сыктывкар","name_ru":"городской округ Сыктывкар","subject_id":"115136","subject_name":"Республика Коми","source_gid":2122,"source_fid":2232,"names_rosstat":"Городской округ Сыктывкар","population":232209,"area_km2":761.0811122414084,"density_km2":305.10414233791323,"source":"Актуализированный объединённый GeoJSON, предоставленный преподавателем","name_en":"Syktyvkar Urban Okrug","name_zh":"Syktyvkar城市辖区","subject_name_en":"Komi Republic","subject_name_zh":"科米共和国"},"geometry":{"type":"Polygon","coordinates":[[[50.442169,61.812047],[50.520078,61.805215],[50.50281,61.772682],[50.541034,61.761024],[50.533239,61.746742],[50.577079,61.741425],[50.57184,61.723422],[50.650035,61.716196],[50.636529,61.692169],[50.676917,61.684677],[50.668705,61.671326],[50.679525,61.6631],[50.677429,61.65757],[50.71655,61.656563],[50.714446,61.644917],[50.720315,61.642879],[50.802689,61.636766],[50.830447,61.629838],[50.820113,61.625725],[50.842472,61.623128],[50.843042,61.61609],[50.865814,61.616703],[50.877068,61.599808],[50.848152,61.532283],[50.909564,61.525572],[50.922138,61.549686],[50.897386,61.553376],[50.898288,61.567238],[50.88169,61.575854],[50.92411,61.585933],[50.959325,61.582104],[50.969398,61.600573],[51.204445,61.576752],[51.259384,61.698768],[51.20813,61.687525],[51.222319,61.716465],[51.165759,61.720463],[51.169456,61.728169],[51.163665,61.732486],[51.172151,61.733817],[51.164303,61.736737],[51.071516,61.729003],[51.039528,61.733112],[51.035141,61.740073],[50.948893,61.763097],[50.964933,61.797287],[50.840111,61.810944],[50.814449,61.827232],[50.78256,61.835822],[50.746574,61.833608],[50.741406,61.848867],[50.706968,61.850227],[50.690998,61.843172],[50.673461,61.861527],[50.681801,61.879698],[50.601963,61.8876],[50.548457,61.87395],[50.467436,61.881991],[50.442169,61.812047]]]}}],"metadata":{"source_en":"Updated consolidated GeoJSON supplied by the instructor","source_zh":"教师提供的更新版合并GeoJSON","license_en":"Source-dataset terms were not specified; use within the author-created educational platform","license_zh":"原始数据集未注明许可条款；仅用于本作者教育平台"}}