{"type":"Feature","properties":{"regionId":"altayskiy_kray","name":"Алтайский край","name:en":"Altai Krai","timezone":"Asia/Omsk","name_ru":"Алтайский край","name_en":"Altai Krai","name_zh":"阿尔泰边疆区"},"geometry":{"type":"Polygon","coordinates":[[[87.13270029999998,52.6175931],[87.12202429999999,52.613750800000005],[87.1174512,52.619643599999996],[87.0990706,52.6192257],[87.0955198,52.626327200000006],[87.07379709999998,52.636770500000004],[87.06883619999999,52.65744839999999],[87.0527532,52.660268],[87.0127547,52.64251410000001],[86.98946560000002,52.6584924],[86.9797531,52.652852900000006],[86.9715028,52.652121900000004],[86.93672590000001,52.6545237],[86.934978,52.6485647],[86.93828460000002,52.6372794],[86.93299360000002,52.63515460000001],[86.89021660000002,52.6304886],[86.88122760000002,52.636526800000006],[86.84494480000001,52.626400200000006],[86.8098159,52.6480984],[86.82119209999999,52.6086406],[86.78150370000002,52.604151200000004],[86.7751376,52.595800800000006],[86.7828579,52.586755100000005],[86.7825605,52.5674756],[86.79322890000002,52.5595118],[86.7790874,52.5529711],[86.7864849,52.5292066],[86.79491660000002,52.5148083],[86.76415370000002,52.51591030000001],[86.7633472,52.524257399999996],[86.7545453,52.52335610000001],[86.7521685,52.5173899],[86.74260520000001,52.5131401],[86.7221288,52.508722600000006],[86.71197400000001,52.5180827],[86.6899214,52.5137977],[86.6686938,52.5152717],[86.6555194,52.5186623],[86.6532492,52.52234850000001],[86.62793819999999,52.5268304],[86.6618593,52.4988954],[86.6494086,52.494793800000004],[86.65660679999999,52.49311960000001],[86.6541005,52.4853914],[86.67671089999999,52.46617570000001],[86.6794266,52.4368297],[86.65702540000001,52.425446300000004],[86.6229796,52.42377520000001],[86.62297979999998,52.40602139999999],[86.6424048,52.40257510000001],[86.64282279999999,52.3770932],[86.6544153,52.3551621],[86.6670522,52.3427345],[86.68376169999999,52.3480607],[86.6896101,52.341376999999994],[86.6836574,52.336573],[86.6935792,52.2947994],[86.78339340000001,52.2930244],[86.7718012,52.279448],[86.77295009999999,52.27203310000001],[86.7681462,52.2620074],[86.76710200000001,52.2430004],[86.7581207,52.2376742],[86.756241,52.22879730000001],[86.74506650000001,52.22514200000001],[86.73162570000002,52.2139657],[86.723874,52.197202600000004],[86.8056392,52.1877549],[86.80104440000001,52.15872220000001],[86.74015870000001,52.171358500000004],[86.7403678,52.1528737],[86.72635829999999,52.13899070000001],[86.71269260000001,52.14211680000001],[86.6939987,52.1392971],[86.6887247,52.1410724],[86.68433869999998,52.12603380000001],[86.66888229999998,52.125407100000004],[86.65614129999999,52.11861890000001],[86.6488309,52.1056691],[86.61274859999999,52.10911520000001],[86.60878009999998,52.1049379],[86.5917572,52.1088018],[86.56690160000001,52.1082796],[86.5618887,52.1125614],[86.53024490000001,52.11872280000001],[86.52303889999999,52.1156942],[86.49199250000001,52.12955890000001],[86.4765379,52.130164300000004],[86.46824660000001,52.126240800000005],[86.45642060000002,52.12839010000001],[86.4560438,52.1173648],[86.4417363,52.111829699999994],[86.44758470000002,52.1042061],[86.45426860000002,52.1016997],[86.45071779999999,52.099611],[86.45124000000001,52.094076],[86.44225860000002,52.0944937],[86.45416430000002,52.084468099999995],[86.4525558,52.07422739999999],[86.41698570000001,52.06535650000001],[86.40398370000001,52.0506312],[86.40304390000001,52.036219300000006],[86.39573349999999,52.033190600000005],[86.37672629999999,52.0394566],[86.3587635,52.039143200000005],[86.34758900000001,52.035174700000006],[86.2938572,52.038203100000004],[86.28142500000001,52.045038000000005],[86.2585316,52.03951910000001],[86.2417705,52.0422026],[86.2286495,52.0135925],[86.2047089,52.0133817],[86.17289239999998,52.0197428],[86.1592392,52.03510980000001],[86.16851209999999,52.03979520000001],[86.1307293,52.0682794],[86.1438879,52.084257799999996],[86.10451590000001,52.0864508],[86.0849345,52.0773649],[86.02759950000001,52.0873903],[86.0121431,52.084361599999994],[85.99271809999999,52.0919852],[85.9804991,52.100548800000006],[85.94546120000001,52.1005486],[85.9188426,52.1056625],[85.91533829999999,52.0998637],[85.92164720000001,52.09311200000001],[85.9203499,52.0803164],[85.91085360000002,52.074975300000006],[85.91276990000001,52.0598191],[85.8743937,52.0580437],[85.85173129999998,52.0633697],[85.84462970000003,52.0619075],[85.82854689999999,52.051046299999996],[85.80161520000001,52.054437099999994],[85.798574,52.0516728],[85.83403,52.0260866],[85.86243629999998,52.02399810000001],[85.86932900000001,52.0272355],[85.8907514,52.026239000000004],[85.887083,52.0236849],[85.8858299,52.0161656],[85.87538639999998,52.013137],[85.86024350000001,51.996636300000006],[85.84013990000001,51.986297199999996],[85.82912209999999,51.9743917],[85.81752990000003,51.9711542],[85.81888779999998,51.9489097],[85.82651179999999,51.93073820000001],[85.83695540000001,51.9216525],[85.8574248,51.91444669999999],[85.86588409999999,51.906092],[85.86504869999999,51.896692900000005],[85.8535609,51.8910534],[85.74990950000002,51.867241899999996],[85.74092820000001,51.8539788],[85.73173799999999,51.8524122],[85.72119020000001,51.84499739999999],[85.7213991,51.8413422],[85.73518460000001,51.8308988],[85.7719458,51.8272438],[85.7769587,51.819515700000004],[85.74040670000001,51.8031194],[85.7367516,51.79862860000001],[85.74450420000002,51.78599200000001],[85.74336530000001,51.781562300000004],[85.7336188,51.77335560000001],[85.7298593,51.76437430000001],[85.70283709999998,51.7324695],[85.6899394,51.72813540000001],[85.687668,51.7188408],[85.67633689999998,51.7173786],[85.6685042,51.72254810000001],[85.66853019999999,51.72844870000001],[85.63135129999999,51.74139830000001],[85.626286,51.7472466],[85.61722650000002,51.7359677],[85.6062087,51.7319991],[85.5898909,51.7098068],[85.58957769999999,51.7038018],[85.5823195,51.6972224],[85.55626300000002,51.691739600000005],[85.51542900000001,51.6969611],[85.50294889999999,51.7012428],[85.4852115,51.693557000000006],[85.48099160000001,51.6864131],[85.490182,51.6745076],[85.4731593,51.66338530000001],[85.4784856,51.65513500000001],[85.4790601,51.6461015],[85.4740473,51.6377467],[85.4798958,51.62307380000001],[85.44600700000001,51.601769],[85.4540488,51.5722664],[85.44746940000003,51.56934220000001],[85.44997590000001,51.56631370000001],[85.44425810000001,51.5633895],[85.32948409999999,51.5616136],[85.30588189999999,51.555556300000006],[85.29543849999999,51.5463661],[85.3026969,51.538690200000005],[85.29912000000002,51.5306487],[85.2848386,51.5260535],[85.2608185,51.52871650000001],[85.2528033,51.5179598],[85.25081920000001,51.504383399999995],[85.244031,51.4991616],[85.2058601,51.493208700000004],[85.19557049999999,51.4855017],[85.1668538,51.4865247],[85.16580929999999,51.4901277],[85.1488124,51.501406499999995],[85.1410319,51.5021375],[85.13588839999998,51.5128419],[85.1139309,51.519473399999995],[85.1110375,51.5240955],[85.0859945,51.52297180000001],[85.0610869,51.51205830000001],[84.98962730000001,51.51362449999999],[84.97751300000002,51.5066796],[84.96821820000001,51.5060007],[84.9569915,51.498481399999996],[84.9485323,51.499160200000006],[84.94205740000001,51.492998500000006],[84.92057,51.482868399999994],[84.92312890000001,51.465532300000014],[84.9057147,51.4427655],[84.89798660000001,51.437752700000004],[84.87166900000001,51.4310688],[84.84952870000001,51.442452],[84.8277019,51.432582800000006],[84.8174673,51.432582800000006],[84.81381209999999,51.427831],[84.788095,51.42616],[84.76655540000002,51.41702179999999],[84.74206540000002,51.4217735],[84.7336583,51.426211900000006],[84.71615650000001,51.426799100000004],[84.71431190000001,51.4186403],[84.69115350000001,51.410546599999996],[84.68306,51.391487299999994],[84.6647579,51.38668319999999],[84.6565337,51.3796339],[84.6412863,51.374725399999996],[84.63972,51.35326419999999],[84.63371509999999,51.3470503],[84.60703199999999,51.3426118],[84.59452600000002,51.3361891],[84.58000940000001,51.3437082],[84.54865290000001,51.3389041],[84.4588914,51.31702479999999],[84.45753400000001,51.303604899999996],[84.46014480000001,51.30036749999999],[84.4529129,51.28773090000001],[84.43380140000001,51.2792716],[84.41886720000001,51.2800549],[84.41291450000001,51.2712823],[84.3856048,51.26564280000001],[84.37693679999998,51.26731370000001],[84.364039,51.272639700000006],[84.36056640000001,51.27953240000001],[84.3425514,51.2836575],[84.3317944,51.29034120000001],[84.3052942,51.2850671],[84.29422410000002,51.27801780000001],[84.28691360000002,51.2826651],[84.25647079999999,51.28261260000001],[84.24365160000002,51.2730046],[84.2398399,51.26130800000001],[84.23430490000001,51.2558775],[84.21759530000001,51.24903690000001],[84.2064731,51.24731370000001],[84.1961862,51.2502378],[84.19232219999999,51.247157],[84.19232219999999,51.2429274],[84.19921500000001,51.238280100000004],[84.20088609999999,51.2279411],[84.1963432,51.221883999999996],[84.18550809999998,51.21932530000001],[84.18550829999998,51.2078375],[84.179634,51.19238120000001],[84.1538648,51.182773100000006],[84.15449149999999,51.170554300000006],[84.15987009999998,51.1604765],[84.1539697,51.153009399999995],[84.1455107,51.1299294],[84.1469732,51.104134200000004],[84.14420560000002,51.1006879],[84.13397099999999,51.10293320000001],[84.1206559,51.071237399999994],[84.11726180000001,51.070976300000005],[84.101753,51.087528999999996],[84.09764620000001,51.0876308],[84.0891685,51.098285600000004],[84.07736729999999,51.098651100000005],[84.07585289999999,51.10768469999999],[84.06969120000001,51.1106088],[84.0919878,51.1314957],[84.096635,51.143349],[84.0744947,51.1480484],[84.05721080000001,51.1476828],[84.0420415,51.153739900000005],[84.00880509999999,51.1508155],[83.99924940000002,51.13990210000001],[83.9481025,51.144496999999994],[83.94773690000001,51.14011080000001],[83.9329189,51.1380873],[83.9563794,51.1101905],[83.95418640000001,51.0936376],[83.94541390000002,51.08784149999999],[83.93961800000001,51.078129100000005],[83.93951360000003,51.07275070000001],[83.94311660000002,51.0691478],[83.9661707,51.0654405],[83.9785261,51.0694985],[84.02016370000001,51.05452739999999],[84.0382831,51.0576083],[84.03447129999999,51.0487836],[84.0207904,51.0441885],[84.045881,51.03766139999999],[84.0522515,51.039750100000006],[84.06162460000003,51.032231],[84.10138809999998,51.042256800000004],[84.1274972,51.014216399999995],[84.1458516,51.014268699999995],[84.1692712,51.002624399999995],[84.2221677,50.9873773],[84.2295303,50.9881606],[84.24796300000003,50.999074],[84.2805989,50.99515790000001],[84.3059243,51.003878300000004],[84.3409103,50.980694199999995],[84.41712180000002,50.968945600000005],[84.49069640000002,50.9480592],[84.47952190000001,50.943777399999995],[84.4789476,50.9355271],[84.43827060000001,50.908374],[84.43628650000001,50.8885837],[84.4383231,50.8806989],[84.43315370000002,50.8740152],[84.43798390000002,50.86513830000001],[84.4373573,50.8599165],[84.4555029,50.8569925],[84.46907940000001,50.8600211],[84.48406600000001,50.85338959999999],[84.49620660000002,50.85260649999999],[84.5028644,50.8460793],[84.5152398,50.8473326],[84.52001779999999,50.84315530000001],[84.5398082,50.84764609999999],[84.54735360000002,50.840022399999995],[84.5588937,50.840544599999994],[84.58998940000001,50.822529900000006],[84.56928540000001,50.81198189999999],[84.5680844,50.804097199999994],[84.5713742,50.79516810000001],[84.55756290000001,50.779920600000004],[84.54184550000001,50.781173800000005],[84.52894799999999,50.766344100000005],[84.51129840000002,50.76545630000001],[84.5060507,50.7533941],[84.50834839999999,50.7404442],[84.5039101,50.731097399999996],[84.51435370000002,50.721437300000005],[84.503101,50.7072342],[84.49310140000001,50.7010725],[84.4808304,50.6984094],[84.47858509999999,50.6895847],[84.46245,50.68337090000001],[84.4429729,50.679950500000004],[84.4236003,50.6830313],[84.4133395,50.68851390000001],[84.40452770000002,50.7009416],[84.40424040000002,50.70733810000001],[84.3977392,50.7100534],[84.3856248,50.70188139999999],[84.3547645,50.6937876],[84.3438511,50.6862682],[84.32084929999999,50.691176500000005],[84.28889229999999,50.68746899999999],[84.2713342,50.681986099999996],[84.2693892,50.6770778],[84.2490375,50.667051900000004],[84.19880429999999,50.666634],[84.12797149999999,50.6596365],[84.08687669999999,50.6416736],[84.07755300000001,50.64031230000001],[84.0739046,50.6439219],[84.07147679999999,50.6587254],[84.05147749999999,50.66692580000001],[84.0500733,50.6719954],[84.0346523,50.682990600000004],[84.0232179,50.697862],[83.9872473,50.709985],[83.98633509999999,50.7141613],[83.96611140000002,50.72799260000001],[83.9637072,50.7364045],[83.95104360000002,50.7463971],[83.94891660000002,50.750556800000005],[83.9517482,50.7539374],[83.95169260000002,50.76356690000001],[83.97622380000001,50.779943],[83.9726623,50.795398800000015],[83.9669308,50.79668530000001],[83.96433640000001,50.8009987],[83.91049020000001,50.816260799999995],[83.8955914,50.830045399999996],[83.8762618,50.8385005],[83.87699529999999,50.84720649999999],[83.8487956,50.856182499999996],[83.8494551,50.8638013],[83.8363262,50.8699516],[83.83366600000001,50.8800221],[83.8066076,50.8828348],[83.79741420000002,50.8878163],[83.75464460000002,50.8900747],[83.74334560000001,50.8941851],[83.71438390000002,50.89297280000001],[83.703568,50.8962114],[83.69261920000001,50.9089643],[83.67784599999999,50.9154467],[83.6808676,50.9218354],[83.67860759999999,50.9279627],[83.6564957,50.939534800000004],[83.648704,50.954776599999995],[83.6302324,50.943596],[83.62697739999999,50.9498708],[83.59769980000002,50.960734900000006],[83.5935072,50.9494263],[83.5842875,50.9467184],[83.57227679999998,50.95488109999999],[83.53759450000001,50.9608683],[83.51227320000001,50.9485465],[83.50691560000001,50.9497161],[83.5010759,50.952505],[83.5043918,50.957925599999996],[83.5024137,50.9740053],[83.4995071,50.9766292],[83.4888187,50.979238900000006],[83.44748160000002,50.977136900000005],[83.43022310000002,50.986713900000005],[83.4398071,51.004949399999994],[83.43244879999999,51.00937890000001],[83.40716450000002,51.0131887],[83.3952068,51.0098935],[83.38710940000001,51.0037416],[83.3662971,50.998614700000005],[83.3582263,51.0019571],[83.3582012,51.0075455],[83.3201138,51.010511],[83.2915581,51.008962000000004],[83.2844364,51.0150364],[83.2771448,51.013343],[83.2683749,51.006025],[83.2256795,51.00118139999999],[83.20604460000001,50.99335530000001],[83.1796199,51.0037975],[83.17504289999998,51.0115701],[83.1210213,51.011004199999995],[83.12203409999998,51.0047971],[83.11919300000001,51.001237599999996],[83.12230619999998,50.984523499999995],[83.11477599999999,50.97835320000001],[83.11247889999999,50.96595310000001],[83.0923938,50.9553371],[83.0886263,50.948860499999995],[83.05896460000001,50.934612300000005],[83.0059935,50.925199500000005],[82.9796427,50.88384979999999],[82.9617874,50.893292900000006],[82.9266863,50.898655700000006],[82.91104770000001,50.90768239999999],[82.89586829999999,50.904826899999996],[82.8891155,50.9064951],[82.88546649999999,50.8979673],[82.87888829999997,50.897530200000006],[82.8478121,50.909659999999995],[82.83799320000001,50.91803230000001],[82.79421120000002,50.9180652],[82.78127160000001,50.9199856],[82.77135179999999,50.927128700000004],[82.7328173,50.9272716],[82.72880079999999,50.9228584],[82.7331553,50.915359800000004],[82.73141500000001,50.9072059],[82.7173387,50.90093],[82.7174511,50.8939978],[82.73068330000001,50.85729899999999],[82.73919390000002,50.8504319],[82.7064742,50.8318982],[82.71068720000001,50.8281648],[82.7099724,50.82250690000001],[82.7015324,50.8122002],[82.67510589999999,50.807953999999995],[82.6802161,50.8005861],[82.6680144,50.79324510000001],[82.64705320000002,50.79433490000001],[82.630422,50.7790917],[82.60545649999999,50.775996500000005],[82.56746960000002,50.7468424],[82.48521490000002,50.742257200000005],[82.4808563,50.751706],[82.47182340000002,50.756125000000004],[82.4082923,50.763840800000004],[82.3807239,50.77571980000001],[82.37783199999998,50.7804293],[82.3665958,50.7778932],[82.3573143,50.78459590000001],[82.35077499999998,50.775626100000004],[82.32133169999999,50.7612487],[82.3167364,50.75295860000001],[82.30516390000001,50.7557875],[82.2958582,50.7693844],[82.27037999999999,50.769791100000006],[82.25701670000001,50.76113480000001],[82.24914190000001,50.7488949],[82.23702190000002,50.7455915],[82.2240772,50.7368492],[82.21582900000001,50.7412541],[82.21190590000002,50.73692260000001],[82.19945249999999,50.73490520000001],[82.1855112,50.73703210000001],[82.17270209999997,50.7300643],[82.17530459999999,50.745271900000006],[82.17216169999999,50.7468046],[82.15893209999997,50.7469534],[82.15237749999997,50.743771200000005],[82.1468079,50.74510180000001],[82.1472348,50.747326900000004],[82.07838199999998,50.7508377],[82.0611321,50.757366399999995],[82.0629189,50.76579950000001],[82.03597209999998,50.76911400000001],[82.02629420000001,50.7791634],[82.0125735,50.78575080000001],[81.99717910000001,50.78793890000001],[81.99192940000003,50.7847519],[81.98198930000001,50.7847499],[81.96503829999999,50.7895315],[81.9060702,50.79547810000001],[81.8854154,50.804306999999994],[81.7967795,50.7719818],[81.79039970000001,50.789776],[81.7895735,50.8165709],[81.77585709999998,50.820919],[81.75543229999998,50.781803399999994],[81.7278273,50.760126400000004],[81.5825039,50.74238810000001],[81.52596729999999,50.7517194],[81.5250593,50.7579507],[81.51405390000002,50.7586594],[81.5026377,50.7531673],[81.4493382,50.755926],[81.46104770000001,50.8020813],[81.48598829999999,50.8241775],[81.4717172,50.8434137],[81.47168190000001,50.8625668],[81.43561600000001,50.86315230000001],[81.4357552,50.8723667],[81.42125150000001,50.8724284],[81.4213278,50.88178479999999],[81.4427349,50.8918761],[81.44283809999999,50.9107656],[81.43555690000001,50.9108117],[81.4354055,50.929861499999994],[81.41352240000002,50.9298602],[81.4125874,50.9757418],[81.2929587,50.9745733],[81.2664113,50.9617624],[81.23222870000001,50.963260999999996],[81.1909179,50.95106669999999],[81.17917619999999,50.95759939999999],[81.1575453,50.951064399999986],[81.0597635,50.947903399999994],[81.09587649999999,51.031437399999994],[81.10293449999999,51.060574100000004],[81.1065874,51.0662649],[81.1162465,51.064441699999996],[81.1418167,51.079102600000006],[81.15538339999999,51.101432300000006],[81.17290739999999,51.14162749999999],[81.16494809999999,51.15402139999999],[81.17697569999999,51.16170590000001],[81.17443949999999,51.1827977],[81.1665298,51.1849488],[81.1463635,51.2118797],[81.11515849999999,51.211522800000004],[81.10252609999999,51.180160900000004],[81.04709050000001,51.1814559],[81.04601560000002,51.18963230000001],[80.9198003,51.219025],[80.94061080000002,51.2592571],[80.9100331,51.2587094],[80.8558032,51.2769275],[80.75218679999999,51.29799630000001],[80.6776732,51.3167498],[80.6351094,51.262789500000004],[80.63469950000001,51.2068038],[80.49255500000001,51.2039976],[80.44708660000002,51.208285700000005],[80.43739310000001,51.17673490000001],[80.43365100000001,51.135163000000006],[80.4364803,51.1190042],[80.45319930000001,51.117822999999994],[80.45451970000002,51.109162600000005],[80.4822163,51.109428],[80.4822429,50.9686871],[80.47739990000001,50.96513050000001],[80.4397469,50.9599253],[80.4210757,50.962046300000004],[80.3759666,50.927119000000005],[80.3251039,50.9275281],[80.3244587,50.91789039999999],[80.2454005,50.9185405],[80.24419170000002,50.8993091],[80.19295079999999,50.9003662],[80.19233619999999,50.85085779999999],[80.18570789999998,50.85085779999999],[80.1849175,50.827366999999995],[80.08303799999999,50.8281677],[80.0834091,50.8529499],[80.0679769,50.85288949999999],[80.0673105,50.8465556],[80.0630469,50.8465651],[80.063932,50.8091042],[80.07955199999999,50.73878070000001],[80.07586579999999,50.7382076],[79.89896300000001,50.9770033],[79.84306860000001,51.0433906],[79.73165390000003,51.191006200000004],[79.72048099999999,51.2171802],[79.53268960000001,51.466461599999995],[79.4091384,51.61557290000001],[79.2104982,51.8730021],[79.17340869999998,51.9296005],[79.1119121,52.0030855],[79.08673679999998,52.039309100000004],[78.76378869999999,52.377591699999996],[78.54710000000001,52.618700000000004],[78.5361879,52.634297499999995],[78.34181260000001,52.846769599999995],[78.1184926,53.06863830000001],[78.0,53.194100000000006],[77.94029210000001,53.2524863],[77.9065061,53.291410000000006],[77.8889532,53.3671942],[77.9345778,53.357522499999995],[77.9488007,53.38489349999999],[77.96452210000001,53.3915661],[77.9374353,53.398400300000006],[77.93786690000002,53.414488899999995],[77.91681090000002,53.4199957],[77.9224486,53.4487165],[78.069061,53.4393248],[78.07294809999998,53.448934900000005],[78.07240769999999,53.47323],[78.0137749,53.4803562],[78.00443460000001,53.48780659999999],[77.9788435,53.4916936],[77.9627776,53.4872726],[77.93176430000001,53.503354900000005],[77.91216550000001,53.534344499999996],[77.91173330000001,53.5505412],[77.91578799999999,53.571123300000004],[77.94185900000002,53.574080599999995],[77.95848769999999,53.5815313],[77.993041,53.579911800000005],[77.9928251,53.576564499999996],[78.10789129999999,53.576234],[78.1037194,53.5857434],[78.15716920000001,53.586067699999994],[78.15689849999998,53.6217005],[78.2021417,53.622996500000006],[78.23162010000001,53.6170579],[78.23329500000001,53.552595000000004],[78.23804609999999,53.55140719999999],[78.23221530000001,53.54752],[78.23588679999999,53.535750400000005],[78.2660451,53.5102552],[78.2531969,53.4997643],[78.2697168,53.4896322],[78.2925541,53.495356400000006],[78.35232649999999,53.47530570000001],[78.3645362,53.475295100000004],[78.377425,53.477431499999994],[78.37645309999999,53.4828303],[78.3805053,53.4862553],[78.4217198,53.4861898],[78.4229611,53.5132922],[78.49411940000003,53.5085417],[78.5025957,53.5110253],[78.5082105,53.518151800000005],[78.50248739999999,53.528409700000005],[78.50767040000001,53.52625020000001],[78.5248391,53.5300296],[78.52624279999999,53.52819390000001],[78.51814460000001,53.521391200000004],[78.5230038,53.5123212],[78.56230829999998,53.503467199999996],[78.559285,53.497744399999995],[78.5776415,53.494828999999996],[78.5805568,53.5008758],[78.57970069999999,53.512120200000005],[78.645884,53.512537900000005],[78.64507289999999,53.5733296],[78.65111970000001,53.5822918],[78.63686609999999,53.59935220000001],[78.6153235,53.6369285],[78.69012900000001,53.65182109999999],[78.707781,53.630925000000005],[78.792326,53.658405],[78.94220900000002,53.676688],[79.040761,53.652731],[79.08817499999999,53.69829500000001],[79.12259699999998,53.674433],[79.257992,53.677366],[79.29911900000002,53.703933000000006],[79.385613,53.710239],[79.412441,53.68384399999999],[79.41187300000001,53.67927],[79.42194,53.67821200000001],[79.63971409999999,53.743749],[79.6421415,53.77603310000001],[79.63874499999999,53.775449],[79.623823,53.794588000000005],[79.66895699999999,53.806602],[79.6664182,53.810318900000006],[79.759116,53.835548],[79.77718060000001,53.8125435],[79.8878,53.842111],[79.8497852,53.8911316],[79.8775131,53.898675000000004],[79.864882,53.915029],[79.89882779999999,53.925448],[79.9031812,53.918782900000004],[79.96612220000002,53.935399800000006],[79.9604571,53.9437625],[80.02679029999999,53.9617315],[80.0248466,53.9653897],[80.09460750000001,53.990094],[80.11843109999998,53.9941091],[80.0938451,54.0054735],[80.08068340000001,54.016824799999995],[80.0673712,54.0489565],[80.2026088,54.080795200000004],[80.2214984,54.0458931],[80.2305322,54.037182],[80.31496170000001,54.059889899999995],[80.35491360000002,54.0819177],[80.46402740000002,54.118593800000006],[80.4923158,54.1028776],[80.51817779999999,54.1032984],[80.5721549,54.130300500000004],[80.5396103,54.173189300000004],[80.62866709999999,54.2018099],[80.64763420000001,54.1864952],[80.66166540000002,54.187530300000006],[80.67477269999998,54.20260580000001],[80.70491070000001,54.2210295],[80.798921,54.2561972],[80.80922600000001,54.2536387],[80.82558839999999,54.2356466],[80.8693955,54.24841990000001],[80.86128350000001,54.25782339999999],[80.8428541,54.3025945],[80.8197509,54.34382479999999],[80.9517095,54.375622],[80.99177879999999,54.294529100000005],[81.01132190000001,54.2646594],[81.09451980000001,54.19077620000001],[81.11216040000001,54.16542820000001],[81.1204226,54.1416921],[81.1339366,54.1178343],[81.1419418,54.1116139],[81.14795050000001,54.1099345],[81.2107083,54.1170922],[81.2389394,54.0860263],[81.25362450000002,54.089697699999995],[81.2765163,54.080843599999994],[81.3225152,54.09099380000001],[81.32931809999998,54.07911630000001],[81.34378729999999,54.0819238],[81.38583749999998,54.053070999999996],[81.4660984,54.0855419],[81.4856724,54.05989709999999],[81.48092140000001,54.057737499999995],[81.49735030000001,54.03525230000001],[81.49412060000003,54.0288071],[81.5111578,54.026845800000004],[81.5950829,54.02915830000001],[81.6138041,54.020343800000006],[81.5971281,54.0087675],[81.5657007,54.004292],[81.5613148,53.99313980000001],[81.5639386,53.971585399999995],[81.54235279999999,53.9336581],[81.5403908,53.905841699999996],[81.56960370000002,53.9087914],[81.5840579,53.91680739999999],[81.5838797,53.923821],[81.62230699999998,53.958804199999996],[81.6440185,53.967253],[81.6647847,53.981222499999994],[81.6965091,53.980541499999994],[81.7143423,53.9863313],[81.72868249999999,53.98687749999999],[81.70392500000001,53.974083099999994],[81.74861000000001,53.948264099999996],[81.7729162,53.9587776],[81.82960849999999,53.965494],[81.8393608,53.947391599999996],[81.84557889999999,53.9242258],[81.82747609999998,53.920151700000005],[81.8336029,53.90357530000001],[81.8343671,53.872415100000005],[81.7197459,53.84396949999999],[81.742681,53.8215435],[81.74390500000001,53.8117723],[81.75106900000002,53.8052545],[81.74721670000002,53.8031945],[81.7467438,53.79804290000001],[81.73416520000002,53.79483390000001],[81.7347443,53.791326500000004],[81.71422290000002,53.777357800000004],[81.7207895,53.77012930000001],[81.74229300000002,53.76300210000001],[81.74628390000002,53.757229699999996],[81.77137859999999,53.76012030000001],[81.7854102,53.7499877],[81.7881786,53.744504],[81.79485420000002,53.7452801],[81.79983440000001,53.737516600000006],[81.80874699999998,53.73214990000001],[81.78728960000002,53.724015400000006],[81.7983248,53.712901200000005],[81.80807679999998,53.71124639999999],[81.811845,53.70413560000001],[81.8175561,53.701379700000004],[81.81838179999998,53.68525090000001],[81.83091590000001,53.687339],[81.8322305,53.69370520000001],[81.8518659,53.714218800000005],[81.94206990000002,53.713487799999996],[81.9563927,53.7195174],[81.96090290000001,53.7170749],[81.96076140000001,53.7104467],[81.98878169999999,53.70517390000001],[82.0585104,53.682990800000006],[82.05522390000002,53.67599930000001],[82.0601589,53.66410810000001],[82.06639129999999,53.661677],[82.09295420000001,53.66210910000001],[82.1031043,53.6595177],[82.09986500000001,53.6564943],[82.13548999999999,53.6460609],[82.1629247,53.664917],[82.1836566,53.672259600000004],[82.1914309,53.6780904],[82.1935907,53.6739873],[82.1843652,53.658778500000004],[82.1875924,53.6526225],[82.18370219999998,53.64831200000001],[82.18742040000001,53.63799290000001],[82.17257419999999,53.6298071],[82.1652268,53.62077990000001],[82.15346809999998,53.6190207],[82.15205849999998,53.60993890000001],[82.155514,53.604108100000005],[82.16782360000002,53.6023805],[82.17775749999998,53.61015510000001],[82.194481,53.6105871],[82.1931852,53.6142584],[82.2037671,53.61685],[82.1998589,53.603546],[82.2037462,53.600522500000004],[82.20212660000001,53.5942596],[82.20881709999999,53.5889006],[82.2420086,53.5800512],[82.26009450000001,53.5821413],[82.28837239999999,53.5789775],[82.29792420000003,53.5711771],[82.29853460000001,53.5574929],[82.32517789999999,53.559096],[82.3306083,53.565144200000006],[82.3333672,53.5575252],[82.3269447,53.5418332],[82.3339384,53.5444312],[82.33780340000001,53.5414303],[82.3347114,53.5351215],[82.33878779999998,53.530929],[82.33734279999999,53.5278978],[82.3543539,53.5262833],[82.3699016,53.5134752],[82.39188940000001,53.509958600000004],[82.40997940000001,53.503106800000005],[82.4098975,53.5093862],[82.41594900000001,53.508126600000004],[82.4202977,53.5149919],[82.42533749999998,53.515933000000004],[82.4720839,53.49523550000001],[82.50159980000001,53.4960651],[82.52832889999999,53.505543200000005],[82.5304884,53.5094304],[82.53610330000001,53.5092146],[82.5426527,53.502507900000005],[82.5663872,53.4984936],[82.57587939999999,53.5004932],[82.5818045,53.5137325],[82.5695008,53.51686479999999],[82.5085202,53.5454492],[82.51271229999999,53.55186259999999],[82.53481070000001,53.565610500000005],[82.66143749999999,53.6324887],[82.6649309,53.6388042],[82.620925,53.668409600000004],[82.75605060000001,53.73972830000001],[82.7577752,53.7444107],[82.71491960000003,53.77683290000001],[83.049795,53.968519500000006],[83.05492980000001,53.965022100000006],[83.05677999999999,53.9679297],[83.05379509999999,53.970347399999994],[83.1034263,53.9915077],[83.1046352,53.99615380000001],[83.08958849999999,54.00299530000001],[83.09996300000002,54.01218],[83.1980567,54.065828100000004],[83.22003529999999,54.049973],[83.2749967,54.05126899999999],[83.2890337,54.0694094],[83.2907611,54.0858221],[83.3012323,54.0849268],[83.30210279999999,54.0793898],[83.29887219999999,54.0745486],[83.30926070000001,54.070599800000004],[83.3061014,54.06486639999999],[83.34919660000001,53.934280599999994],[83.3555657,53.932337700000005],[83.4459482,53.941922399999996],[83.44225780000001,53.9737416],[83.48826300000002,53.978316400000004],[83.4759464,54.0632094],[83.48014350000001,54.0634657],[83.49051120000001,54.0773536],[83.53331320000001,54.077922],[83.5323834,54.093201300000004],[83.54426110000001,54.09548230000001],[83.5541405,54.1092291],[83.6635417,54.111180499999996],[83.69603779999998,54.1018098],[83.7244161,54.100675800000005],[83.7860431,54.112562100000005],[83.82909209999998,54.1278201],[83.83726000000001,54.11871790000001],[83.88397909999999,54.12139260000001],[83.88129950000001,54.11044439999999],[83.8845389,54.105261399999996],[83.8573284,54.087984799999994],[83.86143179999999,54.078914600000004],[83.87482109999999,54.0802104],[83.925815,54.1045761],[83.9574311,54.1073663],[83.99770090000001,54.12253850000001],[84.0510425,54.13463230000001],[84.11712560000002,54.15428469999999],[84.1469277,54.1665944],[84.18601609999999,54.1719935],[84.1896872,54.17933610000001],[84.20825960000002,54.188838200000006],[84.2216489,54.19121380000001],[84.23503849999999,54.1851671],[84.24659450000001,54.1844143],[84.25274719999999,54.17955230000001],[84.2765027,54.1786886],[84.2769347,54.17242590000001],[84.2730474,54.171562],[84.2685124,54.1637876],[84.2793104,54.1562292],[84.3000424,54.162060200000006],[84.3531683,54.1583891],[84.3676374,54.1616286],[84.37087669999998,54.1726424],[84.39808729999999,54.177609399999994],[84.4304813,54.161628900000004],[84.423031,54.1467278],[84.44525970000002,54.138940000000005],[84.45823229999999,54.1460802],[84.53349370000001,54.157310200000005],[84.54453480000001,54.162715700000014],[84.57754849999999,54.2078442],[84.573769,54.22425690000001],[84.57722420000002,54.23743030000001],[84.59687609999999,54.2549228],[84.63358879999998,54.26896030000001],[84.64460260000001,54.280190000000005],[84.67073339999999,54.2918518],[84.68498679999999,54.28753280000001],[84.6923293,54.289260399999996],[84.71111750000001,54.3080487],[84.7571163,54.328780800000004],[84.7666183,54.33655520000001],[84.81196950000002,54.35145639999999],[84.8074344,54.3430341],[84.8158569,54.339578800000005],[84.80765060000002,54.3346118],[84.8140805,54.328129700000005],[84.825955,54.3265673],[84.8431758,54.3337481],[84.8431757,54.339579],[85.15997179999998,54.4531098],[85.31689879999999,54.29591830000002],[85.41778420000001,54.1855444],[85.5384776,54.2245634],[85.56320600000001,54.19881060000001],[85.6242221,54.2145007],[85.69046940000001,54.1447689],[85.74904470000001,54.1642941],[85.87125340000001,54.0375565],[85.91082680000001,54.04261220000001],[85.91518520000001,54.02657390000001],[86.04653390000001,54.01018739999999],[86.0641571,53.9913842],[86.1242538,53.9808962],[86.1841392,53.81162569999999],[86.3003849,53.8299518],[86.3226469,53.758891399999996],[86.34249960000001,53.711249099999996],[86.356063,53.66072330000001],[86.39373289999999,53.59728739999999],[86.4086818,53.606527],[86.42655090000001,53.60800890000001],[86.42829420000001,53.6031276],[86.43993090000001,53.6009486],[86.447776,53.5917091],[86.4717469,53.57593220000001],[86.49746100000002,53.5719228],[86.5388654,53.527643],[86.59460840000001,53.50933860000001],[86.64551360000002,53.4979202],[86.70025390000002,53.494869699999995],[86.7097115,53.484932900000004],[86.7197357,53.48109759999999],[86.7569121,53.4768267],[86.7668491,53.470463699999996],[86.78467460000002,53.469330600000006],[86.78861970000001,53.4644421],[86.7855849,53.4609618],[86.8136325,53.45144719999999],[86.81349560000001,53.4614106],[86.833749,53.477611499999995],[86.9303287,53.503674399999994],[86.92902160000001,53.47351520000001],[86.91433430000001,53.46497290000001],[86.8894919,53.464711300000005],[86.86818,53.45128779999999],[86.86338599999999,53.439171800000004],[86.87362809999999,53.428450500000004],[86.870926,53.427230200000004],[86.8731924,53.42173880000001],[86.89297909999999,53.416944799999996],[86.90370060000001,53.418600999999995],[86.9051824,53.4137198],[86.87776889999999,53.3944561],[86.8739337,53.3851293],[86.85841829999998,53.3776331],[86.8715893,53.370977499999995],[86.86760430000001,53.36478749999999],[86.8742682,53.3602632],[86.8568086,53.352395900000005],[86.85570749999998,53.347619099999996],[86.8438183,53.34668939999999],[86.83876279999998,53.3403263],[86.84495170000001,53.331609799999995],[86.84965860000001,53.3316099],[86.84869990000001,53.31958099999999],[86.8222886,53.322806],[86.81139300000001,53.3123461],[86.80938829999998,53.2950874],[86.79796960000003,53.29316970000001],[86.77186360000002,53.27861300000001],[86.75321020000001,53.263707600000004],[86.7674183,53.258042],[86.75312320000002,53.2474077],[86.75329760000001,53.2444442],[86.7428376,53.24819220000001],[86.7397867,53.2532478],[86.73385950000001,53.2476692],[86.7210461,53.244095300000005],[86.70962740000002,53.24819210000001],[86.7038744,53.245054100000004],[86.7077098,53.2420905],[86.68814099999999,53.237557800000005],[86.67428149999999,53.249325000000006],[86.6762426,53.25577530000001],[86.6631677,53.25525220000001],[86.65410229999999,53.2606564],[86.6497442,53.2536832],[86.6301319,53.2486275],[86.63161370000002,53.241654399999994],[86.62734259999999,53.23851640000001],[86.63048069999999,53.23093300000001],[86.6385,53.2266619],[86.63540579999999,53.2175096],[86.6435123,53.2118439],[86.63749779999999,53.20853160000001],[86.64421000000002,53.18046439999999],[86.71158920000002,53.19353950000001],[86.71150250000001,53.1583248],[86.71978340000001,53.152484699999995],[86.7356912,53.153443499999995],[86.7552804,53.1498738],[86.7818458,53.141415],[86.7869014,53.1370568],[86.82412120000001,53.148998500000005],[86.83928809999999,53.1506547],[86.8493122,53.1473425],[86.8500967,53.143681599999994],[86.8405086,53.1379286],[86.8455641,53.139149],[86.8401601,53.12119290000001],[86.8451285,53.12293620000001],[86.84713340000002,53.120670000000004],[86.8437512,53.11871390000001],[86.84525390000002,53.1162633],[86.8405089,53.1169218],[86.84652330000002,53.112389300000004],[86.8493998,53.1159631],[86.85323509999999,53.1149171],[86.8512303,53.112737900000006],[86.85462980000001,53.1113433],[86.8497486,53.1079439],[86.85462980000001,53.107333700000005],[86.8551529,53.104893],[86.8517534,53.1041086],[86.8565476,53.10131930000001],[86.857245,53.0938231],[86.8745476,53.0830147],[86.8862277,53.0878089],[86.89921560000002,53.084583699999996],[86.94367060000002,53.06279260000001],[87.00146170000001,53.06270580000001],[87.0545776,53.0412227],[87.0550691,53.035248900000006],[87.0585557,53.033505600000005],[87.057597,53.02827570000001],[87.0634372,53.02574800000001],[87.04229960000002,53.012062900000004],[87.0381157,53.0039565],[87.03192690000002,53.000644199999996],[87.03105550000001,52.9835598],[87.0159759,52.968393000000006],[87.01601960000002,52.96211710000001],[87.02177259999999,52.9601995],[87.02342879999999,52.95444659999999],[87.015584,52.9445097],[87.01741470000002,52.925943600000004],[87.01270769999999,52.924025900000004],[87.00791390000002,52.8991838],[86.95687849999999,52.873034],[86.9369173,52.878089499999994],[86.9293339,52.875038700000005],[86.92139390000001,52.8632535],[86.9230583,52.853072999999995],[86.91242410000001,52.846971399999994],[86.92018209999999,52.8290154],[86.9483367,52.8309331],[86.95191060000002,52.8204733],[86.9452861,52.8163765],[86.94999310000001,52.806178300000006],[86.9559205,52.803650399999995],[86.9463324,52.7892681],[86.9713492,52.774973100000004],[86.97483609999999,52.75605830000001],[87.00800279999999,52.7536179],[87.0100948,52.746208800000005],[87.02107779999999,52.743245200000004],[87.0228649,52.72999610000001],[87.0697167,52.7238076],[87.0650098,52.7131734],[87.0532426,52.7048927],[87.0664919,52.69591460000001],[87.09429790000002,52.690074700000004],[87.0916828,52.6948688],[87.1030579,52.70550300000001],[87.103668,52.712476200000005],[87.1125589,52.71448109999999],[87.1140407,52.717531900000004],[87.1636819,52.710210200000006],[87.1686505,52.6960895],[87.1432589,52.6562301],[87.12908039999999,52.62181090000001],[87.13270029999998,52.6175931]],[[86.81066470000002,53.3471298],[86.7595487,53.355400599999996],[86.7512353,53.3498057],[86.7543445,53.343886299999994],[86.7517672,53.337557],[86.75461010000001,53.3347458],[86.78489090000001,53.3336089],[86.78873109999998,53.3366753],[86.80595679999999,53.338558400000004],[86.81066470000002,53.3471298]]]}}