{"type":"Feature","properties":{"regionId":"arkhangelskaya_oblast","name":"Архангельская область","name:en":"Arkhangelsk Oblast","timezone":"Europe/Moscow","name_ru":"Архангельская область","name_en":"Arkhangelsk Oblast","name_zh":"阿尔汉格尔斯克州"},"geometry":{"type":"MultiPolygon","coordinates":[[[[37.9756006,80.13513699999999],[37.9643371,80.1167519],[37.932902500000004,80.09145620000001],[37.9013178,80.073275],[37.85996449999999,80.05569109999999],[37.749695700000004,80.02293279999998],[37.583449699999996,79.98986590000001],[37.4045625,79.96572390000001],[37.2025871,79.9480761],[36.936840999999994,79.9361061],[36.7086878,79.9331301],[36.4816053,79.9380327],[36.264261,79.95062690000002],[35.9700418,79.9821435],[35.7816779,80.0105083],[35.63555670000001,80.04023570000001],[35.524976900000006,80.07429520000001],[35.484476199999996,80.0925571],[35.45444709999999,80.11141320000002],[35.435233200000006,80.1306845],[35.420309700000004,80.15959269999999],[35.42315850000001,80.17894189999998],[35.4370283,80.1981529],[35.4618493,80.21704300000002],[35.49744449999999,80.23543109999999],[35.558157800000004,80.2580834],[35.62014130000001,80.2764648],[35.777557300000005,80.30933449999999],[35.973548300000004,80.33575699999999],[36.2175019,80.3560285],[36.459285599999994,80.366145],[36.70850480000001,80.3674007],[36.97893890000001,80.36152870000001],[37.1730484,80.35134609999999],[37.3722656,80.3338304],[37.5752463,80.30564809999998],[37.736986200000004,80.27249509999999],[37.8325235,80.24632440000002],[37.87747159999999,80.2303205],[37.913732100000004,80.21369770000001],[37.9493872,80.19025990000002],[37.9681476,80.17205049999998],[37.9768926,80.15362300000001],[37.9756006,80.13513699999999]]],[[[66.6248744,80.98044879999999],[66.60073229999998,80.963272],[66.62194629999999,80.93067040000001],[66.60657849999998,80.89591300000001],[66.5552309,80.85093129999998],[66.52283639999999,80.83280699999999],[66.48176400000001,80.81574879999998],[66.4219803,80.79723010000001],[66.3561917,80.7711055],[66.19765960000002,80.7278117],[66.0839958,80.7042928],[66.0327404,80.68748749999999],[65.9669058,80.67074319999999],[65.79468340000003,80.63648099999999],[65.66914390000001,80.6179089],[65.27843269999998,80.56863209999999],[65.05294599999999,80.5435413],[64.89426480000002,80.5296857],[64.5798657,80.51089390000001],[64.3721693,80.5039568],[64.0938922,80.48721530000002],[63.85843439999999,80.4801982],[63.677354300000005,80.46190730000001],[63.4949665,80.44946680000001],[63.30811560000001,80.4421463],[62.9897466,80.4408508],[62.905140700000004,80.4258835],[62.6730432,80.3998074],[62.67992520000001,80.39404560000001],[62.6777114,80.3591547],[62.6392462,80.32473209999998],[62.5606234,80.29002700000001],[62.487909499999994,80.2684601],[62.4023314,80.2489426],[62.297226300000005,80.23021520000002],[62.149216900000006,80.2103452],[61.77236250000001,80.17335279999998],[61.67426449999999,80.1602969],[61.4101002,80.1394147],[61.392799200000006,80.1145541],[61.353769899999996,80.0886004],[61.248110300000015,80.0486011],[61.12807300000001,80.0197168],[61.017494899999996,80.00029090000001],[61.0101208,79.9877893],[61.07715,79.94932200000001],[61.09515690000001,79.93045540000001],[61.1032776,79.90215400000001],[61.09372930000001,79.87887429999998],[61.080437599999996,79.86462560000002],[61.029188700000006,79.82891279999998],[60.953993,79.79908350000001],[60.8528563,79.77179109999999],[60.65754,79.7368582],[60.5079669,79.71903950000001],[60.3699213,79.70728900000002],[60.0952691,79.6932418],[59.84182659999999,79.68879369999999],[59.69775080000001,79.6921112],[59.590260300000004,79.65857349999999],[59.4751619,79.6345183],[59.356796499999994,79.61610470000001],[59.17945280000001,79.59568440000001],[59.0582257,79.58547909999999],[58.7546134,79.5723537],[58.533669399999994,79.57218109999998],[58.23340830000001,79.58462570000002],[58.0591901,79.5995745],[57.830100300000005,79.631502],[57.6704251,79.66743079999999],[57.59292130000001,79.69375209999998],[57.535134000000006,79.72347609999998],[57.5030034,79.7558266],[57.49819250000001,79.77083409999999],[57.5015483,79.79015770000001],[57.4097411,79.80669340000001],[57.32464439999999,79.8260592],[57.241058100000004,79.8511399],[57.219844499999994,79.86022590000002],[57.0149119,79.83173249999999],[56.738112100000016,79.8103466],[56.497338400000004,79.8022279],[56.323475300000005,79.8009207],[56.150544,79.80426700000001],[55.9734556,79.8126922],[55.8060019,79.8259896],[55.66415260000001,79.8421714],[55.5368227,79.8618822],[55.420030600000004,79.886292],[55.3502181,79.9064181],[55.1617247,79.9235301],[55.004341399999994,79.94491950000003],[54.869912400000004,79.97070279999998],[54.775284,79.9959882],[54.7364741,80.0110738],[54.5396195,79.9973982],[54.5372755,79.9867068],[54.500878300000004,79.95520950000001],[54.436332400000005,79.92512460000002],[54.345510700000005,79.89721320000002],[54.2308955,79.87217549999998],[54.0948655,79.85054869999999],[53.8882024,79.82818499999999],[53.66001590000001,79.8139397],[53.488601499999994,79.8090419],[53.16811040000001,79.8118971],[52.9813249,79.81955640000001],[52.796783100000006,79.8329876],[52.627878200000005,79.8518476],[52.57337820000001,79.86085440000001],[52.5506902,79.8600227],[52.5384827,79.85306179999999],[52.463702700000006,79.82648329999999],[52.36789159999999,79.8021253],[52.2528077,79.7804379],[52.0679488,79.75565900000001],[51.8837176,79.7363027],[51.696616600000006,79.7239998],[51.432325500000005,79.71435520000001],[50.96053130000001,79.7148821],[50.6139371,79.7281268],[50.4073911,79.72761260000001],[50.0934095,79.73624400000001],[49.9197829,79.74835560000001],[49.677532500000005,79.7591413],[49.524027499999995,79.77191970000001],[49.3665243,79.79117470000001],[49.127324,79.79064090000001],[48.9311851,79.79569640000001],[48.64573850000001,79.811407],[48.4966238,79.82597829999997],[48.3611166,79.84428690000001],[48.2590312,79.8631487],[47.79314420000001,79.84707279999999],[47.5896356,79.84822060000002],[47.3903461,79.8556444],[47.20135820000001,79.8691182],[46.985589499999996,79.8934189],[46.85096909999999,79.9157407],[46.403958200000005,80.0013913],[46.224151400000004,80.0234224],[46.040659999999995,80.0564899],[45.967878,80.0749053],[45.8623696,80.1098526],[45.8001266,80.1422063],[45.76615430000001,80.17359499999999],[45.6962876,80.1925457],[45.618836200000004,80.22005970000001],[45.5591066,80.2544769],[45.549843499999994,80.26732440000002],[45.35506099999999,80.2869312],[44.76135270000001,80.35783839999999],[44.6014013,80.3832473],[44.5627675,80.39213149999999],[44.18867530000001,80.43160670000002],[44.034935000000004,80.45374629999999],[43.9048126,80.4798966],[43.8103928,80.5065425],[43.7329446,80.53991090000001],[43.6940915,80.56997879999999],[43.6833764,80.5924058],[43.689423,80.6178375],[43.724940700000005,80.65080699999999],[43.78538830000001,80.67917059999999],[43.9115566,80.71628380000001],[44.0595631,80.74490140000002],[44.1591604,80.75993829999999],[44.4179158,80.7892453],[44.581282599999994,80.8010462],[44.8313032,80.8107462],[45.234473300000005,80.8334124],[45.5037278,80.84166730000001],[45.590419600000004,80.85894709999998],[45.7068271,80.87612370000001],[45.934197,80.8988009],[45.9675597,80.91716320000003],[46.070410200000005,80.94965840000002],[46.2097174,80.9786397],[46.3813332,81.0031491],[46.5791034,81.02227879999998],[46.7964616,81.03537769999998],[46.9331668,81.03849340000001],[47.0871265,81.04745770000001],[47.34098049999999,81.05548859999999],[47.600139500000004,81.0552579],[47.780205200000005,81.0501348],[47.952461099999994,81.04106760000002],[48.2458841,81.0139785],[48.51042439999999,81.01238],[48.67827930000001,81.0063931],[48.79699030000001,81.03453460000001],[48.9346729,81.0574077],[49.1102742,81.07831869999998],[49.1264946,81.0923497],[49.099597800000005,81.1091641],[49.08221830000001,81.14298209999998],[49.09159880000001,81.17252579999999],[49.1298961,81.2027564],[49.208721100000005,81.2351523],[49.4006002,81.28427140000001],[49.521324,81.31013879999999],[49.668602400000005,81.33278769999998],[49.898769800000004,81.3568332],[50.15873080000001,81.37292749999999],[50.38684309999999,81.3796486],[50.7530397,81.3802053],[50.982556300000006,81.37607739999999],[51.219307,81.36493960000001],[51.611688099999995,81.33297069999999],[51.7596662,81.3158942],[51.9183584,81.2918367],[52.0636517,81.2620067],[52.118505400000004,81.24735770000001],[52.201289599999996,81.21774520000001],[52.23503710000001,81.20165220000001],[52.26597400000001,81.1816809],[52.2945664,81.14532360000001],[52.297074300000006,81.1185143],[52.274997,81.0873866],[52.2038042,81.049784],[52.1256466,81.0245911],[52.0776731,81.01255300000001],[52.10519060000001,81.0004067],[52.141778800000004,80.9660343],[52.1462034,80.9550033],[52.1719296,80.94464730000001],[52.2159616,80.93364660000002],[52.4272175,80.8925393],[52.6996034,80.85335029999999],[52.7717899,80.8395851],[52.78517920000001,80.8556653],[52.812350200000004,80.87610579999999],[52.870792200000004,80.90386690000001],[52.9407394,80.92639809999999],[53.134018100000006,80.97273909999998],[53.0495775,80.9967986],[53.009888399999994,81.01149740000001],[52.961232300000006,81.03613849999999],[52.91720759999999,81.0770426],[52.90786409999999,81.1042486],[52.918173900000006,81.1280147],[52.959338900000006,81.1592993],[53.0299211,81.18831519999999],[53.1268067,81.21432670000002],[53.05844439999999,81.23395570000001],[53.015751200000004,81.2512861],[52.968633100000005,81.26364460000002],[52.8912097,81.294931],[52.848855900000004,81.3277293],[52.843139,81.36113470000001],[52.874638399999995,81.39421560000002],[52.942883599999995,81.42603869999999],[53.0417082,81.45461540000002],[53.1705892,81.48039729999999],[53.3264233,81.5027291],[53.5051837,81.5210058],[53.79131160000001,81.53916470000001],[53.997157800000004,81.5456085],[54.09135320000001,81.5575991],[54.29493610000001,81.57538669999998],[54.517146399999994,81.58761330000002],[54.76859840000001,81.59455290000001],[55.08486919999999,81.59352220000001],[55.333620399999994,81.5848365],[55.444186699999996,81.5769695],[55.542607399999994,81.6221104],[55.6415771,81.64767660000001],[55.765866900000006,81.6708247],[55.9137335,81.691135],[56.13999090000001,81.71421780000001],[56.3891606,81.73004060000001],[56.54913390000001,81.73507289999999],[56.5519056,81.7515873],[56.4974217,81.79051660000002],[56.497126800000004,81.8275876],[56.545191300000006,81.8640263],[56.6308925,81.8958559],[56.753768300000004,81.9250084],[56.833313000000004,81.93922790000002],[57.12993430000001,81.97787340000001],[57.356385599999996,81.9988063],[57.5726425,82.01223879999999],[57.8634733,82.0242017],[58.072410500000004,82.02924809999999],[58.437846199999996,82.0493623],[58.654494199999995,82.05462310000001],[59.1319315,82.05862320000001],[59.4198127,82.0544709],[59.686938700000006,82.04452500000002],[59.94046699999999,82.0289652],[60.1724942,82.0061971],[60.3524184,81.98000900000001],[60.4942801,81.94968250000001],[60.6439114,81.8930672],[60.678904700000004,81.87583849999997],[60.702949700000005,81.8592712],[60.7185875,81.83988729999999],[60.72177220000001,81.8238942],[60.7121879,81.78929160000001],[60.700040200000004,81.7743457],[60.678783200000005,81.7628367],[60.6573099,81.73228390000001],[60.6178103,81.7065063],[60.72161880000001,81.7386082],[60.8586759,81.7666728],[60.9948437,81.78689990000001],[61.148399600000005,81.8039897],[61.3318227,81.83352540000001],[61.634135400000005,81.86433829999999],[61.9485505,81.8842707],[62.12452530000001,81.8910486],[62.564822,81.9030018],[63.1018586,81.90749090000001],[63.4466727,81.9070303],[63.680558000000005,81.90130370000001],[63.864547099999996,81.8936978],[64.11728660000001,81.87823519999999],[64.2927409,81.86307269999999],[64.59377719999999,81.8265747],[64.74920650000001,81.8010358],[64.8547254,81.7798895],[64.93392630000001,81.7596086],[65.00394960000001,81.7366585],[65.06537269999998,81.70898129999999],[65.11202440000001,81.68218789999999],[65.1340467,81.65590679999998],[65.1317907,81.62217999999999],[65.09047249999999,81.5894912],[65.051535,81.5689285],[64.9687033,81.534895],[64.8878168,81.5104747],[64.72509029999999,81.47583979999999],[64.58461520000002,81.4532518],[64.26321450000002,81.41640650000001],[63.9093541,81.3913895],[63.69501260000001,81.3822953],[63.346115000000005,81.37667719999999],[63.0729491,81.38087619999999],[62.884721299999995,81.35969829999999],[62.70512420000001,81.3446765],[62.4990564,81.332574],[62.19507500000001,81.32378729999998],[61.8719155,81.3254637],[61.8925672,81.30201709999999],[62.2369416,81.2755689],[62.469411300000004,81.2521102],[62.651754499999996,81.223915],[62.79295960000001,81.19073869999998],[62.8290883,81.17639849999998],[62.880274099999994,81.21045970000002],[62.9584362,81.2388598],[63.0648698,81.265065],[63.19719690000001,81.2884309],[63.3422043,81.30644509999999],[63.51805220000001,81.3338169],[63.838394,81.3665793],[64.1594274,81.3861048],[64.4804948,81.3934991],[64.86333209999998,81.389143],[65.06939390000001,81.38282099999999],[65.37108179999998,81.36583189999999],[65.6914035,81.34043679999999],[65.9404463,81.30873189999998],[66.2319021,81.25403279999999],[66.38377979999999,81.2150658],[66.46549940000001,81.18530999999999],[66.52547379999999,81.15239859999998],[66.5709352,81.11546009999999],[66.5751847,81.0999901],[66.6033447,81.08491930000001],[66.62066970000001,81.06779660000001],[66.64463930000001,81.0151531],[66.6248744,80.98044879999999]]],[[[58.5947676,70.7643953],[57.884216499999994,70.44223450000001],[57.446829699999995,70.1632918],[56.9970267,70.2551658],[56.63852610000001,70.24411280000001],[56.492749,70.24408530000001],[56.39973560000001,70.2485585],[56.2101295,70.265102],[55.289039900000006,70.2861921],[55.18891330000001,70.29220340000002],[55.112956800000006,70.3009333],[55.0071518,70.3202498],[54.4089637,70.4584794],[53.7346797,70.5078084],[53.65794639999999,70.51591760000001],[53.5687866,70.5304884],[53.105832500000005,70.6452726],[52.5839707,70.81048360000001],[51.76267590000001,71.1388269],[51.09254550000001,71.4274028],[51.0531191,71.450134],[50.9794231,71.5122845],[50.96019810000001,71.5374561],[50.95142959999999,71.5551689],[50.948252100000005,71.58050829999999],[50.9229854,71.59952910000001],[50.9032035,71.6204616],[50.8871943,71.6434598],[50.882846799999996,71.65574109999997],[50.868922000000005,71.6699002],[50.8377236,71.7173752],[50.81831290000001,71.74011720000001],[50.8085661,71.7584916],[50.8002155,71.7897262],[50.79476330000001,71.84510709999999],[50.806014399999995,71.87843569999998],[50.8429797,71.9173085],[50.860755600000005,71.9508886],[50.86486039999999,71.9800822],[50.8697839,71.9951705],[50.88164319999999,72.01361460000003],[50.88465349999999,72.02702310000001],[50.9354654,72.10961340000001],[50.969557800000004,72.14099960000001],[51.0366737,72.17778369999999],[51.169206100000004,72.22632229999999],[51.236909700000005,72.24600450000001],[51.7449178,72.75631229999999],[51.7640778,72.77883609999998],[51.816821999999995,72.8205993],[51.853049199999994,72.8405161],[51.870279599999996,72.85791060000001],[51.9060418,72.88374879999998],[52.029340600000005,72.952137],[52.5633764,73.21189260000001],[52.6101564,73.2398971],[52.6908416,73.27671129999999],[52.9094086,73.36335279999999],[53.0174422,73.39165740000001],[53.05758039999999,73.3991475],[53.303015300000006,73.4863998],[53.29525610000001,73.5596218],[53.191006200000004,73.5858152],[53.1104,73.61298879999998],[53.071445399999995,73.6296133],[53.011877299999995,73.66570909999999],[52.981806199999994,73.6969376],[52.9630934,73.73664420000001],[52.961950800000004,73.75325260000001],[52.970801599999994,73.78658229999999],[52.97962439999999,73.80088679999999],[53.028794100000006,73.85470509999999],[53.05759449999999,73.87645129999999],[53.1119986,73.90496190000002],[53.14532290000001,73.91820290000001],[53.267151600000005,73.9528258],[53.783500700000005,74.0505856],[53.9301475,74.0967042],[53.98409639999999,74.1262867],[54.05756699999999,74.1545458],[54.0940677,74.165257],[54.135465800000006,74.18374779999998],[54.237950600000005,74.2187608],[54.3613912,74.2551589],[54.3902882,74.2987943],[54.4200849,74.32533759999998],[54.4567432,74.34922770000001],[54.6366714,74.44481940000003],[54.67230390000001,74.4803265],[54.8309118,74.59186520000002],[54.85664699999999,74.64190370000001],[54.870374,74.6598156],[55.042877499999996,74.81706720000001],[55.0662449,74.94092880000001],[55.024281099999996,74.9840877],[55.009351,74.9938915],[54.983061199999995,75.02418109999999],[54.9737831,75.0514498],[54.977807999999996,75.07609049999999],[54.99812970000001,75.1088647],[55.04467749999999,75.16792240000001],[55.0919334,75.2019308],[55.11163439999999,75.21053340000002],[55.12852730000001,75.22281609999999],[55.1670766,75.24446770000002],[55.258479900000005,75.2794532],[55.3736141,75.3129145],[55.441528,75.3293509],[55.5612638,75.35063869999999],[55.75341290000001,75.37089879999998],[56.0446568,75.41071240000001],[56.1474857,75.4487062],[56.252235500000005,75.4792188],[56.39713270000001,75.51204109999999],[56.521700800000005,75.53300420000001],[57.9081649,75.92312120000001],[58.05271020000001,75.98464700000001],[58.277779200000005,76.13210219999999],[58.3107342,76.1473019],[58.3701966,76.1686832],[58.4404093,76.18888869999998],[58.62221300000001,76.2290352],[58.75010270000001,76.24791650000002],[59.7406365,76.335843],[60.626180100000006,76.45926560000002],[60.788613500000004,76.4749426],[61.06372820000001,76.48624980000001],[61.695407700000004,76.49780120000001],[62.69903500000001,76.4638927],[63.3044739,76.50679129999999],[63.626167800000005,76.573016],[63.7166593,76.5881169],[63.9208124,76.6103969],[64.57225799999999,76.66365490000001],[64.85939769999999,76.70166570000002],[65.0760144,76.7550469],[65.12619529999999,76.7826628],[65.2029213,76.8156263],[65.3209486,76.85496400000001],[65.45605360000002,76.88835649999999],[66.33545699999999,77.0596885],[66.5044901,77.09622530000001],[67.17927159999999,77.2036753],[67.31933719999999,77.22039229999999],[67.54510560000001,77.2373431],[67.7963005,77.24278],[68.04426520000003,77.2324319],[68.93739350000001,77.14457970000001],[69.0234612,77.13235839999999],[69.21039,77.09922170000002],[69.3013993,77.0768452],[69.35303849999998,77.06031540000001],[69.6132029,76.955894],[69.7990981,76.8633316],[69.8361229,76.84124330000002],[69.8526806,76.8275648],[69.94417480000001,76.73852740000001],[69.9559163,76.71681460000002],[69.95722520000002,76.69493709999999],[69.948136,76.67315789999999],[69.9397369,76.66238669999998],[69.7894413,76.49573809999998],[69.77467390000001,76.4817084],[69.74455410000002,76.46122050000002],[69.70522770000001,76.44161140000003],[69.04655370000002,76.1549691],[68.9863551,76.1319927],[68.91391730000001,76.11116320000002],[68.8305926,76.0928548],[68.73791080000001,76.07739509999999],[68.6375521,76.06505990000001],[68.5313183,76.0560684],[68.362304,76.04959120000001],[68.03365990000002,75.99458140000002],[67.93832350000001,75.9822379],[67.81299879999999,75.95163600000001],[67.71794190000001,75.9343678],[67.5629892,75.91150110000001],[67.2271735,75.8686122],[67.0496487,75.851447],[66.94045550000001,75.8298144],[66.8073118,75.8097493],[66.6612786,75.79619620000001],[66.4937045,75.789422],[66.28202340000001,75.7500258],[66.1431411,75.73220060000001],[66.028291,75.72233749999998],[65.9301853,75.70536879999999],[65.83643509999999,75.6859252],[65.7159786,75.6512441],[65.5587946,75.6232796],[65.37973799999997,75.6052995],[65.2497177,75.60053549999999],[65.13874059999999,75.58822],[64.96818370000001,75.5603339],[64.8641948,75.55030209999998],[64.6319426,75.5348615],[64.5820474,75.52078929999999],[64.44656190000002,75.49372920000002],[64.3095225,75.45880360000001],[64.18407109999998,75.43732410000001],[64.04495690000002,75.42215320000001],[63.65442159999999,75.39269460000001],[63.4215626,75.3682027],[63.326447699999996,75.36255390000001],[63.183346,75.3308263],[63.115572400000005,75.32041199999999],[62.974751,75.30553679999998],[62.91,75.2857233],[62.829485399999996,75.26692420000002],[62.73033730000001,75.2488653],[62.643681599999994,75.23725120000002],[62.1047511,75.08704809999999],[61.62274530000001,74.91907690000001],[61.208288,74.74419660000002],[60.893193000000004,74.6221214],[60.4970001,74.49045490000002],[60.267404,74.36211],[60.1840859,74.30459940000001],[60.15198759999999,74.2866893],[60.07043290000001,74.25429950000002],[59.96744399999999,74.22681320000001],[59.309067899999995,74.0835127],[59.1568712,74.0056467],[58.8899381,73.88943259999999],[58.53073200000001,73.68013609999998],[58.2015826,73.5006786],[57.830577399999996,73.33856229999999],[57.7847573,73.32147799999998],[57.7575939,73.30525560000001],[57.65725,73.25798470000001],[57.3324561,73.1329049],[57.187162,73.0346521],[57.0738541,72.9528443],[56.877680899999994,72.79782800000001],[56.8343935,72.7589809],[56.780710400000004,72.72921550000001],[56.7444659,72.6997684],[56.53821560000001,72.56870199999999],[56.257218800000004,72.3826835],[56.213768800000004,72.23466530000002],[56.22957630000001,72.18689099999999],[56.22732580000001,72.1562954],[56.209873200000004,72.12616360000001],[56.1089465,72.02649629999999],[56.1074716,71.96728050000002],[56.1432419,71.93622240000002],[56.16277500000001,71.9044001],[56.178386,71.89081920000001],[56.19432510000001,71.8438955],[56.188093300000006,71.8292008],[56.207169,71.8078674],[56.264421,71.72453900000001],[56.26957110000001,71.7100611],[56.3014721,71.6674865],[56.34060149999999,71.63839089999999],[56.352775300000005,71.62308749999998],[56.3996008,71.5936429],[56.425797100000004,71.57297419999999],[56.4457897,71.55038149999999],[56.4820719,71.5193337],[56.5452114,71.4740729],[56.5713955,71.4497515],[56.6169277,71.41916980000002],[56.6480442,71.38848779999998],[56.6612602,71.360691],[56.6873006,71.3373967],[56.7515561,71.29219090000001],[56.807546099999996,71.27662560000002],[56.897684899999994,71.2451848],[56.98986459999999,71.20052360000003],[57.078832600000005,71.1671589],[57.129742400000005,71.13844329999999],[57.19252430000001,71.1190205],[57.27283860000001,71.08677999999999],[57.3581749,71.0596905],[57.4216236,71.03133129999999],[57.4465097,71.0159416],[57.559308300000005,70.99439650000001],[57.660365500000005,70.98356170000001],[57.77652290000001,70.96192720000002],[57.9070459,70.92278049999999],[58.064930800000006,70.85305009999999],[58.5947676,70.7643953]]],[[[48.41967749999999,60.8372063],[47.966529900000005,60.879170900000005],[47.966529300000005,60.8881266],[47.9613048,60.8955065],[47.9654487,60.9323241],[47.9593116,60.9444306],[47.9559919,60.988545200000004],[47.9411104,61.00213130000001],[47.913783499999994,61.000153700000006],[47.8971979,61.0168208],[47.836207599999994,61.0079713],[47.789066,61.02635530000001],[47.773891,61.0280964],[47.74273310000001,61.02555300000001],[47.69933160000001,61.0349831],[47.678243900000005,61.036414300000004],[47.66256290000001,61.0310228],[47.655019300000006,61.0336042],[47.645452000000006,61.0507002],[47.62486739999999,61.0525295],[47.6030767,61.060585700000004],[47.486064799999994,61.0466668],[47.482582900000004,61.03547220000001],[47.4633442,61.0426862],[47.1931804,61.06739290000001],[47.182237,61.02833640000001],[47.19381030000001,61.0224455],[47.19395110000001,60.9969784],[47.1719743,60.98756339999999],[47.1468224,60.982130600000005],[47.1228246,60.9604408],[47.10230370000001,60.9617487],[47.103630800000005,60.956192900000005],[47.09917590000001,60.944299099999995],[47.1096611,60.943359300000004],[47.1165418,60.9384314],[47.10878530000001,60.93903220000001],[47.072163700000004,60.84448059999999],[46.924817399999995,60.856179],[46.9336935,60.8709907],[46.899630300000005,60.881965799999996],[46.8204439,60.8815628],[46.793613500000006,60.92272390000001],[46.8236771,60.96312580000001],[46.679470200000004,60.9708963],[46.542856900000004,60.9822656],[46.5523995,61.0230295],[46.5247604,61.043914900000004],[46.514829899999995,61.042230800000006],[46.5137935,61.0451667],[46.509043999999996,61.045253],[46.509476,61.0426625],[46.504035800000004,61.041194399999995],[46.4952276,61.0443893],[46.4917735,61.043353],[46.4932416,61.0411942],[46.484347299999996,61.040503300000005],[46.482016,61.036790100000005],[46.4833982,61.0280684],[46.474057599999995,61.008627499999996],[46.4127772,61.0120898],[46.365157700000005,60.995728500000006],[46.312821099999994,60.9958486],[46.29952360000001,60.96874210000001],[45.7594135,61.0112187],[45.788076800000006,61.104998200000004],[45.8090082,61.16153380000001],[45.770547,61.164096900000004],[45.765006400000004,61.14488749999999],[45.725530800000016,61.1476717],[45.73055900000001,61.16677120000001],[45.3384055,61.19511770000001],[45.3264176,61.158703900000006],[45.36165,61.1552504],[45.349735700000004,61.1182912],[45.31467609999999,61.120363100000006],[45.2511365,60.894040499999996],[44.925030500000005,60.910785399999995],[44.1598025,60.9650345],[44.180954,61.0614927],[44.09451000000001,61.0529892],[43.95496299999999,61.05747739999999],[43.9409739,61.054973],[43.9384705,61.044178900000006],[43.898834300000004,61.0454735],[43.8967624,61.036061],[43.8811325,61.0358017],[43.8682656,61.0399465],[43.868351600000004,61.0455594],[43.819993999999994,61.042968],[43.78294890000001,61.0371818],[43.7532498,60.9402936],[43.7677575,60.9347673],[43.751350900000006,60.9257864],[43.740470300000005,60.9285494],[43.73252680000001,60.91386939999999],[43.73511770000001,60.90817010000001],[43.766378300000014,60.896254],[43.7349468,60.881055399999994],[43.7121494,60.884336399999995],[43.70575860000001,60.8931443],[43.6817524,60.8950437],[43.657747699999994,60.87086449999999],[43.5976463,60.8662006],[43.5791672,60.8599829],[43.544625999999994,60.857909799999995],[43.5237345,60.76637570000001],[43.250684299999996,60.79244990000001],[43.24653910000001,60.79694020000001],[43.2144155,60.800912000000004],[43.2047435,60.8081655],[43.19697180000001,60.806783599999996],[43.197835500000004,60.803502300000005],[43.1786656,60.79555750000001],[43.156731900000004,60.796852400000006],[43.161394800000004,60.799443100000005],[43.1531041,60.81196409999999],[43.13514280000001,60.8092006],[43.130480399999996,60.799356300000014],[43.118737,60.78933920000001],[43.10077580000001,60.78623030000001],[43.096976500000004,60.781912500000004],[43.099222000000005,60.7767314],[43.090759600000005,60.774313400000004],[43.077677699999995,60.74446449999999],[42.9949785,60.7298914],[42.984027999999995,60.7607544],[42.9664984,60.76153120000001],[42.967792900000006,60.77292980000001],[42.9479316,60.77413850000001],[42.950003499999994,60.783896399999996],[42.911921899999996,60.782082300000006],[42.91969159999999,60.813687499999986],[42.9095019,60.8143782],[42.90604739999999,60.819732],[42.8833364,60.8219768],[42.88756709999999,60.832252800000006],[42.8288455,60.8545309],[42.8026024,60.85716049999999],[42.800090499999996,60.8456362],[42.658296,60.887946799999995],[42.6394718,60.875166300000004],[42.6158978,60.86877580000001],[42.609162600000005,60.864199],[42.612876,60.8609177],[42.604414,60.85176419999999],[42.6183174,60.844251699999994],[42.616072300000006,60.8425246],[42.59379290000001,60.847187299999995],[42.58515820000001,60.837515700000004],[42.57013280000001,60.8382063],[42.5663344,60.81946769999999],[42.559426699999996,60.811523099999995],[42.540170700000004,60.8002105],[42.54215730000001,60.792956900000014],[42.5365448,60.787344],[42.544489799999994,60.779399600000005],[42.549584599999996,60.779227],[42.5565791,60.781213300000005],[42.5537293,60.7844083],[42.5490662,60.78311290000001],[42.55062039999999,60.7862217],[42.5470797,60.7888984],[42.5456111,60.79960620000001],[42.56391790000001,60.79952010000001],[42.56201910000001,60.785271900000005],[42.567545900000006,60.78250880000001],[42.5661644,60.7782774],[42.569705000000006,60.7772412],[42.5704825,60.773182600000005],[42.523075000000006,60.7669645],[42.5246284,60.7811264],[42.5194469,60.78665290000001],[42.5333494,60.791920600000005],[42.531881199999994,60.79520200000001],[42.5371486,60.796411000000006],[42.5342988,60.79856980000001],[42.508652000000005,60.7971878],[42.4979447,60.791574600000004],[42.497643,60.7841915],[42.455243499999995,60.7854861],[42.4292091,60.768387800000006],[42.3760921,60.76838920000001],[42.35668709999999,60.774329200000004],[42.32717290000001,60.77509280000001],[42.224723700000006,60.790318200000016],[42.20814430000001,60.784445999999996],[42.173689399999994,60.786258800000006],[42.16626290000001,60.78859030000001],[42.1531364,60.801024899999994],[42.164621,60.8060335],[42.16600230000001,60.811301099999994],[42.128811400000004,60.8127033],[42.12914820000001,60.8302702],[42.12571600000001,60.833619999999996],[42.12835070000001,60.8363427],[42.12679620000001,60.839106],[42.135086,60.8409195],[42.1332724,60.8429056],[42.1138431,60.84126459999999],[42.111598300000004,60.835738000000006],[42.0740348,60.8346148],[42.0634994,60.839105],[41.98388189999999,60.8400536],[41.974728,60.8459254],[41.9643658,60.8441983],[41.9662657,60.8424713],[41.963502500000004,60.841348599999996],[41.956421199999994,60.84696139999999],[41.9483904,60.8456659],[41.947354399999995,60.8422983],[41.9268886,60.843679599999994],[41.93155,60.868290200000004],[41.9566786,60.8700176],[41.956505,60.88426569999999],[41.943809699999996,60.9052493],[41.9528762,60.91483459999999],[41.9293017,60.9160432],[41.9232574,60.909739300000005],[41.909786499999996,60.906544],[41.91142759999999,60.9013629],[41.90788719999999,60.8998948],[41.9103052,60.8981678],[41.9046923,60.8967861],[41.885175600000004,60.9099978],[41.824641799999995,60.9163869],[41.79338290000001,60.90231090000001],[41.793555800000014,60.9002384],[41.8208432,60.9026567],[41.81946169999999,60.9001524],[41.823434,60.89825280000001],[41.821189,60.89713020000001],[41.81548949999999,60.8996343],[41.79631940000001,60.8962662],[41.803486899999996,60.8923805],[41.8120357,60.8947985],[41.814799099999995,60.893503300000006],[41.812985999999995,60.8899628],[41.818512600000005,60.887458599999995],[41.8130726,60.8852997],[41.8096182,60.8896173],[41.802191900000004,60.8890127],[41.79623320000001,60.8931576],[41.78768459999999,60.8880626],[41.789930000000005,60.8852993],[41.785698800000006,60.883054099999995],[41.79295290000002,60.87666409999999],[41.77844520000001,60.8822769],[41.76359270000001,60.8793406],[41.76851520000002,60.8733824],[41.72516620000001,60.8701866],[41.7322474,60.8662145],[41.72853480000001,60.8583564],[41.696843300000005,60.8575787],[41.6515937,60.8662996],[41.6511607,60.884433599999994],[41.63933000000001,60.8893555],[41.626118200000015,60.886678399999994],[41.59459890000001,60.894449699999996],[41.5797464,60.8900455],[41.570333700000006,60.893240399999996],[41.57257880000001,60.89488099999999],[41.5676564,60.898853200000005],[41.509109300000006,60.8952254],[41.4260394,60.8702682],[41.4158503,60.861891899999996],[41.37768309999999,60.850319999999996],[41.383383099999996,60.8389216],[41.424661199999996,60.8180249],[41.361197399999995,60.732621],[41.346605399999994,60.708183000000005],[41.342461799999995,60.687544599999995],[41.359819699999996,60.673987499999996],[41.3699251,60.641519],[41.3495458,60.6407416],[41.3269206,60.6526578],[41.309994399999994,60.6682874],[41.27035860000001,60.665696200000006],[41.261205800000006,60.65524739999999],[41.19885910000001,60.6533466],[41.197219000000004,60.643847799999996],[41.1408311,60.63581620000001],[41.1278778,60.6406516],[41.09350930000001,60.640305700000006],[41.076151900000006,60.6473],[41.0851314,60.66603870000001],[40.89515360000001,60.6842561],[40.9035286,60.70385830000001],[40.84489469999999,60.709038500000005],[40.8395411,60.7034254],[40.826242900000004,60.7015255],[40.822356600000006,60.707052000000004],[40.8036177,60.71188749999999],[40.79835040000001,60.708951400000004],[40.7947234,60.7109375],[40.80163149999999,60.7137872],[40.78513790000001,60.715341300000006],[40.79325380000001,60.73433910000001],[40.77952390000001,60.7327844],[40.7794374,60.735806800000006],[40.754481199999994,60.738224300000006],[40.7711447,60.775442500000004],[40.721059700000005,60.780622900000004],[40.7142386,60.769569600000004],[40.6936006,60.7644745],[40.6670914,60.7477217],[40.669509500000004,60.7436631],[40.6502531,60.73934520000001],[40.6558662,60.73632290000001],[40.6560394,60.72898300000001],[40.590757200000006,60.718965100000005],[40.5748683,60.7196556],[40.5467165,60.73019010000001],[40.5330724,60.73563010000001],[40.52599090000001,60.7434881],[40.4940398,60.751604799999996],[40.490412600000006,60.756958600000004],[40.47815030000001,60.7599808],[40.4535386,60.777337300000006],[40.4289276,60.783295200000005],[40.407166999999994,60.777336500000004],[40.4102761,60.7709465],[40.4015548,60.7649879],[40.4077726,60.7596342],[40.372627699999995,60.7497894],[40.3639934,60.735023000000005],[40.35484029999999,60.7312233],[40.353890699999994,60.72604210000001],[40.338002100000004,60.72042890000001],[40.333945,60.699099800000006],[40.310802599999995,60.6947818],[40.28248,60.6796696],[40.2567466,60.6821734],[40.251392900000006,60.679323700000005],[40.19319000000001,60.69452090000001],[40.185937900000006,60.671378100000005],[40.0488092,60.67431200000001],[40.0237672,60.6701666],[40.0104701,60.65211870000001],[40.010470399999996,60.6467649],[39.97851980000001,60.6486641],[39.9728203,60.651599999999995],[39.965566800000005,60.6490093],[39.8856037,60.653930100000004],[39.8854305,60.66032020000001],[39.8791265,60.663256100000005],[39.87964439999999,60.66748739999999],[39.8636688,60.672107000000004],[39.865740900000006,60.6768996],[39.8454906,60.686398100000005],[39.8435905,60.690845200000005],[39.816648099999995,60.696587300000004],[39.8141003,60.701552500000005],[39.8177703,60.7012504],[39.8175111,60.7035818],[39.8124592,60.70630190000001],[39.81418599999999,60.709583200000004],[39.810559,60.713382700000004],[39.813106399999995,60.7149371],[39.8079681,60.718304800000006],[39.80235530000001,60.7161891],[39.804341199999996,60.71990230000001],[39.7979077,60.7214134],[39.7986416,60.723917500000006],[39.788408700000005,60.72456510000001],[39.78555890000001,60.727501000000004],[39.788581,60.731343700000004],[39.78516990000001,60.73289810000001],[39.77290790000001,60.7330274],[39.7588749,60.741187499999995],[39.746397200000004,60.73842390000001],[39.73171790000001,60.7280614],[39.711511300000005,60.727499800000004],[39.69368,60.7199437],[39.6814179,60.718389200000004],[39.65335280000001,60.72581500000001],[39.655036,60.73565920000001],[39.645450200000006,60.743560300000006],[39.64791090000001,60.749821],[39.6451044,60.7502095],[39.5890633,60.721410000000006],[39.573390200000006,60.7237844],[39.52214020000001,60.71579590000001],[39.4988254,60.70910320000001],[39.5013233,60.70717330000001],[39.4946263,60.704852900000006],[39.4947673,60.7018928],[39.4847506,60.69930210000001],[39.4407285,60.699101500000005],[39.418694099999996,60.6916097],[39.39503220000001,60.691395400000005],[39.3843299,60.6974407],[39.374560599999995,60.69560860000001],[39.371006699999995,60.691256200000005],[39.37700149999999,60.686916100000005],[39.3749161,60.6861424],[39.335926900000004,60.6908696],[39.3287795,60.69939000000001],[39.3317924,60.701978100000005],[39.32555980000001,60.7044904],[39.3249343,60.70810170000001],[39.3047932,60.71021330000001],[39.287748300000004,60.7208454],[39.27577000000001,60.72057010000001],[39.261670900000006,60.7102031],[39.2347746,60.7188637],[39.226274700000005,60.717320900000004],[39.214777,60.72237700000001],[39.2114452,60.7192853],[39.2096685,60.72281030000001],[39.19359030000001,60.72270910000001],[39.19473560000001,60.7197462],[39.1884832,60.7164955],[39.1887218,60.711375800000006],[39.1591915,60.69592390000001],[39.17033880000001,60.6882437],[39.17013800000001,60.6834104],[39.1802502,60.679521],[39.178320600000006,60.67594690000001],[39.18521200000001,60.657352200000005],[39.197619700000004,60.65611580000001],[39.194546800000005,60.6530166],[39.19995720000001,60.648365000000005],[39.186348300000006,60.64381590000001],[39.18438439999999,60.6396872],[39.176823999999996,60.648543800000006],[39.1619495,60.655133500000005],[39.156938100000005,60.66583580000001],[39.143225,60.679940800000004],[39.097750000000005,60.697500000000005],[39.05726459999999,60.700682],[39.0521865,60.71012820000001],[39.029324,60.71573600000001],[39.0266885,60.719100100000006],[39.006204499999996,60.719100100000006],[39.010511300000005,60.724098500000004],[39.0018548,60.736009900000006],[38.97146469999999,60.759343900000005],[38.95025,60.766000000000005],[38.927,60.767250000000004],[38.9069638,60.7595145],[38.90925,60.765706400000006],[38.906061099999995,60.768853500000006],[38.89591520000001,60.76994070000001],[38.8990226,60.770595400000005],[38.895500000000006,60.773],[38.88775,60.77250000000001],[38.88399999999999,60.771],[38.89625,60.7715],[38.8741141,60.76658280000001],[38.8485,60.749500000000005],[38.832,60.74550000000001],[38.813164199999996,60.734725000000005],[38.815999999999995,60.72550000000001],[38.80825,60.71925],[38.80728349999999,60.70849090000001],[38.619958700000005,60.7163616],[38.616616300000004,60.732529400000004],[38.6198883,60.73529690000001],[38.610643499999995,60.742633500000004],[38.6150062,60.74253200000001],[38.6162008,60.74547630000001],[38.6090854,60.7462377],[38.611266799999996,60.747785900000004],[38.6033607,60.755617900000004],[38.589032800000005,60.7616673],[38.5891896,60.76641430000001],[38.5990655,60.771604399999994],[38.59831300000001,60.774145600000004],[38.5780448,60.7799866],[38.5808101,60.784938700000005],[38.5857873,60.785990700000006],[38.5808101,60.788362500000005],[38.5859048,60.79153730000001],[38.5842588,60.795935600000014],[38.5867278,60.797675600000005],[38.4049459,60.80672739999999],[38.411037199999996,60.811777299999996],[38.4120241,60.820264699999996],[38.403474599999996,60.8276909],[38.40468299999999,60.836067099999994],[38.4005373,60.84694749999999],[38.407618,60.8503154],[38.404595,60.859986799999994],[38.4106393,60.8666361],[38.40666649999999,60.8732851],[38.409429599999996,60.876998300000004],[38.397167399999994,60.8790706],[38.3882726,60.8845107],[38.387754199999996,60.8884829],[38.392298700000005,60.89297200000001],[38.3675149,60.9010025],[38.3671686,60.914128],[38.3258926,60.904801299999995],[38.3082757,60.9161996],[38.2528374,60.91464429999999],[38.2179497,60.9310507],[38.1813324,60.985106900000005],[38.217255800000004,60.975781399999995],[38.220363400000004,60.9908068],[38.1892755,61.003931900000005],[38.1884105,61.0258655],[38.206025600000004,61.038127900000006],[38.2676805,61.0533269],[38.271306900000006,61.058162700000004],[38.27631540000001,61.058335500000005],[38.26975190000001,61.06800690000001],[38.2113777,61.063860999999996],[38.17666139999999,61.09891960000001],[38.19893970000001,61.109455000000004],[38.1771772,61.1313882],[38.123648700000004,61.1605075],[38.061167,61.140756],[38.0079591,61.1417054],[38.01817270000001,61.224791700000004],[37.9535586,61.2294064],[37.9527438,61.2669246],[37.8729078,61.2904871],[37.8807403,61.366032800000006],[37.8431305,61.3756534],[37.8238882,61.4004395],[37.832716100000006,61.4062569],[37.8497853,61.4324172],[37.80722459999999,61.4520171],[37.8364883,61.5016092],[37.8167399,61.5298114],[37.78593920000001,61.5373885],[37.7715869,61.548003900000005],[37.77591360000001,61.553926],[37.7636856,61.564233],[37.775057100000005,61.5740184],[37.7598428,61.615428800000004],[37.784646099999996,61.6311545],[37.77558810000001,61.643666499999995],[37.7856643,61.656103900000005],[37.780762,61.6594919],[37.8004058,61.6814196],[37.8066457,61.6834967],[37.8277683,61.680921],[37.8410313,61.684955300000006],[37.845719700000004,61.69412560000001],[37.85698939999999,61.7016659],[37.8693225,61.703208100000005],[37.880047899999994,61.7135594],[37.8783414,61.7196425],[37.88450939999999,61.722297700000006],[37.88356759999999,61.732246800000006],[37.876698499999996,61.74527390000001],[37.8600238,61.750559700000004],[37.85945039999999,61.75557880000001],[37.8767116,61.7715314],[37.8689687,61.7815784],[37.87456459999999,61.7842586],[37.8787888,61.79618080000001],[37.895455500000004,61.8043432],[37.9006429,61.81498549999999],[37.9030036,61.832345800000006],[37.895127900000006,61.8404938],[37.903020399999996,61.8481861],[37.9008201,61.85169109999999],[37.9119508,61.85965339999999],[37.913229799999996,61.8729917],[37.92835710000001,61.8857942],[37.9218136,61.8909511],[37.934746499999996,61.909281699999994],[37.924367,61.92572870000001],[37.9363808,61.946395300000006],[37.9349482,61.95392139999999],[37.9466381,61.9583007],[37.941440699999994,61.9618147],[37.943999,61.97252590000001],[37.8885062,61.982170100000005],[37.8367832,61.982540300000004],[37.81184979999999,62.0073893],[37.8210354,62.0159236],[37.8149318,62.0219996],[37.823978800000006,62.037639999999996],[37.8022485,62.036105600000006],[37.79247410000001,62.0522587],[37.798370700000014,62.058314900000006],[37.7768856,62.0811969],[37.7844428,62.093181300000005],[37.772493700000005,62.1187495],[37.76041260000001,62.1166203],[37.7550972,62.12021820000001],[37.761672700000005,62.129039500000005],[37.7736796,62.133129800000006],[37.7730862,62.1380868],[37.7372134,62.166380700000005],[37.758347300000004,62.173495200000005],[37.716298200000004,62.1899018],[37.7195876,62.19893900000001],[37.701812200000006,62.2126839],[37.6366421,62.20991380000001],[37.5882054,62.219968200000004],[37.55503530000001,62.2135605],[37.535149700000005,62.2169672],[37.4908596,62.206825300000006],[37.473522900000006,62.19802590000001],[37.4523745,62.19855750000001],[37.4482178,62.206692600000004],[37.4515423,62.2141748],[37.4599022,62.217546],[37.47211270000001,62.22659730000001],[37.47285230000001,62.23273340000001],[37.480964199999995,62.235977600000005],[37.4747238,62.239892600000005],[37.4558043,62.24121530000001],[37.470421599999995,62.25351080000001],[37.464738200000006,62.25801270000001],[37.4790657,62.26714810000001],[37.4760956,62.26867810000001],[37.4780365,62.27059920000001],[37.4930271,62.27851360000001],[37.5171951,62.2845651],[37.5330145,62.2974475],[37.539604399999995,62.31219290000001],[37.5470552,62.3174181],[37.5430638,62.3209611],[37.54811480000001,62.322760200000005],[37.5455696,62.3250012],[37.56051980000001,62.3264125],[37.5655834,62.33213270000001],[37.562219000000006,62.3363567],[37.5665847,62.3415188],[37.5614266,62.341893799999994],[37.5611014,62.3445558],[37.5720395,62.346016999999996],[37.584097299999996,62.3517163],[37.586827899999996,62.3567384],[37.597557,62.3585626],[37.584821899999994,62.3699226],[37.59415520000001,62.380525999999996],[37.5849124,62.4016032],[37.588896999999996,62.40813830000001],[37.60245080000001,62.4142337],[37.5992376,62.415840599999996],[37.61113290000001,62.427893],[37.60039390000001,62.438478],[37.6066055,62.4449432],[37.6045673,62.4468222],[37.6101492,62.44908439999999],[37.606448900000004,62.451866399999986],[37.612149200000005,62.463013600000004],[37.629829,62.4699891],[37.6293616,62.4743961],[37.6353815,62.4773963],[37.61051890000001,62.4924091],[37.59063530000001,62.4940628],[37.5770107,62.499194700000004],[37.577849699999994,62.511488899999996],[37.5732365,62.5137088],[37.5707749,62.5208219],[37.573413900000006,62.521094],[37.570325200000006,62.528814100000005],[37.57332290000001,62.5340832],[37.5665795,62.537752100000006],[37.572504300000006,62.541489299999995],[37.566255000000005,62.54311020000001],[37.5719428,62.547672399999996],[37.56593720000001,62.55386039999999],[37.56393230000001,62.5513893],[37.5599161,62.553461299999995],[37.5645408,62.5580435],[37.557914499999995,62.5605484],[37.564136500000004,62.5622975],[37.547012200000005,62.574437399999994],[37.55147169999999,62.5824486],[37.54214820000001,62.5855995],[37.543345,62.588308600000005],[37.5401838,62.590419600000004],[37.5535886,62.5962879],[37.544139900000005,62.6032979],[37.54728789999999,62.604188900000004],[37.545235600000005,62.606709900000006],[37.5485564,62.61088109999999],[37.54541510000001,62.61391210000001],[37.5475164,62.62263430000001],[37.5344578,62.6270631],[37.534520300000004,62.6338962],[37.5217467,62.6378061],[37.524732500000006,62.6420042],[37.518320300000006,62.6424271],[37.5198538,62.6490602],[37.513465499999995,62.65162719999999],[37.477834699999995,62.65233260000001],[37.3689406,62.677886199999996],[37.32391870000001,62.6777994],[37.27506330000001,62.6719985],[37.2515771,62.677458900000005],[37.180938000000005,62.652792600000005],[37.0706412,62.6486827],[36.989723399999995,62.6772068],[36.8217117,62.69601030000001],[36.5284674,62.79311400000001],[36.487950999999995,62.838889099999996],[36.25813860000001,63.0115301],[36.24695810000001,63.05140349999999],[36.273841499999996,63.077363399999996],[36.274818100000005,63.0821015],[36.313263299999996,63.113117700000004],[36.307067999999994,63.1507602],[36.32408749999999,63.1616867],[36.3556009,63.16290520000001],[36.40503220000001,63.195384600000004],[36.3911144,63.22594590000001],[36.381607399999986,63.22327270000001],[36.3194392,63.224075600000006],[36.2457648,63.211511200000004],[36.261894399999996,63.2804006],[36.19207180000001,63.425608800000006],[36.12917570000001,63.448328100000005],[36.086364499999995,63.453163499999995],[36.0298884,63.4654277],[35.89277330000001,63.5762262],[35.9353496,63.6053994],[36.455215700000004,63.6264846],[36.4930818,63.66895000000001],[36.5153841,63.6835949],[36.590394800000006,63.74820090000001],[36.58188689999999,63.791050500000004],[36.5586272,63.79479520000001],[36.548059,63.8406428],[36.562557600000005,63.8673457],[36.548577200000004,63.929546200000004],[36.552942,63.9321944],[36.5525292,63.953420699999995],[36.8475102,64.23176440000002],[35.9916052,64.6284296],[35.7640975,64.71740940000002],[35.594345000000004,64.91154490000002],[35.56075030000001,64.9567542],[35.4674113,65.00008629999999],[35.4073947,65.1584209],[35.3327691,65.33597889999999],[35.04824,66.09830269999999],[36.0189292,65.7900005],[36.08788409999999,65.7958538],[37.6610354,65.723893],[38.29073540000001,65.69181300000001],[38.379049499999994,65.7077002],[39.6897777,65.903118],[39.7296661,65.91496090000003],[40.3949965,66.17269499999999],[41.1618986,66.46128240000002],[41.5638967,66.6090044],[41.98147709999999,66.75298709999998],[42.3157124,66.86190040000001],[42.505703600000004,66.99023910000001],[41.715188700000006,68.0699555],[41.3125962,68.59766450000002],[43.20252910000001,66.96920550000002],[43.7096232,66.72466290000001],[44.2494548,66.43619240000001],[44.52075320000001,66.36162070000002],[44.5895235,66.29757660000001],[44.854937899999996,66.23057109999999],[44.9890025,66.2250467],[45.267540700000005,66.17824799999998],[45.5153818,66.11530079999999],[45.7032904,66.08326690000001],[45.697850900000006,66.07584049999998],[45.72583010000001,66.06901900000001],[45.8484939,66.085428],[46.1346726,66.05883589999999],[46.1391636,66.0521004],[46.307209199999996,66.0379412],[46.347104599999994,66.0382873],[46.4267247,66.0177366],[46.55815880000001,65.9780164],[46.7704491,65.93534269999999],[47.144758100000004,65.8213054],[47.4713459,65.8439348],[47.73835380000001,65.8209691],[47.79741820000001,65.8378952],[47.843529499999995,65.85533919999999],[47.7492265,65.9064585],[47.8245632,65.98158660000001],[47.849173900000004,65.9829686],[47.91104179999999,66.032277],[48.02913240000001,66.01328120000001],[48.055725900000006,66.050586],[48.054948399999994,66.0542128],[48.06375520000001,66.06794310000001],[48.0726454,66.1131057],[48.08464709999999,66.1292538],[49.0004687,66.11357109999999],[49.00088939999999,65.9974923],[49.0157734,65.8565846],[49.0521606,65.2254529],[49.5204766,65.27874879999997],[49.635408000000005,65.28799760000001],[49.8228998,65.14421800000001],[49.923782200000005,65.07205809999998],[50.23293160000001,64.83088],[50.3679242,64.8171628],[50.498912200000014,64.79268350000001],[50.443222999999996,64.69069400000001],[50.3606832,64.51038809999999],[49.912503300000004,64.5578755],[49.9054231,64.54751310000002],[49.5524068,64.57583149999998],[49.4831632,64.42505849999999],[48.96106449999999,64.47755320000002],[48.88551590000001,64.34266910000001],[48.8989015,64.3333431],[48.89311610000001,64.3292844],[48.8837901,64.3266937],[48.5244702,64.3556166],[48.4647256,64.20432560000002],[48.188750500000005,64.2306363],[48.16576370000001,64.27616660000001],[48.1566056,64.33160480000001],[48.1614404,64.3452487],[47.9600638,64.3440367],[47.344534499999995,64.3543896],[46.962680399999996,64.337804],[46.630221,64.3169015],[46.3991436,64.26042320000002],[46.392925600000005,64.26681320000002],[46.3709917,64.2678491],[46.35009449999999,64.2635312],[46.32108099999999,64.2479873],[46.261324200000004,64.24971340000002],[46.26287830000001,64.2526493],[45.85200639999999,64.27803069999999],[45.7140431,64.2574417],[45.399349900000004,64.17491849999999],[45.594518400000005,64.05696360000002],[45.80436439999999,63.99911090000001],[45.9433945,63.956627299999994],[46.151162,63.9438503],[46.19953860000001,63.92502530000001],[46.3345799,63.9044762],[46.408327,63.8891066],[46.499691,63.8645839],[46.809881299999994,63.756647699999995],[46.88138609999999,63.703282800000004],[46.99952570000001,63.5996613],[46.9912367,63.588608],[47.0173162,63.5777279],[47.01196699999999,63.5179718],[46.9392623,63.453551499999996],[46.9458288,63.4038124],[46.9427243,63.3494102],[47.03201800000001,63.29241870000001],[47.0510187,63.253905700000004],[47.16017020000001,63.2454448],[47.23049880000001,63.22219360000001],[47.3900498,63.15633220000001],[47.5673571,63.144878],[47.5598239,63.1133311],[47.5423804,63.115057900000004],[47.530813800000004,63.0499478],[47.4703693,63.0103972],[47.409061599999994,62.9648021],[47.4427395,62.964975300000006],[47.42287890000001,62.955130700000005],[47.28851610000001,62.911606899999995],[47.0608946,62.826286999999994],[47.0850749,62.8090167],[47.23050550000001,62.6501299],[47.24535910000001,62.63873160000001],[47.2412248,62.48813230000001],[47.231909200000004,62.33718749999999],[47.402889099999996,62.334426799999996],[47.389083299999996,62.181409499999994],[47.642617200000004,62.175714000000006],[47.659359300000006,62.328386],[48.151639499999995,62.31508349999999],[48.322900700000005,62.3071531],[48.3206534,62.3375492],[48.29801920000001,62.476922300000005],[48.2539941,62.50747],[48.2886858,62.580372800000006],[48.287303800000004,62.5836541],[48.3522311,62.73373630000001],[48.681412900000005,62.70213610000001],[48.7413317,62.85169989999999],[49.640876999999996,62.7707677],[49.5763215,62.621038600000006],[49.5671735,62.6218908],[49.469642300000004,62.365154100000005],[49.3745726,62.1339064],[49.288487599999996,62.140472],[49.280055600000004,62.1173638],[49.293786000000004,62.1164141],[49.29110920000001,62.113564399999994],[49.300003999999994,62.106915400000005],[49.284115500000006,62.09810720000001],[49.272112100000015,62.102079200000006],[49.2472422,62.103978700000006],[49.2272618,62.1022],[49.176723300000006,61.9736421],[49.04031020000001,61.648689499999996],[49.502104,61.605036000000005],[49.35368409999999,61.24850930000001],[49.3208192,61.1527734],[49.12675300000001,61.17223030000001],[49.090527200000004,61.160499800000004],[48.9593556,61.10567330000001],[48.923591,61.1371611],[48.865191700000004,61.1219691],[48.8524981,61.1150607],[48.83056439999999,61.114024199999996],[48.474967199999995,61.02213950000001],[48.4485471,60.957719999999995],[48.426618100000006,60.88086549999999],[48.41967749999999,60.8372063]]]]}}