{"type":"Feature","properties":{"regionId":"chechenskaya_respublika","name":"Чеченская республика","name:en":"Chechnya","timezone":"Europe/Moscow","name_ru":"Чеченская Республика","name_en":"Chechnya","name_zh":"车臣共和国"},"geometry":{"type":"Polygon","coordinates":[[[45.773526100000005,42.4882012],[45.77318290000001,42.4912186],[45.768697700000004,42.491528900000006],[45.7214042,42.478227],[45.7107745,42.4826822],[45.704935000000006,42.480612],[45.6944805,42.4862958],[45.687996999999996,42.505396000000005],[45.6819659,42.509679],[45.6543422,42.502360200000005],[45.631025300000005,42.512350700000006],[45.6115401,42.508608100000004],[45.59878500000001,42.515493],[45.586648999999994,42.5367607],[45.572219600000004,42.550019],[45.551142,42.544187599999994],[45.522161000000004,42.545098],[45.511179999999996,42.537640999999994],[45.49331900000001,42.534988999999996],[45.473057,42.540079],[45.466129,42.539083999999995],[45.452873,42.545734],[45.432230000000004,42.54115],[45.417998,42.55189399999999],[45.40444399999999,42.549213],[45.396215000000005,42.537072],[45.377326999999994,42.529174000000005],[45.365633,42.527848],[45.35560699999999,42.52253400000001],[45.341615999999995,42.52257600000001],[45.332272,42.52931400000001],[45.325301,42.549066999999994],[45.327484999999996,42.554975],[45.325539000000006,42.565217000000004],[45.314964999999994,42.573777],[45.308634,42.56935800000001],[45.300951,42.571425999999995],[45.29231700000001,42.58447099999999],[45.28157,42.59041200000001],[45.284819,42.594044],[45.28224,42.60235300000001],[45.28503200000001,42.60693800000001],[45.25746699999999,42.60575200000001],[45.250606999999995,42.62271300000001],[45.22990800000001,42.647608],[45.221606,42.652628],[45.217933,42.65968699999999],[45.19823300000001,42.667343],[45.16478,42.692687],[45.158651,42.707709],[45.13213100000001,42.709790000000005],[45.106522000000005,42.704926],[45.09233900000001,42.707781],[45.086794,42.712221],[45.0894988,42.727476200000005],[45.1100364,42.7418057],[45.1174219,42.75265580000001],[45.141653,42.7646491],[45.14825200000001,42.7777825],[45.15487699999999,42.78111030000001],[45.1608486,42.7840334],[45.175695700000006,42.781837499999995],[45.1858916,42.8030589],[45.19651970000001,42.807221899999995],[45.197077300000004,42.8275235],[45.192643600000004,42.82932530000001],[45.184158200000006,42.8251678],[45.169294,42.83535680000001],[45.1872426,42.8380001],[45.18417,42.839567699999996],[45.1835211,42.8462173],[45.1888606,42.8521354],[45.20290930000001,42.85724569999999],[45.2123846,42.8765217],[45.23983280000001,42.89154739999999],[45.2471818,42.909318400000004],[45.240622,42.9175512],[45.245658000000006,42.927358700000006],[45.2446668,42.9318723],[45.2107945,42.94436439999999],[45.210281599999995,42.9738042],[45.19123530000001,42.97816290000001],[45.1878909,42.981505399999996],[45.18451090000001,42.999383],[45.178482200000005,43.011912800000005],[45.17874810000001,43.0195771],[45.186661599999994,43.0266663],[45.189508000000004,43.035517600000006],[45.1842658,43.0533513],[45.18749139999999,43.057460899999995],[45.175865300000005,43.0600862],[45.17679530000001,43.06746739999999],[45.194218500000005,43.1014147],[45.1892194,43.1039273],[45.1747878,43.0973485],[45.1854717,43.110685399999994],[45.18752,43.137858900000005],[45.18593570000001,43.143207],[45.1809419,43.1431444],[45.1889205,43.150400499999996],[45.191957300000006,43.163832600000006],[45.176568700000004,43.1802149],[45.155232000000005,43.1768971],[45.140146800000004,43.1852097],[45.133101700000005,43.193994200000006],[45.13316230000001,43.21142639999999],[45.114433,43.26530300000001],[45.10919390000001,43.315047899999996],[45.1316043,43.323049499999996],[45.134584,43.3885824],[45.1442502,43.39359],[45.1454635,43.401801199999994],[45.15871290000001,43.40362749999999],[45.158521,43.4110355],[45.1317476,43.4184038],[45.1005261,43.450972],[45.0679418,43.45187139999999],[45.057324599999994,43.4805426],[45.08096439999999,43.4786378],[45.0854367,43.4825828],[45.090077300000004,43.48211690000001],[45.07843270000001,43.49911620000001],[45.0588011,43.51127749999999],[45.0273655,43.512002300000006],[45.017776,43.523092500000004],[44.97013820000001,43.52861920000001],[44.9441267,43.519597499999996],[44.928437900000006,43.52545290000001],[44.9238473,43.5215794],[44.9062826,43.5279754],[44.89851220000001,43.52227270000001],[44.8700998,43.535780700000004],[44.85949099999999,43.548484699999996],[44.85679759999999,43.564906900000004],[44.8479393,43.56553380000001],[44.8444393,43.574477699999996],[44.847463299999994,43.578174800000006],[44.833204599999995,43.6817992],[44.83944339999999,43.6809972],[44.854716399999994,43.69633970000001],[44.8615039,43.69521120000001],[44.8655442,43.6899418],[44.853572,43.67575260000001],[44.8533456,43.66719380000001],[44.8912767,43.659123900000004],[44.911541899999996,43.6692916],[44.910165,43.680348300000006],[44.9141754,43.682416800000006],[44.9368213,43.67245630000001],[44.9564506,43.6813607],[44.9622867,43.686365300000006],[44.96231880000001,43.69714530000001],[44.97830570000001,43.700181],[44.979317200000004,43.711311200000004],[44.993359600000005,43.7216004],[45.02237910000001,43.72753380000001],[45.030521300000004,43.7184491],[45.0405718,43.721761900000004],[45.0447005,43.719939000000004],[45.0409438,43.712099],[45.0442524,43.708994700000005],[45.0656947,43.72032380000001],[45.065848800000005,43.88847439999999],[45.0531686,43.8897365],[45.0539422,43.9582513],[45.2017545,43.957293299999996],[45.2011412,43.87644739999999],[45.4384542,43.8758653],[45.4397494,44.0077115],[45.4906809,44.0076503],[45.5463944,43.99875910000001],[45.7107493,43.96188299999999],[45.715124700000004,43.952935100000005],[45.79580930000001,43.9523821],[45.79580890000001,43.970576200000004],[45.8588196,43.9713796],[45.8861114,43.9511791],[46.0711977,43.930545800000004],[46.0580213,43.8853949],[46.034743399999996,43.887936499999995],[46.002636100000004,43.880979499999995],[46.0440427,43.819842599999994],[46.078290700000004,43.81716739999999],[46.079092800000005,43.8411141],[46.09514660000001,43.8402112],[46.0948785,43.8610809],[46.215883399999996,43.85920939999999],[46.25013080000001,43.881952399999996],[46.25200220000001,43.94492939999999],[46.3588932,43.94386039999999],[46.3547459,43.947204899999996],[46.3575552,43.951084499999986],[46.3523377,43.9533587],[46.35126729999999,43.9597802],[46.3425713,43.971017499999995],[46.3453806,43.977305300000005],[46.3406981,43.982656399999996],[46.343106,43.9889441],[46.3356142,43.992021],[46.3325371,43.9971045],[46.325312900000014,43.99844230000001],[46.32108149999999,44.00859560000001],[46.4401773,44.00212630000001],[46.436083599999996,43.9940288],[46.4276489,43.9874503],[46.4292346,43.98469539999999],[46.4364991,43.985019],[46.434829799999996,43.98031520000001],[46.4410393,43.976561499999995],[46.43407739999999,43.9741449],[46.43368469999999,43.970561499999995],[46.4448368,43.9682204],[46.4437487,43.965206],[46.4342651,43.9656486],[46.436734200000004,43.9606968],[46.4328317,43.9533058],[46.4363006,43.95183299999999],[46.43894,43.9554181],[46.4437706,43.9555256],[46.4570708,43.9443622],[46.4539506,43.9357941],[46.461632800000004,43.9324912],[46.4580462,43.9237442],[46.4486251,43.9192052],[46.4533799,43.9084472],[46.4489975,43.8933764],[46.454217899999996,43.8905055],[46.4513381,43.882806599999995],[46.4451692,43.87817870000001],[46.451331599999996,43.875117900000006],[46.4952741,43.8790062],[46.4929674,43.8673979],[46.49881530000001,43.86234],[46.49376290000001,43.858518600000004],[46.5392955,43.8582981],[46.561930200000006,43.871454199999995],[46.59015820000001,43.8736768],[46.588926,43.870378200000005],[46.60505520000001,43.8479124],[46.616684199999995,43.8503148],[46.6217017,43.835385200000005],[46.6194413,43.8299601],[46.637280399999995,43.832924],[46.648605700000005,43.8304219],[46.662041200000004,43.8362951],[46.6474257,43.814856799999994],[46.649811,43.79981130000001],[46.65513250000001,43.79353860000001],[46.646171,43.783706900000006],[46.6327465,43.777107],[46.630512900000014,43.7704272],[46.6141512,43.765869200000004],[46.6078279,43.76872330000001],[46.5856334,43.76816190000001],[46.55539530000001,43.75889],[46.5445998,43.7474965],[46.53715220000001,43.72852600000001],[46.518030800000005,43.7134263],[46.5136163,43.704730500000004],[46.482311900000006,43.6873266],[46.474696099999996,43.6740917],[46.4551281,43.66314090000001],[46.4464341,43.6421575],[46.453845799999996,43.6312519],[46.4458889,43.628051000000006],[46.4409738,43.6185516],[46.42655920000001,43.6160776],[46.425425800000006,43.6117687],[46.4297174,43.605073000000004],[46.412530800000006,43.5941775],[46.4133097,43.590019500000004],[46.428537000000006,43.5799693],[46.430784499999994,43.574892399999996],[46.424921499999996,43.55178479999999],[46.433823499999995,43.5412999],[46.4332256,43.5362457],[46.409629699999996,43.526337700000006],[46.411179,43.5099287],[46.407133800000004,43.502241399999996],[46.381269999999994,43.49494],[46.386732,43.4886069],[46.3867218,43.479868599999996],[46.3709284,43.471947899999996],[46.3550258,43.470087299999996],[46.3338732,43.457201899999994],[46.3275714,43.4497803],[46.3352492,43.4005605],[46.343226599999994,43.392973600000005],[46.35420779999999,43.3722324],[46.3591493,43.3709043],[46.3630255,43.35425099999999],[46.3705017,43.3497736],[46.369918000000006,43.341746699999995],[46.396109700000004,43.335664099999995],[46.402063399999996,43.327519800000005],[46.4095268,43.324279499999996],[46.41482599999999,43.3110551],[46.41425639999999,43.30366969999999],[46.4240663,43.29514770000001],[46.42055290000001,43.2879361],[46.42381580000001,43.27887080000001],[46.4167338,43.26157810000001],[46.4090166,43.255368700000005],[46.409608999999996,43.233021300000004],[46.39217070000001,43.202840200000004],[46.42189439999999,43.201153600000005],[46.421185200000004,43.1908804],[46.4368393,43.1862372],[46.4072726,43.1597262],[46.3861927,43.148312900000015],[46.3990712,43.1296006],[46.421390800000005,43.123785000000005],[46.4244238,43.120161800000005],[46.4194167,43.1165208],[46.42513860000001,43.1109803],[46.417605699999996,43.10653930000001],[46.43301580000001,43.082961399999995],[46.457477899999994,43.087303399999996],[46.48676699999999,43.087076599999996],[46.4907868,43.091566300000004],[46.5044513,43.085951800000004],[46.5051879,43.0829839],[46.4967484,43.0755819],[46.515551200000004,43.06510240000001],[46.5228954,43.040563],[46.5171115,43.045231900000005],[46.4956541,43.03821860000001],[46.49035320000001,43.040713200000006],[46.48813520000001,43.03933430000001],[46.489228499999996,43.02916080000001],[46.49543070000001,43.02515650000001],[46.5028026,43.03084749999999],[46.5002526,43.0331676],[46.50257560000001,43.035036600000005],[46.509119000000005,43.0302986],[46.5175467,43.0304325],[46.5198522,43.02379030000001],[46.5066669,43.02921370000001],[46.504802,43.0167667],[46.4795174,43.018438700000004],[46.466458800000005,43.0129067],[46.4766019,43.0048712],[46.47871520000001,42.9942412],[46.4944349,42.97551220000001],[46.4974453,42.96287],[46.4930643,42.9479702],[46.511927699999994,42.9331877],[46.533858800000004,42.9234564],[46.5244905,42.915226],[46.5045701,42.9159467],[46.4904473,42.911695099999996],[46.4373454,42.8856303],[46.435230600000004,42.87692],[46.425685300000005,42.877891999999996],[46.435185600000004,42.86575270000001],[46.43873120000001,42.866078],[46.429479900000004,42.858073999999995],[46.39751330000001,42.8549083],[46.3680797,42.8409702],[46.369272800000005,42.849977499999994],[46.3740357,42.85424489999999],[46.3709622,42.8642969],[46.3371538,42.8943966],[46.324330100000005,42.8972202],[46.3086888,42.9120962],[46.304393999999995,42.9074403],[46.31199099999999,42.883949199999996],[46.302117300000006,42.8658767],[46.297200600000004,42.8760938],[46.279340600000005,42.88626059999999],[46.26633840000001,42.879049099999996],[46.2580443,42.8664737],[46.23974990000001,42.861844899999994],[46.22670610000001,42.8672092],[46.21254230000001,42.890145200000006],[46.18331080000001,42.88782899999999],[46.1896682,42.8775686],[46.18217020000001,42.873352700000005],[46.1640714,42.851253799999995],[46.1597848,42.85062459999999],[46.129484,42.823885],[46.1147686,42.8015228],[46.13692520000001,42.796392900000015],[46.15164059999999,42.7850576],[46.1563714,42.7757844],[46.167562200000006,42.7774683],[46.162392900000015,42.7722934],[46.16527190000001,42.75669439999999],[46.16893620000001,42.7548141],[46.16309820000001,42.749922000000005],[46.179365100000005,42.742582600000006],[46.1746161,42.73315100000001],[46.1144361,42.7198716],[46.1065774,42.7260014],[46.100154700000004,42.72563990000001],[46.097704,42.71397230000001],[46.094715400000005,42.7122754],[46.077251499999996,42.718521800000005],[46.076005800000004,42.7143241],[46.085970800000005,42.69395290000001],[46.0773346,42.6811603],[46.04212820000001,42.682495200000005],[46.015303,42.67503810000001],[46.0217046,42.61863830000001],[46.001226599999995,42.594233300000006],[45.992046200000004,42.594810800000005],[45.97057830000001,42.58162039999999],[45.964558200000006,42.581352800000005],[45.95328699999999,42.587974499999994],[45.9466482,42.59815460000001],[45.9258085,42.604551300000004],[45.9134999,42.58988439999999],[45.89532330000001,42.5840393],[45.905428,42.560207399999996],[45.9133479,42.553423699999996],[45.900256399999996,42.5522921],[45.8822293,42.538220100000004],[45.859334499999996,42.535257200000004],[45.8415943,42.5158364],[45.8221294,42.5072742],[45.822664599999996,42.502725700000006],[45.81918639999999,42.49897980000001],[45.80360099999999,42.4978426],[45.773526100000005,42.4882012]]]}}