{"type":"Feature","properties":{"regionId":"chukotskiy_avtonomnyy_okrug","name":"Чукотский автономный округ","name:en":"Chukotka Autonomous Okrug","timezone":"Asia/Anadyr","name_ru":"Чукотский автономный округ","name_en":"Chukotka Autonomous Okrug","name_zh":"楚科奇自治区"},"geometry":{"type":"MultiPolygon","coordinates":[[[[-179.93408630000002,62.680552000000006],[-179.9407933,62.65251310000001],[-179.954767,62.617096499999995],[-180.0,62.5545579],[-180.0,62.875905],[-179.95381780000002,62.788017100000005],[-179.9440435,62.76292420000001],[-179.93386259999997,62.697008600000004],[-179.93408630000002,62.680552000000006]]],[[[180.0,71.7490753],[180.0,70.7166021],[179.88249500000003,70.6919621],[179.7931479,70.6770997],[179.6680587,70.6615875],[179.4762956,70.65191970000001],[179.3037262,70.6576741],[179.20726169999998,70.63186470000001],[179.09148430000002,70.60953729999999],[178.93221680000005,70.59145790000001],[178.85037100000002,70.58683129999999],[178.74855969999996,70.5862908],[178.6478995,70.5914185],[178.55120190000002,70.60207119999998],[178.46117750000002,70.6179513],[178.38036540000002,70.638614],[178.3110661,70.6634792],[178.2479459,70.69636440000001],[178.22549780000003,70.71172300000002],[178.1927999,70.74405020000002],[178.18280650000003,70.76078509999999],[178.17717119999998,70.7777399],[178.17594640000002,70.7947912],[178.17990449999996,70.8134798],[178.16543990000002,70.8398467],[178.1369205,70.8648071],[178.09823610000004,70.89051660000001],[178.0721447,70.9155716],[178.0299811,70.97615950000001],[178.01469249999997,71.0264847],[178.0111225,71.06507739999999],[178.01495109999996,71.0923809],[178.0228046,71.109604],[178.0561812,71.14579729999998],[178.07418219999997,71.1600369],[178.12514690000003,71.18933849999998],[178.30119670000002,71.26727620000001],[178.32193920000003,71.28847819999999],[178.35740410000002,71.3140898],[178.4293562,71.3485223],[178.52223430000004,71.37742],[178.72369259999996,71.41690550000001],[178.77619389999998,71.44126770000003],[178.8392549,71.4625876],[179.0071804,71.53933479999999],[179.112241,71.57354360000001],[179.23064159999998,71.59723380000001],[179.46057919999998,71.65976079999999],[179.64894900000002,71.7026926],[179.75815459999998,71.71962110000001],[179.92229170000002,71.7374918],[180.0,71.7490753]]],[[[-176.8169045,71.20978869999999],[-176.82458880000001,71.1882615],[-176.84173740000003,71.1634126],[-176.85722400000003,71.1486287],[-176.87277469999998,71.11391460000002],[-176.9053717,71.0802027],[-176.9556503,71.0488688],[-177.020295,71.02152970000002],[-177.06034830000004,70.9963912],[-177.0959775,70.9797229],[-177.1816681,70.9503145],[-177.24965399999994,70.93382820000001],[-177.3354582,70.9082053],[-177.5939884,70.85165560000002],[-177.7671783,70.82868269999999],[-178.0066205,70.80970839999999],[-178.1258686,70.79186800000001],[-178.2363765,70.7794105],[-178.34241710000003,70.7712718],[-178.5547808,70.76277909999999],[-178.72056709999998,70.7437471],[-178.93824510000002,70.7066961],[-179.03595239999999,70.6947174],[-179.23012830000002,70.678569],[-179.46228680000004,70.66346779999999],[-179.5629125,70.6613291],[-179.7261794,70.66918129999999],[-179.84935969999998,70.6850844],[-180.0,70.7166021],[-180.0,71.7490753],[-179.6716908,71.78720420000002],[-179.2669661,71.8039059],[-179.11485609999997,71.8047676],[-178.79340469999997,71.78981390000001],[-178.5842616,71.7750216],[-178.0284536,71.71397160000001],[-177.93221990000004,71.69912300000001],[-177.7627015,71.65919009999999],[-177.57474569999997,71.60359869999999],[-177.45641410000002,71.55934789999999],[-177.40603700000003,71.536728],[-177.36244170000003,71.51326410000001],[-177.2916295,71.46720270000002],[-177.2604603,71.4523148],[-177.14634940000002,71.4308758],[-177.08062710000002,71.41314750000001],[-177.0003046,71.3826689],[-176.92188030000003,71.3432511],[-176.8663042,71.3079455],[-176.8461049,71.2882038],[-176.82517650000003,71.2566716],[-176.81773640000003,71.2380043],[-176.8169045,71.20978869999999]]],[[[-168.9769444,66.0150803],[-168.9769444,65.98391480000001],[-169.0305486,65.4855429],[-169.4081525,65.5957334],[-169.4968954,65.63670239999999],[-169.87727800000002,65.78700590000001],[-169.9488675,65.77888899999999],[-170.01001269999998,65.7372782],[-170.01776349999997,65.7137365],[-170.01290269999998,65.67002749999999],[-170.0265417,65.62347289999998],[-170.03784430000002,65.6008347],[-170.07218269999998,65.56287719999999],[-170.1251135,65.5246511],[-170.161729,65.5025452],[-170.22350849999998,65.47111940000002],[-170.301004,65.44283960000001],[-170.41039940000002,65.41823590000001],[-170.6480333,65.3502031],[-170.68613530000002,65.33237899999999],[-170.7783945,65.3004145],[-170.89803590000002,65.2755459],[-170.984783,65.2672411],[-171.07363719999998,65.2659253],[-171.16599309999998,65.27120500000001],[-171.2292909,65.27870189999999],[-171.31993559999998,65.2954827],[-171.4951574,65.3123502],[-171.55728830000004,65.30650209999999],[-171.68945109999999,65.2320047],[-171.67756149999997,65.19551129999999],[-171.64100369999997,65.1618186],[-171.62383780000002,65.13804689999999],[-171.6153428,65.1191964],[-171.611197,65.1000892],[-171.61111569999997,65.07646179999999],[-171.6160689,65.0567859],[-171.64081819999998,65.01132080000001],[-171.6269811,64.82999829999999],[-171.60889790000002,64.8048354],[-171.6014844,64.7873395],[-171.59636930000002,64.76451580000001],[-171.5967016,64.7457057],[-171.60975129999997,64.7085426],[-171.62233610000004,64.6905191],[-171.6590313,64.6563839],[-171.6978232,64.6318579],[-171.83239920000003,64.5587638],[-171.78960179999999,64.46400500000001],[-171.7771974,64.4425588],[-171.77062529999998,64.4209222],[-171.76901429999998,64.4019028],[-171.77160109999997,64.3829036],[-171.77835359999997,64.3640973],[-171.80403990000002,64.327743],[-171.8450833,64.29415320000003],[-171.89995409999997,64.2645368],[-171.9347197,64.25040709999999],[-172.0089001,64.22821320000001],[-172.04934509999998,64.21958370000002],[-172.1350209,64.2076681],[-172.38196660000003,64.1916413],[-172.55444200000002,64.1421342],[-172.67068319999996,64.0981413],[-172.74315569999993,64.0798093],[-172.82199160000002,64.06754520000001],[-173.0326503,64.0447123],[-173.11750009999997,64.04210360000002],[-173.2019901,64.0464121],[-173.3408227,64.06338749999999],[-173.5276724,64.1031972],[-173.8159643,64.13959],[-173.8596467,64.14796930000001],[-173.94968649999998,64.17381119999999],[-174.14300749999998,64.21958340000002],[-174.29576669999997,64.26616300000002],[-174.35930600000003,64.2957339],[-174.38562330000002,64.3124577],[-174.42597940000002,64.34893109999999],[-174.46024430000003,64.3899648],[-174.55602710000002,64.4485731],[-174.71875229999998,64.4975788],[-174.83089660000002,64.5225172],[-175.1342422,64.56306370000001],[-175.35954790000002,64.5742307],[-175.47843310000002,64.5749984],[-175.5620111,64.5824543],[-175.64401159999997,64.5970778],[-175.7187148,64.6183566],[-175.78732200000002,64.6473009],[-175.81459239999998,64.66270679999998],[-175.84614640000004,64.68603949999999],[-176.155924,64.82156160000001],[-176.2558774,64.8739579],[-176.3125719,64.91142680000002],[-176.33322630000004,64.9314923],[-176.34859780000002,64.95239609999999],[-176.35819230000004,64.9724444],[-176.3628122,64.99202160000002],[-176.3628548,65.01169630000001],[-176.355885,65.036421],[-176.3366767,65.1891797],[-176.3897866,65.25247999999999],[-176.5550691,65.31143440000001],[-176.74605309999995,65.35237949999998],[-176.95713330000004,65.33850869999999],[-177.06331319999998,65.30721560000002],[-177.20929329999998,65.2755494],[-177.3256755,65.26026610000001],[-177.49683530000001,65.24590640000001],[-177.6680906,65.24176900000002],[-178.0070901,65.24372170000001],[-178.1685316,65.24866160000002],[-178.41154509999998,65.24427050000001],[-178.62161680000003,65.25273189999999],[-178.72785009999998,65.26260950000001],[-179.06990569999996,65.2122889],[-179.08539710000002,65.181404],[-179.1191888,65.1455667],[-179.25447830000002,65.0436925],[-179.28487959999998,65.0229493],[-179.3208942,65.00393869999999],[-179.39236230000003,64.9762469],[-179.562113,64.92879239999999],[-179.6942208,64.88116990000002],[-179.7516691,64.86534609999998],[-179.8928615,64.8012278],[-180.0,64.74632430000001],[-180.0,69.2895091],[-179.8806587,69.2345971],[-179.62324040000001,69.12641729999999],[-179.48649600000005,69.1314057],[-179.3394326,69.1239598],[-179.2011671,69.10331579999999],[-179.08465959999998,69.0747076],[-179.0036294,69.04633209999999],[-178.96806830000003,69.0292314],[-178.9337928,69.0080752],[-178.73146640000002,68.964138],[-178.64407669999997,68.94841300000002],[-178.5066976,68.9131311],[-178.4007191,68.874144],[-178.0898882,68.72982760000001],[-177.85374090000002,68.66269199999999],[-177.62866499999998,68.59419300000002],[-177.4665923,68.53938819999999],[-177.31338409999998,68.47940940000001],[-177.222253,68.44987040000001],[-177.0476371,68.4088229],[-175.5747375,68.02778749999999],[-175.4822626,68.01028920000002],[-175.4245767,67.99437],[-174.9399961,67.81679829999999],[-174.38172450000002,67.6524444],[-174.2627224,67.62078529999998],[-174.16633330000002,67.57970019999999],[-173.3565533,67.28066310000001],[-173.0815949,67.25247829999998],[-172.92449810000002,67.2404965],[-172.79763069999998,67.24860690000001],[-172.6558885,67.243278],[-172.55037630000004,67.2290441],[-172.44226830000002,67.20238079999999],[-172.1078158,67.1635667],[-172.0326949,67.17201299999999],[-171.94966239999997,67.17607209999997],[-171.86603130000003,67.1748132],[-171.7879425,67.16897609999998],[-171.66195249999998,67.1481501],[-171.5272031,67.13484249999999],[-171.4018925,67.1093444],[-171.3607797,67.09806390000001],[-171.26692219999998,67.0654643],[-171.1963001,67.0268756],[-171.1541282,66.98742330000002],[-171.12823820000003,66.9453525],[-171.0756401,66.93361660000002],[-171.00690409999999,66.91248920000001],[-170.9578727,66.8926767],[-170.91005149999998,66.86646490000001],[-170.87648610000002,66.84114350000002],[-170.84925289999998,66.8107837],[-170.8320535,66.77644769999999],[-170.82729330000004,66.745531],[-170.7839014,66.72817109999998],[-170.68234480000004,66.7003319],[-170.5366001,66.65115209999999],[-170.46977809999998,66.62010279999998],[-170.29115589999998,66.55175209999999],[-170.2537963,66.532967],[-170.20780509999997,66.5020533],[-170.0355898,66.47460310000001],[-169.9374127,66.4507058],[-169.88944110000003,66.43615050000001],[-169.8306513,66.41280990000001],[-169.73955919999995,66.36059390000001],[-169.593918,66.345851],[-169.4896426,66.3273443],[-169.39339180000002,66.2984302],[-169.31710630000003,66.2695963],[-169.282154,66.2528557],[-169.2270124,66.2152611],[-169.2074696,66.19486360000002],[-169.18216690000003,66.1562271],[-169.16032890000002,66.10532149999999],[-169.15739900000003,66.0761833],[-169.1598763,66.06162700000002],[-169.1717963,66.0333526],[-169.18544070000002,66.0140374],[-169.10397169999996,66.01877529999999],[-168.9769444,66.0150803]]],[[[174.50239390000002,61.6078007],[174.4917451,61.6540107],[174.47556749999998,61.8077652],[174.4546209,61.816587199999994],[174.4451814,61.824373],[174.4387739,61.8409481],[174.4432319,61.844773999999994],[174.44091690000002,61.848414399999996],[174.45237540000002,61.85124129999999],[174.4779237,61.8479102],[174.48631380000003,61.8421824],[174.48249380000004,61.836646699999996],[174.49696419999998,61.83798049999999],[174.49746030000003,61.845772100000005],[174.49364369999998,61.8540199],[174.501733,61.8643261],[174.51887219999998,61.870161499999995],[174.50959219999996,61.88062789999999],[174.51682449999998,61.8830162],[174.5026121,61.898324],[174.4961896,61.896781499999996],[174.48454640000003,61.9005496],[174.46869569999998,61.90946739999999],[174.44496409999996,61.907008999999995],[174.43822010000002,61.9093195],[174.4403606,61.915359800000004],[174.4361259,61.9177762],[174.43764730000004,61.9236861],[174.45073050000002,61.9239884],[174.44847660000002,61.928343000000005],[174.4625676,61.9332373],[174.45816940000003,61.9376119],[174.46264860000002,61.9413779],[174.4692311,61.95783659999999],[174.4637778,61.962726700000005],[174.4826577,61.966399800000005],[174.4820046,61.971259399999994],[174.4905159,61.975216700000004],[174.47562419999997,61.97666769999999],[174.447632,61.986786599999995],[174.450712,61.992249900000004],[174.4427694,61.99507330000001],[174.4421598,62.0103561],[174.451671,62.017542399999996],[174.45189760000002,62.0239034],[174.4038983,62.036613900000006],[174.38640670000004,62.036996800000004],[174.35781580000003,62.0238572],[174.3466158,62.033385900000006],[174.3350196,62.034350800000006],[174.34165389999998,62.0409546],[174.34214390000002,62.059975900000005],[174.35781860000003,62.06901010000001],[174.35841780000007,62.0737745],[174.3535608,62.0742756],[174.35381610000002,62.0786176],[174.3048729,62.09335660000001],[174.28196680000002,62.09011570000001],[174.26195199999998,62.09281020000001],[174.2511021,62.0894459],[174.25336439999998,62.0854507],[174.2391361,62.0760768],[174.22376279999997,62.079333600000005],[174.1963775,62.0726609],[174.19282080000002,62.072766900000005],[174.1899966,62.0786511],[174.16067069999997,62.0833397],[174.15887680000003,62.084907099999995],[174.16322549999998,62.09533490000001],[174.155961,62.098453600000006],[174.1626871,62.10245390000001],[174.1617584,62.10831700000001],[174.1480009,62.111658399999996],[174.142913,62.117198],[174.12132650000004,62.120077800000004],[174.1279676,62.134357200000004],[174.12192610000002,62.13916330000001],[174.1233116,62.1432919],[174.10816319999998,62.156998800000004],[174.11015339999997,62.1747469],[174.14951609999997,62.1819202],[174.1458875,62.197472100000006],[174.1371336,62.203946200000004],[174.1143108,62.20579010000001],[174.11368279999996,62.2190271],[174.0999689,62.2319316],[174.0827156,62.2417897],[174.06365209999996,62.2439424],[174.0619132,62.25133290000001],[174.07390429999998,62.2564586],[174.06750019999998,62.26333480000001],[174.0587855,62.266418400000006],[174.02701130000003,62.261522600000006],[174.02558419999997,62.2656514],[174.01589169999997,62.26954330000001],[174.0180335,62.27238210000001],[174.0160309,62.27715210000001],[174.0050359,62.278697900000004],[173.99938630000003,62.28291360000001],[174.01199169999998,62.29215780000001],[174.02985369999996,62.287015000000004],[174.05464630000003,62.287899599999996],[174.0669242,62.3006968],[174.0628834,62.3094053],[174.07585939999998,62.3151455],[174.067381,62.3261374],[174.06957209999996,62.32856030000001],[174.0981332,62.32517860000001],[174.1510942,62.337860199999994],[174.1487179,62.3521306],[174.1555663,62.3554199],[174.1411329,62.35928309999999],[174.14131600000002,62.36273290000001],[174.14989139999997,62.3707517],[174.1447371,62.3832421],[174.15466439999997,62.39057520000001],[174.153457,62.3965514],[174.160972,62.405082300000004],[174.154225,62.4181347],[174.1588946,62.4242903],[174.14218780000002,62.4341681],[174.13830860000002,62.4412183],[174.13105339999998,62.4433269],[174.12893710000003,62.44667],[174.13205499999998,62.448932600000006],[174.12213680000005,62.4533626],[174.0898897,62.459110200000005],[174.0820538,62.467086599999995],[174.0422671,62.4722496],[174.03226,62.4696009],[174.03838980000003,62.4647401],[174.0374546,62.462521800000005],[173.99989409999998,62.4585748],[173.99709790000003,62.4493641],[173.98790110000002,62.4438773],[173.95510900000002,62.4371633],[173.92509710000002,62.4384652],[173.9112928,62.43429749999999],[173.89848670000003,62.435379700000006],[173.8941959,62.4371857],[173.9078982,62.4472951],[173.8604846,62.468816200000006],[173.8656271,62.4773105],[173.8656292,62.488303900000005],[173.85856880000003,62.49070030000001],[173.85472760000002,62.496675],[173.8440309,62.4994047],[173.84286509999998,62.5079948],[173.83958019999997,62.50988149999999],[173.81042030000003,62.510882099999996],[173.79995189999997,62.5137921],[173.79378769999997,62.520900600000004],[173.7807608,62.522443],[173.7268414,62.518039800000004],[173.72117419999998,62.5239684],[173.7320329,62.5340286],[173.67219,62.5468191],[173.65956059999996,62.5423576],[173.65362359999997,62.5264665],[173.6398993,62.5226899],[173.63744970000002,62.511339],[173.62965389999997,62.5097841],[173.62822650000004,62.505351700000006],[173.61322579999998,62.499342500000004],[173.592502,62.50186899999999],[173.57556159999996,62.5094777],[173.57455639999998,62.5159907],[173.54070549999997,62.514026599999994],[173.52692090000002,62.523075000000006],[173.5009882,62.52373500000001],[173.49340850000002,62.521464599999995],[173.49113540000002,62.5156422],[173.4846191,62.513100800000004],[173.4856927,62.506173700000005],[173.46252750000002,62.5052912],[173.4636408,62.502407],[173.45739860000003,62.4986824],[173.4341158,62.492383200000006],[173.43009750000002,62.484077899999996],[173.3847831,62.4805924],[173.37814780000005,62.4728118],[173.37054880000002,62.4698205],[173.33221430000003,62.46513170000001],[173.32914350000001,62.4598199],[173.32190740000004,62.457073099999995],[173.32973650000002,62.448719800000006],[173.2980222,62.447821299999994],[173.26960949999997,62.4523541],[173.25123850000003,62.4402097],[173.21671269999996,62.44944159999999],[173.19635559999998,62.4440126],[173.16152369999998,62.44745639999999],[173.1555061,62.442356200000006],[173.16174180000002,62.4367616],[173.16792880000003,62.438537100000005],[173.1781071,62.4351904],[173.1779928,62.4280534],[173.1821596,62.42555200000001],[173.1801777,62.4219902],[173.1692875,62.42091810000001],[173.16928449999997,62.4169349],[173.1640429,62.4138181],[173.1589624,62.41944459999999],[173.13477119999996,62.42507680000001],[173.09576619999999,62.4183405],[173.09465379999997,62.412126300000004],[173.09817880000003,62.4096688],[173.0754679,62.4039767],[173.07156039999998,62.3956619],[173.0636338,62.391632900000005],[173.06510740000002,62.38626429999999],[173.0700087,62.383073499999995],[173.03733850000003,62.3792927],[173.01095139999998,62.381273199999995],[172.97656379999998,62.398320700000006],[172.9441709,62.4028502],[172.92430860000002,62.399059],[172.9207845,62.39764759999999],[172.92144580000004,62.3927914],[172.9018828,62.3878163],[172.88321850000003,62.3772756],[172.8830037,62.3741773],[172.8913512,62.370262],[172.8900255,62.35844959999999],[172.86882090000003,62.3497936],[172.8545321,62.34764359999999],[172.79311289999998,62.34496479999999],[172.7670135,62.3504159],[172.76594830000002,62.3561517],[172.75469589999997,62.35788969999999],[172.7525211,62.362402200000005],[172.7575939,62.37088239999999],[172.74196619999998,62.3835468],[172.74767819999997,62.38752739999999],[172.7480279,62.393187499999996],[172.768112,62.4015901],[172.7561713,62.41258439999999],[172.7331183,62.4150906],[172.7252913,62.4097361],[172.70793890000002,62.4082504],[172.70301239999998,62.411309599999996],[172.7063581,62.415694599999995],[172.70459749999998,62.4217061],[172.67045359999997,62.4183287],[172.6654817,62.419006499999995],[172.6654005,62.4231074],[172.64427169999996,62.421972000000004],[172.6350665,62.427036],[172.63439630000002,62.429869599999996],[172.64667999999998,62.437153],[172.62867519999998,62.436529300000004],[172.61396089999997,62.4292271],[172.58948880000003,62.428989],[172.5677127,62.4373969],[172.56822660000003,62.442587499999995],[172.5610241,62.4452724],[172.499434,62.444187199999995],[172.45221220000002,62.4389648],[172.44241600000004,62.4291275],[172.4281837,62.4248538],[172.4197434,62.418806499999995],[172.4066167,62.4032057],[172.37413700000002,62.3951695],[172.36448830000003,62.397048999999996],[172.35849770000004,62.40178639999999],[172.3357503,62.3996571],[172.33206640000003,62.39203820000001],[172.3329812,62.385346999999996],[172.3277131,62.37886449999999],[172.32223260000004,62.3786802],[172.32042110000003,62.374693099999995],[172.28989009999998,62.37169839999999],[172.2669053,62.380970999999995],[172.26939509999997,62.391168900000004],[172.27330349999997,62.3932055],[172.27144900000002,62.396830800000004],[172.2480143,62.395853300000006],[172.2394689,62.3996062],[172.23877409999997,62.4071972],[172.2591004,62.4246082],[172.2529914,62.4323716],[172.2433003,62.435193600000005],[172.24132730000002,62.4411347],[172.23486349999996,62.4454348],[172.21161089999998,62.453500999999996],[172.2189386,62.461486799999996],[172.207881,62.464735600000004],[172.20129509999998,62.46093930000001],[172.1717465,62.4569431],[172.1590434,62.46239190000001],[172.1120319,62.4599164],[172.1001924,62.4608092],[172.0977431,62.4647688],[172.0779099,62.465021],[172.0429604,62.4611036],[172.0428227,62.458064099999994],[171.9954132,62.454633199999996],[171.99897810000002,62.4486921],[171.9901722,62.439925900000006],[171.9915146,62.4357495],[171.98004720000003,62.4306354],[171.978614,62.4162433],[171.96024780000005,62.41557890000001],[171.92074140000003,62.4018829],[171.9132176,62.404642599999995],[171.87557539999997,62.4027244],[171.87290040000002,62.40935030000001],[171.85753160000002,62.4121747],[171.85239070000003,62.4122225],[171.84221080000003,62.405775000000006],[171.8473442,62.3990622],[171.8417569,62.3927848],[171.88183750000005,62.3773663],[171.8915777,62.377367799999995],[171.89094090000003,62.371334],[171.89936319999998,62.3677755],[171.8933896,62.35922479999999],[171.8782792,62.3554548],[171.8487051,62.3606092],[171.8050321,62.3561253],[171.78946249999998,62.3609576],[171.76893750000002,62.3618522],[171.74998899999997,62.349352700000004],[171.7295363,62.34768479999999],[171.71493309999997,62.348438900000005],[171.7016385,62.3555504],[171.6762663,62.3541629],[171.6712854,62.348317300000005],[171.6528635,62.34748969999999],[171.6489061,62.3423968],[171.63248030000003,62.339738600000004],[171.6272032,62.335605900000004],[171.6285691,62.329408900000004],[171.6227858,62.3273991],[171.62163180000002,62.321699599999995],[171.6059082,62.31876749999999],[171.5906865,62.324424699999994],[171.52465819999998,62.3110587],[171.51136,62.3033297],[171.49627230000002,62.3026124],[171.48246990000004,62.294205500000004],[171.47236,62.3039825],[171.4588846,62.300765399999996],[171.4354755,62.3063166],[171.41989109999997,62.29931980000001],[171.4026792,62.30178109999999],[171.4070877,62.3096987],[171.4059171,62.3324535],[171.3899116,62.3338312],[171.38045010000002,62.3405926],[171.38274430000004,62.354319499999995],[171.37181980000003,62.353817199999995],[171.3639367,62.347364799999994],[171.3407402,62.346063199999996],[171.33224160000003,62.3395241],[171.33929740000002,62.3306432],[171.3155379,62.3195492],[171.26977049999996,62.3139136],[171.26390959999998,62.31980419999999],[171.24815449999997,62.319865899999996],[171.2518795,62.325141200000004],[171.24348139999998,62.330211399999996],[171.2463924,62.337060799999996],[171.24423249999998,62.3403057],[171.2601865,62.343944099999995],[171.26686209999997,62.354580799999994],[171.3149583,62.3725764],[171.30632080000004,62.378890999999996],[171.2726079,62.38149349999999],[171.25840440000002,62.3933516],[171.255143,62.38761949999999],[171.25856149999998,62.383176],[171.24658129999997,62.3741055],[171.231215,62.37066909999999],[171.22675399999997,62.36321890000001],[171.21515459999995,62.3608899],[171.20451719999997,62.353598],[171.1978271,62.3537352],[171.1920944,62.346289999999996],[171.17133900000002,62.33904749999999],[171.14813519999998,62.3352117],[171.1435168,62.3398403],[171.12603040000002,62.34082769999999],[171.1182996,62.346276599999996],[171.10776339999998,62.34707999999999],[171.10406999999998,62.3443622],[171.10656899999998,62.3407761],[171.10447419999997,62.334493499999994],[171.09120040000002,62.3310102],[171.08558109999998,62.3224925],[171.090945,62.31736139999999],[171.096728,62.3165955],[171.1019311,62.3083604],[171.09486409999997,62.3046052],[171.0868258,62.289552400000005],[171.0713933,62.2867486],[171.0571572,62.27726439999999],[171.04530419999998,62.275147000000004],[171.019986,62.280964399999995],[170.99791230000002,62.2810381],[170.98030250000002,62.2756504],[170.96151740000002,62.28575970000001],[170.94640660000002,62.282698200000006],[170.9478329,62.27945820000001],[170.94018169999998,62.273299300000005],[170.9210117,62.270597300000006],[170.88949800000003,62.276655100000006],[170.88170330000003,62.280754200000004],[170.8612751,62.277267699999996],[170.84437509999998,62.269791600000005],[170.8506725,62.2560203],[170.8428042,62.2497855],[170.8149307,62.26133260000001],[170.8049246,62.26112510000001],[170.78015569999997,62.2525671],[170.76959929999998,62.25875800000001],[170.7674892,62.2670704],[170.76155889999998,62.267704],[170.75283240000002,62.27515240000001],[170.7361196,62.2778451],[170.7313679,62.2709637],[170.7122508,62.26439080000001],[170.6860176,62.26535800000001],[170.68086459999998,62.269026600000004],[170.6668818,62.2705494],[170.6412307,62.26751090000001],[170.6344108,62.270500600000005],[170.6391114,62.27630270000001],[170.6326739,62.27991060000001],[170.6328251,62.2840619],[170.61333019999998,62.2859866],[170.60176769999998,62.29061810000001],[170.5960761,62.2846487],[170.59818850000002,62.279580800000005],[170.58631440000002,62.27903090000001],[170.57551959999998,62.2879005],[170.57111790000002,62.29580510000001],[170.5734445,62.29879640000001],[170.56272610000002,62.29883900000001],[170.55916109999998,62.293207],[170.55244290000005,62.29025120000001],[170.5524037,62.29943980000001],[170.5442385,62.30380469999999],[170.51566039999997,62.30048669999999],[170.5152948,62.29680520000001],[170.4907544,62.2856212],[170.483263,62.2892334],[170.4857352,62.29151240000001],[170.4735988,62.29274280000001],[170.47380719999998,62.29593650000001],[170.4547688,62.293896000000004],[170.455982,62.29779810000001],[170.45118140000002,62.304419599999996],[170.414777,62.3050355],[170.41356529999996,62.3099643],[170.40873480000002,62.312558100000004],[170.3975731,62.3134081],[170.38801050000004,62.3093469],[170.36764580000002,62.308613],[170.36033770000003,62.302554900000004],[170.36178680000003,62.29775780000001],[170.35214080000006,62.29236800000001],[170.32113380000004,62.2855873],[170.317512,62.2769405],[170.3090538,62.273226900000004],[170.2986679,62.2758485],[170.29028,62.294909800000006],[170.27167159999996,62.29214340000001],[170.24571769999997,62.2813245],[170.23559359999996,62.2861777],[170.2333314,62.288771100000005],[170.2353887,62.29223680000001],[170.21340149999997,62.291881],[170.1942938,62.29532910000001],[170.19635319999998,62.29933640000001],[170.187012,62.300679599999995],[170.184889,62.306043599999995],[170.20999219999996,62.3217598],[170.21374939999998,62.328554100000005],[170.2010216,62.3322564],[170.1990874,62.337293499999994],[170.20513,62.344564899999995],[170.1925154,62.3487146],[170.18350319999996,62.357869399999984],[170.17079399999997,62.35396459999999],[170.16059419999996,62.3553692],[170.15382449999998,62.35747909999999],[170.15186459999998,62.364357399999996],[170.1409177,62.3662007],[170.13955409999994,62.378295200000004],[170.1310009,62.3864567],[170.14833900000002,62.3926206],[170.1449194,62.4036001],[170.15082080000002,62.4081244],[170.12270680000003,62.430282999999996],[170.08217040000002,62.4358999],[170.07418319999996,62.4409273],[170.0766243,62.4481442],[170.069484,62.4555986],[170.10331209999998,62.4590713],[170.10725309999998,62.4654079],[170.10566459999995,62.4750473],[170.1168281,62.4802511],[170.11875969999997,62.490839900000005],[170.0932796,62.5028717],[170.0692878,62.5078785],[170.07097459999997,62.516131],[170.06355309999995,62.522498500000005],[170.03155769999998,62.52411890000001],[170.0184643,62.5210772],[170.0064887,62.525901700000006],[169.99224940000005,62.52279980000001],[169.9889636,62.52633120000001],[169.9920342,62.52863260000001],[169.9900534,62.5392065],[169.99985869999998,62.54142939999999],[170.01063,62.54942439999999],[170.0110584,62.558569],[170.03182950000001,62.5669443],[170.04235319999998,62.57331390000001],[170.04457159999995,62.5787314],[170.04244290000003,62.581188999999995],[170.0458789,62.58362639999999],[170.03875169999998,62.590842900000005],[170.0446208,62.593938400000006],[170.0427915,62.596768700000005],[170.02681650000002,62.60527200000001],[170.0316004,62.6096851],[170.0245134,62.61833430000001],[170.02800820000002,62.62327930000001],[170.05602480000002,62.636304300000006],[170.0931604,62.636478700000005],[170.0860232,62.642624],[170.09366899999998,62.6453876],[170.094389,62.6484043],[170.0800026,62.656158000000005],[170.069022,62.6571037],[170.06382119999998,62.6626885],[170.06455229999997,62.6656464],[170.04804930000003,62.674604099999996],[170.00687489999999,62.676483],[170.0022829,62.66956530000001],[169.97146080000002,62.666108400000006],[169.9742994,62.659632200000004],[169.96075159999998,62.6555504],[169.94797319999998,62.6558593],[169.9325709,62.667126],[169.9211554,62.66821730000001],[169.8916991,62.6666604],[169.85201680000006,62.6564626],[169.8327451,62.6594698],[169.8325107,62.664706200000005],[169.8412058,62.6668225],[169.82763600000004,62.6692867],[169.8119038,62.676886999999994],[169.80175409999998,62.6754095],[169.78566109999997,62.6812589],[169.7721886,62.68115830000001],[169.75636980000002,62.691134500000004],[169.7392288,62.694837],[169.74352319999994,62.700070800000006],[169.7369129,62.70581130000001],[169.74274730000002,62.7079638],[169.72789980000002,62.715482800000004],[169.6794086,62.70459820000001],[169.66935859999998,62.71313850000001],[169.64981529999997,62.722193200000014],[169.64236780000002,62.72806510000001],[169.6420436,62.73299960000001],[169.62893330000003,62.738095400000006],[169.63059009999998,62.7413447],[169.6260061,62.74510000000001],[169.59847780000004,62.744897699999996],[169.5794824,62.750572600000005],[169.5788091,62.7578753],[169.60142820000002,62.7636679],[169.59315369999996,62.7717017],[169.5942843,62.774446399999995],[169.5767389,62.7830622],[169.5850758,62.7882176],[169.5780095,62.792973900000014],[169.5347328,62.809406599999996],[169.5165803,62.81309139999999],[169.50122860000002,62.8211008],[169.47376109999996,62.8239231],[169.44565409999996,62.8453836],[169.4229827,62.844696199999994],[169.40134950000004,62.85760799999999],[169.3827551,62.85677739999999],[169.370072,62.862831],[169.3677332,62.86628449999999],[169.3764595,62.87541290000001],[169.39812190000004,62.876052300000005],[169.39956859999998,62.8830533],[169.3891772,62.891322],[169.3398241,62.8914993],[169.31923469999998,62.8956848],[169.29984459999997,62.9091847],[169.24671419999996,62.919986599999994],[169.21415509999994,62.94188159999999],[169.1962981,62.9425018],[169.18651780000002,62.939390800000005],[169.1850989,62.9529821],[169.15869610000001,62.96631510000001],[169.16087339999999,62.968943900000006],[169.155907,62.973741],[169.12263940000003,62.974983699999996],[169.11440399999998,62.9801933],[169.09752640000002,62.976140300000004],[169.0893932,62.979026],[169.0642799,62.97343],[169.04897559999998,62.953577499999994],[169.0360348,62.9572623],[169.0314543,62.962495600000004],[169.01461579999997,62.963151100000005],[168.97144070000002,62.9515402],[168.92224460000003,62.9435813],[168.9062047,62.95364539999999],[168.82523240000003,62.967347499999995],[168.8142161,62.9752466],[168.7794339,62.986833],[168.75487499999997,62.999788900000006],[168.67159429999998,63.0267174],[168.6599207,63.02751870000001],[168.64597319999996,63.0238824],[168.59194830000004,63.036015600000006],[168.57864519999998,63.0328889],[168.53786499999998,63.049978800000005],[168.5352654,63.053467299999994],[168.5225699,63.0554512],[168.51953289999997,63.0644705],[168.52274630000005,63.067890999999996],[168.50030730000003,63.0653416],[168.47979209999997,63.0719288],[168.4741445,63.0758893],[168.47403680000002,63.0816197],[168.46636790000002,63.083485499999995],[168.4752089,63.0968698],[168.49387579999998,63.110070300000004],[168.5069534,63.1136086],[168.52739610000003,63.1136449],[168.52250640000003,63.1168164],[168.5310026,63.122944600000004],[168.529978,63.1268866],[168.5577317,63.12813420000001],[168.571666,63.139186],[168.5849695,63.141116200000006],[168.6111072,63.1520548],[168.61150039999998,63.15751530000001],[168.6186487,63.161107],[168.6279919,63.1612437],[168.6286927,63.167021],[168.61987909999996,63.1718749],[168.61987049999996,63.1782673],[168.6515245,63.182653200000004],[168.71009969999997,63.1835972],[168.72961769999998,63.177334900000005],[168.74497549999995,63.1800263],[168.7582906,63.1875546],[168.75659309999998,63.191636900000006],[168.77329549999996,63.203542500000005],[168.73885469999996,63.2115078],[168.7383053,63.2175689],[168.73317349999996,63.22252550000001],[168.7094445,63.22675050000001],[168.72918199999998,63.238241900000006],[168.74585999999996,63.239217000000004],[168.738686,63.247579200000004],[168.7561828,63.2521847],[168.75621750000002,63.24513790000001],[168.78565899999998,63.23717500000001],[168.80016080000001,63.237419800000005],[168.8152192,63.2482675],[168.8261051,63.26030560000001],[168.8256431,63.26332510000001],[168.83187080000002,63.26613380000001],[168.8242731,63.27232480000001],[168.8296391,63.277234],[168.82852760000003,63.2820676],[168.82449760000003,63.2841046],[168.82897890000004,63.2874693],[168.8258545,63.29284380000001],[168.830203,63.29900800000001],[168.82744910000005,63.30494149999999],[168.85114350000003,63.311264499999986],[168.8643216,63.3097525],[168.86950099999999,63.3153655],[168.89712130000004,63.324772],[168.9094633,63.3210578],[168.9508691,63.341511],[168.95246230000004,63.34482619999999],[168.94453539999998,63.352677099999994],[168.9461795,63.3553384],[168.968587,63.360311700000004],[168.9920586,63.3700586],[169.0635964,63.406981599999995],[169.0941533,63.4139996],[169.0973522,63.42313360000001],[169.1102429,63.435791],[169.1337433,63.440496499999995],[169.13605169999997,63.4437288],[169.13433840000002,63.447037099999996],[169.14168389999998,63.44893580000001],[169.1434198,63.4571513],[169.1537898,63.463096900000004],[169.15030850000002,63.4679796],[169.15366189999997,63.4727616],[169.20649930000002,63.4879628],[169.22047469999998,63.495950400000005],[169.22900449999997,63.50531080000001],[169.23231700000002,63.511281999999994],[169.2272149,63.51380939999999],[169.2541192,63.5131854],[169.28516469999997,63.525853000000005],[169.2997165,63.5254461],[169.3247945,63.5375425],[169.33851810000002,63.5377434],[169.3693091,63.5306807],[169.39578840000001,63.5331697],[169.40062740000002,63.53557630000001],[169.39943610000003,63.540526],[169.4043239,63.54275590000001],[169.4292225,63.546705700000004],[169.4442777,63.5569927],[169.45229240000003,63.556044299999996],[169.47951709999998,63.56541860000001],[169.52742180000004,63.5644738],[169.5335398,63.5732672],[169.5471353,63.5801235],[169.5324851,63.5899795],[169.52819100000002,63.601689099999994],[169.543431,63.6074379],[169.5452189,63.6143932],[169.56221150000002,63.6196343],[169.5647335,63.6248373],[169.554613,63.62914380000001],[169.55444500000002,63.6318201],[169.57359289999997,63.642183700000004],[169.60236469999998,63.640452700000004],[169.64167459999996,63.6544127],[169.61581449999997,63.6567797],[169.6086482,63.66261480000001],[169.6091303,63.66903070000001],[169.6160933,63.6788766],[169.61428429999998,63.683735500000004],[169.5932508,63.6844987],[169.5708386,63.69151220000001],[169.5680731,63.698946600000006],[169.58174090000003,63.7160038],[169.5689751,63.721548000000006],[169.5677412,63.72673480000001],[169.57741850000002,63.7262815],[169.5920059,63.73121270000001],[169.58722850000004,63.7365745],[169.5877843,63.7441809],[169.57556079999998,63.75834630000001],[169.5830585,63.77335260000001],[169.58200970000001,63.7814132],[169.5719733,63.7897849],[169.57776589999997,63.79390310000001],[169.57498119999997,63.8054542],[169.5429248,63.81584719999999],[169.533107,63.8248252],[169.50843310000002,63.832731],[169.5010897,63.836943],[169.4930115,63.848933900000006],[169.44441790000002,63.8471051],[169.41550469999996,63.852506],[169.41651059999998,63.8652713],[169.40821990000003,63.8604175],[169.39287080000003,63.8601436],[169.38658080000002,63.862377300000006],[169.3764502,63.873240599999995],[169.3765808,63.8807082],[169.4010591,63.9022355],[169.39843710000005,63.906394399999996],[169.36683700000003,63.9089606],[169.37034980000004,63.9144588],[169.3785804,63.91758039999999],[169.38134640000007,63.9278136],[169.39223500000003,63.932149],[169.38749500000003,63.9400755],[169.36250830000003,63.9411412],[169.323175,63.9356492],[169.3160843,63.938733400000004],[169.3158453,63.9440332],[169.3091043,63.9473148],[169.21933669999999,63.9435715],[169.1861582,63.9370002],[169.14493209999998,63.9388184],[169.1272007,63.935760900000005],[169.1062749,63.941124099999996],[169.09024950000003,63.9354086],[169.07907449999996,63.94273630000001],[169.06310059999998,63.9435292],[169.0682112,63.949901399999995],[169.0610904,63.951539499999996],[169.0604851,63.9569999],[169.05275730000002,63.9617094],[169.0681022,63.9712727],[169.0667292,63.9741829],[169.0494991,63.9750254],[169.0424341,63.9792935],[169.0028603,63.976777399999996],[168.99219330000003,63.990697499999996],[168.92259790000003,63.979769],[168.876823,63.98472339999999],[168.88287940000004,64.00125140000002],[168.8762156,64.00356420000001],[168.86944060000002,64.01369530000001],[168.8750197,64.0313914],[168.88733360000003,64.034473],[168.8870526,64.0433571],[168.8901237,64.0477704],[168.88298720000003,64.06051040000001],[168.8350033,64.0752496],[168.83153030000003,64.0786972],[168.8404222,64.0888167],[168.8385945,64.0940898],[168.8233817,64.1039831],[168.80873620000003,64.10823229999998],[168.82114320000002,64.12171799999999],[168.8113644,64.12934909999998],[168.82504190000003,64.1395009],[168.82425,64.1431002],[168.80958009999998,64.1542786],[168.80719650000003,64.16830199999998],[168.7964618,64.1735492],[168.80017890000002,64.18361660000001],[168.7829146,64.1872989],[168.7593111,64.18374859999999],[168.73268489999998,64.188924],[168.71257859999997,64.18514709999998],[168.69927619999999,64.1879112],[168.68417,64.19618729999999],[168.6668239,64.19280129999999],[168.65202640000004,64.19368279999999],[168.6422596,64.1992151],[168.6340062,64.2128415],[168.6494439,64.21892960000002],[168.6485239,64.2246729],[168.63025919999998,64.23192660000002],[168.6081122,64.2347709],[168.60619409999998,64.250496],[168.57778309999998,64.262058],[168.58188,64.2742478],[168.56639990000002,64.2861393],[168.52987349999998,64.30373789999999],[168.51528969999998,64.30193129999999],[168.5038489,64.3113043],[168.48629330000003,64.31284769999999],[168.4827236,64.31724100000001],[168.4486609,64.312074],[168.41649750000002,64.31406440000002],[168.41565179999998,64.309292],[168.4102177,64.30729720000001],[168.3670446,64.29702760000002],[168.30212260000002,64.31462030000002],[168.27952899999997,64.33018779999999],[168.24655309999994,64.3311367],[168.2386218,64.32533719999998],[168.22586589999997,64.3238504],[168.21615109999996,64.3163272],[168.20443790000002,64.31418380000001],[168.19551159999997,64.30766330000002],[168.189415,64.29706780000001],[168.19821680000004,64.2928174],[168.19672169999998,64.28375679999999],[168.182753,64.27669],[168.14621449999999,64.27392809999999],[168.13561529999998,64.2811757],[168.11372369999995,64.282469],[168.1052166,64.2764457],[168.08453780000002,64.27655279999999],[168.06807740000002,64.26920070000001],[168.03805309999998,64.2654954],[168.03444760000002,64.275262],[168.0181045,64.2738926],[167.98149450000003,64.28256990000001],[167.9358705,64.28230049999999],[167.92197630000004,64.2889107],[167.90360399999997,64.28865809999999],[167.89070180000002,64.3005333],[167.84733910000003,64.29421620000002],[167.83613750000004,64.30422050000001],[167.8370748,64.32612040000001],[167.8287926,64.3294275],[167.8247875,64.3339618],[167.82602500000002,64.3368524],[167.8186412,64.33788209999999],[167.80956759999998,64.3459856],[167.7868894,64.3330002],[167.7654575,64.3282286],[167.74654249999998,64.32989779999998],[167.72574880000002,64.32204819999998],[167.71165989999997,64.32575649999998],[167.6876459,64.31889199999999],[167.6867107,64.32487719999999],[167.66455179999997,64.35380199999999],[167.67118539999998,64.3614704],[167.6411282,64.36612320000002],[167.63834760000003,64.3718105],[167.6268426,64.374721],[167.60306899999998,64.38875139999999],[167.6012734,64.3991715],[167.6124714,64.4052221],[167.5890714,64.41526510000001],[167.58747430000003,64.42869160000001],[167.5734949,64.4330558],[167.5565572,64.43195870000001],[167.4965482,64.4518261],[167.48356359999997,64.4524756],[167.482775,64.46739370000002],[167.49115690000002,64.4735691],[167.48211330000004,64.47561370000001],[167.4765894,64.4822589],[167.46546980000002,64.47913709999999],[167.43748200000002,64.4809573],[167.41363319999996,64.4761574],[167.3948445,64.48061020000002],[167.38689870000002,64.4783497],[167.36753090000002,64.48988809999999],[167.3558422,64.49151130000001],[167.34931459999999,64.49970420000001],[167.339302,64.5016768],[167.3352838,64.508658],[167.34023700000003,64.5134782],[167.32853670000003,64.52054960000001],[167.3402634,64.52587819999998],[167.3337317,64.5289797],[167.333357,64.54015550000001],[167.29062519999997,64.55762690000002],[167.2851267,64.56672590000001],[167.2927977,64.5748431],[167.27303229999998,64.58329340000002],[167.27558789999998,64.5881958],[167.2734183,64.59344279999999],[167.26467759999997,64.5944786],[167.24761339999998,64.6031065],[167.2493491,64.61759980000001],[167.23155299999996,64.62318259999999],[167.2053285,64.6173558],[167.20697719999998,64.6124335],[167.19935819999998,64.60766950000001],[167.1933313,64.6115793],[167.1404187,64.6219238],[167.12685459999997,64.6196908],[167.1246224,64.618162],[167.1318594,64.6109805],[167.13109680000002,64.60505679999999],[167.13545419999997,64.60115640000001],[167.1354023,64.59252440000002],[167.1061743,64.5999572],[167.0869853,64.59446260000001],[167.0838691,64.59269320000001],[167.0844135,64.58817579999999],[167.0703565,64.5839255],[167.069642,64.5809405],[167.05670419999998,64.5804802],[167.0417335,64.5753254],[167.026509,64.5606823],[167.02652469999998,64.55648809999998],[167.0001233,64.54873839999999],[166.9977932,64.5460015],[166.9990673,64.5384172],[166.99204700000004,64.5363176],[166.9783002,64.5347148],[166.97156439999998,64.53898709999999],[166.9498669,64.537794],[166.9455487,64.54079320000001],[166.92735180000003,64.5425354],[166.91514830000003,64.54127290000001],[166.90885630000002,64.53574249999998],[166.90121850000003,64.53419490000002],[166.89141900000004,64.53843189999999],[166.86741460000002,64.5367067],[166.85955339999998,64.54095660000002],[166.8592321,64.54441150000001],[166.8295818,64.5328747],[166.80837740000004,64.532234],[166.7878039,64.5188628],[166.77452959999997,64.52488779999999],[166.7772105,64.5317914],[166.75919159999998,64.53634360000001],[166.75955649999997,64.54236560000001],[166.7423013,64.54451130000001],[166.7299938,64.549762],[166.6858743,64.54047209999999],[166.6821959,64.5329552],[166.6403977,64.52243399999999],[166.5918558,64.52191450000001],[166.5819559,64.53206440000001],[166.58216720000001,64.53729820000001],[166.5517054,64.5429168],[166.5378251,64.55391970000001],[166.47368459999996,64.5585438],[166.457794,64.5702963],[166.42785519999998,64.57689049999999],[166.4079407,64.59026800000001],[166.33755,64.59024360000002],[166.311455,64.59439660000001],[166.31360119999997,64.5896921],[166.3107339,64.5835402],[166.2905923,64.5808026],[166.27947349999997,64.5883892],[166.2320333,64.5934799],[166.2262136,64.59929350000002],[166.2178083,64.6014343],[166.1915461,64.60069229999999],[166.18573940000002,64.62001409999999],[166.16057169999996,64.6113033],[166.13467579999997,64.606856],[166.12179700000002,64.59755040000002],[166.1184181,64.59069350000001],[166.11977099999996,64.58527029999999],[166.0682601,64.5748124],[166.06271780000003,64.5671305],[166.06333640000003,64.5628532],[166.0520643,64.55966470000001],[166.0426328,64.55367109999999],[166.0407282,64.5490838],[166.002052,64.55493729999999],[165.98363600000002,64.5501223],[165.9618694,64.54907490000001],[165.9421912,64.5548502],[165.92763930000004,64.55356450000001],[165.9152674,64.547998],[165.8796238,64.5518285],[165.84849040000003,64.54776530000001],[165.8452501,64.54986020000001],[165.84632900000003,64.5712111],[165.8286855,64.57466590000001],[165.8349031,64.5765243],[165.82097180000002,64.58651160000001],[165.8507251,64.5973819],[165.8715872,64.59699300000001],[165.89842980000006,64.60684869999999],[165.90283440000002,64.61210990000001],[165.89823990000005,64.61476400000001],[165.88092600000004,64.6112827],[165.85272890000005,64.6198849],[165.82203210000003,64.6246862],[165.80998069999998,64.63277529999998],[165.80921800000002,64.6366225],[165.81385699999998,64.6402828],[165.79710740000002,64.6408009],[165.7674259,64.6501175],[165.7507598,64.65141829999999],[165.74581969999997,64.65884999999999],[165.72969579999997,64.6615127],[165.7278508,64.6668924],[165.7306274,64.6696308],[165.72124770000002,64.6712507],[165.7208609,64.6771706],[165.73070369999996,64.67979319999999],[165.740019,64.69769910000001],[165.7515491,64.705017],[165.75839700000003,64.7147982],[165.71835249999998,64.71778490000001],[165.70856579999997,64.7303122],[165.68422180000002,64.73732700000001],[165.68505169999997,64.75031390000001],[165.6310871,64.74979920000001],[165.61864319999998,64.74366220000002],[165.61336409999996,64.74944340000002],[165.6013533,64.74724610000001],[165.58854910000002,64.7393345],[165.5673736,64.73653900000001],[165.53967159999996,64.7397826],[165.52851280000002,64.74413910000001],[165.52514650000003,64.75295440000001],[165.5216721,64.7544858],[165.5004087,64.75612360000002],[165.47433990000002,64.7509458],[165.4751456,64.74451470000002],[165.4590939,64.73573219999999],[165.4454954,64.7333354],[165.4267596,64.74442320000003],[165.41825169999998,64.74002100000001],[165.40295600000002,64.74380090000001],[165.3998097,64.7539565],[165.38731760000005,64.76421290000002],[165.3630455,64.76300660000001],[165.336542,64.7543395],[165.32348780000004,64.76292310000001],[165.3243046,64.76942490000002],[165.33333530000002,64.77519819999999],[165.34644950000003,64.7774459],[165.34830930000004,64.7831882],[165.3208624,64.7965819],[165.3318816,64.80491950000001],[165.32908930000002,64.80710330000001],[165.3022529,64.81164060000002],[165.29975659999997,64.81763790000001],[165.28661519999997,64.82759779999999],[165.2734875,64.8294962],[165.25832580000002,64.82671809999998],[165.23063219999997,64.83087479999999],[165.23499429999998,64.83315040000001],[165.19136780000002,64.84673219999999],[165.16809630000003,64.8373937],[165.1662708,64.8443476],[165.13794650000003,64.85457679999999],[165.12345449999998,64.8461814],[165.11364139999998,64.8485158],[165.0901985,64.8427608],[165.0788031,64.8464091],[165.06026119999999,64.84423770000001],[165.04471329999998,64.83887679999998],[165.0240306,64.83833169999998],[165.0051006,64.8304618],[165.0198079,64.8201067],[165.01215399999998,64.81671109999999],[165.0203522,64.81106090000002],[165.0141461,64.80633879999998],[165.0060797,64.78695520000001],[165.01462539999997,64.78145490000001],[165.0177903,64.7716005],[165.01058339999997,64.76661520000002],[165.0268679,64.75705360000002],[165.0290248,64.7547621],[165.02677319999998,64.75192900000002],[165.0387387,64.74725020000002],[165.03482269999998,64.7396458],[165.0226886,64.73497950000001],[165.0241723,64.73010470000001],[165.0289247,64.7289291],[165.0074844,64.72524390000001],[165.0113731,64.7137641],[165.00803690000004,64.7045805],[165.0130189,64.69535789999999],[165.0102145,64.6915758],[165.0121823,64.6865604],[165.0067766,64.6826245],[165.01258529999998,64.67593839999998],[164.9866716,64.673019],[164.97180880000002,64.68263049999999],[164.9569451,64.6844142],[164.9290195,64.68210549999999],[164.92262920000002,64.67477249999997],[164.9142104,64.67287069999998],[164.894991,64.67464809999998],[164.8798404,64.68543279999997],[164.8673592,64.68132370000001],[164.860644,64.6834144],[164.86087740000002,64.6955984],[164.85612290000003,64.7032723],[164.86924290000002,64.71436030000001],[164.84548750000002,64.73189620000001],[164.8152018,64.74575390000001],[164.80671780000003,64.74673229999999],[164.8055764,64.74922690000002],[164.81234990000004,64.7584653],[164.80289630000004,64.76062770000001],[164.8040853,64.76542500000001],[164.8003012,64.76721720000002],[164.781484,64.76763290000001],[164.76902419999996,64.77140940000001],[164.736908,64.7700432],[164.71969099999995,64.77432040000001],[164.7052233,64.78027320000001],[164.696345,64.79031040000001],[164.6834687,64.791576],[164.67306749999997,64.80395460000001],[164.64909139999997,64.80596879999999],[164.64370999999997,64.8135885],[164.6262594,64.8094619],[164.62376349999997,64.7947886],[164.60759149999998,64.79552770000001],[164.6008345,64.80031809999998],[164.60043600000003,64.80420140000001],[164.5906296,64.8091548],[164.5859671,64.81761800000001],[164.5164251,64.8250194],[164.5153579,64.8317998],[164.5203639,64.83499960000002],[164.5166583,64.8389631],[164.52021980000004,64.8458369],[164.4767987,64.862202],[164.47878,64.86550609999999],[164.4718332,64.87479849999998],[164.44975899999997,64.87260729999998],[164.42344860000003,64.87993649999999],[164.4089534,64.87790729999999],[164.40514380000002,64.88174009999999],[164.36284920000003,64.8862375],[164.3644662,64.8890905],[164.3602141,64.8926433],[164.343191,64.8964804],[164.3341067,64.90329390000002],[164.30031340000002,64.90742530000001],[164.29646449999998,64.91040890000001],[164.2842262,64.90868400000001],[164.27538589999997,64.91111340000003],[164.270007,64.92699209999999],[164.2341263,64.92417360000002],[164.23176229999999,64.93464490000002],[164.224707,64.93746890000001],[164.20192219999998,64.92902690000001],[164.19316859999998,64.91981640000002],[164.17952759999997,64.92302790000001],[164.1671191,64.92194190000001],[164.1628172,64.9135408],[164.1624545,64.9008391],[164.1521777,64.89655920000001],[164.15100080000002,64.8931375],[164.1291314,64.891096],[164.0650077,64.89763400000001],[164.05816940000003,64.89419330000001],[164.0587727,64.88803069999999],[164.05289730000004,64.87393239999999],[164.0446491,64.86758970000001],[164.024494,64.86441490000001],[164.02301880000002,64.86742240000001],[164.0051013,64.866918],[163.9920116,64.8621312],[163.99093200000002,64.85768940000001],[163.97304509999998,64.8548291],[163.94524090000002,64.86460290000001],[163.93051549999998,64.86051040000001],[163.91664319999998,64.8492481],[163.9077422,64.8480283],[163.82892290000004,64.86159540000001],[163.8248816,64.8640089],[163.82915219999998,64.86626570000001],[163.8257589,64.87393079999998],[163.800962,64.88177929999999],[163.8104645,64.89006450000001],[163.8058524,64.8921849],[163.7900877,64.8932985],[163.7764892,64.88639269999999],[163.76457389999996,64.8883346],[163.757393,64.885933],[163.74796369999996,64.88858189999999],[163.7327082,64.88641340000001],[163.71883119999998,64.88998579999999],[163.699258,64.88820679999999],[163.6891332,64.8910911],[163.67785349999997,64.88498940000001],[163.6713966,64.88905249999999],[163.65724330000003,64.8883657],[163.6578217,64.8922849],[163.6415865,64.8934608],[163.6353066,64.9024933],[163.64306369999994,64.91021030000002],[163.61594680000002,64.9179428],[163.60946969999998,64.9228486],[163.57880980000002,64.92155020000001],[163.57658139999998,64.9153029],[163.56375209999996,64.91394380000001],[163.5514357,64.92078889999999],[163.55458119999997,64.92718160000001],[163.54489159999997,64.92858729999999],[163.53478479999998,64.9230041],[163.52574,64.92398440000001],[163.5162255,64.9208716],[163.49591569999998,64.91132190000002],[163.4953152,64.90165630000001],[163.4909034,64.8994355],[163.4956428,64.88712040000001],[163.4905371,64.88320340000001],[163.4975148,64.8804033],[163.49145950000002,64.87778859999999],[163.49157359999998,64.87006269999999],[163.46845230000002,64.8685872],[163.43359409999997,64.857313],[163.4153396,64.8563406],[163.4133694,64.85464590000001],[163.41834190000003,64.84386470000001],[163.4153006,64.8378991],[163.4078782,64.8371473],[163.4054236,64.83280769999999],[163.3850945,64.8292791],[163.37152680000003,64.8192453],[163.35487750000001,64.8152089],[163.36120340000002,64.8098154],[163.36346780000002,64.80156300000002],[163.35731450000003,64.80001960000001],[163.31721720000002,64.8059943],[163.2978124,64.79963540000001],[163.26660819999998,64.79718050000001],[163.2594377,64.8011608],[163.23656339999997,64.8034162],[163.22380099999998,64.81158450000001],[163.20760269999997,64.8138019],[163.1850038,64.80978549999999],[163.18243750000005,64.80573119999998],[163.1693723,64.80195040000001],[163.16023880000003,64.802595],[163.14154369999997,64.79331540000001],[163.1259134,64.793097],[163.1327167,64.7866065],[163.13345419999996,64.77978009999998],[163.1294116,64.776128],[163.13555519999994,64.76709460000002],[163.1531661,64.76701760000002],[163.1701964,64.762891],[163.1660462,64.7458615],[163.1693341,64.7403673],[163.1841699,64.741778],[163.18724380000003,64.7361424],[163.21349379999998,64.73300950000001],[163.20991069999997,64.7292826],[163.2124679,64.7229932],[163.22686199999998,64.7238744],[163.24582089999998,64.71484470000001],[163.2647438,64.7137925],[163.2663351,64.7098913],[163.26066229999998,64.70445670000001],[163.26616489999998,64.69373189999999],[163.230641,64.6968665],[163.18123400000002,64.6911685],[163.1484775,64.6838349],[163.1211725,64.68343889999998],[163.0953041,64.67595659999999],[163.0710209,64.6629736],[163.0126448,64.6608933],[162.9943097,64.6637677],[162.9619,64.65683059999999],[162.92200860000003,64.6625796],[162.9122954,64.6578225],[162.89861820000002,64.65772360000001],[162.86829050000003,64.6577241],[162.85134300000004,64.66258079999999],[162.8199248,64.65990529999999],[162.78840810000003,64.66307729999998],[162.75248050000002,64.6621859],[162.7351366,64.6664479],[162.71115349999997,64.68443669999999],[162.6725999,64.68736109999999],[162.6694291,64.69608279999999],[162.67359219999994,64.7010382],[162.67200680000002,64.70529990000001],[162.676368,64.7084714],[162.66531830000002,64.72115760000001],[162.6640305,64.72759970000001],[162.65050269999998,64.7369163],[162.6528815,64.738502],[162.6501067,64.7409798],[162.6282035,64.7433588],[162.60952109999997,64.74167420000002],[162.5986192,64.74494500000002],[162.5781032,64.7421703],[162.5561509,64.74990120000001],[162.55872800000003,64.75277529999998],[162.5569442,64.75426200000001],[162.5341988,64.758425],[162.4997082,64.7567407],[162.48791380000003,64.7530738],[162.44281890000002,64.7567416],[162.42230360000002,64.7620938],[162.31897940000002,64.74366110000001],[162.30718630000004,64.75451380000001],[162.29182419999998,64.75451410000001],[162.2815671,64.7634341],[162.2643219,64.76343440000001],[162.2545103,64.76710160000002],[162.24658179999997,64.7715617],[162.25054680000002,64.77721090000001],[162.2260668,64.78038279999998],[162.22314319999998,64.7824641],[162.224432,64.78593289999999],[162.1634296,64.7856366],[162.1419223,64.78216809999999],[162.1343407,64.7861326],[162.1087705,64.78890809999999],[162.0882552,64.79505320000001],[162.0607024,64.79366620000002],[162.0387006,64.8009015],[162.02056319999997,64.7988205],[161.9724956,64.8084349],[161.96084990000003,64.80585829999998],[161.95604360000002,64.81259779999999],[161.91104780000003,64.81576999999999],[161.8892446,64.8273662],[161.8481135,64.8246414],[161.80505119999998,64.8372785],[161.7973707,64.84357209999999],[161.82403250000002,64.85496930000001],[161.82462800000002,64.8647316],[161.8153122,64.87147119999999],[161.8148172,64.8775665],[161.80579830000002,64.8790532],[161.80738440000002,64.88212560000001],[161.7978207,64.8874281],[161.78711700000002,64.88950960000001],[161.77309419999995,64.90412850000001],[161.75614650000003,64.90700300000002],[161.7543629,64.9108683],[161.75822930000004,64.9223649],[161.7470303,64.92816300000001],[161.74752619999998,64.93192920000003],[161.7404404,64.9389165],[161.74381139999997,64.95274229999998],[161.74975809999995,64.9529404],[161.75382209999998,64.95878779999998],[161.75114700000003,64.9681041],[161.74658819999996,64.97167209999999],[161.746886,64.9759339],[161.73836269999998,64.9783126],[161.74450799999997,64.9829707],[161.73311049999998,64.985845],[161.71808509999997,65.0030012],[161.7028679,65.00383729999999],[161.70055489999996,65.009285],[161.69247790000003,65.0148848],[161.6767199,65.02063340000001],[161.6645788,65.0198408],[161.65308269999997,65.028067],[161.62919730000002,65.0295541],[161.61958439999995,65.0386228],[161.58975199999998,65.0368393],[161.5751834,65.04412410000002],[161.56963309999998,65.0425384],[161.5478295,65.05007109999998],[161.5385129,65.0471971],[161.53405319999996,65.0505669],[161.5183937,65.0500716],[161.50952349999997,65.0519548],[161.5085328,65.05572099999999],[161.48999940000002,65.05928920000001],[161.48831490000003,65.06275809999998],[161.475827,65.0629565],[161.4708724,65.07281799999998],[161.4484735,65.0741068],[161.4338061,65.08421620000001],[161.42151650000002,65.0852075],[161.41497549999997,65.08808179999998],[161.41477769999997,65.09293819999999],[161.4063535,65.09492050000001],[161.41834680000005,65.10478169999999],[161.40526459999998,65.10894449999999],[161.40883300000002,65.11380079999999],[161.4061575,65.11895460000001],[161.38113240000004,65.12187869999998],[161.3764747,65.1274289],[161.36131150000003,65.1351102],[161.32741640000006,65.1417511],[161.31770419999998,65.1484907],[161.27687109999997,65.153645],[161.2577424,65.14868990000001],[161.23787069999997,65.1486902],[161.2273158,65.1518619],[161.21562029999998,65.14720390000002],[161.14485719999996,65.1656394],[161.1322697,65.16058509999999],[161.12151630000002,65.16217099999999],[161.11150579999997,65.15840499999999],[161.0910896,65.1642528],[161.0906935,65.16742430000001],[161.0762232,65.1656405],[161.0677004,65.17287569999998],[161.0545185,65.1707946],[161.03955309999995,65.17426370000001],[161.03707569999997,65.17793079999998],[161.0187899,65.1784266],[161.010266,65.1740659],[160.99172380000002,65.17553729999997],[160.9940196,65.17219979999999],[160.978104,65.1669306],[160.9703736,65.1693093],[160.95729070000002,65.16593979999999],[160.95233480000005,65.16138079999999],[160.93845950000002,65.1641561],[160.90654519999998,65.15503859999998],[160.89544490000003,65.15642629999999],[160.89484980000003,65.15147079999998],[160.885533,65.14730829999999],[160.86828750000004,65.1433442],[160.85996219999998,65.1433444],[160.85798020000001,65.14611950000001],[160.85282620000004,65.14274979999999],[160.82111140000004,65.14849869999999],[160.82012060000002,65.1518684],[160.81278650000002,65.1530579],[160.7864227,65.1484993],[160.7913785,65.1516707],[160.76095199999997,65.15583379999998],[160.7362728,65.14889649999999],[160.73359719999996,65.1526627],[160.7209107,65.149095],[160.67472529999998,65.14929390000002],[160.6656076,65.1548442],[160.64299409999998,65.1520336],[160.6349424,65.15687239999998],[160.62001700000002,65.15672799999999],[160.60733140000002,65.16297219999998],[160.6065388,65.16634189999999],[160.56947119999998,65.16277449999998],[160.5339909,65.17645219999999],[160.51955889999996,65.1749514],[160.5019784,65.17803849999997],[160.49623040000003,65.18279589999999],[160.49801480000002,65.1871567],[160.51605349999997,65.19369760000001],[160.5122882,65.20341040000001],[160.4750233,65.21054690000001],[160.46194180000003,65.22244029999999],[160.43934480000001,65.2244228],[160.4396425,65.22828809999999],[160.45649210000002,65.2380006],[160.4479695,65.24711880000001],[160.4348871,65.25009229999999],[160.43131950000003,65.2540567],[160.43409509999998,65.2594086],[160.43013100000002,65.26277839999999],[160.4129853,65.2678333],[160.4177431,65.27278869999998],[160.4159594,65.2759602],[160.39177640000003,65.27496950000001],[160.38028030000004,65.28329490000002],[160.38484010000002,65.29082720000001],[160.37849720000003,65.29261120000001],[160.3309241,65.29191820000001],[160.3267616,65.2939005],[160.32834850000006,65.30638829999998],[160.3237901,65.3131278],[160.32934070000002,65.3176868],[160.3281517,65.3214529],[160.29445469999996,65.32819289999999],[160.3011042,65.33538139999999],[160.2978255,65.3394914],[160.23380129999998,65.3514847],[160.20882640000002,65.36218889999999],[160.2088271,65.36952300000002],[160.19515049999998,65.37745199999999],[160.1967366,65.3802271],[160.21576619999996,65.38478579999999],[160.21418099999997,65.3905342],[160.2078381,65.3931111],[160.2028833,65.4004453],[160.20427119999997,65.4048061],[160.2405465,65.41352720000002],[160.24371839999998,65.41729330000003],[160.23955629999998,65.4238346],[160.24094469999997,65.4329527],[160.21160909999998,65.44494540000002],[160.189607,65.4487119],[160.18643590000002,65.45386570000001],[160.1927794,65.45901930000001],[160.19436579999999,65.46556050000001],[160.1582907,65.4776525],[160.1271701,65.4786441],[160.11329519999995,65.4849873],[160.0926818,65.5022327],[160.0494704,65.51065770000001],[160.03837090000002,65.52017239999999],[160.0286582,65.5209655],[159.9997177,65.5191819],[159.9890133,65.51442490000002],[159.94044840000004,65.50629860000001],[159.93628600000002,65.509272],[159.9366833,65.51839009999999],[159.9299442,65.52275099999999],[159.91646519999998,65.5229494],[159.85491650000003,65.51185020000001],[159.811506,65.51125620000002],[159.8015962,65.52473529999999],[159.8055618,65.53643009999999],[159.77781149999998,65.54435930000001],[159.7677034,65.55635179999999],[159.7522422,65.55674849999998],[159.7289529,65.57528229999998],[159.71012249999998,65.58162570000002],[159.68336299999999,65.585194],[159.6843544,65.5883655],[159.6803902,65.5913389],[159.66215359999998,65.58777119999999],[159.64570189999998,65.59490740000001],[159.62607780000002,65.5933219],[159.581082,65.59768350000002],[159.57909999999998,65.59966570000002],[159.5816772,65.60343179999998],[159.58861530000001,65.60660320000001],[159.58742660000004,65.6139374],[159.57751589999998,65.61810009999999],[159.5057603,65.62226390000001],[159.48623690000005,65.6377253],[159.4505572,65.63871699999999],[159.4463948,65.64109570000001],[159.4483777,65.648628],[159.4277627,65.64843009999998],[159.41686019999997,65.64466410000001],[159.39783100000002,65.6458537],[159.3154714,65.6591357],[159.312102,65.6629019],[159.30120000000002,65.6648843],[159.28415299999998,65.66567739999999],[159.2274611,65.65913709999998],[159.2104149,65.66746260000001],[159.2212605,65.6715591],[159.21549869999998,65.67835309999998],[159.2082357,65.68094149999999],[159.1806829,65.68034729999998],[159.153527,65.68431209999999],[159.14262509999998,65.68728560000001],[159.13033640000003,65.6977914],[159.11923589999998,65.6966023],[159.10020740000002,65.70472960000002],[159.0680955,65.7039372],[159.05362569999997,65.7084965],[159.05025690000002,65.7184075],[159.0388597,65.72425510000001],[159.0267685,65.72683219999999],[158.99842250000003,65.7236611],[158.95184090000004,65.72722980000002],[158.92468519999997,65.73416790000002],[158.91085549999997,65.74046340000002],[158.909324,65.74447560000002],[158.91824490000002,65.75398990000001],[158.91804700000003,65.75755790000001],[158.93449990000002,65.76350420000001],[158.9341038,65.76667570000001],[158.9170586,65.78689440000001],[158.90476919999998,65.7900661],[158.9061575,65.79779660000001],[158.9128977,65.8049324],[158.89823010000003,65.8138525],[158.90041090000003,65.81742040000002],[158.9259822,65.82495229999999],[158.94897600000002,65.8269342],[158.9502649,65.83129500000001],[158.9431297,65.83922380000001],[158.9241016,65.8511173],[158.92132700000005,65.8566675],[158.9237062,65.86221760000001],[158.9609726,65.8711369],[158.95621590000002,65.8770835],[158.93143870000003,65.8825349],[158.926682,65.88887799999998],[158.93302549999999,65.89284229999998],[158.95938930000003,65.8966081],[158.98159080000002,65.90433829999999],[158.97386099999997,65.91306000000002],[158.99140490000002,65.9267369],[159.0142013,65.9372421],[159.02490630000003,65.94754940000003],[159.0219336,65.95409070000001],[159.0248085,65.96112740000002],[159.0489931,65.97837209999997],[159.02818080000003,65.98778779999999],[159.035411,66.00456440000002],[159.0539519,66.01236660000001],[159.0541508,66.0193043],[159.0836863,66.0244575],[159.1088604,66.0242589],[159.112231,66.0331787],[159.0973655,66.04507209999998],[159.0969695,66.04923470000001],[159.1179813,66.0524059],[159.1324523,66.061722],[159.1650604,66.06905560000001],[159.1692244,66.08312910000001],[159.1878582,66.0930397],[159.1910305,66.10116670000001],[159.185283,66.10988839999999],[159.187662,66.114051],[159.21571119999996,66.12247489999999],[159.2172973,66.1258446],[159.21036019999997,66.13337699999998],[159.20996429999997,66.13813429999999],[159.24703209999998,66.1424945],[159.2575385,66.1496302],[159.260315,66.16410020000001],[159.23930449999997,66.17361509999999],[159.24069309999996,66.18491350000001],[159.2460458,66.1920493],[159.2303871,66.1995819],[159.2250361,66.20969120000001],[159.21552209999996,66.21623260000001],[159.21472969999996,66.22103940000001],[159.2180998,66.22431],[159.23257069999997,66.23213940000001],[159.22989509999996,66.23630209999999],[159.220678,66.23768970000002],[159.12855359999998,66.22718560000001],[159.0907429,66.2274835],[159.0601181,66.2318448],[159.05555959999998,66.23769240000001],[159.03355809999996,66.2488426],[158.98132590000003,66.23992350000002],[158.95704390000003,66.24160880000001],[158.9452508,66.25231279999998],[158.92082010000001,66.25360160000001],[158.9015938,66.2650986],[158.8370726,66.26410860000001],[158.8200755,66.2681228],[158.7830079,66.26594300000001],[158.78092750000002,66.275854],[158.75624950000002,66.28120630000001],[158.74960979999997,66.2889369],[158.71720119999998,66.2943885],[158.71705299999996,66.2998395],[158.7231986,66.30687619999999],[158.7231004,66.3159943],[158.6885111,66.3195628],[158.66869,66.33021740000001],[158.64411119999997,66.3369572],[158.62131530000002,66.33249769999999],[158.60159289999999,66.33913829999999],[158.5826627,66.3384449],[158.56165069999997,66.3327959],[158.5434444,66.3352353],[158.5510155,66.3426615],[158.5074551,66.35617819999999],[158.5067203,66.3602521],[158.49344530000002,66.3653057],[158.49723200000003,66.371065],[158.465944,66.3752045],[158.4666871,66.38607139999999],[158.4486455,66.3931929],[158.4506731,66.3956814],[158.448261,66.39892060000001],[158.4261207,66.40159940000002],[158.42046150000002,66.41042730000001],[158.40893200000002,66.41481650000001],[158.40425059999998,66.41515770000001],[158.400888,66.40991760000001],[158.39014240000003,66.40487390000001],[158.3702524,66.41115660000003],[158.37334180000002,66.4186088],[158.3773022,66.42043609999999],[158.3686645,66.4321023],[158.37831020000002,66.43545960000002],[158.3976222,66.4346723],[158.4002809,66.4407703],[158.41567359999996,66.44452130000002],[158.41747750000002,66.44802990000002],[158.46544000000003,66.45706890000001],[158.48211130000004,66.4557094],[158.5043914,66.4629005],[158.5070812,66.4730442],[158.4973955,66.4831485],[158.50051459999997,66.48714590000002],[158.4944811,66.49087060000001],[158.4907416,66.5029672],[158.511068,66.50921530000001],[158.52334840000003,66.51949640000001],[158.53167359999998,66.52068990000001],[158.5442281,66.53012660000002],[158.5403696,66.54294340000001],[158.5350208,66.54843109999999],[158.56324130000002,66.5543346],[158.57363809999998,66.5606913],[158.6064151,66.5588643],[158.6362401,66.56642450000001],[158.6385354,66.57979699999999],[158.64363339999997,66.5831258],[158.6425089,66.59066800000001],[158.66922559999998,66.6014314],[158.6650139,66.60527529999999],[158.6669225,66.615566],[158.68457509999996,66.62195179999999],[158.7021302,66.63631799999999],[158.7225905,66.64176460000002],[158.71319599999998,66.64978819999999],[158.71338189999997,66.65966540000001],[158.724942,66.6685704],[158.7421043,66.67068209999998],[158.72377919999997,66.67391209999998],[158.71169149999997,66.6878687],[158.7228249,66.69568],[158.7243096,66.6981862],[158.7204987,66.7024931],[158.73205419999996,66.70367940000001],[158.77551429999997,66.7260841],[158.81165359999997,66.71974960000001],[158.8126711,66.72596460000001],[158.8456774,66.7330774],[158.843127,66.74198580000001],[158.87042280000003,66.74966370000003],[158.9170162,66.75101420000001],[158.9313241,66.7584559],[158.96003630000004,66.7605868],[158.93486769999998,66.768745],[158.92440000000002,66.7772393],[158.9201719,66.7859746],[158.903288,66.7910753],[158.893509,66.8037695],[158.878764,66.80652400000001],[158.85824330000005,66.8173527],[158.85728730000005,66.8266189],[158.84712690000003,66.8372389],[158.88188040000003,66.8433909],[158.8608667,66.8541779],[158.86319980000002,66.869575],[158.85152760000003,66.87268789999999],[158.84120940000003,66.87134289999999],[158.82139760000004,66.87844639999999],[158.8055296,66.88879649999998],[158.787335,66.89387049999999],[158.7961218,66.90277839999999],[158.8100205,66.90637699999999],[158.7859477,66.91613240000001],[158.7820854,66.9247889],[158.7838166,66.93079940000001],[158.81356149999996,66.9377484],[158.8154147,66.94041960000003],[158.8117918,66.9627645],[158.78212480000002,66.9792729],[158.7814595,66.98989660000001],[158.7662002,66.99164320000003],[158.76309349999997,66.9958648],[158.74008389999997,67.00283219999999],[158.74302749999998,67.0075487],[158.73708069999998,67.0171718],[158.74731630000002,67.0211482],[158.71176429999997,67.03838879999998],[158.68420640000002,67.04699860000001],[158.66336309999997,67.04982690000001],[158.65632720000002,67.05692440000001],[158.64364509999996,67.0627336],[158.6262141,67.0566835],[158.57405559999995,67.0647127],[158.5742886,67.07036009999999],[158.55673290000001,67.07633229999998],[158.54051269999997,67.08017229999999],[158.51391269999996,67.07937029999998],[158.5033194,67.0851541],[158.4791407,67.08831009999999],[158.45210730000005,67.0964409],[158.43869800000002,67.10338759999999],[158.38089770000002,67.1011852],[158.37459559999996,67.1078856],[158.3647591,67.1097052],[158.3360024,67.12828779999998],[158.32494530000002,67.14264360000001],[158.311666,67.13933719999999],[158.27788339999998,67.1506951],[158.24258219999996,67.14465870000001],[158.2484777,67.1576759],[158.2412291,67.16588839999999],[158.20951309999995,67.17365109999999],[158.19903630000002,67.1719695],[158.188264,67.17815149999998],[158.18480730000002,67.18558289999999],[158.1606119,67.18928229999999],[158.1669693,67.1910404],[158.1711082,67.19887999999999],[158.1100393,67.21393470000001],[158.1074326,67.2204441],[158.09315519999996,67.2276823],[158.05120080000003,67.22752530000001],[158.01655419999994,67.2336727],[158.0158884,67.23857209999998],[158.0026317,67.24719710000001],[157.9734387,67.2550159],[157.9386548,67.2585316],[157.92339660000002,67.25459930000001],[157.9242512,67.25951060000001],[157.88048820000003,67.2839305],[157.83906589999998,67.2860786],[157.8113721,67.30832529999999],[157.82230310000003,67.3136479],[157.82814670000005,67.32275139999999],[157.8426059,67.33326070000001],[157.82175080000002,67.3391822],[157.80772690000003,67.35149879999999],[157.84747090000002,67.36255809999999],[157.8487002,67.366328],[157.8449313,67.3690589],[157.85892300000003,67.37178929999999],[157.87102790000003,67.38492600000001],[157.8991849,67.3993589],[157.89863750000004,67.41323580000001],[157.90934620000002,67.41939380000001],[157.8848337,67.43191730000001],[157.8715351,67.43124920000002],[157.8069872,67.44282370000002],[157.79305409999995,67.44900820000001],[157.789445,67.4626173],[157.79541980000002,67.4707074],[157.78803850000003,67.47639869999999],[157.79944680000003,67.489086],[157.7622182,67.5000022],[157.7522192,67.5051143],[157.75094690000003,67.5096125],[157.73078089999998,67.5167466],[157.74368029999997,67.5237435],[157.7373914,67.5389159],[157.7439408,67.54520690000001],[157.74408849999998,67.5575737],[157.78304,67.5746872],[157.75775399999998,67.59220460000002],[157.77351949999996,67.60232799999999],[157.77755679999999,67.6222533],[157.7896863,67.63278029999998],[157.80209920000001,67.6362201],[157.8096308,67.6448001],[157.83848620000003,67.6529244],[157.84812050000002,67.65947749999998],[157.8100906,67.67456809999999],[157.8300618,67.68420660000001],[157.8604957,67.69287619999999],[157.88360569999998,67.69408729999999],[157.88817160000002,67.70322980000002],[157.93749700000004,67.71803960000001],[157.94203880000003,67.72396960000002],[157.9841592,67.71191730000001],[158.02121870000002,67.71446630000001],[158.03283040000002,67.71160880000001],[158.08329740000002,67.7181312],[158.11561479999997,67.7103354],[158.1178129,67.7053277],[158.11536009999998,67.6969559],[158.14481169999996,67.7019768],[158.1698673,67.69481520000001],[158.1653784,67.705728],[158.18225030000002,67.71471190000001],[158.2392281,67.70872109999999],[158.3100446,67.72243309999999],[158.3639401,67.724236],[158.3587031,67.7363119],[158.33837740000004,67.74352640000002],[158.33212100000003,67.7505161],[158.31467529999998,67.7580494],[158.32047920000002,67.76767970000002],[158.31876569999997,67.7732704],[158.29378129999998,67.78509340000001],[158.28988769999998,67.79081380000001],[158.29012469999998,67.8015777],[158.2590225,67.820674],[158.2123337,67.83020440000001],[158.1817835,67.8196326],[158.1486864,67.8252017],[158.1060308,67.8217213],[158.08193600000004,67.8361573],[158.0847245,67.84243679999999],[158.07831810000002,67.85280999999999],[158.0825785,67.86076920000001],[158.08107840000002,67.8654566],[158.0568028,67.8735269],[158.07969559999995,67.87501909999999],[158.09640700000003,67.8864586],[158.0989502,67.88941390000001],[158.0978296,67.90949970000001],[158.10356559999994,67.91402150000002],[158.1502246,67.91696460000003],[158.1648085,67.9228129],[158.1910679,67.92424440000002],[158.1933116,67.926494],[158.18794040000003,67.93076990000002],[158.21590799999998,67.93482140000002],[158.21338599999999,67.94049520000002],[158.2272712,67.95082400000001],[158.224457,67.95519809999999],[158.2352728,67.9588999],[158.2350195,67.9640851],[158.2533229,67.96653520000001],[158.26165199999997,67.97180279999999],[158.2633874,67.977341],[158.27599999999998,67.98467260000001],[158.2694966,67.9902373],[158.27756349999996,67.9956913],[158.27353439999996,67.9982011],[158.30054740000003,68.00344390000001],[158.2978033,68.0129353],[158.30766309999998,68.01714020000001],[158.3091225,68.02072340000001],[158.2917873,68.03449360000002],[158.2981818,68.0367278],[158.2990999,68.04556550000001],[158.30315409999997,68.0493627],[158.32669,68.05003119999999],[158.32514550000002,68.06055560000001],[158.3492432,68.05947699999999],[158.36294450000003,68.0643283],[158.37376169999996,68.06361860000001],[158.3799986,68.07055709999999],[158.37351189999998,68.07755370000001],[158.39808730000004,68.08115480000001],[158.4152128,68.07743839999999],[158.43283930000004,68.0832864],[158.5025296,68.09222460000002],[158.5269212,68.0968851],[158.53538730000002,68.10291109999999],[158.5621728,68.10552209999999],[158.57616099999998,68.111241],[158.64698449999997,68.12740679999999],[158.6641876,68.12788889999999],[158.70553339999998,68.1137227],[158.72665339999998,68.1165038],[158.7682708,68.10808669999999],[158.8062522,68.12199799999999],[158.8801651,68.108243],[158.89797130000002,68.10177049999999],[158.93703640000004,68.120201],[158.9678822,68.1252226],[158.98048280000003,68.12393229999998],[159.0320739,68.14908709999999],[159.05011180000002,68.14836749999999],[159.07161419999997,68.15287969999999],[159.06903630000002,68.1564295],[159.1161287,68.16505749999999],[159.1365214,68.16352660000001],[159.14932319999997,68.1694846],[159.1818523,68.16547019999999],[159.21185339999997,68.16809799999999],[159.2214092,68.1732199],[159.2227003,68.18032109999999],[159.24488439999996,68.18977329999998],[159.3246091,68.19206390000001],[159.33997069999998,68.18909169999999],[159.3448082,68.19093219999999],[159.34528630000003,68.1966943],[159.35222050000004,68.19857329999999],[159.36508840000002,68.1935492],[159.36374800000002,68.19103829999999],[159.3669342,68.1875187],[159.38114640000006,68.1861958],[159.39668319999998,68.19018390000001],[159.41762469999998,68.18657089999999],[159.4232962,68.1913568],[159.42144130000005,68.1967332],[159.43685019999998,68.2007826],[159.45508900000002,68.2000714],[159.4672672,68.19381390000001],[159.48039400000002,68.1954454],[159.47684840000002,68.198207],[159.48124760000005,68.1995842],[159.47990519999996,68.2021998],[159.51963569999995,68.21160530000002],[159.53556119999996,68.20894990000001],[159.56294630000005,68.21436270000001],[159.5729723,68.20794370000002],[159.5962177,68.2139927],[159.61055439999996,68.21085670000001],[159.6370405,68.2230306],[159.6565724,68.22284189999999],[159.65957799999998,68.21663970000002],[159.68142010000003,68.209558],[159.68432780000003,68.2035975],[159.71825909999998,68.1973324],[159.72076499999997,68.19603799999999],[159.71958369999993,68.1925682],[159.7288697,68.19034179999998],[159.7239067,68.1821964],[159.7416375,68.17873069999997],[159.7625161,68.1799638],[159.8043807,68.187606],[159.80437790000002,68.1908263],[159.79069569999996,68.19496720000001],[159.7861451,68.20016320000002],[159.7904013,68.2036855],[159.80723790000005,68.203112],[159.8120619,68.2058352],[159.81089690000002,68.21053460000002],[159.7928101,68.21986580000001],[159.79294280000002,68.22624090000001],[159.8012756,68.2321002],[159.81240110000002,68.2343855],[159.8140394,68.2393272],[159.8315588,68.24951790000001],[159.8499866,68.2535869],[159.86510600000003,68.25039609999999],[159.8827731,68.2513919],[159.9031212,68.256449],[159.9273531,68.25573499999999],[159.93985319999996,68.259804],[159.97065849999998,68.25165030000001],[159.9967781,68.25186040000001],[160.02240620000003,68.26247409999999],[160.06382459999998,68.2671387],[160.1074152,68.2596791],[160.13105069999997,68.26389970000001],[160.15738330000002,68.2593112],[160.1850599,68.26459950000002],[160.21677549999995,68.2592913],[160.2293798,68.2620744],[160.25134000000003,68.25742310000001],[160.2712311,68.2598837],[160.2768913,68.2549917],[160.3159977,68.24880209999999],[160.34401549999998,68.2510729],[160.35579030000002,68.2457869],[160.39346559999998,68.23874819999999],[160.4245176,68.24884809999999],[160.4378831,68.24652070000002],[160.43919569999997,68.24169820000002],[160.4499703,68.2432375],[160.4530892,68.24786050000002],[160.4747404,68.24926510000002],[160.5257066,68.24463070000002],[160.57244150000002,68.24517660000001],[160.67564289999999,68.25411660000002],[160.68700690000003,68.25066980000001],[160.73171019999998,68.24798930000001],[160.7523645,68.2534559],[160.7553297,68.25838069999999],[160.8022152,68.25921340000002],[160.86220140000003,68.2700168],[160.95518710000002,68.2724232],[161.0287567,68.28442420000002],[161.0687625,68.30232729999999],[161.13698499999998,68.31466640000002],[161.1527234,68.32390799999999],[161.165188,68.32538069999998],[161.1726272,68.3316913],[161.19990459999997,68.34169290000001],[161.31450199999998,68.36157060000001],[161.3330107,68.3700282],[161.449741,68.3779357],[161.5369096,68.37389069999999],[161.5631115,68.3775641],[161.58376859999998,68.37260819999999],[161.6049071,68.3770159],[161.6441368,68.3756935],[161.6766328,68.3682527],[161.6848334,68.35627649999999],[161.7004583,68.34803779999999],[161.71398039999997,68.3452927],[161.75771269999998,68.3519611],[161.80191690000004,68.3481218],[161.80385819999998,68.35268629999999],[161.8322937,68.3549426],[161.89365619999998,68.3403466],[161.95673860000002,68.3596916],[161.98455269999997,68.359083],[162.01883030000002,68.35237259999998],[162.04507959999998,68.34423500000001],[162.0546087,68.33808599999999],[162.07919499999997,68.340391],[162.09230000000002,68.33751590000001],[162.19452459999997,68.33462030000001],[162.2089291,68.3242363],[162.20275439999998,68.321406],[162.2060164,68.3158941],[162.2303676,68.31405670000001],[162.26440319999998,68.30424560000002],[162.2932482,68.3055006],[162.30968529999998,68.30020209999999],[162.31294880000004,68.2931891],[162.35531010000003,68.28684009999999],[162.3625926,68.2801965],[162.39791600000004,68.27411430000001],[162.42826810000003,68.2829278],[162.44752569999997,68.28410320000002],[162.45148620000003,68.2885503],[162.4633765,68.2926028],[162.4645708,68.306676],[162.4928649,68.3161983],[162.5113729,68.31705140000001],[162.52724620000004,68.32548579999998],[162.54256279999998,68.32873739999998],[162.54795019999997,68.33304109999999],[162.539529,68.33844179999998],[162.54031990000001,68.34606760000001],[162.5321651,68.3501938],[162.53133160000002,68.35359799999999],[162.5465064,68.3656686],[162.5474955,68.3768192],[162.55600790000003,68.3930501],[162.5739789,68.40891490000001],[162.5949102,68.4163958],[162.6174316,68.4397277],[162.60959019999996,68.4541489],[162.6001126,68.46362860000002],[162.57459009999997,68.4741528],[162.5638244,68.483344],[162.59032620000002,68.49985910000001],[162.6183202,68.50111960000002],[162.6514036,68.5122716],[162.6550843,68.51511550000001],[162.65353499999998,68.5191022],[162.6561186,68.5235684],[162.6655418,68.5275777],[162.66270690000002,68.5308598],[162.66453819999998,68.5358494],[162.6908103,68.54433470000001],[162.71345439999996,68.5557266],[162.72234350000002,68.56108420000001],[162.7239382,68.5737626],[162.75168519999997,68.58395460000001],[162.72586379999998,68.60147189999999],[162.7248401,68.61190470000001],[162.71965389999994,68.61394560000001],[162.72423700000002,68.6240519],[162.70958749999997,68.65824129999999],[162.6664045,68.6630207],[162.6527671,68.66686560000001],[162.6401365,68.67737439999999],[162.6211136,68.67756960000001],[162.60324359999998,68.6853695],[162.60830840000003,68.69287189999999],[162.6085763,68.6995706],[162.604432,68.7059826],[162.59121880000004,68.7139326],[162.59224810000003,68.725443],[162.60045119999998,68.7287502],[162.5885237,68.74160110000001],[162.59077269999997,68.7483063],[162.58611790000003,68.7585229],[162.59160830000002,68.7776316],[162.6181775,68.7778515],[162.67266809999998,68.7689078],[162.73810369999998,68.76986360000002],[162.7512704,68.7756959],[162.74950529999995,68.7829343],[162.76724930000003,68.78898009999999],[162.7727089,68.8068935],[162.79937049999998,68.8228542],[162.84523880000003,68.8274941],[162.85520880000004,68.83122920000002],[162.85496559999999,68.8377214],[162.8492179,68.8426762],[162.798809,68.85473289999999],[162.7894296,68.86499360000002],[162.76360659999997,68.88016440000001],[162.7618414,68.88404460000001],[162.77389689999998,68.90325690000002],[162.7517995,68.9171881],[162.73468339999997,68.92027420000001],[162.7265287,68.9285394],[162.66898730000003,68.93897609999999],[162.6642603,68.94110500000002],[162.6635373,68.9458829],[162.623231,68.95621450000002],[162.57954959999998,68.96121080000002],[162.570028,68.9691825],[162.53966699999998,68.9825843],[162.55320630000003,68.9917718],[162.55719200000001,68.9982008],[162.55847070000002,69.0047012],[162.55137760000002,69.02170509999999],[162.5770962,69.03530169999999],[162.5639699,69.0404777],[162.5609094,69.0453258],[162.5274549,69.04732590000002],[162.5207235,69.05375719999999],[162.52340519999998,69.05720330000001],[162.5188733,69.06369090000001],[162.5108443,69.06755690000001],[162.5234822,69.0784176],[162.5113926,69.08412910000001],[162.5365389,69.09554849999999],[162.53066059999998,69.1012725],[162.5357319,69.1074622],[162.62488019999998,69.1240275],[162.68531670000002,69.12383879999997],[162.67961529999997,69.13327709999999],[162.6888623,69.1464229],[162.71498189999997,69.1539909],[162.76477109999996,69.15462450000001],[162.7868212,69.16427560000001],[162.79363919999997,69.1711414],[162.8197663,69.17485749999999],[162.8206896,69.17948279999997],[162.8264636,69.183649],[162.7724733,69.18135149999999],[162.7520834,69.19145370000001],[162.74994759999998,69.1964334],[162.73466069999995,69.1999442],[162.72572309999998,69.20818940000001],[162.72691840000002,69.2134585],[162.72222610000003,69.2184031],[162.72477149999997,69.22329560000001],[162.71406049999996,69.22576360000001],[162.70706909999998,69.2331168],[162.6966009,69.23688879999999],[162.70040219999998,69.24195020000002],[162.6989639,69.24401060000002],[162.68262670000001,69.24715460000003],[162.67903349999997,69.25119550000001],[162.64330019999997,69.2582489],[162.62946569999997,69.266642],[162.59642150000002,69.27676999999998],[162.58456589999997,69.2851072],[162.56299680000004,69.2887697],[162.53421880000002,69.31626820000001],[162.51353329999998,69.3285052],[162.52834760000005,69.3348443],[162.52426780000002,69.3420839],[162.52722990000004,69.346835],[162.5457411,69.3552193],[162.5427808,69.37372709999998],[162.50950219999996,69.37688849999998],[162.4957058,69.3833447],[162.45549880000004,69.3808833],[162.4265779,69.38702440000002],[162.41891640000003,69.3916388],[162.3973712,69.39293579999999],[162.38114220000003,69.4005322],[162.3478895,69.408152],[162.3590938,69.41779060000002],[162.4061853,69.4249357],[162.410121,69.4334706],[162.4320791,69.45420640000002],[162.41708559999998,69.4708466],[162.3801625,69.49089310000001],[162.35745720000003,69.49793590000002],[162.33604160000002,69.5200054],[162.32233330000005,69.5285336],[162.3428533,69.5319817],[162.3463631,69.5422787],[162.34228830000004,69.54897],[162.412578,69.5494213],[162.41405849999998,69.5554538],[162.39456219999997,69.5717934],[162.373293,69.581873],[162.34717469999998,69.5887946],[162.32411000000002,69.59099370000001],[162.34800940000002,69.59612020000002],[162.3557653,69.60433149999999],[162.37829770000002,69.6160006],[162.40600419999998,69.6195372],[162.41987549999996,69.6244195],[162.4558039,69.62360729999999],[162.4676426,69.6296759],[162.48879780000004,69.63271829999998],[162.48809430000003,69.63689269999999],[162.46473790000002,69.65081269999999],[162.4717913,69.65654269999999],[162.47213960000002,69.6776226],[162.53106019999998,69.86903829999999],[162.63174080000002,69.87011729999999],[162.69840080000003,69.8669845],[162.8183152,69.85387549999999],[162.9470682,69.87864669999999],[163.0177284,69.8886334],[163.1370282,69.8983275],[163.2533913,69.90381380000001],[163.41476349999996,69.90143350000001],[163.56670509999998,69.88574839999998],[163.66325139999998,69.91498690000002],[163.7949176,69.93921250000001],[163.9341889,69.95161960000003],[164.08122330000003,69.95241709999999],[164.1815982,69.9480029],[164.30130240000003,69.9380402],[164.39731350000002,69.92426420000002],[164.4698309,69.9087435],[164.54980899999998,69.8850607],[164.60609019999998,69.86172450000001],[164.6628981,69.8332177],[164.68870990000002,69.81682640000001],[164.715231,69.7939278],[164.8110986,69.76596640000001],[164.88988,69.7609458],[165.0991964,69.7840889],[165.23285769999998,69.78960160000001],[165.2945178,69.788637],[165.5278653,69.7697141],[165.7802242,69.7712987],[165.9180749,69.76622660000002],[166.09233700000004,69.7470728],[166.17370009999996,69.73426290000002],[166.32216200000002,69.70412220000001],[166.40221690000004,69.69984629999999],[166.46889930000003,69.6972011],[166.5779261,69.70852070000001],[166.6741894,69.71266840000001],[166.7651223,69.71184040000001],[166.83917459999998,69.7074324],[167.18945539999999,69.8484805],[167.2333803,69.8694189],[167.2500677,69.8874241],[167.3186114,69.94375430000001],[167.42245690000004,70.01124740000002],[167.5001687,70.0487587],[167.6926543,70.124557],[167.80923790000003,70.15802999999998],[167.93215940000002,70.18253499999999],[168.0144733,70.1939072],[168.35627700000003,70.2295895],[168.4843586,70.23311560000002],[168.56967579999997,70.2301528],[168.6875833,70.2204609],[168.78294730000005,70.20799970000002],[168.88514590000003,70.18632799999999],[168.95134220000003,70.16652160000001],[168.97884820000002,70.16284869999998],[169.33840360000002,70.1331429],[169.53496299999998,70.1046063],[169.8427514,70.12581259999999],[169.85120380000004,70.1465973],[169.86682990000003,70.16774779999999],[169.8891996,70.18819129999999],[169.9286336,70.21455060000002],[169.97132190000002,70.2358974],[170.02187650000002,70.2551927],[170.1460428,70.28754740000001],[170.24125279999998,70.30391320000001],[170.34375299999996,70.3141861],[170.51591539999998,70.32390079999999],[170.61353199999996,70.3230697],[170.7557898,70.31168190000001],[170.90024970000002,70.2865072],[170.99151650000002,70.2877348],[171.10054269999998,70.28365920000002],[171.21953189999996,70.27303869999999],[171.33047890000003,70.2565225],[171.4545689,70.25341209999999],[171.5911729,70.24405090000002],[171.7983543,70.2123591],[171.86777640000003,70.2065331],[172.06094190000002,70.17954049999999],[172.11946479999997,70.1746472],[172.29223660000002,70.16898169999999],[172.46694600000004,70.1544638],[172.5541576,70.16937839999999],[172.68540030000003,70.181046],[172.75314880000002,70.18292179999999],[172.88827030000004,70.178629],[173.56854,70.13068390000001],[174.21404549999997,70.1017132],[174.4753422,70.0731849],[174.6359872,70.04419350000002],[174.687679,70.0401714],[174.8707595,70.0370351],[174.9956976,70.04296350000001],[175.11174880000002,70.03992050000001],[175.3791228,70.06114430000001],[175.717187,70.0775462],[175.82545140000002,70.07745279999999],[175.9357295,70.0713944],[176.0642315,70.0772005],[176.12815030000002,70.0768691],[176.28155859999998,70.06686950000001],[176.34114540000002,70.0592022],[176.4419931,70.04051400000002],[176.5404312,70.0141361],[176.60310359999997,69.98945340000002],[176.70350049999996,69.93535440000001],[176.7692425,69.9057168],[176.79291750000002,69.8980217],[177.15022960000002,69.8230214],[177.3055671,69.8026524],[177.467781,69.7985763],[177.57094980000002,69.79151750000001],[177.7428673,69.7688582],[177.85836750000004,69.74620470000002],[178.10025319999997,69.6811833],[178.2208987,69.65480889999999],[178.416877,69.65797079999999],[178.5990254,69.6478929],[178.7351685,69.6321502],[178.8356295,69.6168225],[179.0370181,69.57993229999998],[179.2962991,69.51666340000003],[179.73966549999994,69.3922308],[179.81967479999997,69.3652393],[180.0,69.2895091],[180.0,64.74632430000001],[179.96521600000003,64.72791860000001],[179.88334020000002,64.67404599999999],[179.8361821,64.65271919999999],[179.77321199999997,64.63054699999999],[179.696183,64.612034],[179.63105149999998,64.60180609999999],[179.5551815,64.59392930000001],[179.43875309999999,64.5898677],[179.39568269999998,64.58352430000001],[179.30068459999998,64.5608806],[179.1491983,64.49773040000001],[179.0658815,64.46856620000001],[178.9362337,64.42889869999999],[178.84581730000002,64.3231347],[178.8898691,64.2711658],[178.98514660000004,64.1735286],[179.05537280000001,64.1214005],[179.07615389999998,64.1022734],[179.09083280000002,64.0842688],[179.1255396,64.0230522],[179.18034760000003,63.895472000000005],[179.22993730000002,63.76520010000001],[179.24505309999995,63.6696134],[179.26837690000002,63.565101000000006],[179.2786361,63.543429599999996],[179.2978914,63.518454],[179.3313947,63.4837919],[179.38296210000001,63.4380686],[179.60465149999996,63.352515000000004],[179.6839074,63.314898899999996],[179.80825240000001,63.23521840000001],[179.83999409999998,63.2115718],[179.8627021,63.1893494],[179.87692750000002,63.170036200000006],[179.88670670000002,63.1501677],[179.9439175,62.938426],[179.9789121,62.904608499999995],[180.0,62.875905],[180.0,62.5545579],[179.96986419999996,62.5244564],[179.9378221,62.5013496],[179.81741610000003,62.42605580000001],[179.7909876,62.40167039999999],[179.7602785,62.3798307],[179.7077315,62.3521206],[179.5108078,62.17728139999999],[179.48603280000003,62.16157870000001],[179.4302781,62.13491090000001],[179.33234610000005,62.10333580000001],[179.27315339999996,62.0907276],[179.21330579999997,62.0816157],[179.1296569,62.075014100000004],[179.04488099999998,62.0762764],[178.96148970000002,62.0850853],[178.89092860000002,62.099376500000005],[178.8266145,62.119333700000006],[178.68174850000003,62.1822376],[178.15240310000002,62.27636030000001],[177.82715960000002,62.345483699999996],[177.71375659999995,62.355298499999996],[177.55265640000002,62.35988099999999],[177.4051662,62.3571289],[177.1886539,62.3419552],[177.0441318,62.3161746],[176.82851960000002,62.261058000000006],[176.75884720000002,62.2397015],[176.71991939999998,62.221498200000006],[176.6750493,62.192539300000014],[176.62961109999998,62.168823],[176.53292630000004,62.131542100000004],[176.47071640000001,62.1138577],[176.38182800000004,62.0966575],[176.23618589999998,62.0800777],[176.09102890000003,62.054287399999986],[175.9762004,62.0308554],[175.7929784,61.98402739999999],[175.6709018,61.9445452],[175.5361538,61.8765243],[175.46832050000003,61.848603399999995],[175.39393760000002,61.826759700000004],[175.2788218,61.8000863],[175.1388624,61.7744765],[175.01979479999997,61.7130469],[174.9896244,61.7000449],[174.92212990000004,61.67847080000001],[174.7342175,61.63519670000001],[174.5990328,61.6140469],[174.50239390000002,61.6078007]]]]}}