{"type":"Feature","properties":{"regionId":"chuvashskaya_respublika","name":"Чувашия","name:en":"Chuvashia","timezone":"Europe/Moscow","name_ru":"Чувашская Республика - Чувашия","name_en":"Chuvashia","name_zh":"楚瓦什共和国"},"geometry":{"type":"MultiPolygon","coordinates":[[[[47.8425486,54.9091206],[47.82539390000001,54.9059974],[47.819619499999995,54.903472],[47.8224536,54.9137423],[47.8415969,54.915425],[47.8425486,54.9091206]]],[[[47.853860299999994,54.741635200000005],[47.848049399999994,54.7416192],[47.846640199999996,54.7522335],[47.840298399999995,54.7575661],[47.8375543,54.7704243],[47.85065939999999,54.773181],[47.853860299999994,54.741635200000005]]],[[[48.1208296,55.0172757],[48.1193078,55.01275230000001],[48.1009891,55.000594],[48.102709000000004,54.9910608],[48.0506318,54.98908769999999],[48.0523802,55.002720200000006],[48.0764236,55.0142208],[48.1132026,55.0246078],[48.1208296,55.0172757]]],[[[47.355589499999994,54.627395400000005],[47.3305794,54.6567573],[47.334298999999994,54.66739270000001],[47.29080870000001,54.67426739999999],[47.370813999999996,54.697904300000005],[47.3650116,54.6725276],[47.37513580000001,54.6610649],[47.3735207,54.65533920000001],[47.3915612,54.6530392],[47.3942304,54.646148200000006],[47.4052866,54.638392900000014],[47.3933991,54.63257830000001],[47.355589499999994,54.627395400000005]]],[[[47.2678667,54.6734858],[47.27050020000001,54.6664246],[47.265127500000006,54.6630054],[47.2615454,54.66805260000001],[47.2166091,54.66577260000001],[47.21693500000001,54.6581204],[47.2296345,54.6566552],[47.22377310000001,54.66039990000001],[47.23012270000001,54.6617024],[47.2434736,54.656981099999996],[47.2410315,54.653562],[47.2074919,54.657143399999995],[47.184697699999994,54.66691180000001],[47.176394300000005,54.6660976],[47.1772087,54.6561661],[47.1851865,54.6586084],[47.1861635,54.654375300000005],[47.19495520000001,54.659096999999996],[47.1946298,54.654863799999994],[47.18339580000001,54.65160739999999],[47.16971950000001,54.6524213],[47.1672772,54.655677499999996],[47.16939360000001,54.6594222],[47.1648347,54.66153870000001],[47.1649972,54.6704934],[47.15555380000001,54.676028900000006],[47.1474137,54.662841],[47.1446459,54.663166600000004],[47.1422035,54.66642280000001],[47.1088265,54.67570260000001],[47.078868,54.696379400000005],[47.079356100000005,54.70517130000001],[47.0340941,54.70549630000001],[47.0294545,54.690680300000004],[47.02033720000001,54.686772700000006],[46.999659900000005,54.6872608],[46.9686018,54.6800543],[46.9499349,54.6804255],[46.9323016,54.6744134],[46.9356598,54.6682975],[46.894071,54.644902200000004],[46.88756949999999,54.6494142],[46.884124199999995,54.657986799999996],[46.879938100000004,54.6550724],[46.87588159999999,54.6568082],[46.871547199999995,54.65148249999999],[46.87456649999999,54.64520230000001],[46.842059,54.6390661],[46.826185,54.6320649],[46.8000857,54.63819370000001],[46.8019253,54.645903600000004],[46.79899460000001,54.6478573],[46.80159939999999,54.651927699999995],[46.788574100000005,54.659416900000004],[46.7864571,54.668697200000004],[46.778886,54.67537240000001],[46.7810025,54.6770006],[46.7764435,54.6841643],[46.765435300000014,54.6775441],[46.73905590000001,54.68631080000001],[46.693884,54.6784461],[46.6835608,54.6740603],[46.67839920000001,54.675825],[46.668462500000004,54.6733544],[46.66520380000001,54.675658000000006],[46.658435600000004,54.67310020000001],[46.65767439999999,54.6764954],[46.6506792,54.67675590000001],[46.6344786,54.6892164],[46.620209300000006,54.691176000000006],[46.6190184,54.6976491],[46.599220800000005,54.70255960000001],[46.6015437,54.70935910000001],[46.5503762,54.719491399999995],[46.5533067,54.723887399999995],[46.5427237,54.72730630000001],[46.5425606,54.73463290000001],[46.513648499999995,54.7440909],[46.5160377,54.7461636],[46.4927611,54.746266399999996],[46.493388800000005,54.75786719999999],[46.4430232,54.7616591],[46.4064285,54.77809070000001],[46.4495663,54.7863035],[46.436502700000005,54.79105870000001],[46.4247496,54.791138900000014],[46.4099934,54.798119800000016],[46.4027838,54.8070702],[46.39995290000001,54.806872],[46.396608300000004,54.8208659],[46.3820177,54.830456999999996],[46.3971421,54.850058499999996],[46.4010933,54.8600239],[46.3938662,54.858718700000004],[46.390420999999996,54.865328500000004],[46.407842499999994,54.867307499999995],[46.4105911,54.87407159999999],[46.395830800000006,54.884782599999994],[46.3893118,54.8852256],[46.373772800000005,54.8945443],[46.37403,54.899192400000004],[46.3639943,54.9033836],[46.37026139999999,54.90649],[46.361407699999994,54.9123285],[46.3392822,54.912559900000005],[46.336755700000005,54.9188135],[46.3294483,54.9190556],[46.326325800000006,54.9215067],[46.327621199999996,54.9367839],[46.3118327,54.929127],[46.29717830000001,54.9430771],[46.2818693,54.938839300000005],[46.27903290000001,54.94203520000001],[46.281268,54.9461085],[46.2769236,54.9502526],[46.27834230000001,54.95454959999999],[46.2712942,54.961465399999994],[46.27694090000001,54.9676759],[46.2740936,54.9752036],[46.268829200000006,54.97705439999999],[46.2591734,54.9716739],[46.2447012,54.9782257],[46.289567,54.9926692],[46.276622800000005,55.0007041],[46.29033600000001,55.015663599999996],[46.29386220000001,55.02854520000001],[46.2797977,55.034398100000004],[46.27029,55.048459900000005],[46.2581897,55.0524377],[46.256126200000004,55.058300900000006],[46.2370135,55.0704396],[46.228044000000004,55.0829964],[46.21911910000001,55.081285599999994],[46.2156006,55.0836422],[46.20530360000001,55.07519550000001],[46.180847199999995,55.0684004],[46.203434800000004,55.048861499999994],[46.2018002,55.0412959],[46.20829090000001,55.03277270000001],[46.1799004,55.026286999999996],[46.1840219,55.019352700000006],[46.177575100000006,55.016458],[46.1798243,55.01210520000001],[46.17713570000001,55.005808200000004],[46.1574708,54.9741556],[46.1413001,54.98343739999999],[46.130150400000005,54.9964851],[46.144464799999994,55.0056899],[46.1375949,55.0131801],[46.13975310000001,55.019298],[46.1429044,55.0197732],[46.1388834,55.0228684],[46.0412167,55.053633399999995],[46.048108400000004,55.0607444],[46.05255090000001,55.053746999999994],[46.067971,55.0648991],[46.0779933,55.082188800000004],[46.032179400000004,55.0942498],[46.032763900000006,55.099728400000004],[46.04428959999999,55.11601580000001],[46.04038,55.129924],[46.03210860000001,55.1398048],[46.03531430000001,55.1437824],[46.02921280000001,55.15084159999999],[46.013018,55.149746],[46.012038000000004,55.16278090000001],[46.0450471,55.166427],[46.0464171,55.170265],[46.051429299999995,55.1706701],[46.0505194,55.18171590000001],[46.054090099999996,55.1893076],[46.074298399999996,55.20071800000001],[46.0755435,55.205749600000004],[46.07235180000001,55.2104955],[46.0770827,55.2135854],[46.0781814,55.221020900000006],[46.090566200000005,55.22307180000001],[46.09061620000001,55.22600560000001],[46.1066401,55.2309071],[46.118210100000006,55.2216991],[46.1504883,55.233353400000006],[46.15931210000001,55.2307445],[46.164514200000006,55.2326474],[46.151546399999994,55.2474162],[46.171764399999994,55.249214900000005],[46.1826272,55.26433960000001],[46.20873610000001,55.261548600000005],[46.202937600000006,55.266746000000005],[46.22247360000001,55.272769100000005],[46.218371700000006,55.2776515],[46.22953130000001,55.2888011],[46.2168716,55.3022822],[46.2134682,55.31950739999999],[46.19993210000001,55.33116449999999],[46.2007416,55.3407631],[46.2112366,55.346017399999994],[46.2278019,55.3422135],[46.23655660000001,55.3455293],[46.214125,55.36760149999999],[46.2141548,55.3717293],[46.2411915,55.3829455],[46.2450241,55.3860354],[46.245740500000004,55.3934762],[46.256640999999995,55.399179100000005],[46.29457820000001,55.4078537],[46.3322281,55.413426599999994],[46.35986559999999,55.4132317],[46.3785766,55.4178113],[46.3892197,55.4276508],[46.3897346,55.436514],[46.38458479999999,55.45170339999999],[46.392298000000004,55.4606221],[46.34615,55.484237799999995],[46.335950100000005,55.484921899999996],[46.3315406,55.4829656],[46.330888599999994,55.47728449999999],[46.3253616,55.4767142],[46.317986899999994,55.496853900000005],[46.32871570000001,55.5014724],[46.345142700000004,55.502168100000006],[46.345568300000004,55.505625300000005],[46.330088999999994,55.505409900000004],[46.308803,55.500014],[46.288890300000006,55.509152500000006],[46.281508900000006,55.50575010000001],[46.2800497,55.49913890000001],[46.2506956,55.5029794],[46.247745800000004,55.5045571],[46.2496657,55.510367599999995],[46.2412543,55.519600999999994],[46.231991900000004,55.52201990000001],[46.2143345,55.520674],[46.213973,55.52633260000001],[46.22875660000001,55.5322213],[46.22004890000001,55.5368568],[46.2072696,55.538234800000005],[46.20639230000001,55.543998],[46.18572,55.5422437],[46.1858458,55.5310931],[46.193112800000016,55.52395190000001],[46.2043885,55.5275854],[46.202634700000004,55.522448600000004],[46.1861515,55.521392600000006],[46.17773280000001,55.525036500000006],[46.151812,55.5266883],[46.1475272,55.5249456],[46.1458038,55.516193200000004],[46.1330218,55.5154705],[46.1216063,55.524702700000006],[46.1102699,55.527562800000005],[46.106500100000005,55.5431605],[46.08688059999999,55.5427746],[46.0863656,55.545494],[46.0921664,55.5497643],[46.1167497,55.5553016],[46.101607699999995,55.5652984],[46.08246749999999,55.5700545],[46.0821242,55.5728205],[46.09271710000001,55.5725805],[46.097917,55.57728449999999],[46.088733100000006,55.5837856],[46.083239999999996,55.5942627],[46.063534600000004,55.5978056],[46.06670830000001,55.61257510000001],[46.04601280000001,55.628422400000005],[46.0101147,55.6345245],[45.99590010000001,55.630380200000005],[45.9786769,55.6326244],[45.9619111,55.62979870000001],[45.951439799999996,55.644138700000006],[45.950924799999996,55.6569239],[45.94297530000001,55.6649838],[45.916441799999994,55.6680274],[45.9186524,55.6793849],[45.911255499999996,55.688273900000006],[45.91406459999999,55.695883300000006],[45.930458800000004,55.70539810000001],[45.953328,55.712665300000005],[45.9564179,55.7167267],[45.9520963,55.72200330000001],[45.933783,55.72983970000001],[45.9359776,55.7345842],[45.946783399999994,55.74093510000001],[45.948156700000006,55.755476],[45.9676281,55.75810230000001],[45.9949954,55.7494832],[46.0068342,55.76615840000001],[46.032635600000006,55.78541580000001],[46.067654499999996,55.782520000000005],[46.1004418,55.798637400000004],[46.1134881,55.822174200000006],[46.11135290000001,55.83138699999999],[46.0734925,55.8697643],[46.120010400000005,55.8782926],[46.142623300000004,55.889017499999994],[46.16853680000001,55.88618339999999],[46.165853600000005,55.8911935],[46.168533900000014,55.8930345],[46.16253840000001,55.8938307],[46.1597073,55.8910419],[46.1506823,55.900136700000004],[46.131796900000005,55.9004782],[46.1306405,55.896804599999996],[46.136503000000005,55.892549900000006],[46.1235811,55.89553990000001],[46.1268295,55.903552000000005],[46.137514,55.91140599999999],[46.14590290000001,55.9134533],[46.1446362,55.91666159999999],[46.1338448,55.922664],[46.10212390000001,55.9269681],[46.0974377,55.9346408],[46.079285999999996,55.9486325],[46.106958000000006,55.9664638],[46.10570510000001,55.968468300000005],[46.125128900000014,55.9761256],[46.15449099999999,55.99513310000001],[46.163769300000006,55.99653970000001],[46.16383690000001,55.998788600000005],[46.157823099999995,55.9987885],[46.164838800000005,56.008310400000006],[46.1813772,56.011057799999996],[46.185250100000005,56.0316178],[46.2006977,56.0326688],[46.2038418,56.036181],[46.200185100000006,56.0426288],[46.213881799999996,56.055584399999994],[46.234481599999995,56.05971280000001],[46.241812800000005,56.0624484],[46.23865220000001,56.06537920000001],[46.2427915,56.065948500000005],[46.2845426,56.070972600000005],[46.27818320000001,56.067972700000006],[46.2846419,56.064497499999995],[46.305838900000005,56.072450100000005],[46.321002,56.08729939999999],[46.333026499999995,56.087142300000004],[46.359634899999996,56.099066300000004],[46.408461499999994,56.1098155],[46.3980144,56.1125376],[46.394579,56.1077878],[46.387749799999995,56.10959080000001],[46.415213900000005,56.12964530000001],[46.443692,56.113177],[46.48740939999999,56.12495530000001],[46.49258510000001,56.1192297],[46.51447709999999,56.12437190000001],[46.5168658,56.12250780000001],[46.51655830000001,56.1132113],[46.5492006,56.1195635],[46.5784746,56.1302955],[46.5832699,56.13515620000001],[46.6193205,56.127321300000006],[46.6441196,56.1124985],[46.655703100000004,56.0980241],[46.6872387,56.1099471],[46.694391700000004,56.117467899999994],[46.706986,56.123682200000005],[46.7407634,56.1315817],[46.7421847,56.137308100000006],[46.7575743,56.14532330000001],[46.7544499,56.1477618],[46.7569079,56.148728500000004],[46.755089399999996,56.15180169999999],[46.760199500000006,56.1523891],[46.7578773,56.1555885],[46.76224620000001,56.1566085],[46.7549892,56.1598663],[46.754466699999995,56.163382500000004],[46.7694224,56.169619000000004],[46.7839662,56.185757],[46.79960880000001,56.1915265],[46.79935490000001,56.19863850000001],[46.7914064,56.199927800000005],[46.7894861,56.2036838],[46.76827010000001,56.1991275],[46.765552100000015,56.20113920000001],[46.767569800000004,56.20407290000001],[46.76388,56.2020885],[46.75366759999999,56.2072217],[46.76091850000001,56.2107314],[46.7645244,56.204979800000004],[46.7642271,56.211697799999996],[46.77728449999999,56.211686099999994],[46.79835700000001,56.20551840000001],[46.820820499999996,56.19405230000001],[46.9109419,56.2104265],[46.9486013,56.23289270000001],[46.96557080000001,56.234607],[46.9729947,56.240166200000004],[46.986172200000006,56.242115800000015],[46.98486409999999,56.2493612],[46.99511380000001,56.2536712],[46.994298900000004,56.2564011],[47.005423,56.2566101],[47.01448599999999,56.26232910000001],[47.0529597,56.274033300000006],[47.0892002,56.279812400000004],[47.1462154,56.277258],[47.1505981,56.3154663],[47.2474162,56.3115233],[47.2515505,56.328517700000006],[47.39252280000001,56.322985900000006],[47.3797968,56.2272042],[47.4314325,56.2248035],[47.424772600000004,56.156994499999996],[47.4601864,56.155505000000005],[47.4786317,56.1505184],[47.5012069,56.1582813],[47.5071213,56.1436449],[47.6011872,56.14191520000001],[47.6315476,56.134351900000006],[47.6368706,56.14433210000001],[47.6495054,56.13802570000001],[47.66872130000001,56.140800399999996],[47.687227299999996,56.133363200000005],[47.8211679,56.1260877],[47.876162,56.116668],[47.88338159999999,56.12157820000001],[47.8889461,56.1199468],[47.916870599999996,56.10010630000001],[47.9333456,56.0764837],[47.9137097,56.07253190000001],[47.92880590000001,56.0573957],[47.932239100000004,56.035152300000014],[47.928421900000004,56.0156958],[47.9490531,56.023963300000005],[47.9566752,56.014154],[47.9600542,56.0165997],[47.98986759999999,55.9994442],[47.9974343,56.001910200000005],[48.002605200000005,55.995126000000006],[48.003838300000005,55.9885631],[47.970151800000004,55.969643399999995],[47.9682175,55.965684399999994],[48.034867899999995,55.9425406],[48.0431827,55.9457809],[48.0456447,55.9541143],[48.1042406,55.9383477],[48.11708939999999,55.942486499999994],[48.1438432,55.9409633],[48.19897690000001,55.931207799999996],[48.196658600000006,55.9296427],[48.212381300000004,55.92411430000001],[48.222159800000014,55.913971499999995],[48.242141700000005,55.9060288],[48.238048500000005,55.9058043],[48.23920530000001,55.90168899999999],[48.22827520000001,55.8938481],[48.22238130000001,55.884842299999995],[48.21057630000001,55.883676599999994],[48.219798700000005,55.8750232],[48.2506517,55.8630747],[48.2827624,55.8451451],[48.3000334,55.8475456],[48.3311542,55.83628139999999],[48.3955848,55.82993270000001],[48.393532500000006,55.8127365],[48.3883212,55.8117355],[48.389657099999994,55.80786849999999],[48.3950948,55.8088462],[48.4078453,55.79932580000001],[48.4190131,55.79681310000001],[48.4206024,55.793604800000004],[48.4122252,55.780884699999994],[48.38150939999999,55.776042600000004],[48.3735656,55.778004900000006],[48.3670303,55.77273970000001],[48.3505913,55.77890200000001],[48.33726659999999,55.772381300000006],[48.3374327,55.76916370000001],[48.3206342,55.770054],[48.3224865,55.77230530000001],[48.3099921,55.7816342],[48.2898248,55.77812410000001],[48.2886037,55.78133030000001],[48.29115370000001,55.7824462],[48.286756200000006,55.783816300000005],[48.266329500000005,55.7805496],[48.26815770000001,55.76994270000001],[48.2817901,55.761588],[48.2640705,55.761653200000005],[48.2642777,55.756496399999996],[48.2486772,55.7526396],[48.2541806,55.748064],[48.2376827,55.74867890000001],[48.2519252,55.735469200000004],[48.232289300000005,55.7129479],[48.2413273,55.7070219],[48.233638400000004,55.69999930000001],[48.2350696,55.6894458],[48.22226200000001,55.687398800000004],[48.1458718,55.693046900000006],[48.134436,55.6915679],[48.12860090000001,55.6889654],[48.13091980000001,55.6784497],[48.136431,55.676085900000004],[48.1304854,55.66877730000001],[48.12952330000001,55.661549300000004],[48.13513930000001,55.654710800000004],[48.129498700000006,55.6463475],[48.1102486,55.651781299999996],[48.10821530000001,55.690318200000014],[48.083966399999994,55.69476830000001],[48.08146309999999,55.69232920000001],[48.0824757,55.6784839],[48.087120399999996,55.670173000000005],[48.08446769999999,55.66491830000001],[48.0902746,55.65893280000001],[48.092021700000004,55.6511886],[48.033466399999995,55.650972800000005],[48.0339872,55.636329100000005],[48.010682599999996,55.6292746],[48.0135114,55.599305400000006],[48.021242,55.6007851],[48.0217794,55.6053295],[48.0550104,55.607523],[48.0587825,55.6109431],[48.082042300000005,55.616306900000005],[48.0807114,55.6088865],[48.0671241,55.59579860000001],[48.0718193,55.5854006],[48.09899010000001,55.5773998],[48.0914112,55.57456439999999],[48.1036942,55.5688794],[48.1254434,55.5662949],[48.136495000000004,55.573593200000005],[48.14513790000001,55.5698684],[48.147589399999994,55.56503260000001],[48.133892700000004,55.55496419999999],[48.12263670000001,55.5530231],[48.120318900000015,55.55613520000001],[48.11511920000001,55.553859599999996],[48.1131084,55.5462342],[48.108465200000005,55.546373300000006],[48.105976600000005,55.531919200000004],[48.1080847,55.5239811],[48.0800802,55.5212272],[48.0798367,55.52500020000001],[48.06547290000001,55.52811450000001],[48.067698,55.5266795],[48.06455520000001,55.52492230000001],[48.0692976,55.5237295],[48.06255710000001,55.51879290000001],[48.058576800000004,55.5218124],[48.05749649999999,55.514536],[48.0523892,55.5124948],[48.04283590000001,55.515613300000005],[48.0370822,55.512538500000005],[48.0358205,55.51604139999999],[48.043376900000005,55.5168889],[48.0360105,55.5186819],[48.046717,55.522051000000005],[48.038815400000004,55.524694],[47.9696034,55.5153812],[47.969810800000005,55.5032885],[47.979840499999995,55.5020827],[47.980983099999996,55.49217120000001],[47.96638,55.49002290000001],[47.9726437,55.4855176],[47.9672608,55.4850993],[47.969939200000006,55.4840156],[47.9679419,55.48140839999999],[47.96333310000001,55.48192139999999],[47.96551430000001,55.4850134],[47.958260499999994,55.482002300000005],[47.948516100000006,55.4847913],[47.95075,55.483439999999995],[47.9286116,55.4753284],[47.928997800000005,55.47235330000001],[47.9328651,55.47428539999999],[47.93057280000001,55.4697895],[47.9348269,55.4676402],[47.9238809,55.457111399999995],[47.920540100000004,55.4565972],[47.920926300000005,55.46033230000001],[47.9133732,55.4604235],[47.9143335,55.4569378],[47.9084534,55.45907999999999],[47.9106253,55.45768959999999],[47.9076039,55.45501590000001],[47.9079762,55.4488966],[47.916236399999995,55.4495857],[47.915353800000005,55.4455292],[47.9109096,55.44486979999999],[47.9152525,55.441938],[47.91406339999999,55.4377456],[47.9080956,55.438784],[47.913977599999996,55.434619999999995],[47.9127391,55.4294038],[47.897173200000005,55.42918],[47.8985831,55.4268904],[47.8929896,55.4245236],[47.8988544,55.41960709999999],[47.892659800000004,55.4140429],[47.8789511,55.4155464],[47.8724136,55.412618200000004],[47.876229599999995,55.4030224],[47.8773713,55.406135400000004],[47.881454899999994,55.401724599999994],[47.8751941,55.3991465],[47.8767261,55.395323100000006],[47.874059599999995,55.3948025],[47.8766658,55.392661],[47.858605399999995,55.3907863],[47.8531083,55.383042399999994],[47.838792000000005,55.3736055],[47.822742100000006,55.3677936],[47.8029512,55.3663949],[47.8033938,55.3580754],[47.808679,55.3511002],[47.7898955,55.3450649],[47.79831580000002,55.340446199999995],[47.79421120000001,55.335326200000004],[47.7892227,55.34046789999999],[47.7831862,55.3392733],[47.7804684,55.3330079],[47.7637045,55.3322961],[47.7614711,55.334859599999994],[47.76633460000001,55.33798639999999],[47.755879900000004,55.3379793],[47.7594798,55.3419109],[47.758503700000006,55.3453868],[47.7497804,55.345372600000005],[47.7411991,55.35212739999999],[47.7290635,55.354487099999986],[47.72152520000001,55.35442309999999],[47.72516110000001,55.35100009999999],[47.7197704,55.3484089],[47.70371080000001,55.34926449999999],[47.69961380000001,55.356133],[47.68951270000001,55.363170700000005],[47.6877706,55.362010000000005],[47.6908067,55.359048599999994],[47.68267590000001,55.35480379999999],[47.68442099999999,55.3483626],[47.66983390000001,55.3523873],[47.64510870000001,55.33553010000001],[47.6628017,55.3352705],[47.672060800000004,55.329615000000004],[47.6702585,55.3244543],[47.683704399999996,55.323971],[47.67561210000001,55.3082491],[47.684910900000006,55.3061602],[47.689030900000006,55.29621430000001],[47.698662600000006,55.2903876],[47.699566100000006,55.28503200000001],[47.693451700000004,55.280390800000006],[47.69651560000001,55.2606861],[47.6886546,55.250652800000005],[47.6872184,55.233977200000005],[47.66852050000001,55.2306481],[47.66994290000001,55.2142135],[47.703214200000005,55.2158425],[47.706126100000006,55.22625430000001],[47.715090700000005,55.233597200000006],[47.7509292,55.239574600000005],[47.7837034,55.23867010000001],[47.7828491,55.249798000000006],[47.7896787,55.2500426],[47.7895847,55.2716564],[47.799263200000006,55.2729846],[47.8003196,55.281832800000004],[47.788535300000014,55.297769900000006],[47.79739090000001,55.29682030000001],[47.8040308,55.3029547],[47.80812220000001,55.294300500000006],[47.8204936,55.2884347],[47.82292890000001,55.279782700000005],[47.86583290000001,55.26825560000001],[47.8668656,55.254228],[47.9017261,55.26223120000001],[47.8642142,55.2840683],[47.87380939999999,55.30452139999999],[47.87369149999999,55.323284199999996],[47.8837509,55.3217201],[47.88940439999999,55.315466699999995],[47.911612999999996,55.322251900000005],[47.922949300000006,55.3221849],[47.940927699999996,55.310453599999995],[47.96023,55.3045339],[47.976535600000005,55.3034768],[47.976539300000006,55.296280100000004],[47.982687799999994,55.29399910000001],[47.9879101,55.29547880000001],[48.0011628,55.289087099999996],[48.012036200000004,55.2897866],[48.0161833,55.2847504],[48.005172400000006,55.2678],[48.004702800000004,55.2613871],[48.01291210000001,55.23826530000001],[48.0210945,55.23269810000001],[48.0340239,55.2297865],[48.06431620000001,55.22914190000001],[48.0749978,55.17532090000001],[48.107665,55.1459047],[48.1084632,55.13956230000001],[48.1044758,55.13973800000001],[48.1026766,55.135849900000004],[48.088033300000006,55.136855000000004],[48.061309800000004,55.12869510000001],[48.082375600000006,55.1066795],[48.0867935,55.0939435],[48.063163,55.0836689],[48.037879999999994,55.108639100000005],[48.035368500000004,55.11832820000001],[48.026872100000006,55.119687899999995],[48.02335860000001,55.119253900000004],[48.025621300000005,55.117558100000004],[48.0230073,55.1159466],[48.0168517,55.1157296],[48.018749,55.110854399999994],[48.01468249999999,55.108800900000006],[48.0144573,55.1048263],[48.001104399999996,55.101267199999995],[47.9964174,55.103635100000005],[47.992199500000005,55.099002000000006],[47.975216200000006,55.097250800000005],[47.96721230000001,55.0998017],[47.9591757,55.09851140000001],[47.958196900000004,55.094505500000004],[47.95078349999999,55.09719510000001],[47.949710200000005,55.09223080000001],[47.9414322,55.09515660000001],[47.938962700000005,55.092663],[47.94295210000001,55.0904256],[47.9284467,55.087840299999996],[47.9016142,55.091834399999996],[47.901059499999995,55.0788849],[47.9061848,55.0727643],[47.9000177,55.052815300000006],[47.9188524,55.0456471],[47.930529,55.026238400000004],[47.951350399999995,55.0373585],[47.9361547,55.0496482],[47.9453747,55.061714],[47.9524821,55.0645802],[47.97274590000001,55.0646788],[47.975539700000006,55.05728749999999],[47.971864999999994,55.052415200000006],[47.9753794,55.0409114],[47.996859900000004,55.0534453],[48.0131225,55.036962300000006],[48.0280344,55.039695300000005],[48.01660699999999,54.9943619],[48.01160439999999,54.9855305],[47.9761867,54.95278149999999],[47.9664778,54.9550967],[47.96239310000001,54.9482047],[47.953964799999994,54.945042900000004],[47.93212210000001,54.947852],[47.9388732,54.9539482],[47.9348738,54.95231570000001],[47.9310799,54.9593349],[47.93217800000001,54.96959280000001],[47.927825999999996,54.964234499999996],[47.9208791,54.9647117],[47.930317800000005,54.95006169999999],[47.914648199999995,54.95003749999999],[47.8957278,54.94166939999999],[47.860786499999996,54.9582757],[47.8632747,54.959132000000004],[47.862371200000005,54.9651214],[47.8599383,54.9606298],[47.849899799999996,54.9627204],[47.8521682,54.964345300000005],[47.836860699999995,54.963694],[47.824938,54.9575956],[47.8084043,54.964952600000004],[47.800193,54.959202399999995],[47.78635560000001,54.957916999999995],[47.775386600000004,54.9610292],[47.76673670000001,54.9587734],[47.76372190000001,54.9543193],[47.7694271,54.943294099999996],[47.7710427,54.9111194],[47.77371370000001,54.9031066],[47.7781675,54.90148539999999],[47.78261870000001,54.869541],[47.801670699999995,54.826487099999994],[47.84487729999999,54.8199513],[47.8235394,54.803411499999996],[47.8134592,54.8070051],[47.8068939,54.8017372],[47.79533700000001,54.80506],[47.780615100000006,54.818650399999996],[47.787322200000006,54.82393290000001],[47.747586,54.8948399],[47.73837010000001,54.901172200000005],[47.7358234,54.908910600000006],[47.714598300000006,54.9013398],[47.7344973,54.899872300000006],[47.7414017,54.89183],[47.72262930000001,54.858919],[47.724881599999996,54.8465535],[47.754645599999996,54.8155596],[47.743702600000006,54.809946499999995],[47.7418773,54.8157443],[47.7099675,54.8430137],[47.684068499999995,54.839776900000004],[47.65899890000001,54.8595458],[47.6404042,54.8647512],[47.6149784,54.8400331],[47.5861978,54.8263316],[47.5769495,54.828649],[47.570647599999994,54.83833130000001],[47.5605015,54.8446509],[47.4547232,54.8637042],[47.4505184,54.861459499999995],[47.4531741,54.8725014],[47.4247682,54.878649599999996],[47.425231700000005,54.88586439999999],[47.42059030000001,54.8822372],[47.409066499999994,54.880576399999995],[47.40108789999999,54.88591830000001],[47.4102221,54.8922966],[47.39792739999999,54.892569300000005],[47.3993011,54.881148599999996],[47.4136141,54.87466939999999],[47.4046598,54.867609099999996],[47.41520739999999,54.8630906],[47.415863599999994,54.855616],[47.426415000000006,54.8364401],[47.413865099999995,54.83486169999999],[47.387243299999994,54.8430088],[47.3692517,54.82871840000001],[47.3619166,54.8280865],[47.370507599999996,54.817372399999996],[47.36883280000001,54.79801010000001],[47.3660265,54.796091600000004],[47.370767099999995,54.7812756],[47.358840699999995,54.773965100000005],[47.368727,54.77101570000001],[47.3688925,54.766866300000004],[47.38484729999999,54.760036500000005],[47.38767359999999,54.7527978],[47.31728019999999,54.730097],[47.307493199999996,54.722897200000006],[47.285151400000004,54.71415220000001],[47.27688739999999,54.696482800000005],[47.25859680000001,54.677531800000004],[47.2678667,54.6734858]],[[47.2570292,54.847092499999995],[47.246661399999994,54.8450921],[47.24327,54.847549799999996],[47.2478426,54.847895799999996],[47.24536290000001,54.8493115],[47.23701890000001,54.8467982],[47.239422700000006,54.842940399999996],[47.24509820000001,54.8428556],[47.2570292,54.847092499999995]],[[47.329389,54.88766119999999],[47.32503330000001,54.891835900000004],[47.3163266,54.8884391],[47.299226000000004,54.878449599999996],[47.29209210000001,54.867532600000004],[47.301746099999995,54.8699473],[47.29970820000001,54.8717228],[47.3024784,54.875975100000005],[47.31386149999999,54.8841768],[47.329389,54.88766119999999]],[[47.3296955,54.846784099999994],[47.3250655,54.8525192],[47.300037599999996,54.8520532],[47.29409090000001,54.847865299999995],[47.2968862,54.84229739999999],[47.297393400000004,54.8463926],[47.322108400000005,54.8427076],[47.321946499999996,54.845659399999995],[47.3296955,54.846784099999994]],[[47.3497533,54.869517],[47.3507786,54.8794059],[47.3454228,54.8781486],[47.3439253,54.8820602],[47.342158000000005,54.8758201],[47.345085499999996,54.8756493],[47.3465727,54.86768149999999],[47.3497533,54.869517]],[[47.74279860000001,55.3675306],[47.73865990000001,55.3757384],[47.717343,55.3850487],[47.7161696,55.391556800000004],[47.70374210000001,55.396016900000006],[47.69862080000001,55.388532700000006],[47.707793800000005,55.3839769],[47.70637970000001,55.381228699999994],[47.731163200000005,55.3758585],[47.73341530000001,55.3691904],[47.74279860000001,55.3675306]]]]}}