{"type":"Feature","properties":{"regionId":"evreyskaya_avtonomnaya_oblast","name":"Еврейская автономная область","name:en":"Jewish Autonomous Oblast","timezone":"Asia/Vladivostok","name_ru":"Еврейская автономная область","name_en":"Jewish Autonomous Oblast","name_zh":"犹太自治州"},"geometry":{"type":"Polygon","coordinates":[[[131.42002810000002,49.255453100000004],[131.40915469999996,49.2536431],[131.3996863,49.2574463],[131.37958849999998,49.254288499999994],[131.3505548,49.26299710000001],[131.32222330000005,49.248169600000004],[131.3142327,49.23898580000001],[131.30121750000004,49.235634600000004],[131.2921855,49.2443344],[131.292132,49.2555745],[131.27477049999996,49.25611990000001],[131.2680766,49.2500807],[131.2399423,49.2507754],[131.2384599,49.24668449999999],[131.2057128,49.22987380000001],[131.1804859,49.22800420000001],[131.16408489999998,49.236983200000005],[131.1604709,49.242861399999995],[131.1551785,49.243698200000004],[131.13393159999998,49.240975000000006],[131.11078609999998,49.23321810000001],[131.1163999,49.22559620000001],[131.10671449999998,49.20853800000001],[131.09255549999997,49.194785],[131.07950649999998,49.1880469],[131.07887730000002,49.181172000000004],[131.0691019,49.169405000000005],[131.0752718,49.1610767],[131.07352719999997,49.156035100000004],[131.07588469999996,49.152539700000005],[131.06506109999998,49.1440099],[131.06554069999999,49.136193600000006],[131.05939740000002,49.122693600000005],[131.0607581,49.1155996],[131.04752369999997,49.1048073],[131.04912069999997,49.097632600000004],[131.0450485,49.083757],[131.04768399999998,49.078835500000004],[131.0331384,49.072942600000005],[131.02968509999997,49.0535004],[131.02210040000003,49.046821699999995],[131.02871530000002,49.0410554],[131.0164452,49.036563900000004],[131.02232900000004,49.02270800000001],[131.0178193,49.019474599999995],[131.02336369999998,49.0119538],[131.0231714,49.003297499999995],[131.02664030000003,48.9992809],[131.03935189999999,48.998906000000005],[131.0403904,48.99331300000001],[131.0489426,48.989957399999994],[131.0451358,48.97519500000001],[131.02494380000002,48.9680174],[131.0003501,48.96871920000001],[130.98774670000003,48.976156200000005],[130.9836665,48.9736508],[130.9778029,48.9771517],[130.9731079,48.975476],[130.9615667,48.9799957],[130.95413840000003,48.9779279],[130.9424735,48.9826186],[130.93194630000005,48.9803827],[130.89753240000002,48.9924294],[130.87095680000002,48.989066699999995],[130.8631675,48.9940549],[130.85372600000002,48.989358900000006],[130.8468135,48.989833],[130.8444039,48.9862907],[130.8318548,48.98762749999999],[130.82725140000002,48.9822281],[130.81985749999998,48.98163639999999],[130.8144686,48.97528749999999],[130.80907409999998,48.9746302],[130.8053016,48.968222000000004],[130.7918234,48.964444799999995],[130.77998389999996,48.9694829],[130.7828028,48.97162659999999],[130.78129140000001,48.978390000000005],[130.7591193,48.9660105],[130.7415098,48.960852200000005],[130.7487894,48.947487399999986],[130.72615519999997,48.94533330000001],[130.7230063,48.941546699999996],[130.71207009999998,48.940510800000006],[130.7050861,48.9345769],[130.70559309999996,48.929322500000005],[130.69808740000002,48.92563260000001],[130.6821596,48.9250016],[130.67927199999997,48.927412000000004],[130.67268239999999,48.92559690000001],[130.67034990000002,48.921325800000005],[130.66056909999998,48.9210451],[130.6515437,48.9165456],[130.6543797,48.91408979999999],[130.65313690000002,48.911228799999996],[130.64341299999998,48.9092433],[130.6435479,48.906504],[130.6361196,48.9029654],[130.63802090000001,48.902005700000004],[130.6347433,48.897313000000004],[130.62753880000002,48.896565200000005],[130.6299698,48.881454299999994],[130.65393219999999,48.88182659999999],[130.6693459,48.8771033],[130.6820529,48.8653444],[130.68122620000003,48.8523837],[130.6676079,48.8375822],[130.64081579999998,48.81745339999999],[130.61571529999998,48.78841070000001],[130.5632991,48.6877225],[130.52038610000002,48.626437900000006],[130.52403130000002,48.607829499999994],[130.58097940000002,48.597137200000006],[130.5932443,48.591852],[130.5994349,48.585015000000006],[130.6063696,48.5736838],[130.60740810000001,48.56594390000001],[130.6083675,48.501915200000006],[130.618044,48.49235280000001],[130.6345963,48.48722639999999],[130.6601327,48.49033180000001],[130.69695539999998,48.5057291],[130.72332690000002,48.51251030000001],[130.74323059999998,48.5086744],[130.75819710000002,48.4972857],[130.7625977,48.4882364],[130.75988209999997,48.4760301],[130.7306475,48.4437879],[130.73206009999998,48.4302581],[130.7485309,48.4058026],[130.76631980000002,48.3584883],[130.77676709999997,48.35178299999999],[130.80955439999997,48.343911],[130.81985409999996,48.335124900000004],[130.81968239999998,48.3197169],[130.83564690000003,48.301677999999995],[130.83008640000003,48.29319460000001],[130.81430830000002,48.2832018],[130.8069452,48.2668977],[130.79695239999998,48.2584827],[130.77749269999998,48.2553271],[130.76487019999996,48.247438100000004],[130.76224050000002,48.234815600000005],[130.74961799999997,48.214304],[130.75224770000003,48.190110900000015],[130.74677449999996,48.181241299999996],[130.7238471,48.1717031],[130.69439459999998,48.146458100000004],[130.6675718,48.131731900000005],[130.6544234,48.1117463],[130.6544234,48.09596820000001],[130.6765168,48.0828785],[130.67617349999998,48.06223210000001],[130.6826967,48.0477747],[130.6928153,48.0406968],[130.73072439999999,48.02820030000001],[130.74097659999998,48.00555890000001],[130.8639711,47.936224599999996],[130.88045060000002,47.91782039999999],[130.949798,47.825461],[130.95157790000002,47.75055890000001],[130.9574947,47.72031750000001],[130.9674545,47.7086448],[130.9937326,47.696166700000006],[131.02646860000002,47.6879429],[131.0895258,47.683167499999996],[131.17510119999997,47.69533550000001],[131.2073149,47.72031750000001],[131.2546492,47.7347808],[131.36601990000003,47.7266817],[131.42484890000003,47.7433794],[131.4526662,47.7430901],[131.4895833,47.736831800000004],[131.52135650000002,47.73651910000001],[131.54751559999997,47.72663990000001],[131.5541148,47.7140097],[131.55222860000003,47.682538400000006],[131.5665977,47.665221100000004],[131.5944325,47.65651820000001],[131.62197640000002,47.65688539999999],[131.6451133,47.66827030000001],[131.67779869999998,47.7024247],[131.7101398,47.70847220000001],[131.7305453,47.704748300000006],[131.76306069999995,47.6827466],[131.81221290000002,47.6671685],[131.8467346,47.6690048],[131.86693350000002,47.673411800000004],[131.9020112,47.6908491],[131.9106871,47.6879252],[131.9159815,47.675568500000004],[131.9266254,47.665860300000006],[131.942725,47.6613865],[131.95213600000005,47.66239420000001],[131.98279950000003,47.669797],[131.9891958,47.70076230000001],[131.99951149999998,47.7112387],[132.01565389999996,47.714535600000005],[132.045418,47.69985390000001],[132.07553259999997,47.69801770000001],[132.0987817,47.702965400000004],[132.15539980000003,47.702965400000004],[132.20666199999997,47.714696999999994],[132.2528236,47.7080661],[132.27756209999995,47.72005280000001],[132.28291780000004,47.7419859],[132.29286419999997,47.7506571],[132.3091865,47.756778000000004],[132.3436164,47.7577981],[132.38442220000002,47.7506571],[132.39691900000003,47.7460665],[132.4089057,47.735865000000004],[132.42797480000002,47.730207300000004],[132.4606045,47.730207300000004],[132.48482650000003,47.715794100000004],[132.5232615,47.7191972],[132.5487282,47.7143226],[132.5897923,47.7296847],[132.60367719999996,47.742092500000005],[132.60190469999998,47.7577501],[132.5900877,47.771635],[132.5897923,47.78433830000001],[132.59865499999998,47.8103357],[132.62878840000002,47.836628499999996],[132.68048770000001,47.8720795],[132.6822602,47.8853736],[132.65212690000004,47.93559580000001],[132.65714910000003,47.9474128],[132.666225,47.9558781],[132.6828511,47.9610024],[132.71918839999998,47.961888599999995],[132.76350209999995,47.930278200000004],[132.78052,47.92505080000001],[132.8157923,47.935005000000004],[132.8630603,47.9917265],[132.91387329999998,48.01388339999999],[132.98447990000003,48.030722600000004],[133.00781840000002,48.0404716],[133.0299753,48.0821265],[133.0494733,48.1048743],[133.0663125,48.10901020000001],[133.097923,48.10428339999999],[133.1818237,48.10871480000001],[133.2397269,48.101624599999994],[133.2660197,48.092761800000005],[133.2866995,48.092761800000005],[133.30976169999997,48.09805420000001],[133.3482212,48.11521080000001],[133.3915256,48.12355870000001],[133.41256449999997,48.1212395],[133.44282930000003,48.1102856],[133.4644876,48.10911960000001],[133.49174580000002,48.1174165],[133.54324419999998,48.126583800000006],[133.5673516,48.136602100000005],[133.578612,48.1886081],[133.59339830000002,48.19825130000001],[133.61364909999998,48.199858500000005],[133.67761579999998,48.18217930000001],[133.6943307,48.18217930000001],[133.71008129999998,48.1876438],[133.7277605,48.2178592],[133.7383681,48.225573800000014],[133.7370823,48.240681499999994],[133.74640409999998,48.2567535],[133.7679406,48.2602894],[133.7978346,48.259968],[133.83383600000002,48.27571860000001],[133.8775519,48.283111700000006],[133.94955469999994,48.3043268],[133.97237700000002,48.2998266],[133.99411940000002,48.3021697],[134.007414,48.308826999999994],[134.0143698,48.3312482],[134.03376759999998,48.3439681],[134.0887812,48.3382441],[134.1399789,48.3382441],[134.16160269999997,48.362730000000006],[134.18831450000002,48.3837178],[134.22234030000004,48.3859438],[134.2703076,48.3790301],[134.33681950000002,48.3789478],[134.36925519999997,48.3872158],[134.40868700000001,48.3881698],[134.43444480000002,48.3980277],[134.4706965,48.421877499999994],[134.5012575,48.425293200000006],[134.5108176,48.424762900000005],[134.5259119,48.4173566],[134.5807237,48.40724959999999],[134.6204734,48.413927599999994],[134.6533685,48.41324739999999],[134.68809890000003,48.40807290000001],[134.7122609,48.3984619],[134.74105199999997,48.37454699999999],[134.7671243,48.37120109999999],[134.77435889999998,48.374813499999995],[134.7978685,48.3771997],[134.84170890000001,48.3908134],[134.8716492,48.412043999999995],[134.88781340000003,48.4325217],[134.8850936,48.4356566],[134.89773850000003,48.444513900000004],[134.9010144,48.4619116],[134.9162122,48.4816722],[134.9201622,48.4924846],[134.9391806,48.506179100000004],[134.93620230000002,48.5139261],[134.9550589,48.5195584],[134.95780720000002,48.5124019],[134.96628710000002,48.5136751],[134.99242440000003,48.5270208],[134.99578459999998,48.5326809],[134.9797065,48.56353230000001],[134.9769738,48.60261890000001],[134.9663232,48.6044237],[134.9485313,48.62711390000001],[134.9240015,48.617156300000005],[134.9023601,48.62869210000001],[134.8687246,48.63607390000001],[134.86282900000003,48.631730700000006],[134.8633828,48.6194954],[134.8577505,48.613530700000005],[134.82770490000001,48.60297260000001],[134.810842,48.60311310000001],[134.80295740000003,48.592140400000005],[134.78157299999998,48.592920500000005],[134.77806429999998,48.5904545],[134.77572569999995,48.57865820000001],[134.7688581,48.5740084],[134.73573349999998,48.5704192],[134.72579539999998,48.572511500000005],[134.7084507,48.58478699999999],[134.6911809,48.59195570000001],[134.68240050000003,48.603078700000005],[134.6767411,48.6197376],[134.6613744,48.62572210000001],[134.65172130000002,48.6219666],[134.6543335,48.6124905],[134.65078369999998,48.6093448],[134.6065778,48.612399800000006],[134.5863027,48.609551200000006],[134.5640358,48.59847630000001],[134.55626130000002,48.59919560000001],[134.55256630000002,48.6018048],[134.5519544,48.607142],[134.5586452,48.613849599999995],[134.57950539999996,48.6214977],[134.5811256,48.6272654],[134.5786294,48.63086],[134.5480397,48.63419890000001],[134.53814890000004,48.6495212],[134.5185269,48.6613376],[134.5116008,48.661121900000005],[134.5012567,48.6493275],[134.4936866,48.65088959999999],[134.4932875,48.6554778],[134.50232060000002,48.66290790000001],[134.4990179,48.670361],[134.49024660000003,48.674517300000005],[134.46501690000002,48.6774115],[134.46101670000002,48.680863599999995],[134.46138820000002,48.69967290000001],[134.45021770000002,48.70801200000001],[134.45878930000003,48.7168043],[134.4575035,48.72199230000001],[134.4491318,48.72842550000001],[134.4425025,48.72925560000001],[134.42692930000004,48.717389499999996],[134.4148153,48.71816270000001],[134.41150149999999,48.72599190000001],[134.4168443,48.739689],[134.40790780000003,48.7462038],[134.3742713,48.7379734],[134.36228330000003,48.7276974],[134.3470049,48.73043380000001],[134.33985969999998,48.72332370000001],[134.3290241,48.7272206],[134.3063917,48.72321820000001],[134.3016892,48.72692070000001],[134.3028586,48.7368262],[134.2924231,48.74201090000001],[134.286081,48.73572300000001],[134.2829822,48.723274],[134.2611875,48.72052310000001],[134.252861,48.7148908],[134.25224240000003,48.70896530000001],[134.25997209999997,48.705456100000006],[134.2582635,48.700295000000004],[134.26194890000002,48.69941180000001],[134.2544441,48.6955876],[134.2549496,48.6918136],[134.26391089999998,48.6880692],[134.27330479999998,48.6764451],[134.2726971,48.67063830000001],[134.26595169999996,48.66630370000001],[134.2577154,48.6666215],[134.2586429,48.675509700000006],[134.24952269999994,48.6759864],[134.24056189999996,48.683182900000006],[134.23326239999997,48.6769665],[134.2157384,48.674429399999994],[134.21669509999995,48.66890850000001],[134.22875309999998,48.6638354],[134.2277397,48.66013060000001],[134.21721399999998,48.662633400000004],[134.21726619999998,48.657927599999994],[134.2089315,48.6590203],[134.20465219999994,48.653260499999995],[134.1991434,48.65386719999999],[134.2024137,48.6594348],[134.1967991,48.663380200000006],[134.1875114,48.657846299999996],[134.18021660000002,48.66031880000001],[134.17166849999998,48.656715000000005],[134.1683533,48.660317400000004],[134.15990449999998,48.65855380000001],[134.15435169999998,48.66225630000001],[134.12800430000001,48.65593380000001],[134.12809090000002,48.6532508],[134.1377182,48.6498438],[134.1369719,48.644280699999996],[134.12308499999997,48.6446627],[134.11505249999996,48.6513911],[134.1092315,48.65069749999999],[134.11015319999996,48.6428772],[134.11664439999998,48.6353444],[134.11445539999997,48.632551600000006],[134.0958796,48.63370260000001],[134.0946429,48.6379056],[134.0880576,48.638539400000006],[134.0687206,48.64993210000001],[134.06476229999998,48.6418312],[134.04651409999997,48.635430500000005],[134.0363942,48.638434600000004],[134.03738780000003,48.6411892],[134.04706439999998,48.642729200000005],[134.04738369999998,48.647716100000004],[134.0312508,48.642708400000004],[134.0232776,48.649249],[134.0042801,48.6470418],[134.0008894,48.639886399999995],[133.9920614,48.6465054],[133.98474860000002,48.6473178],[133.9717698,48.63837910000001],[133.96241970000003,48.6374473],[133.95934830000004,48.641142800000004],[133.97077359999997,48.647972700000004],[133.9664558,48.6503863],[133.9678887,48.65962739999999],[133.96122350000002,48.6624886],[133.9567562,48.6580794],[133.9641843,48.6508308],[133.96217180000002,48.64631570000001],[133.9556249,48.6458065],[133.95254180000003,48.653956],[133.94347109999998,48.65513830000001],[133.9341094,48.6396068],[133.92534880000005,48.63552910000001],[133.9223827,48.6395655],[133.9294855,48.641190900000005],[133.93096469999998,48.6456304],[133.92701910000002,48.647284199999994],[133.91322259999998,48.6428771],[133.9138465,48.649283399999995],[133.9028826,48.6501971],[133.9059694,48.65813120000001],[133.9026911,48.6612897],[133.89011430000002,48.661776100000004],[133.8713327,48.66994690000001],[133.8706005,48.667009],[133.8772614,48.66558830000001],[133.87553359999998,48.658536000000005],[133.8660824,48.655027399999994],[133.8649116,48.657600599999995],[133.87184330000002,48.66131510000001],[133.8535767,48.66555200000001],[133.85642880000006,48.680425],[133.8482507,48.6777518],[133.83423830000004,48.679678100000004],[133.83104500000002,48.687680199999996],[133.82591690000004,48.690320400000004],[133.8168575,48.682337800000006],[133.81119610000002,48.6825254],[133.81062459999998,48.687497699999994],[133.82052960000001,48.698067900000005],[133.80958189999998,48.7000605],[133.8045869,48.70803820000001],[133.80545630000003,48.711663599999994],[133.817164,48.716022900000006],[133.81671640000002,48.719159000000005],[133.79998239999998,48.716989],[133.7966494,48.7118335],[133.7891408,48.711503300000004],[133.78824400000002,48.71386639999999],[133.7964125,48.7179793],[133.7867356,48.720807300000004],[133.7932869,48.727560800000006],[133.7821625,48.726985000000006],[133.7863574,48.73334220000001],[133.7853679,48.7370945],[133.763488,48.7375084],[133.7619564,48.7410851],[133.76790069999998,48.7445994],[133.76280119999998,48.7492147],[133.75957739999998,48.74835860000001],[133.7580902,48.738969000000004],[133.75357229999997,48.73391080000001],[133.738935,48.734168700000005],[133.7292475,48.745701100000005],[133.72734440000002,48.7509255],[133.73161539999998,48.7533724],[133.71906929999997,48.760023800000006],[133.7118281,48.760221800000004],[133.7082601,48.753292],[133.71509749999998,48.7432144],[133.7163459,48.73019890000001],[133.7058396,48.725829700000006],[133.70195409999997,48.7186654],[133.6901994,48.717710600000004],[133.6838411,48.723313800000014],[133.6870661,48.728229500000005],[133.69378949999998,48.72894490000001],[133.7029566,48.735794600000006],[133.70399529999997,48.74050230000001],[133.6971648,48.7466699],[133.69041950000002,48.7465495],[133.6800126,48.7400461],[133.66474,48.742349100000006],[133.6589524,48.746097],[133.64751419999996,48.7445806],[133.64301119999996,48.739567],[133.625282,48.7436463],[133.62180940000002,48.7408666],[133.6219952,48.73393180000001],[133.6107323,48.73265210000001],[133.6039161,48.73663630000001],[133.5971523,48.733839200000006],[133.598253,48.730331500000005],[133.5892766,48.72950260000001],[133.5778118,48.7358478],[133.57696469999996,48.7396916],[133.5801797,48.74213650000001],[133.5777177,48.74550030000001],[133.56543770000002,48.742920700000006],[133.5591874,48.747423999999995],[133.5511922,48.747542800000005],[133.55871150000002,48.751252900000004],[133.5566543,48.75910290000001],[133.5387835,48.76673680000001],[133.5221625,48.765857700000005],[133.52061080000001,48.771905800000006],[133.5320717,48.7786294],[133.52884380000003,48.7843478],[133.50623040000002,48.7835042],[133.4937588,48.7970813],[133.4941416,48.802364399999995],[133.48664240000002,48.808193300000006],[133.48239260000003,48.820145700000005],[133.46993730000003,48.8230115],[133.46344700000003,48.8290972],[133.4040427,48.833351],[133.2813506,48.8484584],[133.27963369999995,48.85792739999999],[133.28227880000003,48.8635435],[133.27964419999995,48.8664988],[133.2852865,48.874443899999996],[133.27963209999996,48.876916300000005],[133.25360279999998,48.9115134],[133.22359329999998,48.961116800000006],[133.2289849,48.9594592],[133.228984,48.962290700000004],[133.2329139,48.9614949],[133.23531309999998,48.9661248],[133.2455168,48.970269099999996],[133.241139,48.97406469999999],[133.2424643,48.975993900000006],[133.2476868,48.974158],[133.24936719999997,48.97884739999999],[133.26278489999999,48.9808722],[133.2659292,48.98542749999999],[133.27460139999997,48.984126499999995],[133.2728973,48.990976700000004],[133.27606549999996,48.991559200000005],[133.27688469999995,48.9931204],[133.27405929999998,48.99171080000001],[133.27182349999998,48.9946267],[133.27609519999996,48.9975485],[133.2702205,49.000617],[133.2727458,49.0056164],[133.2702499,49.0079979],[133.2764392,49.01168649999999],[133.27346499999996,49.019713900000006],[133.2803087,49.0317305],[133.2752214,49.0317938],[133.26057499999996,49.0554821],[133.23207459999998,49.080680799999996],[133.15646900000002,49.1202996],[133.1559043,49.1277805],[133.1604142,49.132780700000005],[133.156094,49.1386807],[133.16467419999995,49.1437807],[133.1585341,49.1482807],[133.158784,49.1529407],[133.14740419999998,49.15718749999999],[133.13776489999998,49.1569472],[133.136104,49.16191070000001],[133.11589399999997,49.1662806],[133.10362509999996,49.173034300000005],[133.0792128,49.1719784],[133.07136219999998,49.18597810000001],[133.06492559999998,49.1890566],[133.05827050000002,49.19870510000001],[133.0608985,49.20239530000001],[133.05522670000002,49.2146386],[133.01421269999997,49.22097220000001],[132.993917,49.21815070000001],[132.98586880000002,49.22843650000001],[132.9771786,49.2301641],[132.966085,49.22932540000001],[132.9561054,49.22263350000001],[132.93603980000003,49.2270145],[132.92540440000002,49.232673500000004],[132.91808930000002,49.23233960000001],[132.91055389999997,49.2432196],[132.9117319,49.2535955],[132.9085321,49.2555114],[132.88753660000003,49.2526069],[132.87621790000003,49.2469813],[132.8704504,49.2400001],[132.8423546,49.2402744],[132.83540800000003,49.2434312],[132.82416990000002,49.2372084],[132.8111252,49.2362649],[132.80032750000004,49.243636],[132.80610230000002,49.25148839999999],[132.8037884,49.262829100000005],[132.80685,49.2676851],[132.80278790000003,49.27240520000001],[132.79319999999998,49.27270800000001],[132.7885131,49.279142500000006],[132.7907062,49.2841171],[132.78033990000003,49.2876051],[132.7870801,49.298930100000014],[132.77939419999996,49.30608449999999],[132.78416579999998,49.3132355],[132.7818215,49.31736749999999],[132.7848169,49.325662300000005],[132.78329319999997,49.330111200000005],[132.77341269999997,49.3348222],[132.7520915,49.3260643],[132.73435049999998,49.3315719],[132.7117488,49.3267376],[132.70662009999998,49.3204581],[132.716746,49.307974699999995],[132.712926,49.29981910000001],[132.6965264,49.3070561],[132.680683,49.3045087],[132.67360289999996,49.301560599999995],[132.67665469999994,49.29678390000001],[132.67461459999996,49.292134200000014],[132.65893110000002,49.28250530000001],[132.65057349999998,49.28841930000001],[132.63318099999998,49.286490300000004],[132.59577449999998,49.31146839999999],[132.577099,49.306559],[132.56369419999996,49.3096179],[132.55817820000001,49.301488899999995],[132.5275277,49.29250020000001],[132.52576449999998,49.2885865],[132.529343,49.279562500000004],[132.50956939999998,49.27715030000001],[132.5054234,49.27519480000001],[132.50594830000003,49.2677691],[132.4880847,49.26490870000001],[132.47294180000003,49.27277980000001],[132.47314880000002,49.27902530000001],[132.4668031,49.2836525],[132.4459206,49.2826937],[132.43226180000002,49.287552600000005],[132.42447730000004,49.294362400000004],[132.40042350000002,49.301633599999995],[132.3850112,49.29599310000001],[132.37951539999997,49.30466989999999],[132.3712533,49.3084947],[132.3711666,49.32295830000001],[132.3665256,49.3342527],[132.37620650000002,49.342948],[132.4001341,49.3469181],[132.3994149,49.358829899999996],[132.407715,49.3702993],[132.404829,49.3792732],[132.391961,49.3946766],[132.3927591,49.402612600000005],[132.3866503,49.4075581],[132.3846292,49.4139062],[132.35466399999999,49.4098803],[132.34524150000001,49.4151468],[132.3238255,49.414554499999994],[132.30495499999998,49.42051820000001],[132.2900977,49.4331405],[132.27744750000002,49.4347621],[132.2703793,49.4432938],[132.27486529999996,49.4497365],[132.27379849999997,49.4636257],[132.2594686,49.4799486],[132.24954439999996,49.482319100000005],[132.24598459999996,49.4877758],[132.2403184,49.489318000000004],[132.2247391,49.47333390000001],[132.1986446,49.4756566],[132.19108369999998,49.4734167],[132.1703796,49.4893203],[132.15695169999998,49.4857995],[132.1472244,49.4890853],[132.14575519999994,49.49314330000001],[132.11860269999997,49.48948169999999],[132.1113706,49.494103800000005],[132.0909421,49.4839092],[132.08235150000002,49.4771629],[132.08202940000004,49.470646499999994],[132.06604800000002,49.46327230000001],[132.06469489999998,49.45732039999999],[132.0704919,49.4556587],[132.06767469999997,49.454155],[132.0681806,49.448837499999996],[132.0725814,49.447071099999995],[132.0747472,49.4409513],[132.06721690000003,49.435888999999996],[132.06214060000002,49.426458600000004],[132.063027,49.411537499999994],[132.0865296,49.397110500000004],[132.0945448,49.3896059],[132.0949255,49.38481039999999],[132.0599784,49.3840189],[132.0532798,49.377449799999994],[132.03015509999997,49.3780026],[132.0226738,49.3742488],[132.00895469999998,49.381164899999995],[131.9931811,49.376857199999996],[132.00134530000003,49.3670468],[131.99887690000003,49.35906349999999],[132.00556219999996,49.34900449999999],[132.02355839999998,49.3379201],[132.0227709,49.3292195],[131.99788840000002,49.3260761],[131.98502700000003,49.31946179999999],[131.983691,49.31328419999999],[131.9742145,49.3082832],[131.9817802,49.2873852],[132.0031508,49.2848185],[132.00430680000002,49.2688416],[131.98862840000004,49.255894],[131.9664654,49.262414400000004],[131.96837870000002,49.26379790000001],[131.95697800000002,49.27403220000001],[131.94039930000002,49.278542400000006],[131.9171076,49.271806],[131.904088,49.278397600000005],[131.89804380000004,49.27863220000001],[131.89161660000002,49.2716192],[131.88442920000003,49.2732286],[131.8730909,49.29221850000001],[131.8618257,49.29577780000001],[131.86022640000004,49.301444999999994],[131.8465661,49.308358500000004],[131.83403650000002,49.3230745],[131.81954,49.3280017],[131.8187816,49.333798300000005],[131.80154890000003,49.3388299],[131.796049,49.3309455],[131.77557749999997,49.3153724],[131.75345,49.3123905],[131.74525189999997,49.3081648],[131.73716249999998,49.312069699999995],[131.73606379999998,49.3163433],[131.72171409999999,49.3059324],[131.7116098,49.30853390000001],[131.7028695,49.30373530000001],[131.68424960000002,49.3089217],[131.6752763,49.3069311],[131.66475979999998,49.3124156],[131.6519785,49.3060627],[131.6503681,49.3008155],[131.6369401,49.29202680000001],[131.618082,49.2885841],[131.61712730000002,49.276161300000005],[131.601379,49.26553860000001],[131.5825845,49.269565400000005],[131.57060319999997,49.26659280000001],[131.5751109,49.26078220000001],[131.57319139999998,49.2568832],[131.5571653,49.248063],[131.53165579999998,49.2454376],[131.52283760000003,49.246489499999996],[131.52105,49.24990890000001],[131.51430559999997,49.249040300000004],[131.50487159999997,49.2429645],[131.50661569999997,49.23236390000001],[131.4978042,49.23041590000001],[131.49099790000002,49.22372230000001],[131.48736980000004,49.209785800000006],[131.4732377,49.211133600000004],[131.4668613,49.217402],[131.46421180000002,49.224848200000004],[131.46838010000002,49.229666900000005],[131.45831540000003,49.2440325],[131.43792690000004,49.24786159999999],[131.42002810000002,49.255453100000004]]]}}