{"type":"Feature","properties":{"regionId":"kabardino_balkarskaya_respublika","name":"Кабардино-Балкария","name:en":"Kabardino-Balkaria","timezone":"Europe/Moscow","name_ru":"Кабардино-Балкарская Республика","name_en":"Kabardino-Balkaria","name_zh":"卡巴尔达-巴尔卡尔共和国"},"geometry":{"type":"Polygon","coordinates":[[[43.3984872,42.8969234],[43.388196,42.899037],[43.365044,42.890704],[43.334799,42.890121],[43.331922999999996,42.89309],[43.334352,42.899294],[43.31754899999999,42.914818999999994],[43.300388399999996,42.907333200000004],[43.29065930000001,42.9180017],[43.273291,42.922414100000005],[43.23833540000001,42.924161399999996],[43.2331816,42.9307466],[43.204910700000006,42.930534],[43.1862957,42.9376125],[43.185238000000005,42.946531],[43.173163,42.962769],[43.16500980000001,42.966525600000004],[43.1444031,42.968012400000006],[43.140949,42.976642999999996],[43.132724,42.9807395],[43.13329,42.985184],[43.115785,42.991780999999996],[43.11382,43.000414],[43.08728059999999,43.000126900000005],[43.0786867,43.007618300000004],[43.073410100000004,43.00801270000001],[43.071003,43.013102],[43.050892499999996,43.0193374],[43.0413247,43.0293794],[43.03538030000001,43.02995860000001],[43.037579900000004,43.03311970000001],[43.034237399999995,43.043098300000004],[43.02517200000001,43.0478385],[43.0268172,43.0517134],[43.02291110000001,43.062983800000005],[43.0156191,43.0711493],[43.02868,43.0815249],[43.0398282,43.084568999999995],[43.0430542,43.0880049],[43.0412311,43.090763800000005],[43.032147,43.092639500000004],[43.0276173,43.09895580000001],[43.01764159999999,43.101764599999996],[42.99431020000001,43.116218700000005],[42.9855015,43.1156578],[42.9635231,43.12513720000001],[42.933820499999996,43.12201060000001],[42.927467199999995,43.1240966],[42.9264378,43.132127200000006],[42.921376200000005,43.135698600000005],[42.93211600000001,43.148414],[42.9035048,43.153164499999995],[42.897980399999994,43.158833200000004],[42.881109599999995,43.1535365],[42.8819398,43.1562149],[42.874392900000004,43.1626914],[42.877523999999994,43.1696916],[42.8602669,43.17855790000001],[42.830681999999996,43.1746731],[42.815982999999996,43.16625280000001],[42.79689990000001,43.173191800000005],[42.79554850000001,43.1807795],[42.7766211,43.188771300000006],[42.749239300000006,43.18782959999999],[42.7406012,43.1776882],[42.730845900000006,43.1819391],[42.716768900000005,43.1771044],[42.7102213,43.178819000000004],[42.700376000000006,43.1708175],[42.6816921,43.17173830000001],[42.6788145,43.1646507],[42.68149149999999,43.1590037],[42.67220210000001,43.14261570000001],[42.6814967,43.13587520000001],[42.668274000000004,43.13299930000001],[42.66517400000001,43.1396016],[42.648509700000005,43.1449033],[42.643563900000004,43.1512739],[42.62430890000001,43.15720639999999],[42.61555690000001,43.1645805],[42.601918000000005,43.16273670000001],[42.5964004,43.1714402],[42.590118300000015,43.169965700000006],[42.576349900000004,43.174739200000005],[42.5552299,43.173824599999996],[42.5432518,43.17659210000001],[42.530488399999996,43.1877767],[42.5100355,43.19910110000001],[42.4721394,43.2066004],[42.4477104,43.2198225],[42.444022999999994,43.22839250000001],[42.4520887,43.23761290000001],[42.4466737,43.2406312],[42.442140300000005,43.2508457],[42.4141195,43.2569668],[42.412997399999995,43.2672935],[42.4160139,43.27471270000001],[42.39726749999999,43.29036990000001],[42.4002469,43.3009175],[42.403866699999995,43.3019722],[42.406569399999995,43.3122316],[42.409938800000006,43.3145093],[42.4154862,43.343129499999996],[42.4378759,43.3525468],[42.4155836,43.364786099999996],[42.411988599999994,43.3703243],[42.413297199999995,43.3731512],[42.403809499999994,43.3826919],[42.4028305,43.3928315],[42.417670099999995,43.4047951],[42.410198300000005,43.4131666],[42.4242513,43.42221800000001],[42.4191315,43.4301839],[42.42171230000001,43.4368165],[42.45629649999999,43.443380499999996],[42.457141299999996,43.454284399999985],[42.451548499999994,43.462872600000004],[42.4559668,43.471987199999994],[42.451452499999995,43.482379200000004],[42.4589437,43.491305600000004],[42.456239599999996,43.49695290000001],[42.45786329999999,43.50085],[42.46711870000001,43.5065334],[42.4713403,43.51871190000001],[42.4762116,43.5219595],[42.4744252,43.52991610000001],[42.464195000000004,43.545342000000005],[42.465818500000005,43.5586572],[42.4632203,43.563853300000005],[42.4679292,43.565801900000004],[42.4690657,43.572703000000004],[42.4604594,43.5845566],[42.4630573,43.58991520000001],[42.455587599999994,43.602743100000005],[42.4534763,43.616382900000005],[42.4560743,43.621092000000004],[42.56202590000001,43.646140300000006],[42.56803380000001,43.650362300000005],[42.596612400000005,43.6540973],[42.6195075,43.670498],[42.6204816,43.676506],[42.626651900000006,43.68178339999999],[42.6501966,43.690877],[42.665784800000004,43.70061990000001],[42.6755276,43.6978596],[42.681372800000005,43.7160462],[42.6795861,43.736830700000006],[42.66919310000001,43.76922530000001],[42.6665945,43.79244550000001],[42.66859970000001,43.8031977],[42.6782891,43.809695],[42.7161454,43.8186958],[42.73215250000001,43.81926369999999],[42.763201900000006,43.810295499999995],[42.801232999999996,43.8071173],[42.817240299999995,43.80144119999999],[42.854703699999995,43.801895699999996],[42.8543622,43.84049449999999],[42.87184489999999,43.84776039999999],[42.872298900000004,43.853465099999994],[42.8661055,43.8676908],[42.9185035,43.86527230000001],[42.93496449999999,43.87333290000001],[42.954433699999996,43.889851099999994],[42.981440799999994,43.8988742],[43.02351370000001,43.8995017],[43.048489399999994,43.89655030000001],[43.069605100000004,43.898934600000004],[43.10570630000001,43.893826399999995],[43.147710700000005,43.89507570000001],[43.140103800000006,43.92277590000001],[43.14339590000001,43.9307796],[43.155429399999996,43.93838590000001],[43.1448713,43.9480355],[43.1474821,43.958934],[43.1764311,43.959842599999995],[43.1890325,43.955869299999996],[43.22500810000001,43.959046099999995],[43.316638999999995,43.79976010000001],[43.3353176,43.8121734],[43.353782499999994,43.818784099999995],[43.3738003,43.837863299999995],[43.400228399999996,43.845707499999996],[43.413516,43.85949899999999],[43.4241935,43.8583579],[43.4344769,43.862554100000004],[43.4738702,43.865619800000005],[43.504522200000004,43.86028449999999],[43.51235560000001,43.85472179999999],[43.54550530000001,43.8431426],[43.5712187,43.8496139],[43.5894579,43.847978],[43.61154739999999,43.839888099999996],[43.6447985,43.8365364],[43.657065499999995,43.832117200000006],[43.6598791,43.8344539],[43.675523600000005,43.8313681],[43.6835514,43.83328739999999],[43.69351540000001,43.828450100000005],[43.7120475,43.830316200000006],[43.73270380000001,43.8183973],[43.735263700000004,43.8233914],[43.74488759999999,43.81946769999999],[43.7464201,43.8307825],[43.75517910000001,43.843089299999995],[43.750283599999996,43.8535993],[43.75591860000001,43.852876499999994],[43.76597560000001,43.872730700000005],[43.7705477,43.874457299999996],[43.77050020000001,43.927526900000004],[43.777027399999994,43.92865220000001],[43.78315130000001,43.939308600000004],[43.79313360000001,43.9421047],[43.799079600000006,43.9489954],[43.819675999999994,43.959766099999996],[43.85792479999999,43.96022],[43.85658659999999,43.968050700000006],[43.85869769999999,43.975243],[43.8634726,43.9776783],[43.8629678,43.987562399999995],[43.8766152,43.9914361],[43.892618600000006,44.0032453],[43.89611610000001,44.0102588],[43.907614099999996,44.0106572],[43.922163600000005,44.02031430000001],[43.9320896,44.018281599999995],[43.932006,44.0099486],[43.9444726,44.0098399],[43.94468009999999,43.986449799999995],[43.987164699999994,43.9862639],[43.9873376,43.970684199999994],[44.1440452,43.970237],[44.1439037,43.928471200000004],[44.224762600000005,43.9282484],[44.22533740000001,43.91846399999999],[44.26856980000001,43.9181546],[44.269029700000004,43.9640218],[44.3184398,43.96393200000001],[44.318496399999994,43.97297230000001],[44.368847599999995,43.9726069],[44.3692043,44.0045631],[44.3807656,44.005438100000006],[44.3855335,44.009298],[44.412666099999996,44.0112283],[44.4131201,44.0172452],[44.419363999999995,44.0164506],[44.4189116,43.9454969],[44.3437927,43.9457964],[44.3435766,43.9043784],[44.3190103,43.893415700000006],[44.293240000000004,43.89123],[44.29252300000001,43.809673],[44.26803250000001,43.81089749999999],[44.267435500000005,43.74532320000001],[44.27253650000001,43.7416091],[44.274326,43.7260405],[44.2816173,43.7110734],[44.28935690000001,43.70971630000001],[44.29717820000001,43.6894595],[44.3103712,43.685709200000005],[44.3189973,43.679137100000005],[44.3264734,43.6812225],[44.3332713,43.676672700000005],[44.338545800000006,43.683496399999996],[44.35858439999999,43.6804726],[44.374193,43.693001],[44.4017141,43.6909475],[44.410751,43.6839647],[44.4268856,43.6858411],[44.430210800000005,43.683810900000005],[44.43082739999999,43.6629647],[44.426411900000005,43.6573167],[44.4312385,43.651565999999995],[44.4288766,43.650128300000006],[44.4347301,43.645610000000005],[44.4360656,43.62301810000001],[44.4400706,43.6179093],[44.439659999999996,43.61041290000001],[44.43503580000001,43.606878800000004],[44.461569399999995,43.593901900000006],[44.4753684,43.582942800000005],[44.444515300000006,43.5427231],[44.4457852,43.5352575],[44.440586599999996,43.5077993],[44.44798049999999,43.497633],[44.434322900000005,43.488288],[44.41387939999999,43.4527146],[44.4185748,43.44666649999999],[44.42671280000001,43.444392],[44.4331662,43.434321499999996],[44.4422421,43.427733],[44.384057999999996,43.4029771],[44.381490899999996,43.3965076],[44.3552536,43.392399700000006],[44.3530853,43.394028399999996],[44.3557667,43.408522100000006],[44.3440598,43.41786679999999],[44.33830880000001,43.4309084],[44.3389248,43.437480599999994],[44.3334821,43.4440528],[44.320371900000005,43.449643599999995],[44.282959000000005,43.4204076],[44.1749304,43.3485999],[44.1747249,43.3567125],[44.171233300000004,43.36164159999999],[44.17030820000001,43.4011518],[44.165584200000005,43.411523499999994],[44.1563419,43.4163498],[44.1463461,43.437675999999996],[44.1056827,43.43106469999999],[44.108334000000006,43.4269264],[44.10381590000001,43.4161438],[44.084869899999994,43.3978903],[44.07778439999999,43.395220300000005],[44.037769,43.3522063],[44.0876963,43.292119000000014],[44.09823190000001,43.26719010000001],[44.0829734,43.2549963],[44.0727044,43.256331100000004],[44.05185839999999,43.24955330000001],[44.02885630000001,43.226550300000014],[44.0030517,43.21239390000001],[43.9734032,43.2422613],[43.974178300000005,43.246342600000006],[43.9849043,43.249244399999995],[43.987984899999994,43.2569463],[44.0020679,43.27269220000001],[43.9402362,43.2865376],[43.920928100000005,43.256586],[43.9197987,43.24970570000001],[43.92575490000001,43.2438525],[43.9195935,43.24200390000001],[43.91086449999999,43.2534025],[43.897617499999996,43.2542239],[43.8617982,43.2641816],[43.859672399999994,43.29881680000001],[43.829874499999995,43.3232655],[43.80658149999999,43.3004335],[43.781731300000004,43.26531300000001],[43.76971700000001,43.2412063],[43.7642745,43.2403847],[43.76304230000001,43.234017800000004],[43.7502063,43.2216948],[43.7510281,43.21235000000001],[43.744353700000005,43.190014700000006],[43.7264861,43.1694764],[43.726280800000005,43.16619020000001],[43.750679999999996,43.1568097],[43.744252,43.1478088],[43.7449711,43.13571700000001],[43.7033816,43.131198100000006],[43.69701500000001,43.1230855],[43.6498807,43.09915800000001],[43.6438738,43.0782347],[43.647570900000005,43.0694034],[43.63935590000001,43.0604692],[43.63514580000001,43.049378600000004],[43.61861280000001,43.04568149999999],[43.609987,43.037671499999995],[43.60988439999999,43.030791300000004],[43.6177917,43.025143400000005],[43.617381099999996,43.0189049],[43.622823800000006,43.014386599999995],[43.62261850000001,43.01068969999999],[43.610398800000006,42.989227199999995],[43.602389,42.9871733],[43.6014973,42.9795004],[43.593972400000006,42.977485099999996],[43.59357610000001,42.967897199999996],[43.5782463,42.9612025],[43.5775455,42.95128269999999],[43.5715292,42.942937300000004],[43.5325975,42.9447091],[43.5121249,42.9608578],[43.499853300000005,42.963733000000005],[43.490611300000005,42.9605494],[43.4689436,42.9606519],[43.4569287,42.9678401],[43.442962800000004,42.969380300000005],[43.433412700000005,42.9633214],[43.43395290000001,42.9584751],[43.424881299999996,42.947526599999996],[43.4255064,42.927430900000004],[43.41164339999999,42.920037],[43.3984872,42.8969234]]]}}