{"type":"Feature","properties":{"regionId":"kaliningradskaya_oblast","name":"Калининградская область","name:en":"Kaliningrad","timezone":"Europe/Kaliningrad","name_ru":"Калининградская область","name_en":"Kaliningrad","name_zh":"加里宁格勒州"},"geometry":{"type":"Polygon","coordinates":[[[22.886658999999998,54.81408179999999],[22.870987400000004,54.8202099],[22.880013899999998,54.8254754],[22.876465500000002,54.8338208],[22.858754400000002,54.838788],[22.869084100000002,54.853152900000005],[22.839688100000004,54.8642311],[22.843697499999998,54.8752266],[22.855316799999997,54.886332],[22.8474088,54.8902355],[22.8463134,54.897382],[22.8362212,54.8986766],[22.8358993,54.903852300000004],[22.825992799999998,54.906472900000004],[22.820400499999998,54.9119829],[22.809723599999998,54.9099296],[22.799610799999996,54.902548],[22.7932571,54.903718500000004],[22.7878212,54.90852830000001],[22.788786299999995,54.9197599],[22.783016399999998,54.9248335],[22.7686657,54.9234026],[22.761869700000002,54.9169252],[22.7544855,54.9186055],[22.749373799999997,54.924978],[22.766777299999998,54.93270890000001],[22.766350799999998,54.9354772],[22.742736899999993,54.939050800000004],[22.740432499999994,54.9447786],[22.733734799999997,54.9471782],[22.727915600000003,54.954755999999996],[22.7296314,54.9597138],[22.726138,54.9631794],[22.707168100000004,54.973541499999996],[22.690025000000002,54.971603099999996],[22.6876775,54.9807084],[22.678071700000004,54.9875007],[22.670838600000003,54.9881545],[22.659368700000005,54.98187739999999],[22.664763400000002,54.9739545],[22.663853000000003,54.9707778],[22.668323799999996,54.9692085],[22.6638088,54.9645672],[22.657351600000005,54.9678109],[22.6528342,54.96503560000001],[22.644063300000003,54.9698957],[22.641629899999998,54.9723675],[22.643102,54.9840125],[22.636244,54.9850762],[22.635185900000003,54.9893822],[22.626557000000002,54.995574700000006],[22.628322599999997,54.9976927],[22.6250488,55.0041488],[22.614609100000003,55.012391],[22.603261100000005,55.013510600000004],[22.602111400000002,55.019919200000004],[22.5960455,55.02550360000001],[22.594442599999997,55.033938600000006],[22.5974381,55.0459905],[22.5903921,55.0540988],[22.589236099999997,55.070243],[22.5481546,55.065836000000004],[22.491233599999997,55.0476988],[22.470704499999997,55.0445269],[22.452137999999998,55.0461892],[22.425549399999994,55.0539479],[22.3950136,55.05328359999999],[22.3489563,55.061488499999996],[22.289220399999998,55.0650631],[22.215188400000002,55.0602657],[22.1902255,55.05398649999999],[22.159962500000002,55.0556998],[22.132736599999998,55.0453405],[22.127313100000002,55.03364439999999],[22.120667400000002,55.0277405],[22.099964200000002,55.0242106],[22.0750563,55.02513800000001],[22.047408400000002,55.0340943],[22.0350209,55.044916300000004],[22.030999,55.0570567],[22.0396932,55.06934290000001],[22.040144599999998,55.078203300000006],[22.032514,55.0841702],[21.9977573,55.0867348],[21.980911799999998,55.08291390000001],[21.964839499999997,55.073807499999994],[21.9186114,55.080777499999996],[21.880232399999997,55.093465800000004],[21.8506682,55.096664499999996],[21.815488700000003,55.1192175],[21.777258400000004,55.119516000000004],[21.722598799999997,55.133053100000005],[21.717261000000004,55.13677800000001],[21.7163535,55.145251900000005],[21.7098415,55.15128739999999],[21.685948999999997,55.16367],[21.669966600000002,55.16790280000001],[21.6491949,55.1808113],[21.594637799999997,55.187910900000006],[21.570131999999997,55.19812790000001],[21.5400739,55.19621910000001],[21.514949700000003,55.18525880000001],[21.5015124,55.1868198],[21.4880756,55.201002],[21.449370899999998,55.2214947],[21.4366357,55.23759080000001],[21.4312163,55.25232580000001],[21.4165114,55.26270330000001],[21.4068485,55.277836900000004],[21.3843708,55.293699600000004],[21.3782055,55.29327580000001],[21.374411700000003,55.2875642],[21.3568336,55.28491520000001],[21.3323812,55.275271000000004],[21.320251900000002,55.26630690000001],[21.3062648,55.260988100000006],[21.299978700000004,55.2542043],[21.2709829,55.24500590000001],[21.0983616,55.2563884],[20.953702399999997,55.2808334],[20.653783,55.38399999999999],[20.6173426,55.35030439999999],[20.490137199999996,55.2498269],[20.443619299999995,55.20876810000001],[20.4010838,55.1806297],[20.201823400000002,55.16015030000001],[19.979769199999996,55.16091390000001],[19.921502699999998,55.15809290000001],[19.859818600000004,55.1487814],[19.8239352,55.14001530000001],[19.760019299999996,55.1165994],[19.7311173,55.1016379],[19.681957800000003,55.06592870000001],[19.639098200000003,55.0210504],[19.616012700000002,54.9902255],[19.5948306,54.952594399999995],[19.5847813,54.921043],[19.5794942,54.8686317],[19.5878894,54.8284612],[19.592596099999998,54.77230560000001],[19.5506595,54.72812780000001],[19.5135174,54.679700600000004],[19.414151800000003,54.6105811],[19.6472146,54.45326909999999],[20.3324287,54.4010536],[20.5151973,54.3805782],[20.584409299999997,54.377899799999994],[20.616878900000007,54.37255570000001],[20.631083300000004,54.3663285],[20.648106499999997,54.371179999999995],[20.689364400000002,54.3722592],[20.818442899999997,54.360010100000004],[20.9513452,54.357132],[21.0380813,54.3485955],[21.0988294,54.346743399999994],[21.143218,54.3425504],[21.1641161,54.3372958],[21.1967602,54.337782499999996],[21.261332099999997,54.329137900000006],[21.2743252,54.32839280000001],[21.3029135,54.333536900000006],[21.323898600000003,54.329298800000004],[21.370035,54.3312562],[21.433742299999995,54.3268734],[21.445368999999996,54.318778300000005],[21.530478700000003,54.3254776],[21.5703702,54.322034200000004],[21.5792591,54.32561870000001],[21.796704599999998,54.331786199999996],[22.179369400000002,54.3372256],[22.225682499999994,54.343781899999996],[22.232028999999997,54.3402163],[22.318666,54.340537499999996],[22.3292505,54.3445398],[22.382596799999995,54.34468479999999],[22.421774,54.3484499],[22.434467,54.346284999999995],[22.446999799999997,54.34868149999999],[22.528228,54.3491598],[22.616518900000003,54.355674799999996],[22.6415445,54.353769799999995],[22.6793336,54.3600499],[22.791973100000003,54.36333220000001],[22.789341999999994,54.36872220000001],[22.7671737,54.384579499999994],[22.736438999999997,54.442916700000005],[22.7011007,54.4536338],[22.7041185,54.4669096],[22.6966344,54.48963739999999],[22.695984400000004,54.5050656],[22.6991922,54.50738],[22.684441999999997,54.5184943],[22.681607,54.524638200000005],[22.6838237,54.529401],[22.680589799999996,54.53337200000001],[22.691867100000007,54.5421841],[22.694183900000002,54.550257699999996],[22.7137585,54.563659200000004],[22.703337299999998,54.5670738],[22.6996444,54.576103100000005],[22.6869968,54.57968149999999],[22.683858600000004,54.585972000000005],[22.6858622,54.59072990000001],[22.6976969,54.59455690000001],[22.705547099999997,54.6028212],[22.720032699999997,54.60661580000001],[22.720504899999998,54.6166013],[22.725781899999998,54.618946],[22.726596499999996,54.6229774],[22.745451799999998,54.62675280000001],[22.7503959,54.638593500000006],[22.741683899999998,54.6426511],[22.7458601,54.647131800000004],[22.7546926,54.647611],[22.7572464,54.6522942],[22.742032099999996,54.657915800000005],[22.7369221,54.6645691],[22.7307703,54.666437200000004],[22.729171100000002,54.668675500000006],[22.738764,54.670517100000005],[22.7375036,54.672561],[22.740492699999997,54.674043399999995],[22.7377209,54.679686399999994],[22.728718899999997,54.6788602],[22.7293141,54.6818223],[22.723372299999998,54.6858594],[22.726616299999996,54.6873227],[22.724411,54.689976300000005],[22.7296156,54.69239400000001],[22.7292509,54.69799570000001],[22.7396631,54.69901780000001],[22.736993700000003,54.70300580000001],[22.748963,54.706438600000006],[22.748371999999996,54.71202590000001],[22.7390832,54.71573580000001],[22.7410821,54.7168702],[22.738733399999997,54.7168932],[22.7383501,54.72602290000001],[22.7432947,54.72693080000001],[22.743745699999998,54.7315911],[22.7498173,54.73057020000001],[22.76696,54.73800520000001],[22.7768452,54.74872220000001],[22.7740342,54.7511817],[22.782536799999992,54.7490754],[22.7905211,54.7543705],[22.799961800000002,54.753331900000006],[22.7967679,54.751595900000005],[22.8012386,54.7502519],[22.7995853,54.74753580000001],[22.8073382,54.74810890000001],[22.8063297,54.7525734],[22.8119465,54.7518053],[22.8157483,54.7554627],[22.8050067,54.7543649],[22.8127509,54.7626671],[22.8127437,54.76641690000001],[22.826432799999996,54.7640207],[22.8336627,54.76931850000001],[22.844098700000004,54.7668468],[22.8495886,54.7714067],[22.8485646,54.7746085],[22.859514400000002,54.7775076],[22.848326999999998,54.7856667],[22.8546066,54.7898443],[22.877908600000005,54.790805000000006],[22.871812400000003,54.797348500000005],[22.874945300000004,54.800424099999994],[22.8733349,54.8054362],[22.8781178,54.811528499999994],[22.885409099999997,54.811343599999994],[22.886658999999998,54.81408179999999]]]}}