{"type":"Feature","properties":{"regionId":"kaluzhskaya_oblast","name":"Калужская область","name:en":"Kaluga Oblast","timezone":"Europe/Moscow","name_ru":"Калужская область","name_en":"Kaluga Oblast","name_zh":"卡卢加州"},"geometry":{"type":"Polygon","coordinates":[[[37.045631900000004,55.1421745],[37.0392054,55.1425215],[37.0378396,55.14601570000001],[37.0152269,55.1599986],[37.019890399999994,55.16111990000001],[37.018093900000004,55.1772688],[37.0142189,55.1773],[37.019713900000006,55.18295030000001],[36.9826115,55.1804662],[36.981068099999995,55.186116000000005],[36.961636399999996,55.20897720000001],[36.9646003,55.211949399999995],[36.9470709,55.21851310000001],[36.9458962,55.2228045],[36.949640699999996,55.224695600000004],[36.945829499999995,55.23072290000001],[36.950132200000006,55.2382617],[36.9467799,55.24139590000001],[36.9372397,55.241390700000004],[36.9421272,55.238842500000004],[36.9304717,55.239190400000005],[36.9261016,55.2349284],[36.9038633,55.23259540000001],[36.8996633,55.23653030000001],[36.8853032,55.22932790000001],[36.872234399999996,55.2326734],[36.8558391,55.227342500000006],[36.8673432,55.223848000000004],[36.8721011,55.215076200000006],[36.85896439999999,55.2149629],[36.8602598,55.210287099999995],[36.8497154,55.2115605],[36.8410156,55.2078701],[36.831951499999995,55.19693990000001],[36.81446099999999,55.194106100000006],[36.8040533,55.197810800000006],[36.807628799999996,55.2014631],[36.8017903,55.2060893],[36.812302300000006,55.2149441],[36.8063018,55.2200174],[36.806007699999995,55.225558800000016],[36.7940964,55.22697730000001],[36.794543000000004,55.23543430000001],[36.79995100000001,55.242472500000005],[36.7875271,55.246628900000005],[36.79055570000001,55.2517355],[36.7884971,55.2567365],[36.777875,55.2582275],[36.76324580000001,55.2698276],[36.7262673,55.2597715],[36.711551,55.26433260000001],[36.696706600000006,55.261768100000005],[36.687666799999995,55.2690697],[36.67272830000001,55.268355100000015],[36.6593265,55.277490300000004],[36.64605590000001,55.277779],[36.6429877,55.2773842],[36.63909890000001,55.2672848],[36.6213295,55.26539070000001],[36.600553100000006,55.2829004],[36.6060648,55.286703],[36.6084231,55.290231600000006],[36.606551200000006,55.291654300000005],[36.6129895,55.29431040000001],[36.607751300000004,55.311175399999996],[36.619717800000004,55.313327099999995],[36.6182443,55.31008129999999],[36.623581800000004,55.3080493],[36.6258848,55.3101209],[36.62241870000001,55.313813399999994],[36.627067,55.3160181],[36.62293380000001,55.316036999999994],[36.60032880000001,55.3346929],[36.60293420000001,55.3362918],[36.6049412,55.333067899999996],[36.612106700000005,55.3364301],[36.60933320000001,55.340548],[36.620079800000006,55.34462149999999],[36.6173433,55.3487205],[36.600825300000004,55.35127979999999],[36.59265390000001,55.3462302],[36.5900255,55.3377039],[36.559328900000004,55.32810570000001],[36.5565265,55.322033700000006],[36.54979230000001,55.31965149999999],[36.5369936,55.3240668],[36.532628700000004,55.3208227],[36.53835630000001,55.3121686],[36.53519530000001,55.3070732],[36.5164304,55.29630070000001],[36.5091936,55.303281199999994],[36.48553820000001,55.3045008],[36.461142900000006,55.3011737],[36.46257260000001,55.29313440000001],[36.4374356,55.29055970000001],[36.435479300000004,55.2946705],[36.423473200000004,55.2943878],[36.4173662,55.3039839],[36.422903100000006,55.3060086],[36.4178158,55.308877499999994],[36.4154938,55.3086231],[36.4167889,55.3052625],[36.408968300000005,55.3010053],[36.3849938,55.2944235],[36.38982099999999,55.29021240000001],[36.383594099999996,55.2873494],[36.389854199999995,55.281103800000004],[36.37988149999999,55.27708739999999],[36.3692903,55.280448],[36.371013,55.2778426],[36.368929,55.27721820000001],[36.379920999999996,55.2728847],[36.3754799,55.2712837],[36.372137200000004,55.2644687],[36.3804726,55.264946300000005],[36.383547199999995,55.25837220000001],[36.363813300000004,55.24911800000001],[36.3627867,55.2542293],[36.35700429999999,55.251948999999996],[36.343469899999995,55.255067],[36.3334702,55.2376917],[36.330966599999996,55.229026600000005],[36.3344356,55.22430220000001],[36.3332969,55.220969000000004],[36.3273066,55.2143911],[36.310679699999994,55.2105447],[36.295486000000004,55.19083930000001],[36.3134709,55.185734200000006],[36.279490800000005,55.1789646],[36.2755815,55.1769914],[36.2777934,55.1738933],[36.264784,55.1714839],[36.253937300000004,55.17935930000001],[36.24849510000001,55.1910412],[36.22894980000001,55.1899691],[36.230703000000005,55.186545200000005],[36.19045080000001,55.193375300000014],[36.166193400000004,55.19097250000001],[36.13925580000001,55.174134800000004],[36.122915800000015,55.1792256],[36.12651200000001,55.182073800000005],[36.115594200000004,55.1849882],[36.113320800000004,55.19563000000001],[36.106791,55.204877399999994],[36.09715200000001,55.2076649],[36.103750600000005,55.2108536],[36.109337700000005,55.208868100000004],[36.113575600000004,55.2100824],[36.09567290000001,55.2142822],[36.0935645,55.20993910000001],[36.084375900000005,55.2105611],[36.0731893,55.218766800000004],[36.065994700000005,55.21543880000001],[36.061485499999996,55.217444799999996],[36.04865290000001,55.215264],[36.0454946,55.2176108],[36.0477986,55.2226664],[36.043832300000005,55.223942400000006],[36.0453665,55.22644220000001],[36.0386649,55.227703000000005],[36.020911000000005,55.22043670000001],[36.022026100000005,55.2143613],[36.0073201,55.2195245],[35.998765600000006,55.220074700000005],[35.995983200000005,55.217516800000006],[35.9857094,55.22295230000002],[35.9723376,55.236971100000005],[35.9588793,55.2417997],[35.94988939999999,55.239371500000004],[35.9439786,55.23345210000001],[35.9305037,55.23241860000001],[35.921950100000004,55.239766200000005],[35.90189039999999,55.240554200000005],[35.9005887,55.24552290000001],[35.888598200000004,55.2478985],[35.886623799999995,55.238095400000006],[35.8603866,55.239271],[35.861134,55.2371215],[35.8428331,55.23231480000001],[35.81442669999999,55.246011100000004],[35.8185619,55.2530584],[35.817676199999994,55.2576027],[35.8267411,55.254675],[35.82891130000001,55.262209000000006],[35.8244521,55.2648768],[35.8083211,55.2619473],[35.79547660000001,55.2644735],[35.793411500000005,55.2611045],[35.775794600000005,55.273357000000004],[35.770514600000006,55.273452000000006],[35.7645904,55.2788685],[35.766965400000004,55.281722800000004],[35.76200130000001,55.286906300000005],[35.7485294,55.294715900000014],[35.741156100000005,55.29557770000001],[35.72423520000001,55.285228000000004],[35.721289,55.282608700000004],[35.72241660000001,55.279400100000004],[35.718431,55.2794779],[35.716352500000006,55.28557330000001],[35.7067615,55.29090360000001],[35.6634794,55.27833760000001],[35.642689,55.284686799999996],[35.6368902,55.28951680000001],[35.632717400000004,55.28675890000001],[35.6163315,55.28825320000001],[35.6160756,55.292077000000006],[35.6100763,55.29566930000001],[35.599991,55.289703900000006],[35.5730798,55.290266900000006],[35.575860999999996,55.286683999999994],[35.5748567,55.280911],[35.5606366,55.275854900000006],[35.5768354,55.269049300000006],[35.5764925,55.26224570000001],[35.5606456,55.2504208],[35.535004300000004,55.2583874],[35.503815100000004,55.255296200000004],[35.496959800000006,55.2500285],[35.50823230000001,55.240189],[35.481539,55.23991900000001],[35.4815489,55.237455000000004],[35.460824699999996,55.23594010000001],[35.4462712,55.22901310000001],[35.422191000000005,55.2317244],[35.4184993,55.22870570000001],[35.40853260000001,55.2375461],[35.3961473,55.234589],[35.3823235,55.23812690000001],[35.3732362,55.2442606],[35.3621294,55.242929000000004],[35.356605599999995,55.2492616],[35.359538900000004,55.25922],[35.35088619999999,55.2690624],[35.34306039999999,55.27305870000001],[35.329810200000004,55.2708613],[35.325293200000004,55.2575609],[35.3208928,55.254089699999994],[35.29734620000001,55.2534918],[35.29559770000001,55.2500037],[35.308391,55.23913880000001],[35.323486499999994,55.2427441],[35.32395270000001,55.238989200000006],[35.342516100000005,55.233721800000005],[35.334443799999995,55.230581],[35.3311799,55.22660890000001],[35.3363671,55.2234675],[35.329098200000004,55.2198819],[35.3329104,55.2168961],[35.3301079,55.2138278],[35.3452124,55.205879800000005],[35.338350500000004,55.19943560000001],[35.3266254,55.197824399999995],[35.321576900000004,55.2010115],[35.3123853,55.1970849],[35.3039367,55.18591020000001],[35.280357,55.17874530000001],[35.279018400000005,55.175260300000005],[35.2896925,55.1623844],[35.2844585,55.1482797],[35.2872197,55.1476909],[35.275201200000005,55.13654830000001],[35.279528500000005,55.13505230000001],[35.27655320000001,55.127056200000006],[35.27291390000001,55.12659370000001],[35.2756046,55.12383080000001],[35.2732291,55.1162052],[35.2768281,55.11545520000001],[35.275851900000006,55.1126217],[35.25515260000001,55.1115225],[35.2560748,55.1059871],[35.2475905,55.099246],[35.249007,55.0976279],[35.24571310000001,55.0960042],[35.254231,55.093416000000005],[35.253731300000005,55.0913394],[35.2316633,55.09220210000001],[35.2211974,55.083237399999994],[35.224213500000005,55.080777],[35.2232664,55.0709421],[35.211697099999995,55.075839],[35.208554500000005,55.0740394],[35.2129211,55.069590500000004],[35.2067284,55.06523520000001],[35.20892860000001,55.06255680000001],[35.19453260000001,55.0606542],[35.19950610000001,55.054854299999995],[35.194075700000006,55.05384419999999],[35.192853400000004,55.057093599999995],[35.1835813,55.0593147],[35.1824591,55.05486499999999],[35.1875737,55.0497166],[35.16673730000001,55.051836699999996],[35.1570039,55.0469619],[35.162063,55.0434067],[35.15460649999999,55.0422531],[35.1553734,55.0370593],[35.1484945,55.03630880000001],[35.1339673,55.0432887],[35.130543200000005,55.0422451],[35.13261220000001,55.0392144],[35.121456200000004,55.043149],[35.114697299999996,55.037646699999996],[35.12357800000001,55.023442100000004],[35.119187,55.022766000000004],[35.117465499999994,55.0169778],[35.10164639999999,55.0141561],[35.09990820000001,55.0094793],[35.1065764,55.006793300000005],[35.1107237,55.0110199],[35.1156291,55.010803499999994],[35.126777700000005,55.0048573],[35.10510670000001,54.9974026],[35.1098735,54.992786100000004],[35.1214085,54.993030600000004],[35.1147711,54.98253020000001],[35.1242912,54.9774926],[35.12379670000001,54.9750446],[35.1011296,54.9715319],[35.092955300000014,54.9761213],[35.0894338,54.9729472],[35.081478,54.973198100000005],[35.081800699999995,54.9697619],[35.075858100000005,54.9671986],[35.0714133,54.970802],[35.0526018,54.970272800000004],[35.049263499999995,54.9686286],[35.0535291,54.9640862],[35.0521896,54.960383300000004],[35.030923900000005,54.9585613],[35.034159100000004,54.9524202],[35.043905900000006,54.950230999999995],[35.0435144,54.945520800000004],[35.0364258,54.9454143],[35.02871900000001,54.940739],[35.0131611,54.9454498],[35.0065465,54.9426802],[35.010443499999994,54.9360769],[35.021663999999994,54.9331604],[35.0234031,54.9254245],[35.018293,54.9234619],[35.005267399999994,54.926167],[34.999684099999996,54.92203890000001],[35.001096399999994,54.9156905],[34.9728068,54.9122242],[34.9796224,54.9037961],[34.990610800000006,54.8994933],[34.98308459999999,54.89391390000001],[34.9537786,54.8946062],[34.952774,54.903322],[34.94086769999999,54.911622799999996],[34.9438103,54.920561],[34.9240661,54.92654530000001],[34.9163517,54.934924699999996],[34.9098177,54.9330755],[34.9046367,54.926913500000005],[34.923574300000006,54.9126943],[34.90786939999999,54.901249699999994],[34.899556100000005,54.90484139999999],[34.89379890000001,54.9011366],[34.86893920000001,54.9026622],[34.872815700000004,54.9013019],[34.8678752,54.8937291],[34.8702711,54.893187399999995],[34.8629677,54.890621599999996],[34.8759573,54.88682449999999],[34.874992999999996,54.881989299999994],[34.8805803,54.8759062],[34.8715889,54.868009300000004],[34.87786949999999,54.853397199999996],[34.876071499999995,54.85192949999999],[34.88780119999999,54.8473453],[34.8789484,54.84114709999999],[34.8850467,54.830299],[34.8798558,54.825539400000004],[34.8850194,54.81745169999999],[34.8953636,54.822208200000006],[34.8994499,54.817039799999996],[34.888350700000004,54.8091666],[34.892672600000004,54.8015701],[34.9002354,54.801840299999995],[34.904557399999995,54.793872400000005],[34.9084738,54.79319720000001],[34.903477099999996,54.7910364],[34.905368,54.7875251],[34.9242748,54.7896862],[34.9284617,54.78371030000001],[34.903479999999995,54.77800690000001],[34.907529499999995,54.7719268],[34.9067194,54.767740200000006],[34.89915690000001,54.7615278],[34.89373560000001,54.7575312],[34.871430399999994,54.753879399999995],[34.866458800000004,54.74545200000001],[34.8673824,54.736434900000006],[34.8326011,54.72201050000001],[34.8340506,54.7152276],[34.8292561,54.711938700000005],[34.8335385,54.7069935],[34.826694499999995,54.70310800000001],[34.8243424,54.69711390000001],[34.814409299999994,54.69355130000001],[34.811062799999995,54.69959570000001],[34.789936100000006,54.707520800000005],[34.773456100000004,54.709909800000005],[34.77147,54.7054872],[34.7587886,54.70503830000001],[34.73412090000001,54.7111591],[34.7063374,54.711552600000005],[34.7034242,54.7066213],[34.705685700000004,54.697672600000004],[34.70275010000001,54.6944706],[34.7023865,54.6824684],[34.69611240000001,54.682403],[34.6846161,54.67457590000001],[34.6776868,54.6745394],[34.669630100000006,54.679804],[34.63571190000001,54.669083300000004],[34.6318882,54.66229010000001],[34.6258575,54.6606499],[34.608092500000005,54.6648413],[34.605067,54.67313860000001],[34.5870513,54.683530700000006],[34.58271020000001,54.678711400000005],[34.5682264,54.675419000000005],[34.542704,54.681138700000005],[34.5341205,54.671761499999995],[34.5129419,54.6768818],[34.5093296,54.6858272],[34.4991664,54.69133530000001],[34.475936000000004,54.69131250000001],[34.47525220000001,54.688383200000004],[34.4641299,54.6831074],[34.4474051,54.6798567],[34.441274699999994,54.679737700000004],[34.4415165,54.68513000000001],[34.4347981,54.6888726],[34.42057560000001,54.6912372],[34.406122100000005,54.688705500000005],[34.4028966,54.6806781],[34.4409978,54.678443900000005],[34.4644334,54.682852100000005],[34.473413900000004,54.6678573],[34.479893,54.6704472],[34.4831271,54.6644656],[34.4767565,54.6614366],[34.48124359999999,54.6585954],[34.5178703,54.660966],[34.518556100000005,54.648688],[34.512470900000004,54.646878],[34.5131484,54.63721230000001],[34.518973700000004,54.637374],[34.520689499999996,54.598645000000005],[34.48819230000001,54.597902000000005],[34.489350200000004,54.5784942],[34.45831270000001,54.5778148],[34.467255200000004,54.56552020000001],[34.4526583,54.5534083],[34.44704649999999,54.55235530000001],[34.4428747,54.545484699999996],[34.43507580000001,54.545137600000004],[34.44468199999999,54.51663739999999],[34.435542600000005,54.510293399999995],[34.4185262,54.51366939999999],[34.3103063,54.5156992],[34.3019792,54.5156373],[34.29371480000001,54.511384299999996],[34.285348400000004,54.5176322],[34.2724861,54.520822700000004],[34.252478800000006,54.521314800000006],[34.246946200000004,54.5149438],[34.2484632,54.512301900000004],[34.24275220000001,54.5081574],[34.22249570000001,54.5042197],[34.218301600000004,54.5083646],[34.1815837,54.520074],[34.17455330000001,54.5185235],[34.167301900000005,54.525920400000004],[34.16719200000001,54.530128500000004],[34.159061699999995,54.5334436],[34.1649946,54.5410928],[34.156424799999996,54.5468287],[34.1536781,54.5539657],[34.14032890000001,54.5550808],[34.134341,54.5646051],[34.1195237,54.5624854],[34.0798456,54.544279499999995],[34.077263699999996,54.5461915],[34.0780877,54.5587442],[34.06253250000001,54.566536000000006],[34.02870130000001,54.557374499999995],[34.003651,54.56801300000001],[33.98546749999999,54.57992230000001],[33.9627794,54.575655700000006],[33.96151590000001,54.582182800000005],[33.952122100000004,54.5844749],[33.9152058,54.5777572],[33.889752,54.555341],[33.86817190000001,54.558308600000004],[33.8586378,54.5732468],[33.8248682,54.567557900000004],[33.8258496,54.56193520000001],[33.8203079,54.5587219],[33.79259950000001,54.556947799999996],[33.771183300000004,54.573882499999996],[33.760831200000005,54.570819],[33.7606964,54.5648768],[33.7108022,54.545933100000006],[33.707800399999996,54.5347145],[33.69860870000001,54.5408219],[33.700108500000006,54.5365265],[33.694432000000006,54.5344387],[33.69525410000001,54.5147349],[33.649148000000004,54.507816399999996],[33.6596309,54.4934482],[33.64952890000001,54.4917048],[33.64428739999999,54.4818529],[33.6342315,54.4774135],[33.6706227,54.4696988],[33.6874533,54.47555290000001],[33.702964200000004,54.470097499999994],[33.7022245,54.4658842],[33.66153490000001,54.449375100000005],[33.65764759999999,54.4417463],[33.64311590000001,54.43413830000001],[33.6315946,54.441506499999996],[33.618792500000005,54.4445208],[33.616713000000004,54.44154939999999],[33.62675430000001,54.4317699],[33.63329,54.4294888],[33.62651660000001,54.4208473],[33.62943510000001,54.415273],[33.6374032,54.41068139999999],[33.631626399999995,54.4089535],[33.630675700000005,54.404561599999994],[33.63659330000001,54.4019031],[33.625387700000005,54.398163200000006],[33.59615500000001,54.39875120000001],[33.574333100000004,54.3947501],[33.59832080000001,54.38326599999999],[33.599509100000006,54.3767258],[33.603371200000005,54.3744763],[33.62915770000001,54.3708768],[33.6415756,54.351177899999996],[33.63824830000001,54.3485114],[33.646269499999995,54.3457408],[33.648819,54.34154439999999],[33.6599469,54.3401998],[33.6678656,54.33555930000001],[33.681639399999995,54.3359031],[33.6762742,54.3335602],[33.6898259,54.330013900000004],[33.685295,54.32651490000001],[33.68875190000001,54.32232220000001],[33.6815857,54.3117129],[33.6716625,54.305131800000005],[33.6877771,54.29533230000002],[33.6734986,54.287369],[33.64491230000001,54.29281510000001],[33.647349,54.28164459999999],[33.654326999999995,54.280532400000006],[33.6518181,54.269477],[33.6212038,54.26850710000001],[33.623094800000004,54.261720800000006],[33.6302879,54.2576702],[33.6033777,54.25888449999999],[33.60270260000001,54.25510310000001],[33.6076996,54.251996999999996],[33.6041887,54.2424084],[33.60959090000001,54.23859330000001],[33.62525670000001,54.236837900000005],[33.6113708,54.223627900000004],[33.62863430000001,54.2077684],[33.62093660000001,54.204257],[33.6337667,54.1964242],[33.633766900000005,54.1932843],[33.629445600000004,54.187206999999994],[33.617021099999995,54.185046],[33.6106739,54.1807243],[33.5986544,54.1836952],[33.5642171,54.175693],[33.558651,54.179861499999994],[33.568944300000005,54.164213800000006],[33.5628672,54.161478900000006],[33.559221199999996,54.1541861],[33.565298600000006,54.1499997],[33.55908649999999,54.1471635],[33.5728626,54.1239014],[33.5363994,54.12035570000001],[33.5238401,54.11333290000001],[33.523705400000004,54.105229900000005],[33.527039200000004,54.10273970000001],[33.562986300000006,54.106191300000006],[33.539188700000004,54.093206800000004],[33.5238495,54.08899590000001],[33.5120973,54.093549700000004],[33.506555000000006,54.0857486],[33.4946396,54.088716000000005],[33.484923099999996,54.09815550000001],[33.478599200000005,54.09560690000001],[33.4702307,54.097196800000006],[33.4693942,54.0859626],[33.4565839,54.08460469999999],[33.452550800000004,54.080725300000005],[33.453851699999994,54.076236],[33.450944899999996,54.0717868],[33.4571334,54.069071900000004],[33.4488576,54.0622271],[33.4538389,54.0600426],[33.4460002,54.0599518],[33.441596,54.05425399999999],[33.466200900000004,54.0496973],[33.4753241,54.0528209],[33.47953830000001,54.058829499999995],[33.4913895,54.058565200000004],[33.496073300000006,54.051438499999996],[33.49331320000001,54.0488247],[33.4947286,54.0458179],[33.501748,54.0390555],[33.5004419,54.0366525],[33.4711743,54.0345215],[33.4694419,54.02923320000001],[33.45866159999999,54.027775000000005],[33.4591637,54.0268678],[33.492699300000005,54.0334655],[33.4951075,54.02595780000001],[33.501915200000006,54.0272093],[33.502256200000005,54.0248887],[33.5099511,54.0241064],[33.505717700000005,54.0169587],[33.51611090000001,54.012185300000006],[33.5107936,54.00768159999999],[33.5210218,54.004438900000004],[33.515910500000004,54.00293520000001],[33.521148100000005,53.99820030000001],[33.5274685,54.001404199999996],[33.5230813,54.0027934],[33.53271370000001,54.007322300000006],[33.5266914,54.0102525],[33.5612149,54.01980939999999],[33.5713458,54.01991030000001],[33.582380900000004,54.02621810000001],[33.579107,54.0320948],[33.5891234,54.034031],[33.59874230000001,54.029557600000004],[33.598693700000005,54.0206374],[33.6124543,54.0216741],[33.6181204,54.02917730000001],[33.627704200000004,54.024822],[33.6272833,54.02009530000001],[33.641804699999994,54.020057200000004],[33.6419342,54.023443],[33.650303900000004,54.0217977],[33.6577346,54.0267144],[33.699825700000005,54.022729700000006],[33.70915050000001,54.024565200000005],[33.73035960000001,54.018359700000005],[33.74030870000001,54.0121826],[33.7464873,54.0042735],[33.745599600000006,54.000092900000006],[33.75231660000001,53.999703100000005],[33.750042,53.997543],[33.7658805,54.004892999999996],[33.767976100000006,54.0024591],[33.763821300000004,53.998947900000005],[33.79949810000001,53.991341399999996],[33.8163237,53.99168159999999],[33.8192588,53.98482729999999],[33.81362839999999,53.9754907],[33.7974975,53.965571800000006],[33.798494700000006,53.94968949999999],[33.805595200000006,53.9461706],[33.824030900000004,53.9496587],[33.8377336,53.9418112],[33.8365504,53.937825],[33.8198583,53.9403784],[33.80167169999999,53.9375754],[33.8006135,53.9237484],[33.8069673,53.90448729999999],[33.8062203,53.8963904],[33.8382346,53.88102239999999],[33.861404199999996,53.8785937],[33.88775,53.880462599999994],[33.8882486,53.8720543],[33.8979648,53.872210200000005],[33.9115428,53.867227699999994],[33.92512060000001,53.868099900000004],[33.9314732,53.874328399999996],[33.9614167,53.87447649999999],[33.961712600000006,53.880548],[33.9884431,53.883859699999995],[34.0031073,53.880898499999994],[34.0038409,53.8762929],[34.011801999999996,53.869516000000004],[34.002403300000005,53.85962159999999],[34.04570270000001,53.86212030000001],[34.046381399999994,53.869391900000004],[34.0607834,53.8676101],[34.0886451,53.87198339999999],[34.087128,53.8769011],[34.10654290000001,53.88170099999999],[34.11084749999999,53.89211490000001],[34.1148143,53.886893799999996],[34.1324246,53.886969699999995],[34.158227399999994,53.893466599999996],[34.17878890000001,53.902786],[34.1806203,53.900824199999995],[34.2011817,53.912152400000004],[34.2249897,53.88600949999999],[34.232981200000005,53.8673611],[34.227645,53.8394325],[34.231982300000006,53.8356887],[34.2425864,53.83533030000001],[34.25335830000001,53.8302933],[34.26901580000001,53.831127099999996],[34.2714881,53.8264371],[34.265307500000006,53.8221635],[34.2641891,53.8139973],[34.2708406,53.8224067],[34.285144300000006,53.8284868],[34.29179580000001,53.8259854],[34.29921250000001,53.81083459999999],[34.30745339999999,53.8071851],[34.307983099999994,53.8013104],[34.3214039,53.79991990000001],[34.3215216,53.793209700000006],[34.33788549999999,53.7838902],[34.3559564,53.7678892],[34.3490125,53.750961499999995],[34.35672159999999,53.741752700000006],[34.35783999999999,53.73579930000001],[34.3692006,53.73214320000001],[34.407544099999996,53.734498200000004],[34.4219715,53.7173686],[34.42768449999999,53.715523700000006],[34.4254802,53.70854510000001],[34.421919300000006,53.709610500000004],[34.4161018,53.70551860000001],[34.42168449999999,53.70297830000001],[34.4166366,53.7026771],[34.417171399999994,53.7006618],[34.4254541,53.693727],[34.4297846,53.6962447],[34.4432586,53.6843269],[34.4407803,53.683067699999995],[34.469776200000005,53.684589499999994],[34.4686284,53.67821610000001],[34.4763371,53.6760219],[34.473376200000004,53.6726144],[34.4882459,53.6742911],[34.490815500000004,53.6716562],[34.49579820000001,53.6740902],[34.50066339999999,53.6707406],[34.5006047,53.66731330000001],[34.49653820000001,53.66703290000001],[34.4966304,53.6632841],[34.4915208,53.6591742],[34.493162500000004,53.655435600000004],[34.4883849,53.6546922],[34.5006149,53.6480777],[34.4935868,53.647738700000005],[34.4973867,53.645770500000005],[34.489878999999995,53.639712300000014],[34.49507990000001,53.637043999999996],[34.4861662,53.6350375],[34.4865417,53.6378301],[34.4794346,53.63852130000001],[34.472592000000006,53.63577190000001],[34.4760904,53.626863900000004],[34.48991590000001,53.618053200000006],[34.512016100000004,53.6166935],[34.51308459999999,53.61201290000001],[34.5056692,53.606092100000005],[34.5119587,53.59401830000001],[34.50879220000001,53.593686399999996],[34.5185848,53.59208290000001],[34.51904139999999,53.58825830000001],[34.49757830000001,53.5830401],[34.5015467,53.5430761],[34.51769469999999,53.543981599999995],[34.529251300000006,53.5410828],[34.5206426,53.5406953],[34.52171210000001,53.533734100000004],[34.515473300000004,53.50837620000001],[34.5234821,53.498228700000006],[34.535430000000005,53.499718400000006],[34.5410388,53.496995000000005],[34.5475368,53.4869141],[34.5446537,53.4819172],[34.5550607,53.478418500000004],[34.5557394,53.47146959999999],[34.56853660000001,53.4704165],[34.565358900000014,53.4571937],[34.5548327,53.45463839999999],[34.56863280000001,53.447096099999996],[34.5652376,53.4371486],[34.57171230000001,53.428653600000004],[34.6060041,53.426675200000005],[34.60819930000001,53.42271810000001],[34.605698200000006,53.4133541],[34.6170981,53.4071691],[34.632388600000006,53.404167599999994],[34.638636500000004,53.398545000000006],[34.637942800000005,53.38316139999999],[34.7011476,53.37839890000001],[34.73357890000001,53.3833318],[34.7412379,53.380494299999995],[34.76730370000001,53.383915800000004],[34.781576900000005,53.3805439],[34.805130000000005,53.38626719999999],[34.809664999999995,53.3797385],[34.8325505,53.37748719999999],[34.8395713,53.378467699999995],[34.846631599999995,53.3863935],[34.86073830000001,53.3895721],[34.8604658,53.380769799999996],[34.865470900000005,53.3781854],[34.85779149999999,53.3755463],[34.86466849999999,53.370943499999996],[34.85989969999999,53.362124200000004],[34.86713030000001,53.36104739999999],[34.88253280000001,53.366662999999996],[34.88984069999999,53.361826699999995],[34.8781643,53.3586708],[34.86311890000001,53.3440021],[34.856399399999994,53.3428651],[34.8639094,53.34196409999999],[34.8712757,53.3476059],[34.87720469999999,53.3443024],[34.90646339999999,53.346195300000005],[34.902728,53.368253800000005],[34.8906767,53.3663941],[34.8991448,53.373252900000004],[34.905163300000005,53.3718509],[34.9160019,53.374992999999996],[34.9208511,53.3716763],[34.9301837,53.3714799],[34.9433273,53.3757619],[34.9629248,53.3764039],[34.98277290000001,53.373791],[34.9904481,53.3692683],[35.0016732,53.3699839],[35.0098967,53.3668038],[35.0102392,53.363314200000005],[35.023996800000006,53.361912000000004],[35.0190002,53.35487809999999],[35.02391010000001,53.35044779999999],[35.0196708,53.345183],[35.02514060000001,53.336883099999994],[35.066726300000006,53.3338143],[35.06651220000001,53.3249203],[35.08429449999999,53.3247968],[35.0789078,53.3206782],[35.079930700000006,53.317025599999994],[35.0745297,53.308815700000004],[35.07748769999999,53.3032179],[35.088958600000005,53.296024900000006],[35.107696399999995,53.2919441],[35.1366767,53.2797174],[35.1540798,53.2771835],[35.159952800000006,53.276999100000005],[35.158067499999994,53.2814409],[35.17910290000001,53.2822771],[35.17853610000001,53.285006],[35.1871473,53.28836890000001],[35.20200520000001,53.29097520000001],[35.19914830000001,53.28637870000001],[35.187199,53.281245999999996],[35.23838090000001,53.280351200000005],[35.2557236,53.289914200000005],[35.249071300000004,53.3157496],[35.23983390000001,53.3274709],[35.2668241,53.3191397],[35.306211499999996,53.3347658],[35.3788117,53.33427759999999],[35.3835638,53.3373935],[35.38416169999999,53.397573],[35.4140562,53.3975829],[35.41428899999999,53.40668459999999],[35.42610930000001,53.414184799999994],[35.45016699999999,53.4140088],[35.4637842,53.41811820000001],[35.465751600000004,53.4329066],[35.439237,53.43513000000001],[35.4364612,53.43728399999999],[35.443080699999996,53.440315700000006],[35.4402809,53.4442322],[35.478463399999995,53.4497738],[35.4802719,53.445975000000004],[35.52850210000001,53.4439652],[35.544012800000004,53.456840299999996],[35.5439379,53.44796939999999],[35.53333320000001,53.437879699999996],[35.5372821,53.4356008],[35.532565500000004,53.4357096],[35.5288261,53.4301854],[35.52207230000001,53.428809],[35.505039100000005,53.4316032],[35.5036366,53.4264991],[35.5002135,53.425499300000006],[35.501566,53.422196500000005],[35.5038972,53.422160600000005],[35.5020297,53.423703],[35.51261590000001,53.4247279],[35.5168347,53.42841030000001],[35.52235550000001,53.4261274],[35.5402112,53.434595900000005],[35.543579300000005,53.438590700000006],[35.5395845,53.4409579],[35.543543,53.44262749999999],[35.541254499999994,53.4440381],[35.5558054,53.4550936],[35.555996900000004,53.460940900000004],[35.5519707,53.465707900000005],[35.5545998,53.4673948],[35.5469256,53.4694572],[35.5522925,53.4736487],[35.5509793,53.47550290000001],[35.55676749999999,53.4764756],[35.5556426,53.4829504],[35.5597377,53.482681799999995],[35.5585682,53.4852549],[35.5670371,53.4869782],[35.5672349,53.489644199999994],[35.5758439,53.490393100000006],[35.5734281,53.49252500000001],[35.5793734,53.493349200000004],[35.5760585,53.49550930000001],[35.585553700000006,53.4982114],[35.5806785,53.49895870000001],[35.57857550000001,53.507676],[35.59610580000001,53.5188698],[35.623268200000005,53.5238573],[35.62545360000001,53.528564100000004],[35.6116128,53.526219700000006],[35.614041099999994,53.5324207],[35.6117767,53.5335656],[35.6234077,53.534905200000004],[35.62603260000001,53.5383094],[35.612016000000004,53.538584900000004],[35.685123100000006,53.545413700000005],[35.70011840000001,53.53012520000001],[35.684063599999995,53.5193354],[35.69841680000001,53.5208478],[35.70393080000001,53.5262886],[35.7112243,53.5187806],[35.7238666,53.52240200000001],[35.753405900000004,53.52232810000001],[35.772057100000005,53.5059516],[35.794963800000005,53.5247601],[35.794394600000004,53.53990230000001],[35.8091748,53.550661999999996],[35.8128408,53.5574313],[35.8091284,53.5642781],[35.823591,53.5734397],[35.82251810000001,53.587646799999995],[35.8326808,53.59111550000001],[35.8458992,53.5893116],[35.875331200000005,53.596265700000004],[35.878003,53.607289599999994],[35.8906384,53.6160032],[35.898226300000005,53.629188600000006],[35.9060492,53.632266300000005],[35.90911210000001,53.6406502],[35.9278267,53.640376800000006],[35.9309705,53.645813800000006],[35.92530420000001,53.652393700000005],[35.95447659999999,53.647132600000006],[35.9493936,53.638544200000005],[35.95853520000001,53.632488900000006],[35.9606372,53.62515550000001],[35.9911887,53.62627280000001],[35.996325500000005,53.63297520000001],[35.99593380000001,53.639872000000004],[35.99253900000001,53.64142],[35.999314000000005,53.6476007],[36.0032683,53.659762900000004],[36.033706800000004,53.6749813],[36.0488946,53.6796555],[36.0740036,53.681860799999995],[36.072385100000005,53.6931244],[36.079038700000005,53.69821540000001],[36.0864931,53.69803960000001],[36.0876502,53.702885300000005],[36.07988339999999,53.7026831],[36.0790916,53.69829360000001],[36.0707432,53.69950180000001],[36.0524225,53.7157624],[36.041009599999995,53.709509700000005],[36.0304254,53.71204290000001],[36.02957910000001,53.7184217],[36.038126600000005,53.72276830000001],[36.02875170000001,53.72616220000001],[36.0173228,53.726304400000004],[36.018025800000004,53.722096400000005],[36.009576900000006,53.72493060000001],[35.999686399999995,53.72099880000001],[35.9745751,53.7237845],[35.9632492,53.715867599999996],[35.9584907,53.718472600000005],[35.957933499999996,53.728030900000014],[35.954400899999996,53.733239700000006],[35.957132300000005,53.7441249],[35.95402179999999,53.74721520000001],[35.959043599999994,53.749455600000005],[35.9584212,53.751862599999995],[35.9334505,53.7527847],[35.9348727,53.758832500000004],[35.922945600000006,53.763144000000004],[35.91735,53.77697560000001],[35.9314589,53.7895407],[35.933388900000004,53.78751090000001],[35.9412223,53.79047510000001],[35.94926459999999,53.78371080000001],[35.9698036,53.79703870000001],[35.973196900000005,53.800197],[35.961440399999994,53.8073068],[35.972824599999996,53.8163851],[35.9651447,53.824244199999995],[35.93815080000001,53.8274195],[35.92555350000001,53.83271220000001],[35.925447399999996,53.837581699999994],[35.9186724,53.8400163],[35.900676499999996,53.8408629],[35.898555400000006,53.8501821],[35.9019221,53.8481611],[35.90530510000001,53.855216399999996],[35.9179583,53.85164959999999],[35.9326892,53.8541951],[35.9406008,53.850628199999996],[35.9697575,53.852568399999996],[36.0007616,53.872673999999996],[35.9974088,53.881957099999994],[35.98865,53.8841554],[35.9875199,53.8902946],[35.98162419999999,53.8943461],[35.9875387,53.897553800000004],[35.982555700000006,53.9013581],[35.985100200000005,53.904718300000006],[35.983555100000004,53.9081472],[36.0099413,53.9163279],[36.0160681,53.92221090000001],[36.035567300000004,53.9239834],[36.0322375,53.9306966],[36.0240862,53.9346173],[36.0360734,53.93833380000001],[36.036276,53.941800699999995],[36.0558595,53.94635290000001],[36.057023799999996,53.9495287],[36.0537421,53.9503755],[36.0482376,53.948258200000005],[36.0471787,53.95587999999999],[36.0637806,53.956695399999994],[36.0660212,53.9612791],[36.077030300000004,53.962126100000006],[36.08571090000001,53.958209499999995],[36.094391200000004,53.9592682],[36.1107994,53.95386969999999],[36.1145049,53.943178100000004],[36.12011550000001,53.9385204],[36.122444200000004,53.942596],[36.1319714,53.9437606],[36.14128699999999,53.9403732],[36.140334,53.947995],[36.156773900000005,53.95623749999999],[36.1454144,53.9644031],[36.12837130000001,53.964773300000004],[36.12455980000001,53.9780056],[36.127412400000004,53.980920499999996],[36.1161375,53.9858469],[36.0934692,53.9873392],[36.09797230000001,54.005675100000005],[36.12373240000001,54.01046049999999],[36.1196218,54.018787599999996],[36.1315486,54.02218320000001],[36.127986,54.0269897],[36.134328200000006,54.028438400000006],[36.126929000000004,54.0335661],[36.139769900000005,54.037359800000004],[36.14525080000001,54.0423254],[36.1360899,54.0466239],[36.141061799999996,54.05034739999999],[36.155547,54.054759999999995],[36.1804067,54.053289199999995],[36.190224900000004,54.0557341],[36.19258210000001,54.05783939999999],[36.1882365,54.063445900000005],[36.2042485,54.0591032],[36.2142707,54.062802600000005],[36.2113345,54.065835400000005],[36.2190078,54.069970600000005],[36.20800690000001,54.073002900000006],[36.2171286,54.089148300000005],[36.209886,54.08969939999999],[36.209181300000004,54.0930976],[36.1796237,54.0902964],[36.1806025,54.0978041],[36.1766571,54.1026548],[36.14384139999999,54.100466999999995],[36.13655970000001,54.097069399999995],[36.131861799999996,54.089676399999995],[36.12677240000001,54.089676399999995],[36.1190065,54.09976030000001],[36.1070407,54.097931700000004],[36.105774200000006,54.1019679],[36.1002931,54.10203280000001],[36.1005145,54.108882],[36.087393,54.1049868],[36.071835300000004,54.1068371],[36.0727765,54.1106346],[36.06773830000001,54.1162167],[36.0710602,54.11845590000001],[36.105774200000006,54.11881280000001],[36.107795,54.109855700000004],[36.1120305,54.1079731],[36.1275604,54.116719700000004],[36.128003400000004,54.12353400000001],[36.142315300000014,54.1258214],[36.1398792,54.129163000000005],[36.143505600000005,54.133526200000006],[36.130273300000006,54.138051100000006],[36.1317405,54.143921399999996],[36.109982,54.143759300000006],[36.0730142,54.1279884],[36.066702600000006,54.1290914],[36.069470800000005,54.133373500000005],[36.073650900000004,54.1332924],[36.0778033,54.14053510000001],[36.0886549,54.144913300000006],[36.074702900000005,54.1554516],[36.0654015,54.1579155],[36.0611668,54.1529767],[36.05480359999999,54.154891199999994],[36.060819200000005,54.1580255],[36.02571060000001,54.172097300000004],[36.0184765,54.17850850000001],[35.98782909999999,54.16425280000001],[35.9771216,54.16913950000001],[35.9711598,54.167340900000006],[35.9658833,54.1610276],[35.96311510000001,54.16232430000001],[35.961311200000004,54.17074830000001],[35.971621799999994,54.16790280000001],[35.96493830000001,54.1743974],[35.96942,54.17659520000001],[35.96893550000001,54.1806538],[35.978141300000004,54.1790942],[35.983289299999996,54.1835424],[35.98086669999999,54.19241950000001],[35.99073870000001,54.1952896],[36.0081812,54.190966700000004],[36.00784709999999,54.195871800000006],[36.020294,54.195201000000004],[36.02092290000001,54.197520700000005],[36.0294411,54.1996255],[36.0124808,54.1906686],[36.012314700000005,54.187785399999996],[36.0349591,54.171973200000004],[36.0515687,54.1803013],[36.0608147,54.1815002],[36.063029300000004,54.175149100000006],[36.092206700000006,54.18188899999999],[36.108594800000006,54.179977300000004],[36.10870560000001,54.18571200000001],[36.11551550000001,54.18545290000001],[36.12055370000001,54.17881080000001],[36.140928100000004,54.177125800000006],[36.1497866,54.16892670000001],[36.174258,54.1736584],[36.19701310000001,54.156770900000005],[36.2058666,54.1558685],[36.21633560000001,54.16639860000001],[36.2386478,54.175019500000005],[36.2426976,54.1821994],[36.23515980000001,54.1872023],[36.244117100000004,54.19829120000001],[36.2492848,54.19959660000001],[36.24861930000001,54.20932830000001],[36.2419639,54.2118238],[36.2419248,54.21553250000001],[36.26071540000001,54.21861930000001],[36.26303910000001,54.20917000000001],[36.26371420000001,54.225180400000006],[36.267337100000006,54.22485230000001],[36.26851170000001,54.220848000000004],[36.2899742,54.2196443],[36.29181260000001,54.2133418],[36.301919999999996,54.2126608],[36.3121925,54.22195430000001],[36.3041208,54.22871520000002],[36.30388419999999,54.23390570000001],[36.3129399,54.23338580000001],[36.323041499999995,54.22083890000001],[36.330509,54.220423000000004],[36.3362763,54.21335220000001],[36.339735000000005,54.214317300000005],[36.3372222,54.211902800000004],[36.3432117,54.214167499999995],[36.362531100000005,54.2111634],[36.3664954,54.206408],[36.377138800000004,54.202666],[36.3815253,54.20635980000001],[36.377812999999996,54.21073090000001],[36.3930566,54.2178388],[36.3915454,54.224283],[36.424562200000004,54.2188761],[36.42484149999999,54.21549530000001],[36.4337281,54.2164462],[36.4360442,54.2173298],[36.4301636,54.224023700000004],[36.430426399999995,54.23007320000001],[36.453275399999995,54.233760100000005],[36.4467542,54.2390594],[36.4839762,54.2472279],[36.504607699999994,54.2474007],[36.505199000000005,54.25531800000001],[36.4922715,54.2573619],[36.476272300000005,54.27227030000001],[36.4745147,54.276298700000005],[36.4767487,54.27837990000001],[36.4717551,54.284268],[36.486285699999996,54.288287],[36.5450613,54.27971990000001],[36.554614099999995,54.283472200000006],[36.55085759999999,54.288246900000004],[36.55701749999999,54.289979800000005],[36.5620868,54.28512280000001],[36.588154200000005,54.2809698],[36.5894498,54.2768633],[36.6142528,54.28631500000001],[36.64156,54.2870145],[36.648203300000006,54.279617900000005],[36.679754,54.29033190000001],[36.6732276,54.293488700000005],[36.6716771,54.3019162],[36.67557130000001,54.3084487],[36.6856135,54.3092902],[36.6907404,54.3031318],[36.7002692,54.29935260000001],[36.6978007,54.294038400000005],[36.715711000000006,54.2880832],[36.7120631,54.28217510000001],[36.7148333,54.2774833],[36.73052200000001,54.285921800000004],[36.73825670000001,54.2824473],[36.7568527,54.2830878],[36.767961,54.27945290000001],[36.767659200000004,54.275941],[36.7708859,54.274934300000005],[36.7891854,54.2773444],[36.794895100000005,54.26830620000001],[36.79881720000001,54.26707290000001],[36.8016149,54.2736077],[36.8124489,54.2718299],[36.81886699999999,54.278940500000004],[36.83389739999999,54.279549],[36.840507499999994,54.2869945],[36.84544449999999,54.2880832],[36.8493118,54.28451280000001],[36.86511020000001,54.28653020000001],[36.884254799999994,54.27921280000001],[36.891824899999996,54.2860819],[36.9020006,54.2896041],[36.9668461,54.29165820000001],[36.97484099999999,54.29962810000001],[36.9714901,54.3010029],[36.972028900000005,54.306146399999996],[36.96518510000001,54.3049757],[36.9637637,54.3073027],[36.96893130000001,54.3094257],[36.9643544,54.3197538],[36.96977890000001,54.3317325],[36.9495085,54.3337212],[36.9405926,54.33984709999999],[36.945878900000004,54.342117300000005],[36.9311418,54.3429833],[36.94009,54.347258399999994],[36.9373849,54.3506399],[36.9478328,54.352658399999996],[36.95436419999999,54.359108],[36.952184499999994,54.36243580000001],[36.95964099999999,54.3635877],[36.984221999999995,54.3884198],[36.981979599999995,54.3939639],[36.9685934,54.4026237],[36.97178439999999,54.4063015],[36.9585281,54.4190104],[36.9720748,54.42936590000001],[36.9428351,54.43513600000001],[36.94145949999999,54.4468809],[36.9132583,54.441253999999994],[36.89188409999999,54.4276549],[36.881350399999995,54.434093],[36.8762924,54.4472359],[36.87988739999999,54.4482258],[36.880130300000005,54.4534318],[36.8881394,54.4555263],[36.8905212,54.46055570000001],[36.88045339999999,54.4636125],[36.8774148,54.46992530000001],[36.866472200000004,54.469871399999995],[36.857100599999995,54.4794633],[36.8818187,54.4851877],[36.870824999999996,54.4934575],[36.8772193,54.5028822],[36.8748313,54.50484699999999],[36.8927466,54.5063649],[36.903803399999994,54.5113206],[36.91576,54.506303100000004],[36.9234246,54.50971080000001],[36.933526900000004,54.5064682],[36.9419259,54.509750100000005],[36.9375228,54.5165681],[36.9445396,54.5207447],[36.9374119,54.5238717],[36.94328039999999,54.52559200000001],[36.94168609999999,54.5268246],[36.950587899999995,54.52615060000001],[36.9461861,54.522473600000005],[36.9494118,54.521268],[36.957812999999994,54.524860999999994],[36.9618758,54.522083900000005],[36.960317700000004,54.52803530000001],[36.9489241,54.5301715],[36.942882,54.52801580000001],[36.9277427,54.533611],[36.934261299999996,54.5371924],[36.9136528,54.545568900000006],[36.9179155,54.5492661],[36.9273495,54.5475003],[36.9292854,54.5495856],[36.8949683,54.563494],[36.8988666,54.568121000000005],[36.907531,54.5708643],[36.9045125,54.5729876],[36.908323200000005,54.5800669],[36.914782499999994,54.5794688],[36.920726900000005,54.5894949],[36.9435287,54.5919863],[36.9434973,54.596205000000005],[36.951594799999995,54.600514100000005],[36.982415700000004,54.60535000000001],[36.990999800000004,54.6027867],[36.9935891,54.597696],[37.00029,54.5992414],[37.0045202,54.591671],[37.027094399999996,54.59379930000001],[37.02594620000001,54.59023990000001],[37.0315878,54.58575570000001],[37.0510107,54.5898384],[37.057545999999995,54.582345800000006],[37.049998800000004,54.5745095],[37.0513199,54.5713241],[37.0615656,54.567372600000006],[37.057672499999995,54.56050320000001],[37.06295690000001,54.5585881],[37.0617916,54.55602],[37.06612390000001,54.5524186],[37.0730489,54.5526653],[37.0766092,54.5455278],[37.12203260000001,54.550900399999996],[37.1271824,54.55388709999999],[37.141602,54.567225],[37.1491436,54.588779900000006],[37.1476387,54.606394800000004],[37.151212300000005,54.6128803],[37.192651100000006,54.635078500000006],[37.1984876,54.6413995],[37.2040867,54.6644396],[37.2123265,54.67913080000001],[37.246346,54.709029300000005],[37.23312810000001,54.717953900000005],[37.206920700000005,54.72214040000001],[37.195404800000006,54.7328248],[37.210351800000005,54.7412124],[37.20611060000001,54.7449993],[37.24150890000001,54.7570639],[37.243180800000005,54.7684672],[37.22883050000001,54.8033962],[37.2418802,54.819443199999995],[37.2548239,54.827555700000005],[37.27543030000001,54.8473298],[37.25679290000001,54.8508321],[37.2326564,54.8453915],[37.22898320000001,54.8486785],[37.23333420000001,54.850707099999994],[37.226637200000006,54.84988449999999],[37.22393300000001,54.8532033],[37.21845580000001,54.8496159],[37.20973990000001,54.85346159999999],[37.203819200000005,54.8487832],[37.196688300000005,54.851374699999994],[37.2014346,54.8523463],[37.19570580000001,54.85762389999999],[37.190340500000005,54.8558193],[37.185275000000004,54.861188399999996],[37.165544800000006,54.8665854],[37.175774100000005,54.8785446],[37.16870050000001,54.8799177],[37.174152400000004,54.88951290000001],[37.16715010000001,54.89510870000001],[37.17573870000001,54.9028047],[37.177004499999995,54.9088499],[37.192994500000005,54.923255600000005],[37.171474599999996,54.9383842],[37.173903900000006,54.940370200000004],[37.1668941,54.946297599999994],[37.1676141,54.9492957],[37.160496200000004,54.95044419999999],[37.16874080000001,54.95608699999999],[37.1577291,54.957976699999996],[37.1612696,54.965072600000006],[37.16772830000001,54.965060300000005],[37.16212790000001,54.959763099999996],[37.169917000000005,54.9573483],[37.1736077,54.960194300000005],[37.1717409,54.96815210000001],[37.1466764,54.981413999999994],[37.154269299999996,54.9850999],[37.1342978,54.9913977],[37.156643499999994,55.0004043],[37.149899399999995,55.000159100000005],[37.12231760000001,55.02330210000001],[37.113193,55.02351080000001],[37.0958678,55.032408600000004],[37.096805200000006,55.0442306],[37.0838062,55.05655],[37.11815880000001,55.063487599999995],[37.1119883,55.068259600000005],[37.120381900000005,55.073933000000004],[37.1117519,55.0765405],[37.1105718,55.080776900000004],[37.1113145,55.08748679999999],[37.117147499999994,55.093351600000005],[37.116322200000006,55.098063],[37.1077194,55.099727800000004],[37.09869200000001,55.097106000000004],[37.095221,55.10339630000001],[37.09830010000001,55.1054495],[37.096917600000005,55.1084304],[37.0708249,55.114444899999995],[37.055379800000004,55.1104579],[37.05188389999999,55.11317290000001],[37.0528711,55.11789339999999],[37.057397699999996,55.12292820000001],[37.0550534,55.1247662],[37.060613000000004,55.127078600000004],[37.04235370000001,55.1338897],[37.045631900000004,55.1421745]]]}}