{"type":"Feature","properties":{"regionId":"karachaevo_cherkesskaya_respublika","name":"Карачаево-Черкесия","name:en":"Karachay-Cherkessia","timezone":"Europe/Moscow","name_ru":"Карачаево-Черкесская Республика","name_en":"Karachay-Cherkessia","name_zh":"卡拉恰伊-切尔克斯共和国"},"geometry":{"type":"Polygon","coordinates":[[[42.4141195,43.2569668],[42.4060398,43.2480466],[42.388116800000006,43.243800300000004],[42.376019,43.2471264],[42.358203399999994,43.246849399999995],[42.3541137,43.2436373],[42.35022899999999,43.230349800000006],[42.34106349999999,43.22043130000001],[42.3209613,43.22099820000001],[42.314623299999994,43.218294300000004],[42.3066732,43.22334390000001],[42.29655420000001,43.216607599999996],[42.29523180000001,43.2109231],[42.252833100000004,43.212943200000005],[42.253321,43.219508700000006],[42.2480774,43.2276048],[42.2172167,43.23095670000001],[42.19695260000001,43.226858500000006],[42.19337820000001,43.2191594],[42.178397000000004,43.216222900000005],[42.164133500000005,43.223423000000004],[42.1484608,43.21768449999999],[42.1370278,43.2177995],[42.1290641,43.2096777],[42.1042268,43.2098885],[42.096712300000014,43.214462399999995],[42.075825,43.204329],[42.070323,43.197486],[42.0529,43.194419],[42.047867999999994,43.188257],[42.040998,43.187408999999995],[42.035492000000005,43.194517000000005],[42.034832,43.201262],[42.018162000000004,43.217788],[41.997803999999995,43.213356000000005],[41.986073499999996,43.21561570000001],[41.970575000000004,43.213186],[41.9545397,43.2046209],[41.950368,43.212957100000004],[41.9459477,43.214364599999996],[41.942296,43.225699000000006],[41.9039765,43.228437400000004],[41.8992987,43.23209580000001],[41.90230280000001,43.2362855],[41.8885688,43.24812830000001],[41.862926900000005,43.24267330000001],[41.8658451,43.233763],[41.85904409999999,43.22862510000001],[41.8545155,43.216157300000006],[41.848378600000004,43.21151270000001],[41.827303,43.214119000000004],[41.806502,43.20251300000001],[41.794567,43.2079347],[41.784882999999994,43.221676],[41.77315220000001,43.218256200000006],[41.745493,43.237071],[41.72849800000001,43.243226],[41.723497,43.241682],[41.7148319,43.23289990000001],[41.71455290000001,43.22858490000001],[41.700917000000004,43.21926],[41.684853999999994,43.217455],[41.678049,43.22695900000001],[41.660745500000004,43.2374134],[41.645006,43.230928000000006],[41.635237000000004,43.22223400000001],[41.619072,43.22230500000001],[41.605484,43.231466999999995],[41.5936,43.23615500000001],[41.588846,43.234733000000006],[41.576168,43.252813],[41.561690999999996,43.249394],[41.544456999999994,43.269693000000004],[41.515876,43.273821],[41.507875,43.276683999999996],[41.505660999999996,43.281855],[41.489022,43.286257],[41.461628999999995,43.308501],[41.438051,43.306549],[41.42259500000001,43.31404699999999],[41.413149,43.324282999999994],[41.415923,43.329609],[41.409812,43.332767],[41.413139,43.340038],[41.41079,43.344471999999996],[41.416331,43.35244399999999],[41.413135000000004,43.357094999999994],[41.393640999999995,43.366229],[41.373659999999994,43.366632],[41.365979900000006,43.3700669],[41.35784729999999,43.3588253],[41.3473505,43.35483189999999],[41.340785999999994,43.34748199999999],[41.3226916,43.3485924],[41.317975,43.339560999999996],[41.30228699999999,43.34088099999999],[41.288834,43.337033999999996],[41.27919880000001,43.345890999999995],[41.27753500000001,43.349824999999996],[41.27991920000001,43.352693699999996],[41.274832,43.360557],[41.257629699999995,43.3645568],[41.245324000000004,43.358433999999995],[41.239741800000004,43.361544699999996],[41.238601,43.367228],[41.228604700000005,43.37126439999999],[41.219206,43.38102599999999],[41.207227399999994,43.3800503],[41.181003999999994,43.386188999999995],[41.167984,43.383376999999996],[41.159052,43.3899],[41.155507,43.389172],[41.155228,43.398848],[41.151830999999994,43.403667999999996],[41.124617,43.398065],[41.11535800000001,43.399151],[41.106948200000005,43.4063807],[41.101926,43.4028001],[41.100468,43.399436],[41.103716000000006,43.393088999999996],[41.097691,43.385452],[41.080388,43.390829],[41.07366699999999,43.387552],[41.05367999999999,43.39691500000001],[41.046848,43.39533800000001],[41.03931500000001,43.399402],[41.036973,43.406978900000006],[41.014948999999994,43.419328],[41.0042948,43.43222230000001],[40.983310100000004,43.430339200000006],[40.981165,43.425941],[40.952346999999996,43.418161],[40.943504,43.424183],[40.932859,43.425875000000005],[40.926205,43.434105],[40.929268,43.443884999999995],[40.89291800000001,43.458422],[40.8994227,43.469489599999996],[40.890914800000004,43.4896102],[40.876599999999996,43.484987999999994],[40.838871399999995,43.4892988],[40.8278328,43.4879599],[40.8167142,43.494638300000005],[40.7773671,43.505354800000006],[40.76671870000001,43.513146],[40.76070390000001,43.5126104],[40.755833900000006,43.5199833],[40.74755290000001,43.521076300000004],[40.73953090000001,43.5268073],[40.7136025,43.532770600000006],[40.7168966,43.542144],[40.72585850000001,43.5480212],[40.7249795,43.5534987],[40.7291876,43.5591465],[40.72681530000001,43.5622447],[40.730643,43.572728500000004],[40.725369400000005,43.5765235],[40.72614530000001,43.5835901],[40.73235490000001,43.58853830000001],[40.73970070000001,43.589462499999996],[40.738189600000005,43.6004086],[40.74239730000001,43.6054304],[40.7256845,43.6174137],[40.722270400000006,43.62207590000001],[40.722889900000006,43.62777220000001],[40.71637210000001,43.63253480000001],[40.712417900000005,43.64592330000001],[40.69935630000001,43.6534429],[40.709309000000005,43.66078230000001],[40.706798600000006,43.6702304],[40.713542800000006,43.6730803],[40.716813800000004,43.67876270000001],[40.7128261,43.6858833],[40.692923500000006,43.69561360000001],[40.69600080000001,43.7038006],[40.6877232,43.7128134],[40.6754806,43.7154574],[40.690245100000006,43.726079500000004],[40.700717600000004,43.741241699999996],[40.71091570000001,43.73616890000001],[40.73230270000001,43.73865090000001],[40.7460754,43.7478161],[40.7577084,43.749776600000004],[40.74484749999999,43.771616200000004],[40.7419542,43.7826865],[40.73371080000001,43.785034800000005],[40.72280590000001,43.7948998],[40.73532600000001,43.805072300000006],[40.73916680000001,43.8136003],[40.7556627,43.829716700000006],[40.7529217,43.836755200000006],[40.75571510000001,43.84488129999999],[40.76298070000001,43.861427799999994],[40.76934030000001,43.868179000000005],[40.76577110000001,43.8722289],[40.77051020000001,43.8780194],[40.7859814,43.88000339999999],[40.7890906,43.89575560000001],[40.79951050000001,43.9025491],[40.8029719,43.91774159999999],[40.8342609,43.9210439],[40.840181099999995,43.9264281],[40.84102299999999,43.9333571],[40.8608261,43.94688039999999],[40.8771826,43.948087099999995],[40.8857488,43.94462339999999],[40.890207499999995,43.95448369999999],[40.900842499999996,43.960618200000006],[40.90053220000001,43.9652817],[40.91146499999999,43.9770609],[40.915119700000005,43.997725800000005],[40.92211020000001,44.0079639],[40.935458800000006,44.017352900000006],[40.9253014,44.023791200000005],[40.919053999999996,44.03814090000001],[40.9201275,44.05745639999999],[40.924002300000005,44.0618073],[40.922450500000004,44.0649854],[40.9268869,44.0680843],[40.920524300000004,44.071039],[40.920058700000006,44.0742724],[40.911523499999994,44.074857699999995],[40.91326939999999,44.080961499999994],[40.91066749999999,44.0836731],[40.926202700000005,44.090180600000004],[40.89124439999999,44.1038882],[40.8912762,44.142995400000004],[40.894294599999995,44.143030200000005],[40.894261699999994,44.13959200000001],[40.91412939999999,44.145296800000004],[40.95485349999999,44.14107],[41.031258900000005,44.112562700000005],[41.0356262,44.121109100000005],[41.03811810000001,44.12053520000001],[41.0615036,44.1126287],[41.0847882,44.09471280000001],[41.122556300000014,44.106523900000006],[41.11764899999999,44.1128627],[41.1214544,44.126023],[41.1245095,44.126257200000005],[41.152323800000005,44.117758200000004],[41.151275399999996,44.1136727],[41.155590700000005,44.1120577],[41.153660499999994,44.1089915],[41.16310280000001,44.109013700000006],[41.167460399999996,44.102948600000005],[41.16994570000001,44.1042649],[41.170304900000005,44.088684199999996],[41.2318005,44.0891304],[41.233854300000004,44.09873420000001],[41.24381830000001,44.094307900000004],[41.26402890000001,44.094959],[41.2833036,44.0846556],[41.291115900000015,44.085461599999995],[41.30147049999999,44.061718600000006],[41.2944868,44.0555372],[41.2878909,44.0584217],[41.2807441,44.0676407],[41.28339890000001,44.0700803],[41.2819927,44.073023],[41.2768736,44.0725801],[41.2780496,44.06935970000001],[41.272974500000004,44.0671944],[41.276534700000006,44.06607230000001],[41.2811918,44.0499762],[41.2738938,44.03821370000001],[41.265488500000004,44.03603530000001],[41.2579542,44.0292285],[41.256717200000004,44.022696200000006],[41.2501896,44.022004900000006],[41.252396100000006,44.0163549],[41.246592500000006,44.0099492],[41.2552669,44.0129621],[41.2570154,44.0107924],[41.2736208,44.01823290000001],[41.277815200000006,44.014288099999995],[41.2776561,44.004234],[41.2844767,44.001889799999994],[41.287238200000004,44.00295800000001],[41.2842011,44.0054649],[41.286242800000004,44.0138366],[41.296205400000005,44.008439100000004],[41.29514710000001,44.0168182],[41.301294799999994,44.021510500000005],[41.2978085,44.0127479],[41.3003924,44.0119957],[41.3047301,44.018885399999995],[41.3030651,44.01231280000001],[41.3063164,44.01231280000001],[41.3092371,44.015027499999995],[41.3074356,44.0219858],[41.3106551,44.020223900000005],[41.3203576,44.02838030000001],[41.3131591,44.015348800000005],[41.292763400000005,44.000815300000006],[41.29719310000001,44.0000606],[41.3132186,44.0076553],[41.3014362,44.0004143],[41.31049709999999,43.999557700000004],[41.3088072,43.99795230000001],[41.3150387,43.979784499999994],[41.36011880000001,43.977994499999994],[41.3501629,43.9932715],[41.35748179999999,43.9969881],[41.3579123,44.000828399999996],[41.3626955,43.9997576],[41.35444269999999,44.00942],[41.357955399999994,44.011387899999995],[41.372851499999996,44.0098397],[41.3686968,44.004881999999995],[41.3762527,44.003058100000004],[41.3785345,44.005256800000005],[41.3801743,43.9996034],[41.38918459999999,43.99661590000001],[41.3932809,43.98568749999999],[41.405262900000004,43.981144799999996],[41.41517210000001,43.9823371],[41.432290900000005,44.0004426],[41.444300999999996,44.003717],[41.4797499,44.0009256],[41.481951499999994,44.0090618],[41.477203599999996,44.0179191],[41.480239499999996,44.023647],[41.4777208,44.0414523],[41.48009449999999,44.0508933],[41.4842163,44.0545721],[41.4824772,44.0494364],[41.486748,44.046267699999994],[41.5215495,44.04726099999999],[41.5453686,44.0419827],[41.5457018,44.0582535],[41.5536037,44.0642852],[41.5521216,44.076976300000005],[41.55668489999999,44.08722159999999],[41.5507843,44.09615830000001],[41.5999994,44.112283999999995],[41.63766759999999,44.1174282],[41.6330937,44.123144700000005],[41.63521530000001,44.125775300000015],[41.6310233,44.126862100000004],[41.6349264,44.1299294],[41.64793590000001,44.124526],[41.65082039999999,44.132900400000004],[41.6617478,44.141745],[41.6646334,44.14831310000001],[41.67791570000001,44.1566398],[41.6773424,44.161241],[41.683131100000004,44.1676658],[41.69891170000001,44.171185200000004],[41.6996564,44.182968300000006],[41.7114032,44.1980714],[41.7090825,44.2042306],[41.7123614,44.2147773],[41.7191671,44.219181],[41.7192206,44.22295000000001],[41.72845920000001,44.23271490000001],[41.727856900000006,44.249298700000004],[41.739959600000006,44.2569068],[41.737652000000004,44.26238280000001],[41.743979700000004,44.26837720000001],[41.690496100000004,44.3334061],[41.592001,44.363556300000006],[41.597780300000004,44.3741208],[41.633695200000005,44.37789179999999],[41.62820180000001,44.40709639999999],[41.69390370000001,44.409880599999994],[41.697300600000005,44.4319921],[41.706222600000004,44.455178700000005],[41.72153850000001,44.455190800000004],[41.72510550000001,44.4596322],[41.73525120000001,44.4609574],[41.736078000000006,44.473664899999996],[41.7926696,44.4711851],[41.79439210000001,44.476224099999996],[41.802216,44.478717800000005],[41.8036188,44.4839341],[41.8645704,44.48716949999999],[41.865349200000004,44.4976366],[41.92457230000001,44.49611030000001],[41.9277849,44.4930773],[41.9213979,44.486764599999994],[41.9244239,44.4775564],[41.9292858,44.4732149],[41.922895800000006,44.4637435],[41.925246800000004,44.460191900000005],[41.92231790000001,44.4452421],[41.9268667,44.434993399999996],[41.9208206,44.409874499999994],[41.9347042,44.4005293],[41.978104900000005,44.388483199999996],[41.989477199999996,44.380357499999995],[42.0149829,44.37248739999999],[42.021492900000005,44.366584499999995],[42.0232681,44.3556722],[42.02965330000001,44.352749599999996],[42.214535100000006,44.351273799999994],[42.2396018,44.3372582],[42.286608900000004,44.3272735],[42.30129109999999,44.3285807],[42.3393534,44.31434149999999],[42.3413922,44.31088659999999],[42.4084443,44.308226],[42.407824899999994,44.32535250000001],[42.479036300000004,44.32503270000001],[42.495164800000005,44.347299899999996],[42.4946136,44.36424709999999],[42.51011520000001,44.3683345],[42.5534177,44.36831840000001],[42.5535809,44.352130200000005],[42.5817369,44.3431449],[42.58108119999999,44.3197321],[42.6085684,44.31184979999999],[42.610061599999995,44.269443],[42.55313530000001,44.26910600000001],[42.5520233,44.22379520000001],[42.50321580000001,44.2243835],[42.5032093,44.2150005],[42.4777633,44.21486649999999],[42.4674106,44.204252600000004],[42.4715209,44.193315100000014],[42.4488379,44.19717190000001],[42.440252300000004,44.20214130000001],[42.4411547,44.170092600000004],[42.3793683,44.1694297],[42.37868709999999,44.1534907],[42.3351649,44.13251250000001],[42.35160189999999,44.114091699999996],[42.3249777,44.0973714],[42.3221674,44.0821891],[42.3237826,44.074730300000006],[42.320218700000005,44.0649377],[42.29963550000001,44.05468239999999],[42.292978800000014,44.0399613],[42.3024513,44.0294499],[42.3167355,44.0307516],[42.3224348,44.0261846],[42.3302273,44.02713520000001],[42.3383046,44.02363690000001],[42.3485742,44.02823870000001],[42.350573399999995,44.036888],[42.35828409999999,44.037804099999995],[42.370381699999996,44.0040711],[42.367827199999994,44.000233],[42.38138769999999,43.996765700000005],[42.369612200000006,43.9897049],[42.3708726,43.987183699999996],[42.36760739999999,43.9840359],[42.376244799999995,43.972467099999996],[42.3965647,43.9728401],[42.4124663,43.9789471],[42.420475200000006,43.974796],[42.42811560000001,43.9771806],[42.4248982,43.9738512],[42.4278362,43.972811300000004],[42.4386657,43.9742531],[42.4433828,43.971409099999995],[42.443563,43.9741478],[42.4475387,43.97469759999999],[42.453149499999995,43.9698453],[42.45494749999999,43.97655280000001],[42.46331020000001,43.96801290000001],[42.467229599999996,43.969882],[42.4665564,43.9757048],[42.46891590000001,43.9762487],[42.478537200000005,43.9720986],[42.4802239,43.966421],[42.490828300000004,43.9671461],[42.495718900000014,43.9783145],[42.4797827,43.9828799],[42.4769935,43.992465900000006],[42.481796599999996,44.015738500000005],[42.5026366,44.02639690000001],[42.58456749999999,44.02637730000001],[42.580024599999994,44.018722800000006],[42.578141800000004,44.00213790000001],[42.579146,43.9733541],[42.58422959999999,43.9713324],[42.62491570000001,43.9735778],[42.6270611,43.951811299999996],[42.6198739,43.9530988],[42.617898499999995,43.945250200000004],[42.660201300000004,43.937435900000004],[42.66143590000001,43.934142800000004],[42.653482,43.928817800000004],[42.6471745,43.916275],[42.640156100000006,43.917482099999994],[42.63919320000001,43.89239020000001],[42.628037000000006,43.8908686],[42.6551447,43.856186099999995],[42.63953500000001,43.8460938],[42.6465194,43.827188],[42.66030190000001,43.81551880000001],[42.672121800000006,43.816005999999994],[42.6782891,43.809695],[42.66859970000001,43.8031977],[42.6665945,43.79244550000001],[42.66919310000001,43.76922530000001],[42.6795861,43.736830700000006],[42.681372800000005,43.7160462],[42.6755276,43.6978596],[42.665784800000004,43.70061990000001],[42.6501966,43.690877],[42.626651900000006,43.68178339999999],[42.6204816,43.676506],[42.6195075,43.670498],[42.596612400000005,43.6540973],[42.56803380000001,43.650362300000005],[42.56202590000001,43.646140300000006],[42.4560743,43.621092000000004],[42.4534763,43.616382900000005],[42.455587599999994,43.602743100000005],[42.4630573,43.58991520000001],[42.4604594,43.5845566],[42.4690657,43.572703000000004],[42.4679292,43.565801900000004],[42.4632203,43.563853300000005],[42.465818500000005,43.5586572],[42.464195000000004,43.545342000000005],[42.4744252,43.52991610000001],[42.4762116,43.5219595],[42.4713403,43.51871190000001],[42.46711870000001,43.5065334],[42.45786329999999,43.50085],[42.456239599999996,43.49695290000001],[42.4589437,43.491305600000004],[42.451452499999995,43.482379200000004],[42.4559668,43.471987199999994],[42.451548499999994,43.462872600000004],[42.457141299999996,43.454284399999985],[42.45629649999999,43.443380499999996],[42.42171230000001,43.4368165],[42.4191315,43.4301839],[42.4242513,43.42221800000001],[42.410198300000005,43.4131666],[42.417670099999995,43.4047951],[42.4028305,43.3928315],[42.403809499999994,43.3826919],[42.413297199999995,43.3731512],[42.411988599999994,43.3703243],[42.4155836,43.364786099999996],[42.4378759,43.3525468],[42.4154862,43.343129499999996],[42.409938800000006,43.3145093],[42.406569399999995,43.3122316],[42.403866699999995,43.3019722],[42.4002469,43.3009175],[42.39726749999999,43.29036990000001],[42.4160139,43.27471270000001],[42.412997399999995,43.2672935],[42.4141195,43.2569668]]]}}