{"type":"Feature","properties":{"regionId":"kemerovskaya_oblast","name":"Кемеровская область","name:en":"Kemerovo Oblast","timezone":"Asia/Novokuznetsk","name_ru":"Кемеровская область - Кузбасс","name_en":"Kemerovo Oblast","name_zh":"克麦罗沃州"},"geometry":{"type":"MultiPolygon","coordinates":[[[[86.81066470000002,53.3471298],[86.80595679999999,53.338558400000004],[86.78873109999998,53.3366753],[86.78489090000001,53.3336089],[86.75461010000001,53.3347458],[86.7517672,53.337557],[86.7543445,53.343886299999994],[86.7512353,53.3498057],[86.7595487,53.355400599999996],[86.81066470000002,53.3471298]]],[[[88.5980126,55.4324699],[88.6110287,55.4183405],[88.6110731,55.41429759999999],[88.59032060000001,55.4075547],[88.57190390000001,55.39631980000001],[88.5794992,55.387721199999994],[88.5752226,55.3852202],[88.57807149999998,55.3833406],[88.5630987,55.3717033],[88.556739,55.371903399999994],[88.5386425,55.3628591],[88.53611450000001,55.359561899999996],[88.5381798,55.3590009],[88.5339503,55.35756789999999],[88.53690350000001,55.355687999999994],[88.5334945,55.3484785],[88.53504179999999,55.3426334],[88.5056629,55.335330500000005],[88.50639579999999,55.329911900000006],[88.5038404,55.32851670000001],[88.4873025,55.329610900000006],[88.4859967,55.32411880000001],[88.4766121,55.31847139999999],[88.44140980000002,55.304842099999995],[88.44668910000001,55.2896779],[88.4325438,55.2818738],[88.43286520000001,55.276438000000006],[88.43990560000002,55.270923100000005],[88.43498550000001,55.269268800000006],[88.44162160000003,55.264053800000006],[88.4326879,55.26002590000001],[88.4331911,55.256772600000005],[88.44137440000002,55.2543735],[88.44626190000002,55.262592800000014],[88.45677079999999,55.259858900000005],[88.45409240000001,55.2572929],[88.45732740000001,55.2524717],[88.46702250000001,55.2514543],[88.4767102,55.2430345],[88.4880495,55.239229200000004],[88.4957033,55.2311646],[88.4948761,55.22743830000001],[88.4880856,55.229132200000016],[88.4788147,55.224285200000004],[88.48045809999999,55.22125390000001],[88.49496920000003,55.22261210000001],[88.49013260000001,55.212043200000004],[88.50278449999999,55.207991],[88.51001020000001,55.213393],[88.5139101,55.212754200000006],[88.51194500000001,55.207228300000004],[88.5189309,55.2008827],[88.5018793,55.192178100000014],[88.52575119999999,55.1767661],[88.5182498,55.16942],[88.51884799999999,55.163449],[88.50826440000002,55.159033900000004],[88.5201271,55.1564066],[88.5182983,55.1435574],[88.5398902,55.139770000000006],[88.545473,55.135092400000005],[88.5426015,55.131161],[88.54945370000002,55.12722230000001],[88.5493058,55.124149900000006],[88.560741,55.1190484],[88.55847509999998,55.1164203],[88.5619571,55.105334000000006],[88.5611518,55.0952474],[88.55947209999998,55.0891281],[88.5544415,55.0868305],[88.550186,55.0513386],[88.5378789,55.04151590000001],[88.5393082,55.0358883],[88.55656330000001,55.016891799999996],[88.54833909999999,55.003475],[88.56322320000002,54.998498500000004],[88.57429570000001,55.002228900000006],[88.5995408,55.0019857],[88.6045675,54.9927879],[88.60105229999999,54.9798148],[88.60918629999999,54.971265499999994],[88.60612940000001,54.9645881],[88.60818179999998,54.961648],[88.62599849999998,54.95766559999999],[88.635264,54.964496999999994],[88.65381029999999,54.96573230000001],[88.67277549999997,54.95215590000001],[88.67368189999999,54.9491114],[88.66542360000001,54.944230999999995],[88.67626440000001,54.936710100000006],[88.67680059999999,54.929746900000005],[88.6610248,54.92271060000001],[88.6598667,54.91464109999999],[88.654271,54.91156659999999],[88.6545972,54.904427999999996],[88.64752090000002,54.895368700000006],[88.6878342,54.875196200000005],[88.6872681,54.88138709999999],[88.6932519,54.8839196],[88.7320006,54.8929449],[88.74368820000001,54.888913300000006],[88.746936,54.8757872],[88.7389127,54.864249699999995],[88.7434874,54.858001099999996],[88.7599309,54.849856599999995],[88.74786850000001,54.8401618],[88.74798490000002,54.8333231],[88.7550402,54.8273949],[88.7504812,54.8219911],[88.75450620000001,54.80796159999999],[88.75416330000002,54.79054680000001],[88.73245320000001,54.768861300000005],[88.6904442,54.76261720000001],[88.6870618,54.76533960000001],[88.65979779999998,54.76744],[88.64676940000001,54.76565570000001],[88.63581079999999,54.7565295],[88.63993549999999,54.7492206],[88.63884779999998,54.74519260000001],[88.6458038,54.739331500000006],[88.64133849999999,54.733090100000005],[88.6486472,54.72585660000001],[88.64112820000001,54.722807700000004],[88.62374349999999,54.699023100000005],[88.61114560000001,54.694554000000004],[88.5954009,54.683050200000004],[88.59378109999999,54.67837480000001],[88.59699470000001,54.6713765],[88.6197998,54.674759800000004],[88.62284739999998,54.6672034],[88.60883149999998,54.662931500000006],[88.6063442,54.6570787],[88.60839699999998,54.644150200000006],[88.6041712,54.63576390000001],[88.5901183,54.62233460000001],[88.57823009999998,54.6169611],[88.57894449999999,54.606309700000004],[88.58720490000002,54.6001375],[88.5852317,54.59415860000001],[88.5885584,54.590191000000004],[88.5749967,54.575683399999996],[88.57503169999998,54.57128339999999],[88.58791240000001,54.55779749999999],[88.5839261,54.5473265],[88.59225300000001,54.54055830000001],[88.58484879999999,54.531559200000004],[88.5770274,54.527559200000006],[88.5755229,54.52300090000001],[88.5658449,54.5184892],[88.57428279999999,54.5040513],[88.5697222,54.491684799999994],[88.5633706,54.485821699999995],[88.56874069999999,54.4793905],[88.5518622,54.4704526],[88.5383962,54.467949399999995],[88.54233229999998,54.45862439999999],[88.5180399,54.4557216],[88.51751840000001,54.4499017],[88.5241893,54.4482124],[88.5307509,54.438141200000004],[88.54655050000001,54.4324701],[88.526661,54.4241618],[88.52440920000001,54.4156883],[88.5038464,54.416481299999994],[88.46665960000003,54.4098699],[88.4597285,54.40412739999999],[88.4324557,54.3994005],[88.42195440000002,54.3933415],[88.40808340000001,54.3988549],[88.3815628,54.398031700000004],[88.3749575,54.38942699999999],[88.36655970000001,54.3880955],[88.3638129,54.3820623],[88.36776300000001,54.3722079],[88.3812973,54.359806299999995],[88.40672960000002,54.3503566],[88.41623960000003,54.348699599999996],[88.425006,54.35204469999999],[88.43560360000002,54.34948139999999],[88.4547797,54.356445699999995],[88.4984208,54.348067099999994],[88.5167229,54.335887199999995],[88.532687,54.33424959999999],[88.55805199999999,54.3377893],[88.58119990000002,54.32321880000001],[88.5778764,54.3134521],[88.57003859999999,54.3079062],[88.5733509,54.3041173],[88.5716589,54.2970641],[88.5815875,54.28825380000001],[88.59410690000001,54.286126800000005],[88.6061522,54.29012890000001],[88.62109809999998,54.290285600000004],[88.6326253,54.2810926],[88.64469650000001,54.2856851],[88.6516121,54.29343880000001],[88.65275249999998,54.306681899999994],[88.6649895,54.3151348],[88.65888889999998,54.320213200000005],[88.6621339,54.3275411],[88.69484,54.3362422],[88.69836719999999,54.3403546],[88.6966148,54.3472167],[88.715498,54.355868199999996],[88.7403774,54.35925759999999],[88.75842,54.374098],[88.7806385,54.3862582],[88.7830058,54.391514900000004],[88.8074105,54.3858008],[88.82713269999999,54.4032221],[88.82759,54.4135013],[88.83187679999999,54.41819290000001],[88.8512878,54.41908599999999],[88.8596876,54.4177083],[88.8608623,54.4053825],[88.86790440000001,54.4011117],[88.891411,54.4047888],[88.90612890000001,54.40348699999999],[88.90963990000002,54.39570200000001],[88.91892730000001,54.38728999999999],[88.9275413,54.3863203],[88.92782950000002,54.3707376],[88.94418790000002,54.3677995],[88.94162980000003,54.361062399999994],[88.9521078,54.3521801],[88.9525112,54.34792469999999],[88.94001580000001,54.335461499999994],[88.93602120000001,54.3219096],[88.9747058,54.3162283],[88.98729070000002,54.300918700000004],[88.97517149999999,54.2877394],[89.0007602,54.2878583],[89.0041929,54.297850000000004],[89.02847739999999,54.3141522],[89.02973239999999,54.3313746],[89.075554,54.330119],[89.07995629999999,54.3387244],[89.10540699999999,54.33893690000001],[89.12580369999999,54.3457145],[89.1597604,54.34112739999999],[89.16429440000002,54.3305808],[89.1602438,54.325123500000004],[89.1611802,54.31000339999999],[89.1690608,54.305164399999995],[89.20240460000001,54.29932720000001],[89.1913467,54.28829030000001],[89.2009141,54.280921],[89.2060593,54.26881550000001],[89.2383938,54.26560280000001],[89.21671960000002,54.249770100000006],[89.21470990000002,54.236903500000004],[89.20698970000001,54.22919610000001],[89.21404300000002,54.2149738],[89.1977886,54.210752400000004],[89.19476809999999,54.207358600000006],[89.1997734,54.19656390000001],[89.1931451,54.192046600000005],[89.1928406,54.18438139999999],[89.20100040000001,54.1834],[89.20162110000001,54.1798209],[89.1905869,54.16860520000001],[89.18082279999999,54.1640849],[89.1816905,54.157468699999995],[89.17278629999997,54.153824099999994],[89.16378849999998,54.1386447],[89.1356506,54.12909810000001],[89.13333329999999,54.120104700000006],[89.12727109999999,54.1177107],[89.10255509999999,54.1193345],[89.0910769,54.1104962],[89.0715719,54.1069687],[89.0569009,54.111085499999994],[89.0416388,54.108973500000005],[89.0396727,54.095248000000005],[89.02877749999998,54.09057290000001],[89.02289779999998,54.084071699999996],[89.01231990000001,54.0807409],[89.00596279999999,54.0642572],[89.01029550000001,54.05978459999999],[89.0097584,54.050755300000006],[89.01422650000002,54.0365879],[89.0244406,54.02850780000001],[89.0156423,54.017833499999995],[89.00693279999999,54.013103300000004],[89.0054838,54.003970300000006],[89.0118887,53.998048700000005],[89.0307189,53.990953100000006],[89.0335316,53.985019300000005],[89.0616923,53.9724642],[89.04165500000002,53.960798200000006],[89.04510020000001,53.94878739999999],[89.0408857,53.9415308],[89.04462590000003,53.9389096],[89.0506391,53.938405700000004],[89.0741119,53.9564957],[89.1052057,53.9532787],[89.1267666,53.95497999999999],[89.14206300000001,53.948523800000004],[89.1700196,53.9549792],[89.19683849999998,53.9518328],[89.1949148,53.93371380000001],[89.20462430000002,53.9305626],[89.2079765,53.9202207],[89.2065001,53.9145459],[89.193908,53.90108549999999],[89.17640479999999,53.898962100000006],[89.1745665,53.896117800000006],[89.1782137,53.8916786],[89.16508849999998,53.8853762],[89.17540209999997,53.871961799999994],[89.18873189999998,53.863716600000004],[89.19767660000001,53.8501136],[89.21461910000002,53.84908839999999],[89.22553719999999,53.8406799],[89.2384445,53.8375073],[89.23910940000002,53.8188981],[89.222201,53.806571399999996],[89.21019120000001,53.8054251],[89.18764350000001,53.79602250000001],[89.15970999999999,53.79841260000001],[89.15564679999999,53.80211580000001],[89.14639460000001,53.801789899999996],[89.13818219999999,53.79142530000001],[89.1286579,53.787921499999996],[89.1130924,53.793309400000005],[89.08767490000001,53.788411200000006],[89.07752420000001,53.79451910000001],[89.04405660000002,53.7918176],[89.03796000000001,53.786147],[89.04666730000001,53.7744572],[89.04211550000001,53.7587084],[89.0439352,53.753581399999995],[89.0319025,53.744687899999995],[89.0299505,53.739360000000005],[89.0107129,53.72828020000001],[89.0035925,53.70821980000001],[89.00294109999999,53.6871416],[88.9882628,53.679655800000006],[88.9864601,53.67271870000001],[88.9777757,53.663476300000006],[88.9848073,53.66251050000001],[88.99455320000003,53.656877599999994],[88.99432970000002,53.65426479999999],[88.97476970000001,53.6448369],[88.9483322,53.6466379],[88.94160070000002,53.643893],[88.93720560000003,53.635341800000006],[88.93006860000001,53.6324244],[88.9318888,53.62847030000001],[88.9264607,53.62570350000001],[88.93391590000002,53.611549399999994],[88.88853689999999,53.607517200000004],[88.8715273,53.59595110000001],[88.8489608,53.59879960000001],[88.83882879999999,53.595685200000005],[88.8382124,53.5906997],[88.8457432,53.577739300000005],[88.85877909999998,53.5765265],[88.86183809999999,53.5642886],[88.87932179999999,53.5643718],[88.88895279999998,53.5608305],[88.87735819999999,53.549357900000004],[88.8796624,53.540520900000004],[88.8572353,53.5321895],[88.86393779999999,53.52572230000001],[88.86029520000001,53.5177513],[88.8760849,53.4979997],[88.8749467,53.492546700000005],[88.85993629999999,53.463999900000005],[88.84772380000001,53.4650219],[88.83650809999999,53.4729849],[88.8196303,53.465215400000005],[88.81555370000001,53.45142189999999],[88.8054216,53.4380174],[88.8202629,53.4264341],[88.80873099999998,53.4221494],[88.8022913,53.41582449999999],[88.80264209999999,53.4052937],[88.79421210000001,53.3988795],[88.79036690000001,53.385498],[88.7759572,53.3786368],[88.7592012,53.377457899999996],[88.75690360000002,53.3723776],[88.7573948,53.35774179999999],[88.77339879999998,53.3457902],[88.7800158,53.342420999999995],[88.79055460000002,53.3449392],[88.80099849999999,53.3428196],[88.8154227,53.3502127],[88.82286849999998,53.368652700000005],[88.8491965,53.3796651],[88.8497513,53.38328399999999],[88.88046440000001,53.394102600000004],[88.91052090000002,53.39213860000001],[88.927784,53.355883199999994],[88.94131800000001,53.35185779999999],[88.9515075,53.342117200000004],[88.95242540000001,53.33254590000001],[88.94824970000002,53.3302949],[88.9458759,53.31742909999999],[88.98742580000001,53.301162999999995],[89.0038416,53.287091499999995],[89.0168221,53.28877560000001],[89.03645460000001,53.2800566],[89.03920570000001,53.2690672],[89.03380609999999,53.263985600000005],[89.04290660000001,53.2572288],[89.04635360000002,53.244264799999996],[89.05535979999999,53.235665000000004],[89.0547814,53.2318689],[89.0474384,53.22753510000001],[89.04741510000001,53.220815400000006],[89.0164486,53.207070900000005],[89.01482590000002,53.2020434],[89.00573769999998,53.196190400000006],[89.0118776,53.1856201],[89.0271227,53.172991700000004],[89.02611950000001,53.1664076],[89.0637224,53.166356400000005],[89.07622090000001,53.1587647],[89.07620920000001,53.154423599999994],[89.0684307,53.149028200000004],[89.06357460000001,53.132341700000005],[89.03994440000001,53.12822930000001],[89.0183886,53.1176543],[89.01257229999999,53.1031825],[89.02534229999998,53.09315310000001],[89.0098058,53.0819982],[89.0081807,53.07679220000001],[88.93577579999999,53.0455813],[88.91947590000001,53.045191300000006],[88.9144528,53.03873060000001],[88.9157051,53.033596],[88.9262011,53.0300366],[88.94192800000002,53.030970100000005],[88.93256190000001,53.017860799999994],[88.9329727,53.011609699999994],[88.91719620000002,52.9988498],[88.9181817,52.99217320000001],[88.91179690000001,52.990432500000004],[88.93481910000001,52.9829234],[88.93458550000001,52.975493300000004],[88.93970209999999,52.966548700000004],[88.9567053,52.950450499999995],[88.97237779999998,52.96595130000001],[89.0015118,52.9654641],[89.01921990000002,52.9607635],[89.05161980000001,52.964847299999995],[89.05564279999999,52.9582953],[89.0754334,52.9581891],[89.081447,52.9501145],[89.0843531,52.9388827],[89.09742930000002,52.928363600000004],[89.10031509999999,52.918856399999996],[89.1072261,52.91528449999999],[89.1050266,52.9105062],[89.11421960000003,52.9073692],[89.11667920000001,52.9033406],[89.11146470000001,52.8972482],[89.11248479999999,52.887892799999996],[89.1033643,52.88026369999999],[89.1144749,52.874237799999996],[89.1177756,52.8673395],[89.12779879999998,52.863294399999994],[89.15191490000001,52.876003399999995],[89.17615809999998,52.8831147],[89.1844356,52.8815353],[89.1991687,52.8637777],[89.22091320000001,52.8565926],[89.2301798,52.822696300000004],[89.23851640000001,52.8091573],[89.2397495,52.80068849999999],[89.19543039999999,52.78777830000001],[89.18802809999998,52.78297870000001],[89.1872382,52.76723230000001],[89.17506689999999,52.76501770000001],[89.17971259999999,52.7539889],[89.1679835,52.7448069],[89.16720900000001,52.73512650000001],[89.15929609999999,52.731642900000004],[89.1378169,52.7351845],[89.1365764,52.729854100000004],[89.1314219,52.72661630000001],[89.14109320000001,52.7140711],[89.137409,52.706822100000004],[89.10847649999998,52.7038314],[89.08143390000001,52.709602700000005],[89.0530538,52.70581560000001],[89.058029,52.68669739999999],[89.0739603,52.6779742],[89.07647519999999,52.6732316],[89.07450990000001,52.66892430000001],[89.084592,52.6634246],[89.0790176,52.6510923],[89.0841022,52.6428548],[89.07793249999999,52.6405842],[89.07675569999999,52.636382000000005],[89.08238039999999,52.633369],[89.090047,52.634245],[89.0931915,52.62639810000001],[89.1025224,52.62123690000001],[89.1206467,52.620140500000005],[89.1292686,52.610529],[89.12435289999999,52.60788139999999],[89.1234277,52.5988576],[89.1168953,52.5910048],[89.1103957,52.58784969999999],[89.09712900000002,52.588145000000004],[89.0822538,52.599826900000004],[89.06221500000001,52.59536020000001],[89.060082,52.5915314],[89.0668448,52.5858228],[89.0639258,52.581888799999994],[89.054931,52.579547399999996],[89.05463390000001,52.571107],[89.05948279999998,52.56834630000001],[89.0578224,52.56207070000001],[89.01590920000001,52.554703399999994],[89.0084352,52.540615900000006],[89.0095419,52.5349469],[88.9867551,52.52577980000001],[88.98703470000001,52.5168537],[88.99409400000002,52.509122000000005],[88.9867593,52.4956255],[88.9391374,52.4874351],[88.94063910000001,52.479500300000005],[88.92799990000002,52.4711425],[88.88934619999999,52.46457],[88.8823296,52.4461851],[88.86069570000001,52.4340378],[88.8053554,52.4204436],[88.80162800000001,52.412530800000006],[88.7765438,52.4079147],[88.76450580000001,52.3962596],[88.76664070000001,52.3912913],[88.7625389,52.3859403],[88.71788590000001,52.367447199999994],[88.6994793,52.3637881],[88.7000793,52.35664249999999],[88.6948437,52.34928339999999],[88.6792526,52.340227999999996],[88.67630589999999,52.334203499999994],[88.68921590000001,52.328002000000005],[88.70833869999998,52.3254668],[88.71544209999999,52.308354],[88.716037,52.29865090000001],[88.7093258,52.29315750000001],[88.7098038,52.2778655],[88.7010343,52.271687799999995],[88.70716410000001,52.259644699999996],[88.7037566,52.25166469999999],[88.68249209999998,52.24031260000001],[88.6731622,52.24211060000001],[88.6740616,52.2479859],[88.66629390000001,52.25273490000001],[88.6343625,52.24878030000001],[88.63269799999999,52.243034300000005],[88.61506849999999,52.237805200000004],[88.60939229999998,52.2308647],[88.58420320000002,52.217110000000005],[88.5607622,52.211356],[88.5407754,52.215722500000005],[88.52778869999999,52.20691070000001],[88.5286935,52.196609800000004],[88.47793920000001,52.180841699999995],[88.4737052,52.169832400000004],[88.4524709,52.1712259],[88.4410088,52.16375370000001],[88.4106321,52.1634668],[88.4043882,52.167882999999996],[88.38839209999998,52.169797100000004],[88.37583179999997,52.177457399999994],[88.37534769999998,52.19350480000001],[88.38419540000001,52.2009048],[88.3857235,52.215543600000004],[88.38274729999998,52.222863100000005],[88.3969438,52.239673800000006],[88.38286779999999,52.2502104],[88.38664809999999,52.25857560000001],[88.38174149999999,52.26332120000001],[88.38037399999999,52.2732145],[88.4020912,52.27675370000001],[88.40152820000002,52.2822231],[88.3913933,52.29227730000001],[88.405067,52.3030554],[88.40329740000001,52.31166179999999],[88.4271058,52.3155227],[88.43032320000002,52.3222791],[88.42726670000002,52.325416000000004],[88.44190560000003,52.3356311],[88.45622290000001,52.3365964],[88.46394450000001,52.3415028],[88.4327359,52.35718729999999],[88.42252060000001,52.3587155],[88.4213141,52.3643458],[88.4279901,52.3704588],[88.4060315,52.3783412],[88.41769440000003,52.383971599999995],[88.44182440000003,52.404964799999995],[88.44150260000002,52.4134103],[88.44833940000001,52.425797100000004],[88.44568500000001,52.43295570000001],[88.43619370000002,52.4330361],[88.41306870000001,52.4446988],[88.40068190000001,52.4455836],[88.39416670000001,52.44148149999999],[88.38238309999998,52.444135700000004],[88.37136360000001,52.4409184],[88.3172713,52.4642438],[88.3153409,52.4613482],[88.31799540000002,52.4533853],[88.30826300000001,52.4436528],[88.31087709999998,52.436896399999995],[88.30122510000001,52.4311855],[88.2821622,52.4277269],[88.2810363,52.414455399999994],[88.26736240000001,52.4149379],[88.25208009999999,52.3998967],[88.23152910000002,52.400057499999996],[88.2027737,52.411559399999994],[88.18676729999999,52.4102724],[88.15889669999999,52.4303807],[88.14361420000002,52.428852400000004],[88.1279293,52.44686939999999],[88.1309857,52.4513738],[88.1234649,52.4626344],[88.0920954,52.477433999999995],[88.071826,52.48185769999999],[88.0571065,52.48893590000001],[88.04624770000001,52.4997944],[88.0260989,52.503976800000004],[88.0211118,52.5110549],[88.01145970000002,52.51169839999999],[88.00019879999999,52.5193395],[87.9879728,52.52135030000001],[87.9708002,52.518695900000004],[87.93633390000001,52.535426],[87.90363740000001,52.535345400000004],[87.8913689,52.5394791],[87.8926179,52.525854200000005],[87.8649084,52.5188564],[87.84512190000001,52.4910262],[87.82420900000001,52.49496739999999],[87.81946330000001,52.4989891],[87.81415460000002,52.4979435],[87.80279869999998,52.47936],[87.75530479999999,52.48486769999999],[87.75077259999999,52.4791218],[87.736938,52.47550210000001],[87.73677719999999,52.467780499999996],[87.73291640000001,52.46271320000001],[87.7167491,52.4609436],[87.71144040000001,52.4649653],[87.70082310000001,52.4643218],[87.673154,52.442041599999996],[87.6688509,52.4264375],[87.65332709999998,52.42241570000001],[87.6456858,52.425069900000004],[87.6420261,52.430137300000005],[87.6322131,52.42933290000001],[87.61797609999999,52.4383414],[87.61837819999998,52.4444543],[87.6225607,52.4491999],[87.6106563,52.456438999999996],[87.62335129999998,52.4647911],[87.61162140000002,52.47147999999999],[87.58379129999999,52.462149600000004],[87.5768739,52.46834290000001],[87.5599022,52.470112400000005],[87.5524219,52.4668951],[87.550974,52.474938300000005],[87.53999460000001,52.483464299999994],[87.52052950000001,52.47815560000001],[87.5006623,52.4777533],[87.494308,52.4742142],[87.4779312,52.48188619999999],[87.443779,52.486024699999994],[87.4282712,52.4994701],[87.41242570000001,52.50164169999999],[87.3718064,52.498746000000004],[87.3779995,52.525449900000005],[87.37828079999998,52.5408931],[87.366296,52.549016800000004],[87.36854809999998,52.55810590000001],[87.37490229999999,52.56301230000001],[87.37538489999999,52.570573100000004],[87.3711903,52.5736912],[87.35322520000001,52.57017080000001],[87.3336797,52.5727447],[87.32442970000001,52.58006399999999],[87.3137319,52.5811096],[87.29716230000001,52.59237030000001],[87.2738364,52.587785499999995],[87.24906270000001,52.5877049],[87.2417029,52.591565700000004],[87.2184574,52.58875030000001],[87.1971364,52.573210200000005],[87.1706394,52.580465499999995],[87.17401749999999,52.588911100000004],[87.17023699999999,52.591887099999994],[87.1382643,52.5992065],[87.12764709999999,52.59510420000001],[87.1188797,52.59856290000001],[87.1270838,52.60652580000001],[87.1341621,52.6066063],[87.1310251,52.61424749999999],[87.1344837,52.61633870000001],[87.12908039999999,52.62181090000001],[87.1432589,52.6562301],[87.1686505,52.6960895],[87.1636819,52.710210200000006],[87.1140407,52.717531900000004],[87.1125589,52.71448109999999],[87.103668,52.712476200000005],[87.1030579,52.70550300000001],[87.0916828,52.6948688],[87.09429790000002,52.690074700000004],[87.0664919,52.69591460000001],[87.0532426,52.7048927],[87.0650098,52.7131734],[87.0697167,52.7238076],[87.0228649,52.72999610000001],[87.02107779999999,52.743245200000004],[87.0100948,52.746208800000005],[87.00800279999999,52.7536179],[86.97483609999999,52.75605830000001],[86.9713492,52.774973100000004],[86.9463324,52.7892681],[86.9559205,52.803650399999995],[86.94999310000001,52.806178300000006],[86.9452861,52.8163765],[86.95191060000002,52.8204733],[86.9483367,52.8309331],[86.92018209999999,52.8290154],[86.91242410000001,52.846971399999994],[86.9230583,52.853072999999995],[86.92139390000001,52.8632535],[86.9293339,52.875038700000005],[86.9369173,52.878089499999994],[86.95687849999999,52.873034],[87.00791390000002,52.8991838],[87.01270769999999,52.924025900000004],[87.01741470000002,52.925943600000004],[87.015584,52.9445097],[87.02342879999999,52.95444659999999],[87.02177259999999,52.9601995],[87.01601960000002,52.96211710000001],[87.0159759,52.968393000000006],[87.03105550000001,52.9835598],[87.03192690000002,53.000644199999996],[87.0381157,53.0039565],[87.04229960000002,53.012062900000004],[87.0634372,53.02574800000001],[87.057597,53.02827570000001],[87.0585557,53.033505600000005],[87.0550691,53.035248900000006],[87.0545776,53.0412227],[87.00146170000001,53.06270580000001],[86.94367060000002,53.06279260000001],[86.89921560000002,53.084583699999996],[86.8862277,53.0878089],[86.8745476,53.0830147],[86.857245,53.0938231],[86.8565476,53.10131930000001],[86.8517534,53.1041086],[86.8551529,53.104893],[86.85462980000001,53.107333700000005],[86.8497486,53.1079439],[86.85462980000001,53.1113433],[86.8512303,53.112737900000006],[86.85323509999999,53.1149171],[86.8493998,53.1159631],[86.84652330000002,53.112389300000004],[86.8405089,53.1169218],[86.84525390000002,53.1162633],[86.8437512,53.11871390000001],[86.84713340000002,53.120670000000004],[86.8451285,53.12293620000001],[86.8401601,53.12119290000001],[86.8455641,53.139149],[86.8405086,53.1379286],[86.8500967,53.143681599999994],[86.8493122,53.1473425],[86.83928809999999,53.1506547],[86.82412120000001,53.148998500000005],[86.7869014,53.1370568],[86.7818458,53.141415],[86.7552804,53.1498738],[86.7356912,53.153443499999995],[86.71978340000001,53.152484699999995],[86.71150250000001,53.1583248],[86.71158920000002,53.19353950000001],[86.64421000000002,53.18046439999999],[86.63749779999999,53.20853160000001],[86.6435123,53.2118439],[86.63540579999999,53.2175096],[86.6385,53.2266619],[86.63048069999999,53.23093300000001],[86.62734259999999,53.23851640000001],[86.63161370000002,53.241654399999994],[86.6301319,53.2486275],[86.6497442,53.2536832],[86.65410229999999,53.2606564],[86.6631677,53.25525220000001],[86.6762426,53.25577530000001],[86.67428149999999,53.249325000000006],[86.68814099999999,53.237557800000005],[86.7077098,53.2420905],[86.7038744,53.245054100000004],[86.70962740000002,53.24819210000001],[86.7210461,53.244095300000005],[86.73385950000001,53.2476692],[86.7397867,53.2532478],[86.7428376,53.24819220000001],[86.75329760000001,53.2444442],[86.75312320000002,53.2474077],[86.7674183,53.258042],[86.75321020000001,53.263707600000004],[86.77186360000002,53.27861300000001],[86.79796960000003,53.29316970000001],[86.80938829999998,53.2950874],[86.81139300000001,53.3123461],[86.8222886,53.322806],[86.84869990000001,53.31958099999999],[86.84965860000001,53.3316099],[86.84495170000001,53.331609799999995],[86.83876279999998,53.3403263],[86.8438183,53.34668939999999],[86.85570749999998,53.347619099999996],[86.8568086,53.352395900000005],[86.8742682,53.3602632],[86.86760430000001,53.36478749999999],[86.8715893,53.370977499999995],[86.85841829999998,53.3776331],[86.8739337,53.3851293],[86.87776889999999,53.3944561],[86.9051824,53.4137198],[86.90370060000001,53.418600999999995],[86.89297909999999,53.416944799999996],[86.8731924,53.42173880000001],[86.870926,53.427230200000004],[86.87362809999999,53.428450500000004],[86.86338599999999,53.439171800000004],[86.86818,53.45128779999999],[86.8894919,53.464711300000005],[86.91433430000001,53.46497290000001],[86.92902160000001,53.47351520000001],[86.9303287,53.503674399999994],[86.833749,53.477611499999995],[86.81349560000001,53.4614106],[86.8136325,53.45144719999999],[86.7855849,53.4609618],[86.78861970000001,53.4644421],[86.78467460000002,53.469330600000006],[86.7668491,53.470463699999996],[86.7569121,53.4768267],[86.7197357,53.48109759999999],[86.7097115,53.484932900000004],[86.70025390000002,53.494869699999995],[86.64551360000002,53.4979202],[86.59460840000001,53.50933860000001],[86.5388654,53.527643],[86.49746100000002,53.5719228],[86.4717469,53.57593220000001],[86.447776,53.5917091],[86.43993090000001,53.6009486],[86.42829420000001,53.6031276],[86.42655090000001,53.60800890000001],[86.4086818,53.606527],[86.39373289999999,53.59728739999999],[86.356063,53.66072330000001],[86.34249960000001,53.711249099999996],[86.3226469,53.758891399999996],[86.3003849,53.8299518],[86.1841392,53.81162569999999],[86.1242538,53.9808962],[86.0641571,53.9913842],[86.04653390000001,54.01018739999999],[85.91518520000001,54.02657390000001],[85.91082680000001,54.04261220000001],[85.87125340000001,54.0375565],[85.74904470000001,54.1642941],[85.69046940000001,54.1447689],[85.6242221,54.2145007],[85.56320600000001,54.19881060000001],[85.5384776,54.2245634],[85.41778420000001,54.1855444],[85.31689879999999,54.29591830000002],[85.15997179999998,54.4531098],[85.1161717,54.4386068],[84.9308403,54.6091815],[85.0013675,54.62961830000001],[85.00114900000001,54.633842800000004],[85.0118428,54.63819540000001],[84.98932900000001,54.6668914],[85.0029618,54.6804586],[84.9807832,54.69339520000001],[84.9817473,54.7047575],[84.94909870000001,54.7040038],[84.94763650000002,54.709029],[84.8945308,54.72854020000001],[84.9059886,54.73623580000001],[84.902018,54.74519200000001],[84.931075,54.76217970000001],[84.94713780000001,54.76308220000001],[84.9582372,54.767346],[84.9637418,54.77077510000001],[84.96446360000003,54.7808819],[84.9786677,54.7774087],[84.9828486,54.779861],[85.0129859,54.780007399999995],[85.0026403,54.799801900000006],[85.0881147,54.8161756],[85.0695351,54.8344483],[85.04715770000001,54.8441267],[85.060098,54.8483765],[85.05858709999998,54.8507388],[85.06424640000002,54.85048989999999],[85.0611583,54.8520578],[85.0659282,54.8507521],[85.06535269999999,54.853348399999994],[85.07909209999998,54.855580999999994],[85.0387297,54.87373830000001],[85.0026332,54.907104],[85.0008282,54.9126085],[84.97177049999999,54.9445079],[84.90760980000002,54.94577090000001],[84.9109485,54.95344119999999],[84.8875369,54.952149399999996],[84.88061900000001,54.9593356],[84.88647499999999,54.9628056],[84.8880216,54.9696097],[84.85806709999999,54.988367399999994],[84.8454683,54.990222100000004],[84.8374854,54.996983900000004],[84.8368286,55.0088696],[84.87810019999999,55.0202405],[84.9050814,55.0551632],[84.91609020000001,55.085528700000005],[84.92718860000001,55.163608100000005],[84.91762310000003,55.163788600000004],[84.915457,55.183956900000005],[84.90035060000001,55.185079300000005],[84.8182678,55.227090700000005],[84.8284647,55.2411681],[84.86058990000001,55.254298],[84.8647947,55.26262890000001],[84.8943395,55.26812730000001],[84.9167189,55.277534800000005],[84.91301910000001,55.27963290000001],[84.9134702,55.287122700000005],[84.910041,55.2873934],[84.90931900000001,55.29461250000001],[84.9154551,55.3082612],[84.9084163,55.3127957],[84.9163573,55.323534200000005],[84.9067014,55.331587999999996],[84.90560500000001,55.3373073],[84.8907493,55.34864399999999],[84.8894225,55.3555043],[84.8588595,55.3751601],[84.8188974,55.3616239],[84.75460390000002,55.37966159999999],[84.6938533,55.3728054],[84.65276119999999,55.380405999999994],[84.62079099999998,55.404216399999996],[84.72465820000001,55.4463013],[84.75589009999999,55.467181599999996],[84.7378858,55.49847270000001],[84.7262185,55.5007401],[84.72333069999999,55.5070568],[84.7311585,55.5190922],[84.7274969,55.52311260000001],[84.78391360000002,55.5242373],[84.78547709999998,55.529376000000006],[84.76669310000001,55.5773457],[84.75111120000001,55.599512300000015],[84.7527054,55.6155824],[84.7427466,55.62952190000001],[84.74181200000001,55.6422076],[84.6934032,55.642534500000004],[84.6796517,55.6530735],[84.70794240000001,55.652123700000004],[84.71146420000002,55.668962500000006],[84.7035714,55.669652500000005],[84.68878019999998,55.681451599999995],[84.639658,55.684816],[84.63102560000002,55.6875957],[84.62902679999999,55.69294870000001],[84.6215369,55.69330970000001],[84.62036379999999,55.696829],[84.61016660000001,55.69583630000001],[84.6041457,55.686559300000006],[84.59252670000001,55.705025000000006],[84.56716510000001,55.700248200000004],[84.5614893,55.72055020000001],[84.5391472,55.718643900000004],[84.52724360000002,55.76102890000001],[84.57858149999998,55.76193630000001],[84.59419290000001,55.76653860000001],[84.60818019999999,55.76653860000001],[84.6079425,55.799245400000004],[84.59324920000002,55.7966624],[84.57560289999999,55.8026792],[84.5522552,55.80163039999999],[84.55926900000001,55.823708200000006],[84.5750692,55.8263649],[84.5749953,55.832676],[84.56143390000001,55.833003999999995],[84.5557494,55.84434699999999],[84.5423937,55.8481595],[84.53752070000002,55.8533933],[84.51898249999999,55.856679899999996],[84.516362,55.880820899999996],[84.49711290000002,55.8789677],[84.49032970000002,55.8741438],[84.4687574,55.872659],[84.4554015,55.8942486],[84.49230960000001,55.90128739999999],[84.49221920000002,55.913402],[84.49799450000002,55.917214599999994],[84.5269614,55.923283399999995],[84.5397756,55.9211177],[84.54311430000001,55.9320366],[84.48797350000001,55.9456568],[84.4810757,55.955245],[84.4820662,55.9580399],[84.50756300000002,55.9584173],[84.5285538,55.952572200000006],[84.53725560000002,55.9640209],[84.5322015,55.964798200000004],[84.5245611,55.9728488],[84.52817529999999,55.97384749999999],[84.5270175,55.97732739999999],[84.5425719,55.983147599999995],[84.53414300000001,55.989666799999995],[84.5651353,55.999293300000005],[84.57107699999999,56.0048319],[84.5540687,56.0147023],[84.55726670000001,56.020095100000006],[84.5468795,56.025641300000004],[84.53111740000001,56.0247275],[84.5270495,56.0286806],[84.51710440000002,56.02891620000001],[84.4721992,56.0156955],[84.44904040000002,56.04071220000001],[84.46854060000001,56.0529241],[84.4993178,56.056318100000006],[84.51146000000001,56.06314810000001],[84.52250609999999,56.062979500000004],[84.5364189,56.073772600000005],[84.55724620000001,56.0788741],[84.55665590000001,56.08106639999999],[84.5634859,56.0786211],[84.5869272,56.0809822],[84.6075858,56.090088900000005],[84.61029160000001,56.088022200000005],[84.6231852,56.090679200000004],[84.63853149999998,56.09963830000001],[84.676729,56.102758400000006],[84.699327,56.10977820000001],[84.70227809999999,56.113319600000004],[84.74106580000002,56.118062800000004],[84.7570867,56.127253800000005],[84.769482,56.1244924],[84.79030920000001,56.1334305],[84.82639859999999,56.1371618],[84.8325541,56.13901690000001],[84.83204809999998,56.142221],[84.8683904,56.1498311],[84.86712550000001,56.1532039],[84.8775814,56.1552277],[84.88500149999999,56.161551700000004],[84.897481,56.162816600000006],[84.91813990000001,56.152445300000004],[84.92682500000001,56.1541318],[84.971347,56.128372200000015],[84.97581609999999,56.123291900000005],[84.9775027,56.1124146],[84.9868625,56.107777],[85.0026305,56.108957600000004],[85.04327310000001,56.12561110000001],[85.0383191,56.133304700000004],[85.0655176,56.1515488],[85.07739109999999,56.1527034],[85.0905855,56.160363200000006],[85.0971985,56.1599936],[85.10272669999999,56.17218890000001],[85.1066819,56.174264099999995],[85.1038149,56.18168429999999],[85.11612560000002,56.194100500000005],[85.1255695,56.1969674],[85.1318208,56.1944512],[85.13788199999999,56.19824270000001],[85.2077804,56.1978317],[85.20187990000001,56.21686739999999],[85.2287293,56.221523700000006],[85.23138990000001,56.22518490000001],[85.2281841,56.228212100000015],[85.3201629,56.22130590000001],[85.3577126,56.2141315],[85.3534046,56.2116923],[85.37378059999999,56.2054234],[85.3986967,56.2046952],[85.4290002,56.19612260000001],[85.45307340000001,56.1949665],[85.45227440000001,56.21111270000001],[85.6845185,56.211708],[85.6246809,56.2496897],[85.57117809999998,56.26705690000001],[85.5624924,56.280707],[85.6289656,56.317400299999996],[85.65561109999999,56.31756909999999],[85.6904357,56.3247575],[85.69423,56.3341171],[85.7119375,56.3343912],[85.7138768,56.3375954],[85.71708100000001,56.335824699999996],[85.7157319,56.33827],[85.72416400000002,56.3386916],[85.7234894,56.3413055],[85.7282957,56.3439195],[85.7293076,56.3409683],[85.74389520000001,56.3389447],[85.74414820000001,56.3365837],[85.77307029999999,56.340125300000004],[85.7800691,56.3340543],[85.794741,56.33449699999999],[85.79499390000002,56.33786979999999],[85.8024677,56.3398763],[85.78237969999999,56.3870588],[85.80273349999999,56.386266199999994],[85.80429640000001,56.4120629],[85.88643809999998,56.42877300000001],[85.88894789999999,56.424434],[85.9865786,56.4367364],[85.98322270000001,56.4413161],[85.99010530000001,56.447565999999995],[85.98834149999999,56.45402309999999],[85.9862305,56.457574599999994],[85.9779079,56.458041699999995],[85.97562320000002,56.4611655],[85.97927779999999,56.4630041],[85.977039,56.4643412],[85.981335,56.46211820000001],[85.99776240000001,56.4665975],[85.99654390000002,56.4724305],[85.9924053,56.4732459],[85.99301040000002,56.475505000000005],[85.99922890000002,56.4737263],[85.99748930000001,56.4780914],[86.00274579999999,56.478174900000006],[86.00062500000001,56.482318400000004],[86.0542221,56.4775281],[86.0830844,56.485247799999996],[86.11589839999999,56.50106149999999],[86.1070766,56.539207499999996],[86.14577859999999,56.5514229],[86.19564199999999,56.57875860000001],[86.1951245,56.58608649999999],[86.18884579999998,56.59231730000001],[86.18726410000001,56.6004653],[86.1910026,56.603197200000004],[86.20394350000001,56.603197200000004],[86.20787370000001,56.6066481],[86.2053402,56.6103676],[86.1882556,56.6175479],[86.20462260000002,56.623997],[86.24751530000002,56.6302486],[86.33888739999999,56.6360745],[86.33373199999998,56.60648739999999],[86.33443849999999,56.592011400000004],[86.36413590000001,56.5945632],[86.37426400000001,56.5784931],[86.37958549999999,56.560713500000006],[86.37580889999998,56.555983499999996],[86.3826754,56.54803580000001],[86.41117120000001,56.550969099999996],[86.4401318,56.5482687],[86.4537633,56.5582211],[86.4769607,56.5666334],[86.5324589,56.5772486],[86.5912583,56.613592100000005],[86.5986835,56.6022006],[86.59746660000002,56.59379860000001],[86.62220009999999,56.58812280000001],[86.6336855,56.618225100000004],[86.67819019999999,56.643264599999995],[86.74624480000001,56.6031764],[86.78770990000001,56.6155595],[86.804658,56.62621190000001],[86.8216758,56.61744169999999],[86.85213909999999,56.589538600000004],[86.83879479999999,56.586898999999995],[86.84879699999999,56.5559008],[86.85930249999998,56.5531262],[86.8908661,56.546196800000004],[86.90342980000001,56.5472536],[86.90946570000001,56.5409031],[86.9335367,56.555037399999996],[86.96031590000001,56.56090270000001],[86.95877089999999,56.56251080000001],[86.96323410000001,56.56411880000001],[86.9625475,56.574048999999995],[86.96963480000001,56.5788977],[87.0004942,56.5419096],[87.0920826,56.5343196],[87.1180124,56.535604],[87.1308643,56.542144300000004],[87.1282864,56.5449331],[87.1396258,56.5495735],[87.15034239999999,56.5472781],[87.15267019999999,56.5502166],[87.1639474,56.550207699999994],[87.183651,56.56250020000001],[87.19981829999999,56.5617243],[87.21048900000001,56.56931190000001],[87.1940091,56.570554],[87.1962407,56.5726345],[87.21512340000002,56.5746203],[87.22662480000001,56.5710268],[87.2252515,56.5747148],[87.20551040000001,56.5850204],[87.18748599999999,56.5863439],[87.1852544,56.583035200000005],[87.1924641,56.576889699999995],[87.1895459,56.574904],[87.15859839999999,56.5873311],[87.17049149999998,56.595606700000005],[87.1837094,56.5970243],[87.17770129999998,56.6049618],[87.1818211,56.6110083],[87.16534159999999,56.6140312],[87.16276669999999,56.6113861],[87.1648267,56.606379000000004],[87.15641529999999,56.60694590000001],[87.1600201,56.616392600000005],[87.14954879999999,56.622909500000006],[87.14937709999998,56.62800880000001],[87.1395924,56.630652700000006],[87.1522954,56.62980290000001],[87.1600201,56.63272980000001],[87.15967679999999,56.636128600000006],[87.1502354,56.639999],[87.15384029999998,56.6491544],[87.143369,56.6525516],[87.1344426,56.64613430000001],[87.12843439999999,56.6471725],[87.12843439999999,56.651985499999995],[87.13873409999998,56.658024399999995],[87.17266289999999,56.6642941],[87.1956643,56.6388638],[87.2427865,56.630270900000006],[87.2627012,56.63857990000001],[87.3494743,56.6351814],[87.38397719999999,56.645610700000006],[87.4033726,56.6270604],[87.34758500000001,56.6109596],[87.36457970000001,56.5929574],[87.44465560000003,56.61275220000001],[87.59666460000003,56.663656],[87.6539995,56.6006114],[87.63381340000001,56.5932401],[87.6326117,56.5889867],[87.6426031,56.561620999999995],[87.6543095,56.5436072],[87.70237259999999,56.56315420000001],[87.7023395,56.551836099999996],[87.9981765,56.656264699999994],[88.0508806,56.668209100000006],[88.0548288,56.676131600000005],[88.06255360000002,56.6820724],[88.05877709999997,56.6828267],[88.05946370000001,56.6890493],[88.0747416,56.69527080000001],[88.113537,56.70054890000001],[88.14203279999998,56.709406800000004],[88.32759879999999,56.79185520000001],[88.3318903,56.7992817],[88.3547213,56.813566599999994],[88.35248969999999,56.823525100000005],[88.36347599999999,56.827939900000004],[88.4007265,56.8215524],[88.4244158,56.8344202],[88.5239526,56.76897300000001],[88.59755690000001,56.8021984],[88.64816060000001,56.8197863],[88.62441279999999,56.7192977],[88.7360764,56.7147011],[88.71848729999999,56.682136400000005],[88.6740133,56.680067699999995],[88.6631493,56.61976739999999],[88.50087849999998,56.6218904],[88.5218334,56.5612506],[88.54638829999999,56.529922400000004],[88.60559699999999,56.531251499999996],[88.609168,56.4632698],[88.582962,56.4604567],[88.59341590000001,56.430664099999994],[88.69648360000001,56.4181825],[88.69514699999999,56.3664302],[88.8609217,56.372908300000006],[88.8688056,56.3654785],[88.86651930000001,56.358142300000004],[88.87199779999999,56.3541366],[88.884138,56.34848399999999],[88.89496500000001,56.348794399999996],[88.92076340000001,56.333893399999994],[88.9128833,56.3218299],[88.8929814,56.315240499999994],[88.901008,56.306736300000004],[88.9007955,56.3020702],[89.0398982,56.30048359999999],[89.0366523,56.201266],[89.09700690000001,56.201208],[89.09721250000001,56.19716220000001],[89.1266894,56.1845317],[89.09912740000001,56.1638998],[89.104815,56.1510223],[89.1362665,56.1497096],[89.1498427,56.1429944],[89.15176109999999,56.13921580000001],[89.1872729,56.1420994],[89.2016078,56.1395264],[89.19300809999999,56.13611380000001],[89.19301340000001,56.113931],[89.19099960000001,56.1140316],[89.19302970000001,56.08089439999999],[89.23225440000002,56.0738681],[89.2302023,56.0707076],[89.2363735,56.06899080000001],[89.24708340000002,56.0704013],[89.2555374,56.0768458],[89.26102430000002,56.07615090000001],[89.26461510000001,56.070318500000006],[89.26804109999999,56.070859],[89.26939490000001,56.06121890000001],[89.28244799999999,56.0565948],[89.27911,56.0527005],[89.26120040000002,56.050051399999994],[89.26427310000001,56.0440259],[89.25974219999999,56.0412505],[89.25727400000001,56.0310036],[89.2524564,56.029404],[89.24417330000001,56.00893260000001],[89.2485118,56.0027698],[89.24164710000001,55.995096000000004],[89.2561155,55.9832061],[89.26201160000001,55.9651294],[89.2715028,55.9567932],[89.28062420000002,55.942477],[89.26765190000002,55.938988200000004],[89.26287829999998,55.9336425],[89.27280579999999,55.9288335],[89.2850614,55.914306599999996],[89.2731317,55.9039466],[89.27109829999999,55.896725800000006],[89.2868589,55.8893005],[89.2904953,55.8936602],[89.30573549999998,55.8966656],[89.3236679,55.886117399999996],[89.3261876,55.888096499999996],[89.3206335,55.890684699999994],[89.32345360000001,55.8937256],[89.33587719999998,55.895003300000006],[89.3290137,55.89115030000001],[89.3384045,55.8897453],[89.3352003,55.883887399999985],[89.35687999999999,55.878501],[89.3635359,55.881360199999996],[89.3679651,55.8782699],[89.3655472,55.8752853],[89.37355179999999,55.87124949999999],[89.3829693,55.8735216],[89.38097509999999,55.8702993],[89.383134,55.867180399999995],[89.3955271,55.87080399999999],[89.40264370000001,55.8665625],[89.39282440000001,55.8664706],[89.39060040000001,55.863676399999996],[89.3967577,55.859734599999996],[89.38885219999999,55.8584391],[89.40065050000001,55.8563156],[89.40064650000001,55.853106399999994],[89.38694,55.8523982],[89.39242060000001,55.851120099999996],[89.390571,55.847137599999996],[89.39992860000001,55.8402289],[89.36325980000001,55.8298457],[89.3480469,55.8309267],[89.3451816,55.82595590000001],[89.3502969,55.8206269],[89.3325347,55.8114529],[89.3343967,55.77907570000001],[89.3302331,55.7764794],[89.3426611,55.7708924],[89.3487916,55.7737278],[89.3495762,55.7708888],[89.30421480000001,55.75811310000001],[89.2938581,55.7580265],[89.29100540000002,55.761809],[89.28520809999999,55.76257900000001],[89.27938849999998,55.756565800000004],[89.2749757,55.7568259],[89.2793962,55.76031110000001],[89.274805,55.7593261],[89.26530209999999,55.746363],[89.23627950000001,55.734648],[89.19115920000002,55.730467499999996],[89.18145460000001,55.734029],[89.17864109999998,55.7308092],[89.1845445,55.7278341],[89.17800719999998,55.72638130000001],[89.17815509999998,55.7219714],[89.17313899999999,55.72151250000001],[89.17378599999998,55.725880000000004],[89.1662167,55.727211800000006],[89.1596831,55.72005670000001],[89.15979229999998,55.7150994],[89.14996950000001,55.7152037],[89.14435300000001,55.7107242],[89.15007849999998,55.7056898],[89.1455337,55.703450700000005],[89.1437695,55.696228700000006],[89.1378495,55.69383500000001],[89.13156760000001,55.6963817],[89.13005360000001,55.69177090000001],[89.11748229999999,55.6967445],[89.10989719999999,55.6946754],[89.1052007,55.69933370000001],[89.08447779999999,55.693683],[89.0677403,55.69563070000001],[89.0595791,55.69255770000001],[89.0506812,55.6934795],[89.0504629,55.6873005],[89.039596,55.684746999999994],[89.0324306,55.6886111],[89.0377686,55.6819832],[89.02357699999999,55.672052400000005],[89.0134355,55.67531050000001],[89.00166480000001,55.6734819],[88.99089690000001,55.678947900000004],[88.99040300000001,55.6733678],[88.96721980000002,55.670472100000005],[88.96194690000002,55.6638984],[88.94903900000001,55.6644608],[88.95033879999998,55.66099220000001],[88.94769010000002,55.658478],[88.93302120000001,55.6616824],[88.91359910000001,55.6602035],[88.91316860000002,55.655692200000004],[88.9028157,55.6525242],[88.90082530000001,55.64833430000001],[88.90759770000001,55.64276],[88.89678789999999,55.643106],[88.8904555,55.63821020000001],[88.8951229,55.6347497],[88.89183990000001,55.6298662],[88.87208879999997,55.62773200000001],[88.87119829999999,55.622276500000005],[88.8642173,55.6168543],[88.85330669999999,55.6215971],[88.8469585,55.6117058],[88.83763920000001,55.6100624],[88.837275,55.604912500000005],[88.8286064,55.6016498],[88.8205794,55.5909374],[88.80408829999999,55.59070560000001],[88.80663009999999,55.5866258],[88.79750640000002,55.584500999999996],[88.79702610000001,55.58088179999999],[88.7799343,55.5811907],[88.7802758,55.574825],[88.76648940000001,55.5715766],[88.7691761,55.568327800000006],[88.76711200000001,55.56675250000001],[88.7588192,55.566634],[88.76238839999999,55.562005400000004],[88.7574962,55.55815220000001],[88.7314448,55.5524597],[88.729674,55.550344599999995],[88.73461800000001,55.5435573],[88.72209649999999,55.53773],[88.69970199999999,55.533762700000004],[88.6992058,55.52954890000001],[88.6865222,55.5270492],[88.6774396,55.518019300000006],[88.6709146,55.517335700000004],[88.66687619999999,55.5110301],[88.66830839999999,55.5077411],[88.659694,55.5071448],[88.65889099999998,55.5029945],[88.6530792,55.4992686],[88.66029360000002,55.481575],[88.6492084,55.4761735],[88.6490017,55.469363],[88.6342305,55.4689667],[88.63247319999999,55.4720218],[88.6114058,55.4558347],[88.616947,55.450649199999994],[88.60716340000002,55.4441203],[88.60297719999998,55.43888449999999],[88.60595479999999,55.4375377],[88.6037346,55.4343567],[88.5980126,55.4324699]]]]}}