{"type":"Feature","properties":{"regionId":"khanty_mansiyskiy_avtonomnyy_okrug_yugra","name":"Ханты-Мансийский автономный округ - Югра","name:en":"Khanty-Mansiysk Autonomous Okrug – Ugra","timezone":"Asia/Yekaterinburg","name_ru":"Ханты-Мансийский автономный округ - Югра","name_en":"Khanty-Mansiysk Autonomous Okrug – Ugra","name_zh":"汉特-曼西自治区—尤格拉"},"geometry":{"type":"Polygon","coordinates":[[[84.44085950000002,62.19565670000001],[84.42532999999999,62.230166000000004],[84.40136420000002,62.245312800000015],[84.3708396,62.2547258],[84.31964330000001,62.261017100000004],[84.2969813,62.2705645],[84.29502070000001,62.28211540000001],[84.30563699999999,62.3082973],[84.30215390000001,62.32301880000001],[84.29495490000002,62.33311990000001],[84.2654733,62.34703139999999],[84.25204529999999,62.3707],[84.23908,62.38146819999999],[84.21669680000001,62.385866099999994],[84.1701406,62.3793626],[84.1020607,62.3773056],[84.006946,62.40877230000001],[83.99949170000001,62.41485439999999],[83.9603886,62.4901594],[83.81402840000001,62.56987590000001],[83.62268789999999,62.503168900000006],[83.56373049999999,62.4982394],[83.55326720000001,62.52737390000001],[83.3242477,62.458029499999995],[83.02348229999998,62.52633410000001],[83.04931690000001,62.5893469],[82.91385670000001,62.6262114],[82.7589962,62.6599549],[82.7593282,62.66730570000001],[82.76723560000002,62.667415000000005],[82.7681304,62.6840149],[82.76186370000002,62.7494462],[82.46016820000001,62.77515940000001],[82.3851122,62.7613295],[82.29128790000001,62.76592980000001],[82.1593247,62.8130082],[82.04350480000001,62.767292700000006],[81.9452711,62.7460467],[81.8412871,62.69585690000001],[81.74117530000001,62.7050047],[81.6654607,62.73055330000001],[81.63874199999998,62.779396000000006],[81.39605879999999,62.815746399999995],[81.29124950000002,62.8585473],[81.3198589,62.909913700000004],[81.22125300000002,62.9332459],[81.15030009999998,62.9687447],[81.14374109999999,62.975861599999995],[81.1469511,62.985953],[81.139855,62.99270430000001],[81.1242029,62.9949272],[81.0963198,63.01120449999999],[81.04208179999999,63.066695200000005],[81.0370185,63.147458900000004],[80.9219485,63.1566356],[80.68091869999999,63.115941],[80.58838119999999,63.07813860000001],[80.58878729999998,63.0102079],[80.55191260000001,62.9895211],[80.48134370000001,62.9884043],[80.46320620000002,62.967335500000004],[80.3819047,62.9325374],[80.30475709999999,62.9124025],[80.2837079,62.8937374],[80.18664109999999,62.8641017],[80.1272854,62.8320696],[80.093017,62.8179333],[80.0300792,62.8076143],[79.97125240000001,62.8129407],[79.9246488,62.7940861],[79.9083207,62.78503270000001],[79.8931568,62.7693944],[79.8914926,62.7600824],[79.90048540000001,62.74535220000001],[79.9038105,62.73209000000001],[79.90195680000001,62.72519680000001],[79.8848116,62.6819584],[79.8434403,62.60855680000001],[79.55233309999998,62.60419890000001],[79.44180320000002,62.6175925],[79.2511379,62.6066745],[78.73946190000001,62.60221270000001],[78.51946740000001,62.5610917],[78.4059627,62.56035520000001],[78.1345962,62.492828100000004],[78.0929057,62.4640984],[77.87042279999999,62.5759485],[77.37810239999999,62.7078973],[77.1368192,62.8114223],[77.0253226,62.9719201],[76.89135209999999,62.990745200000006],[76.8516312,62.988709300000004],[76.66694229999999,63.0348098],[76.5169022,62.99935690000001],[76.3400498,62.95134409999999],[76.26671420000001,63.0131984],[76.0392755,63.065908500000006],[75.96996850000001,63.0706082],[75.89337929999999,63.106481699999996],[75.77840779999998,63.1171481],[75.6049618,63.08808439999999],[75.4286757,63.098050400000005],[75.3170015,63.097938400000004],[75.2535579,63.0724573],[75.17744279999998,63.06090820000001],[75.08026360000002,63.068454300000006],[75.01955060000002,63.04671990000001],[74.94154860000002,63.02532230000001],[74.5243218,63.0363641],[74.4573448,63.0671224],[74.38995229999999,63.11448969999999],[74.2531941,63.173027399999995],[73.99866870000001,63.16818510000001],[73.865504,63.1711904],[73.4981828,63.187955],[73.3637957,63.23224210000001],[73.26326870000001,63.334776],[73.10615340000001,63.378195700000006],[73.1251839,63.3977684],[73.05429720000001,63.4267915],[72.90120180000001,63.3974],[72.8725559,63.355793],[72.8049641,63.3359457],[72.664714,63.281790900000004],[72.40638360000001,63.299387200000005],[72.12830599999998,63.296786000000004],[72.1000806,63.2765214],[72.0483957,63.2588165],[72.0334587,63.255622200000005],[71.8817582,63.25593280000001],[71.8424477,63.2482842],[71.7851324,63.22699520000001],[71.64548409999999,63.19275170000001],[71.60059809999998,63.3189828],[71.5367336,63.469960900000004],[71.56424720000001,63.55188179999999],[71.5630069,63.571947699999996],[71.49504400000001,63.6414718],[71.46127340000002,63.66235540000001],[71.4558562,63.68330830000001],[71.24714780000001,63.7004627],[70.9226917,63.70279220000001],[70.8798595,63.7513887],[70.8256533,63.8219111],[70.70620600000001,63.886808099999996],[70.68788029999999,63.9423833],[70.6085916,63.9720692],[70.58122420000002,64.0002455],[70.5589034,64.0152818],[70.6508207,64.0621275],[70.76649590000001,64.11236699999999],[70.7709339,64.19111330000001],[70.66250099999999,64.23901060000001],[70.44924180000001,64.24924730000001],[70.2923037,64.3425143],[70.16600269999999,64.339657],[70.0864847,64.31878009999998],[69.88852829999999,64.32169420000001],[69.830366,64.330415],[69.8277574,64.3574665],[69.7698719,64.37648549999999],[69.7249479,64.3959079],[69.5095498,64.38591849999999],[69.3967562,64.3868619],[69.28720790000001,64.4707974],[69.2682611,64.479349],[69.25220370000001,64.48025540000002],[69.1395966,64.45451570000002],[69.0480179,64.4560063],[68.9899735,64.44634400000001],[68.85847199999998,64.4385393],[68.91042320000003,64.401757],[68.92664960000002,64.38181460000001],[68.9688757,64.34893079999999],[68.9973389,64.33933979999999],[69.0310824,64.34258229999999],[69.04392750000001,64.3307644],[69.0308658,64.3210205],[68.9907805,64.30553499999999],[68.9722764,64.2927648],[68.91765500000002,64.26888699999999],[68.91306360000003,64.2595105],[68.9232187,64.23670990000001],[68.91780000000001,64.2286369],[68.9095768,64.223552],[68.8820596,64.2217168],[68.78903609999999,64.22468330000001],[68.6591409,64.25533349999999],[68.5546793,64.28646330000001],[68.4859538,64.29010190000001],[68.45210320000001,64.2882898],[68.36126930000002,64.256915],[68.26904440000001,64.21963070000001],[68.2201605,64.20566070000001],[68.1941483,64.19175829999999],[68.18849849999998,64.17307129999998],[68.13603629999999,64.1536412],[68.05864879999999,64.13902340000001],[68.04165940000003,64.12472829999999],[68.01842090000001,64.12331799999998],[68.00368460000001,64.1152273],[67.96536090000001,64.11096340000002],[67.94551500000001,64.1126376],[67.94652370000003,64.10504019999999],[67.94158020000002,64.0901745],[67.90010420000002,64.08073729999998],[67.8339345,64.04685450000001],[67.83673879999998,64.0383192],[67.8202667,64.0258169],[67.7854846,64.01926950000002],[67.75927940000001,64.03966460000002],[67.73196200000001,64.0517962],[67.708647,64.0577597],[67.7020077,64.0667339],[67.68030749999998,64.0766963],[67.63782450000001,64.0701986],[67.6031687,64.07425060000001],[67.58415340000002,64.0685617],[67.5639816,64.07735819999999],[67.5392812,64.08206390000001],[67.5307137,64.08848789999999],[67.46085660000001,64.07722490000002],[67.4226384,64.08542849999999],[67.4107955,64.09234249999999],[67.3908492,64.0911828],[67.37674829999997,64.0947526],[67.33326940000002,64.0871811],[67.322619,64.07877369999999],[67.28490310000001,64.07388789999999],[67.2585152,64.08205129999999],[67.27779609999999,64.09735990000001],[67.2867557,64.1073115],[67.285666,64.10977909999998],[67.25106390000002,64.1206648],[67.2338012,64.11877609999998],[67.21220720000001,64.12135289999999],[67.18503489999999,64.1174101],[67.17300279999998,64.12135129999999],[67.17559589999999,64.1379041],[67.1999933,64.14951690000001],[67.19966950000001,64.15966590000001],[67.16935169999999,64.15587239999998],[67.1296929,64.1594254],[67.1188909,64.16298729999998],[67.1199755,64.16884209999998],[67.10937809999997,64.1745248],[67.06480950000001,64.17689289999998],[67.01078109999999,64.18906179999999],[66.99558540000001,64.18879349999999],[66.98759380000001,64.1830976],[66.9397941,64.18609229999998],[66.9262563,64.20149490000001],[66.90424720000001,64.2061041],[66.86782570000001,64.2029353],[66.8384096,64.21146930000002],[66.84226550000001,64.22807259999999],[66.835255,64.26426830000001],[66.84571209999999,64.28832249999999],[66.82873479999998,64.29174470000001],[66.8428129,64.3170322],[66.85429920000001,64.32502960000001],[66.85572679999999,64.33124300000001],[66.84734300000001,64.340373],[66.85194320000001,64.34399930000001],[66.8618876,64.34498970000001],[66.8634622,64.3515482],[66.8869119,64.35615340000001],[66.88785829999999,64.362574],[66.91535560000001,64.3745253],[66.918077,64.3822676],[66.9276818,64.3878502],[66.92402080000001,64.3924633],[66.93456230000001,64.3992417],[66.93728540000002,64.4059027],[66.9539886,64.41626530000002],[66.9770706,64.42322860000002],[66.9770426,64.4292021],[66.98102770000001,64.4320902],[66.97885199999999,64.4398986],[66.9855187,64.44424700000002],[66.9854651,64.4487529],[66.98985540000001,64.4524127],[66.98134809999999,64.46256240000001],[66.95140020000001,64.46246260000001],[66.9388007,64.46713100000001],[66.94386330000002,64.4704198],[66.9633907,64.47203779999998],[66.97899799999999,64.4787291],[66.9796613,64.48626180000001],[66.96828980000001,64.49415550000002],[66.9738067,64.5000228],[66.97026910000001,64.50807089999999],[66.9550033,64.51749340000002],[66.9337929,64.5203217],[66.92205960000001,64.5159307],[66.9036123,64.51511400000001],[66.8110968,64.54346490000002],[66.74392630000001,64.54502940000002],[66.7089212,64.5544872],[66.67525779999998,64.55364990000001],[66.6398184,64.54567440000001],[66.60527129999998,64.5427479],[66.57173619999999,64.54477829999999],[66.51814340000001,64.53858799999999],[66.4869424,64.5296353],[66.4549305,64.52719390000001],[66.1990862,64.59069620000001],[65.9968917,64.5819926],[65.9330793,64.55524829999999],[65.63331699999999,64.5583466],[65.3762514,64.5557546],[65.1906833,64.47627320000001],[65.17727049999999,64.46809320000001],[64.98310660000001,64.4700574],[64.72424940000002,64.4304308],[64.6038169,64.4426773],[64.48233169999999,64.37108289999999],[64.0433107,64.35935309999999],[63.962628,64.33584909999999],[63.9486379,64.3274277],[63.9134226,64.2877072],[63.6112597,64.2705141],[63.59397990000001,64.29483570000001],[63.504339800000004,64.291577],[63.410064999999996,64.33366900000001],[63.516972700000004,64.36315590000001],[63.4775176,64.4561453],[63.393418200000006,64.4644755],[63.2473284,64.52041779999999],[63.052353600000004,64.51566760000001],[62.98414449999999,64.49865030000001],[62.9143901,64.46736890000001],[62.8347493,64.5052586],[62.71480739999999,64.49662840000002],[62.557642699999995,64.55854699999999],[62.59890250000001,64.62272699999998],[62.589628999999995,64.640373],[62.731729200000004,64.68210189999999],[62.8115343,64.7364485],[62.8029706,64.77599119999999],[62.82251910000001,64.7898627],[62.807012300000004,64.8407152],[62.6952848,64.87342999999998],[62.721349700000005,64.9303913],[62.7502442,64.93512370000002],[62.781353900000006,64.99473809999999],[62.7845693,65.00794540000001],[62.8237413,65.05460670000001],[62.817293199999995,65.1946898],[62.8721144,65.2905891],[62.455110100000006,65.33880669999999],[62.366543,65.43211050000001],[62.4254054,65.5037016],[62.3129699,65.5351568],[62.3063067,65.5868179],[62.2652814,65.63234449999999],[62.1628449,65.6413824],[62.155128700000006,65.65861109999999],[62.11413290000001,65.67361149999999],[62.108071800000005,65.6795549],[62.0856463,65.68575079999998],[62.075263,65.69729670000001],[62.0642931,65.703173],[62.0004438,65.71773560000001],[61.961463499999994,65.70519960000001],[61.954129099999996,65.6996578],[61.95511690000001,65.6950099],[61.883414699999996,65.6868605],[61.858602,65.6869439],[61.8636739,65.67507599999998],[61.8781413,65.66798209999999],[61.855128,65.66079699999999],[61.8311746,65.6636452],[61.8214522,65.66194990000001],[61.81489069999999,65.65263809999998],[61.8303701,65.6440974],[61.8220418,65.6376971],[61.81099939999999,65.6361935],[61.7854504,65.6248265],[61.7764201,65.6262147],[61.74857320000001,65.6216966],[61.70293160000001,65.60273819999998],[61.7102285,65.59664470000001],[61.7428863,65.5899029],[61.736205000000005,65.58468040000001],[61.7190394,65.57769590000001],[61.688430200000006,65.57457819999999],[61.66924530000001,65.55847199999998],[61.62874420000001,65.56193360000002],[61.62012360000001,65.5600717],[61.605629300000004,65.5507208],[61.5954745,65.5377466],[61.571081899999996,65.5282006],[61.56307880000001,65.5135358],[61.54516830000001,65.50914660000001],[61.524416800000004,65.49494100000001],[61.5209879,65.48729690000002],[61.5113663,65.4793669],[61.5077176,65.46905290000001],[61.493378400000005,65.4561029],[61.47539030000001,65.45412690000002],[61.462569900000005,65.44498590000002],[61.4555238,65.4281907],[61.43469759999999,65.41165610000002],[61.4272375,65.39580049999999],[61.419064999999996,65.3909364],[61.41767049999999,65.38671229999999],[61.4041136,65.38162920000002],[61.3890105,65.3706022],[61.3740228,65.36722280000001],[61.3659744,65.36165090000001],[61.347973499999995,65.3585074],[61.3346552,65.34479470000001],[61.29903040000001,65.32781440000001],[61.284586399999995,65.31026070000001],[61.2878067,65.3025641],[61.284792200000005,65.29656870000001],[61.29793050000001,65.28852370000001],[61.29514410000001,65.2770678],[61.315513900000006,65.2761915],[61.358588,65.2828844],[61.3597354,65.2670468],[61.352071699999996,65.26191840000001],[61.35102319999999,65.25662080000001],[61.3649792,65.25037119999999],[61.3233861,65.21991420000002],[61.2978986,65.22069370000001],[61.28140439999999,65.21196940000003],[61.29830380000001,65.20476640000001],[61.2944878,65.19864869999999],[61.29947680000001,65.1945172],[61.295941000000006,65.1832279],[61.2862699,65.17249379999998],[61.272059600000006,65.1684105],[61.2593246,65.17188019999999],[61.2379404,65.17050829999998],[61.19336560000001,65.17676679999998],[61.16616280000001,65.16768450000001],[61.137373600000004,65.1744949],[61.12597660000001,65.16660350000001],[61.107645999999995,65.1622952],[61.10235970000001,65.1540516],[61.0918643,65.1510895],[61.0969642,65.13749490000001],[61.08189839999999,65.12784729999998],[61.091846499999996,65.1072873],[61.083390800000004,65.101921],[61.081603199999996,65.087528],[61.076999,65.08236109999999],[61.0595091,65.0804058],[61.04128459999999,65.07171360000001],[60.99515480000001,65.0663607],[60.9883344,65.0548572],[60.9873256,65.04515300000001],[60.9690071,65.0321438],[60.95704729999999,65.0293105],[60.9452441,65.0126978],[60.890110400000005,65.0225809],[60.8646729,65.0221929],[60.849877799999994,65.02773179999998],[60.8239699,65.0235155],[60.80760339999999,65.0249671],[60.8062721,65.0187734],[60.79541790000001,65.0110465],[60.794562600000006,65.0045111],[60.76825570000001,64.99108910000001],[60.773757,64.9825171],[60.7520013,64.97937669999999],[60.76562130000001,64.967302],[60.7527685,64.95907009999999],[60.7570005,64.952543],[60.75559220000001,64.9430718],[60.7532317,64.9388829],[60.729440200000006,64.9255054],[60.713973200000005,64.9221153],[60.69069330000001,64.9269993],[60.6461675,64.9259719],[60.6348132,64.9204312],[60.615005200000006,64.91894090000001],[60.5909471,64.9306388],[60.59636030000001,64.93638209999999],[60.5942038,64.94165480000002],[60.5541785,64.95194400000001],[60.5446968,64.96022350000003],[60.5149766,64.96302450000002],[60.492730400000006,64.98252020000001],[60.4899803,64.98878649999999],[60.4663841,64.99237360000001],[60.4344539,65.00674049999999],[60.4284048,65.02347509999998],[60.44891260000001,65.0383076],[60.4395888,65.0431884],[60.4392331,65.0493858],[60.4439058,65.0561993],[60.4262742,65.0573793],[60.42010320000001,65.0656791],[60.3966242,65.0650807],[60.3756563,65.07247999999998],[60.3613742,65.0613814],[60.3555597,65.06016900000002],[60.336043599999996,65.06637029999999],[60.3135104,65.06762640000002],[60.2887666,65.0765031],[60.2178509,65.07934089999999],[60.20355910000001,65.0769432],[60.1738972,65.05166000000001],[60.124019200000006,65.0544901],[60.100455000000004,65.0378415],[60.076784399999994,65.03504769999999],[60.05447939999999,65.0279551],[60.0341857,65.02854879999998],[60.0400621,65.01795720000001],[60.0379165,65.00849799999999],[60.0424006,65.0026519],[60.05746309999999,64.99665850000001],[60.0497745,64.98942860000001],[60.052911900000005,64.9840489],[60.0499096,64.97984779999999],[60.02887820000001,64.9758631],[60.034988399999996,64.9697182],[60.036293300000004,64.959895],[60.02556290000001,64.95583529999999],[60.0099512,64.95530099999999],[60.006433300000005,64.9523572],[60.0094171,64.94477590000001],[60.00426349999999,64.9407765],[59.97330830000001,64.93935940000001],[59.94688299999999,64.94425680000002],[59.937318600000005,64.94227760000001],[59.927969,64.93490420000002],[59.8922899,64.9322398],[59.8802028,64.92062380000002],[59.8797375,64.9155428],[59.88383939999999,64.91236690000001],[59.882491599999994,64.9069763],[59.888641299999996,64.9025179],[59.86521290000001,64.8953134],[59.82571060000001,64.909075],[59.81109969999999,64.91109590000002],[59.788340700000006,64.8982985],[59.76451520000001,64.87961779999999],[59.7402471,64.87563469999999],[59.749699,64.8684606],[59.7374114,64.8643041],[59.72897010000001,64.85487749999999],[59.7276479,64.8521543],[59.735128300000014,64.8492008],[59.736829,64.845162],[59.7073846,64.8374026],[59.724129600000005,64.82594789999999],[59.70560280000001,64.82249979999999],[59.70332930000001,64.81736380000001],[59.692710200000015,64.81578179999998],[59.689003,64.8103862],[59.67907030000001,64.80693889999999],[59.6758855,64.80133719999999],[59.66175230000001,64.79945920000002],[59.64388449999999,64.80557449999999],[59.62463210000001,64.8032661],[59.6328048,64.79646330000001],[59.6244571,64.78494440000001],[59.6452462,64.7788837],[59.6505935,64.7689843],[59.629363100000006,64.76423140000001],[59.631105500000004,64.7582512],[59.627711700000006,64.7555269],[59.63377630000001,64.75241799999999],[59.6400857,64.74288279999999],[59.63601570000001,64.7418918],[59.6368036,64.7342801],[59.62809610000001,64.7294774],[59.62583490000001,64.7244306],[59.638966,64.7228633],[59.639690800000004,64.71774140000001],[59.6614856,64.71131690000001],[59.659484899999995,64.70300360000002],[59.671465399999995,64.69824779999999],[59.6912699,64.69873659999999],[59.70459530000001,64.6940363],[59.724389800000004,64.69299869999999],[59.7449833,64.6813969],[59.75158759999999,64.6678747],[59.7464827,64.66493009999999],[59.746366300000005,64.65810779999998],[59.73535340000001,64.65261629999999],[59.69369030000001,64.65711940000001],[59.67335580000001,64.65080809999998],[59.6603465,64.6519457],[59.656330200000006,64.6571001],[59.61833490000001,64.6499174],[59.615421399999995,64.6451033],[59.63141,64.63848249999998],[59.628332000000015,64.6318525],[59.617294099999995,64.62348219999998],[59.618408,64.6177774],[59.6101446,64.6102706],[59.5978117,64.60237839999998],[59.5722279,64.59326730000001],[59.570745900000006,64.5897295],[59.575070100000005,64.58606540000001],[59.5712223,64.58276719999999],[59.5732071,64.5760991],[59.5587737,64.5669017],[59.5523634,64.55721240000001],[59.558311200000006,64.548422],[59.5567487,64.54400700000001],[59.53632290000001,64.540316],[59.5388315,64.5347218],[59.5272993,64.5226152],[59.49619510000001,64.5197326],[59.48561,64.5094366],[59.466194900000005,64.5058416],[59.4677919,64.4993065],[59.4642822,64.4957976],[59.5071628,64.49043900000001],[59.52731570000001,64.4961523],[59.538853700000004,64.49153670000001],[59.563848300000004,64.49921190000002],[59.598434600000004,64.49746700000001],[59.5971977,64.4925384],[59.6015217,64.488403],[59.5908419,64.48002220000001],[59.5902414,64.47597829999998],[59.6003294,64.4659223],[59.6292471,64.46152600000002],[59.6312256,64.4554902],[59.64535920000001,64.44718300000002],[59.651175300000006,64.4331481],[59.616165900000006,64.40862670000001],[59.62857110000001,64.40216060000002],[59.622630400000006,64.3873756],[59.653528200000004,64.37571969999999],[59.6445036,64.3611311],[59.62586520000001,64.34604960000001],[59.62599900000001,64.34082790000001],[59.6000773,64.3337286],[59.60372,64.32538539999999],[59.6013706,64.31154940000002],[59.58462039999999,64.30018009999999],[59.5779593,64.27692990000001],[59.5712301,64.27378379999999],[59.5738571,64.25240529999999],[59.5598305,64.2477368],[59.5587433,64.24312560000003],[59.56891510000001,64.23613879999999],[59.5826992,64.23429720000001],[59.582874499999996,64.22508079999999],[59.6083611,64.2218414],[59.620648,64.21553279999999],[59.633635700000006,64.21442120000002],[59.62876000000001,64.2093075],[59.6297871,64.2035303],[59.62101880000001,64.196979],[59.6334828,64.1936282],[59.6366785,64.187197],[59.66395320000001,64.17615579999999],[59.66521850000001,64.16899719999999],[59.6777956,64.1643284],[59.67793520000001,64.152629],[59.6817135,64.14769270000001],[59.70507330000001,64.1422345],[59.73261310000001,64.14091940000002],[59.74411280000001,64.13643259999999],[59.76818290000001,64.1426668],[59.82835890000001,64.1344072],[59.815257599999995,64.1136851],[59.8244167,64.1060869],[59.822796800000006,64.09415760000002],[59.8369472,64.08714420000001],[59.8243747,64.08442950000001],[59.8097968,64.0752342],[59.8131856,64.0662583],[59.8113021,64.0632841],[59.768227,64.0406787],[59.7595406,64.0277548],[59.756648,64.01392500000001],[59.7574199,64.007112],[59.76915100000001,64.00056070000001],[59.7538213,63.9838753],[59.7240867,63.97511370000001],[59.7245404,63.96533630000001],[59.72093110000001,63.9608178],[59.6880647,63.9459499],[59.6609485,63.941037099999996],[59.63821870000001,63.9319731],[59.59301790000001,63.9243477],[59.584607299999995,63.9175253],[59.561302000000005,63.90855930000001],[59.560039800000006,63.8973767],[59.562744200000004,63.89311510000001],[59.5599637,63.884864399999984],[59.5767764,63.8737077],[59.5800602,63.8625216],[59.5753994,63.855831599999995],[59.5756372,63.849306399999996],[59.570336100000006,63.844924199999994],[59.5709998,63.8410782],[59.55981739999999,63.835803999999996],[59.555747,63.82931590000001],[59.5416007,63.820747],[59.533329900000005,63.806853],[59.53635270000001,63.8009507],[59.5333971,63.785843],[59.5405366,63.777134700000005],[59.52556820000001,63.76919240000001],[59.53250860000001,63.758777],[59.533813200000004,63.745988800000006],[59.526210600000006,63.73896810000001],[59.521964499999996,63.724037800000005],[59.533146200000004,63.712847399999994],[59.5153602,63.70290880000001],[59.500314100000004,63.6877821],[59.5038669,63.66691500000001],[59.4997891,63.663943700000004],[59.4976662,63.65469939999999],[59.4877456,63.653125300000006],[59.483226599999995,63.647763999999995],[59.48368149999999,63.642070700000005],[59.473758100000005,63.63890730000001],[59.4787884,63.630181300000004],[59.48785149999999,63.6270825],[59.478206300000004,63.6235415],[59.47992,63.614183999999995],[59.47595270000001,63.609258600000004],[59.4777619,63.6044852],[59.4749191,63.59510990000001],[59.47803590000001,63.5899067],[59.475745800000006,63.5788505],[59.4786452,63.5722255],[59.4712987,63.5528003],[59.4651574,63.5462078],[59.4395943,63.5364243],[59.437530800000005,63.52933670000001],[59.450336300000004,63.5152411],[59.4437255,63.507513100000004],[59.4437166,63.5019699],[59.426158400000006,63.488723900000004],[59.4043938,63.4790456],[59.405095900000006,63.4642081],[59.3980646,63.4532507],[59.3906291,63.4482486],[59.389882199999995,63.4392443],[59.38008769999999,63.431274099999996],[59.377966199999996,63.422054700000004],[59.353450699999996,63.41404409999999],[59.310829899999995,63.3874928],[59.319987999999995,63.3827764],[59.3404913,63.38086249999999],[59.3739056,63.36946759999999],[59.3654007,63.359409899999996],[59.3425384,63.356652999999994],[59.3271195,63.34951],[59.335345600000004,63.3414089],[59.3257464,63.334721599999995],[59.3217656,63.321087999999996],[59.32203020000001,63.314057999999996],[59.3349699,63.3081975],[59.3302037,63.304977099999995],[59.331811699999996,63.29993770000001],[59.3427855,63.29337090000001],[59.339437,63.2812078],[59.351674399999986,63.2749054],[59.353514399999995,63.269883],[59.366261599999994,63.266174500000005],[59.3580593,63.2570367],[59.365877,63.251827299999995],[59.334079599999995,63.24823620000001],[59.3315619,63.22937460000001],[59.31760639999999,63.22219300000001],[59.3205584,63.21366749999999],[59.309443699999996,63.20906],[59.304599399999994,63.203292000000005],[59.320320300000006,63.19692800000001],[59.2870228,63.183193100000004],[59.291923100000005,63.176341900000004],[59.2854869,63.17031970000001],[59.2878042,63.1647076],[59.3079969,63.1456293],[59.3058629,63.14019280000001],[59.3093087,63.1317824],[59.322729,63.1238031],[59.2894105,63.1049932],[59.275223700000005,63.1077741],[59.256881299999996,63.104890499999996],[59.23970130000001,63.098666900000005],[59.2378134,63.094317800000006],[59.225311800000014,63.089302800000006],[59.2377612,63.084784299999995],[59.24243020000001,63.0798255],[59.231030700000005,63.0654601],[59.233202000000006,63.0552741],[59.20379390000001,63.027596700000004],[59.2080818,63.0236839],[59.20579550000001,63.01384649999999],[59.2107771,63.0060069],[59.2193887,63.0002439],[59.217390300000005,62.994773900000006],[59.224430100000006,62.982778100000004],[59.273633200000006,62.9822147],[59.28290280000001,62.976190800000005],[59.294268900000006,62.9744725],[59.295147500000006,62.963801399999994],[59.3252041,62.9420256],[59.37720099999999,62.9417113],[59.4148521,62.933238300000006],[59.425696200000004,62.9279262],[59.4340593,62.9182499],[59.4487848,62.917722],[59.46215730000001,62.898071800000004],[59.464500900000004,62.8901776],[59.461375600000004,62.88520139999999],[59.44251080000001,62.8755949],[59.447385499999996,62.8611263],[59.4401257,62.854799899999996],[59.4432693,62.8480933],[59.4398155,62.8394198],[59.4443178,62.829926300000004],[59.44196709999999,62.81268299999999],[59.4356441,62.8041852],[59.4333244,62.7782615],[59.4179429,62.7700249],[59.41443699999999,62.7598429],[59.387238499999995,62.757946399999994],[59.358958300000005,62.7505493],[59.389112000000004,62.741089599999995],[59.3917891,62.73696210000001],[59.3861743,62.729577600000006],[59.3702748,62.725215100000014],[59.39553210000001,62.72152270000001],[59.4003942,62.712119400000006],[59.4106053,62.70524890000001],[59.4077175,62.699644],[59.41168649999999,62.694642900000005],[59.4025744,62.6758547],[59.40404449999999,62.671573900000006],[59.425944900000005,62.66081690000001],[59.4426519,62.659514],[59.429222200000005,62.649506800000005],[59.4260749,62.63281690000001],[59.4372166,62.621090800000005],[59.4600546,62.6145749],[59.471717,62.6046229],[59.469098900000006,62.5925415],[59.45688379999999,62.5868548],[59.458122900000006,62.580896599999996],[59.4429534,62.56547330000001],[59.4644439,62.5602771],[59.508500000000005,62.5628207],[59.52637280000001,62.557736399999996],[59.5338079,62.549483699999996],[59.55106129999999,62.54556590000001],[59.6145292,62.5438481],[59.635446800000004,62.5484543],[59.6298448,62.522175900000015],[59.6191882,62.5141273],[59.62376220000001,62.5045148],[59.62022830000001,62.49071130000001],[59.6096565,62.4800057],[59.6105447,62.46073620000001],[59.6057684,62.4434556],[59.5824325,62.419286799999995],[59.591329,62.4137693],[59.6196659,62.4065546],[59.617597599999996,62.389871899999996],[59.61217290000001,62.385350700000004],[59.6132219,62.36695530000001],[59.57871920000001,62.3587067],[59.5767785,62.335528800000006],[59.5502459,62.3258992],[59.5277594,62.32810880000001],[59.5143112,62.3215385],[59.51446639999999,62.311574699999994],[59.494087799999996,62.29909820000001],[59.5002948,62.28550560000001],[59.5118989,62.27857120000001],[59.501465499999995,62.25845230000001],[59.489865099999996,62.2459604],[59.46899630000001,62.2447485],[59.45464549999999,62.23621520000001],[59.45776599999999,62.226984200000004],[59.4492059,62.217826099999996],[59.4567582,62.2068491],[59.43505510000001,62.19289220000001],[59.4349593,62.1898022],[59.442173100000005,62.1845135],[59.4327649,62.174576300000005],[59.4095833,62.1644946],[59.3995448,62.1556258],[59.4049554,62.13690290000001],[59.3990291,62.1277978],[59.4013692,62.104504],[59.4088485,62.098066800000005],[59.431452300000004,62.0946998],[59.433944,62.0826016],[59.429432000000006,62.072893],[59.43679890000001,62.06633090000001],[59.4369541,62.057123],[59.424375500000004,62.0493685],[59.4335216,62.03843930000001],[59.442716100000005,62.0163511],[59.44165099999999,62.0055445],[59.4376121,62.00013380000001],[59.466477499999996,61.993857399999996],[59.469957300000004,61.98475439999999],[59.477807999999996,61.98049449999999],[59.48152149999999,61.961610900000004],[59.488645,61.9510581],[59.4866989,61.9460689],[59.505342000000006,61.9373698],[59.524150500000005,61.93559230000001],[59.5408113,61.936225900000004],[59.58295570000001,61.9454251],[59.62950920000001,61.91755],[59.6636479,61.9188028],[59.7180224,61.9304868],[59.7434446,61.9240462],[59.758371700000005,61.924902100000004],[59.774085,61.917289999999994],[59.806537399999996,61.912477599999995],[59.82519490000001,61.9064024],[59.88498409999999,61.90498649999999],[59.926947,61.89915230000001],[59.9504987,61.886609899999996],[59.973237399999995,61.8825724],[59.9798,61.871935],[59.9752278,61.85058939999999],[59.9673905,61.84116339999999],[59.9445396,61.8333991],[59.95042459999999,61.8187038],[59.941154499999996,61.803594],[59.9405807,61.79451130000001],[59.9591725,61.778046200000006],[59.9491812,61.767068300000005],[59.943910900000006,61.7544427],[59.9509736,61.745442800000006],[59.97651270000001,61.7306843],[59.979230300000005,61.724606900000005],[59.989130700000004,61.7194807],[60.514609699999994,61.73569990000001],[60.7106827,61.7170594],[60.8385985,61.69846630000001],[60.9974192,61.694800900000004],[61.16613840000001,61.6693264],[61.22947530000001,61.6544982],[61.461353300000006,61.582788300000004],[61.88651,61.436579300000005],[61.8905215,61.4068089],[62.20031670000001,61.3337221],[62.24953090000001,61.31835290000001],[62.4835549,61.26097310000001],[62.645589,61.1706512],[62.826001,61.0005295],[62.76015570000001,60.8533213],[62.814433599999994,60.756567],[62.8673828,60.653825],[62.9066591,60.6215214],[63.22573050000001,60.294206300000006],[63.1808401,60.224473800000005],[63.4442743,60.150102600000004],[63.49277370000001,60.1478703],[63.499936500000004,60.142244399999996],[63.516049499999994,60.140398100000006],[63.5263774,60.13281550000001],[63.53478139999999,60.13073320000001],[63.606047,60.1371648],[63.610715400000004,60.129904200000006],[63.604881799999994,60.125358100000014],[63.6182266,60.115541300000004],[63.6111584,60.10818210000001],[63.6107261,60.103045900000005],[63.60593630000001,60.1017036],[63.6776195,59.998091200000005],[63.8026787,59.8017427],[63.824946499999996,59.74473230000001],[63.8487334,59.5667345],[63.8743126,59.461300900000005],[63.99931120000001,59.3904218],[64.0204659,59.38185669999999],[64.4896702,59.3767548],[64.9073505,59.3339979],[65.0459951,59.3175252],[65.07186060000001,59.31186579999999],[65.0760677,59.30722399999999],[65.0734002,59.3035428],[65.07894889999999,59.29392360000001],[65.07847369999999,59.288638600000006],[65.08725470000002,59.2774177],[65.08599009999999,59.2716436],[65.093449,59.26439620000001],[65.0863219,59.2533778],[65.0877653,59.2471742],[65.09508179999999,59.245070000000005],[65.0957145,59.2420035],[65.1099429,59.241862],[65.10031869999999,59.23971370000001],[65.10604209999998,59.23913340000001],[65.1046733,59.2349641],[65.1098293,59.2375236],[65.1219108,59.234111600000006],[65.1153614,59.23053560000001],[65.1186306,59.22689880000001],[65.1169079,59.22557450000001],[65.12451779999999,59.22269800000001],[65.1206,59.220802500000005],[65.121715,59.21633550000001],[65.12591839999999,59.2167648],[65.13647929999999,59.2096657],[65.15222229999999,59.20943030000001],[65.16309709999999,59.213238000000004],[65.18574879999997,59.2117056],[65.2150855,59.215886499999996],[65.2363033,59.20557520000001],[65.3398476,59.008879300000004],[65.37268479999999,58.89895220000001],[65.65541119999999,58.658297],[65.95045990000001,58.6145443],[66.2908795,58.5944968],[66.31661690000001,58.58438159999999],[66.33758970000001,58.58126159999999],[66.34715360000003,58.583484199999994],[66.35726700000001,58.5798531],[66.45593149999999,58.6074222],[66.7852384,58.656545300000005],[66.77847259999999,58.75355570000001],[66.77247189999999,58.923282],[66.96866370000002,58.9721634],[66.9845872,58.9714192],[67.0537092,58.9268384],[67.2504698,59.0006024],[67.29989520000001,59.0241076],[67.51384390000001,59.076388800000004],[67.6119457,59.1041454],[67.6503164,59.16038270000001],[67.7238954,59.190565500000005],[67.78405620000001,59.2014379],[68.0994851,59.2031836],[68.26143160000001,59.23810910000001],[68.3949421,59.298174900000014],[68.41445550000002,59.327505],[68.50143390000001,59.4363797],[68.57347669999999,59.5885867],[68.73257269999999,59.569579600000004],[69.05135560000001,59.689590300000006],[69.3090014,59.769649],[69.3113513,59.77864280000001],[69.304498,59.785181900000005],[69.2128033,59.8350747],[69.14346400000001,59.8822922],[69.06994900000001,59.90353580000001],[69.1684935,59.966300200000006],[69.2697621,59.9895586],[69.3916738,59.97988049999999],[69.6226734,59.9680044],[69.6511038,59.909821799999996],[69.79349500000001,59.91466359999999],[69.82998149999999,59.9097166],[69.85855219999999,59.920306200000006],[69.8845391,59.9239225],[69.90601240000001,59.924836],[69.9364017,59.920628],[69.95039779999999,59.92512570000001],[69.9620675,59.9247764],[69.9637909,59.9276408],[69.9721824,59.922629],[69.99132260000002,59.92673290000001],[69.99750480000002,59.92311590000001],[70.0092395,59.92821230000001],[70.003361,59.9297898],[70.0055346,59.93184399999999],[70.02111040000001,59.9352735],[70.01992890000001,59.93711580000001],[70.034498,59.9422893],[70.0504089,59.93818],[70.0613786,59.9438363],[70.0710419,59.941114],[70.0922565,59.948830300000004],[70.1061105,59.9448982],[70.1231519,59.945815800000005],[70.13424920000001,59.9499315],[70.1417603,59.9468263],[70.14839409999999,59.948320800000005],[70.14759400000001,59.9452688],[70.15068289999999,59.945500800000005],[70.1481512,59.944840899999996],[70.14865920000001,59.9441992],[70.1604895,59.9444223],[70.17373969999998,59.9367248],[70.18491490000001,59.9401451],[70.2069741,59.935700000000004],[70.21246590000001,59.9309442],[70.21081660000002,59.92891900000001],[70.22086060000001,59.92393680000001],[70.2394393,59.92075020000001],[70.24555660000001,59.913900999999996],[70.26180670000001,59.9107432],[70.261757,59.9070562],[70.2777462,59.8965376],[70.27484849999999,59.894609499999994],[70.27852960000001,59.8915656],[70.27680869999999,59.8884061],[70.28803789999999,59.882877199999996],[70.289354,59.8769233],[70.3064622,59.870559],[70.32707029999999,59.871384299999995],[70.3559593,59.866689199999996],[70.37157909999999,59.85968009999999],[70.37510839999999,59.85228949999999],[70.3901588,59.845987799999996],[70.3963009,59.8395797],[70.6918995,59.8701355],[70.73761790000002,59.8832507],[70.7765623,59.86975220000001],[70.9153101,59.8424969],[70.94325360000003,59.83393230000001],[70.99948690000001,59.82815890000001],[71.1236091,59.8861316],[71.17932789999999,59.9070663],[71.2244591,59.8344168],[71.2584667,59.7884833],[71.4993512,59.7418087],[71.54479490000001,59.6851645],[71.65893739999999,59.6563276],[71.74529900000002,59.6467851],[71.79203129999999,59.63593540000001],[71.8214219,59.6164055],[71.82972179999999,59.59717590000001],[71.8329238,59.578093700000004],[71.83710310000001,59.572415500000005],[71.86360920000001,59.5598751],[71.8948735,59.5547993],[72.0251346,59.551735300000004],[72.0869492,59.53092290000001],[72.11782430000001,59.506947399999994],[72.1854146,59.4662798],[72.2318561,59.4122355],[72.2714707,59.3852196],[72.35473789999999,59.349860799999995],[72.4420472,59.3002208],[72.4347345,59.24351880000001],[72.42266430000001,59.224182400000004],[72.41820260000001,59.21032590000001],[72.450489,59.1940466],[72.49632920000002,59.17827580000001],[72.52471249999999,59.1479032],[72.5494028,59.13896890000001],[72.7440021,59.1368519],[72.7928285,59.1467813],[72.86791550000001,59.155275800000005],[72.91121190000003,59.154002],[72.9756191,59.12638200000001],[72.95665540000002,59.08644139999999],[72.92829760000001,59.053141],[73.00709300000001,59.0093742],[73.0999565,58.95168869999999],[73.0809517,58.9335065],[73.01062570000002,58.8979794],[72.9977818,58.8886589],[73.0000367,58.8848188],[73.0248098,58.87492769999999],[73.22543909999999,58.8483706],[73.49471240000001,58.8246192],[73.71879249999999,58.8562155],[73.78737579999999,58.8380314],[73.85908209999998,58.8067808],[73.99106650000002,58.81084549999999],[74.0846083,58.749219000000004],[74.144895,58.730213600000006],[74.17534569999998,58.72610720000001],[74.50961840000001,58.72192570000001],[74.58493920000001,58.72983090000001],[74.727317,58.7298879],[74.7568622,58.725938700000015],[74.79899040000001,58.72670880000001],[74.8388676,58.70586230000001],[74.89455980000001,58.68515030000001],[74.99769150000002,58.69895800000001],[75.1312975,58.6638893],[75.5204142,58.8588038],[75.63537619999998,58.912345800000004],[75.7011482,58.9685844],[75.7239498,59.0010012],[75.727608,59.015372500000005],[75.6396731,59.211579300000004],[75.84119760000002,59.280213200000006],[75.89866590000001,59.3999054],[75.9928557,59.380677299999995],[76.007092,59.3964585],[76.1771658,59.5300006],[76.4156353,59.5446512],[76.5024635,59.543769],[76.6648877,59.571174],[76.67498839999999,59.5880595],[76.6523036,59.606796200000005],[76.66836229999998,59.6850411],[76.7405468,59.7112083],[76.77288929999999,59.9911837],[76.75774990000001,60.0016983],[76.77243259999999,60.065674300000005],[76.71402070000002,60.115555400000005],[76.7278322,60.122333200000014],[76.74972300000002,60.12681190000001],[76.76930229999999,60.14251110000001],[76.79006100000001,60.148209],[76.7926461,60.1513508],[76.79062820000001,60.154602],[76.79718500000001,60.16330730000001],[76.80647849999998,60.170538500000006],[76.8279558,60.17972880000001],[76.82664009999999,60.182913600000006],[76.83380109999999,60.186296999999996],[76.8312851,60.1917564],[76.8407926,60.19569380000001],[76.83352950000001,60.20295250000001],[76.8418355,60.2076618],[76.84162330000002,60.2106733],[76.8317012,60.2192473],[76.8355509,60.22350370000001],[76.8454344,60.22381390000001],[76.84710360000003,60.22984290000001],[76.8571304,60.233507100000004],[76.85461330000001,60.2364616],[76.8578392,60.24530580000001],[76.8543175,60.2490071],[76.8571351,60.2530572],[76.85531219999999,60.255185000000004],[76.86171540000001,60.258334500000004],[76.85030679999998,60.2646826],[76.86616970000001,60.270852600000005],[76.86450310000001,60.27354580000001],[76.8669108,60.274762200000005],[76.8579221,60.277055100000005],[76.8554834,60.2802293],[76.8575667,60.281676],[76.85418360000001,60.283538500000006],[76.8499905,60.282756400000004],[76.8502475,60.289212500000005],[76.8375573,60.29237610000001],[76.83988869999999,60.29492590000001],[76.8335585,60.2978215],[76.8360164,60.301080899999995],[76.8291857,60.3052787],[76.8295492,60.309713800000004],[76.81391370000001,60.30760419999999],[76.8118389,60.309111300000005],[76.81710570000001,60.31184869999999],[76.8158238,60.314444399999985],[76.8114872,60.31720339999999],[76.8088054,60.314195399999996],[76.8036177,60.3224665],[76.7892025,60.326998200000006],[76.79099760000001,60.328342500000005],[76.78293029999999,60.3291473],[76.7803124,60.3247567],[76.76444070000001,60.32811340000001],[76.7624093,60.33235510000001],[76.76626110000001,60.337025],[76.7709702,60.3370398],[76.76764650000001,60.339674099999996],[76.7712948,60.345606499999995],[76.7546398,60.351775499999995],[76.76712430000002,60.357253099999994],[76.7626087,60.3587977],[76.7687616,60.3643336],[76.76694260000001,60.368012400000005],[76.7704539,60.367710300000006],[76.7624623,60.3726002],[76.7660905,60.3730297],[76.7612885,60.375097499999995],[76.76325540000002,60.376239],[76.75621460000002,60.3776186],[76.76259320000001,60.380818399999995],[76.76746550000001,60.378353000000004],[76.7751205,60.3825247],[76.7734542,60.3842759],[76.776925,60.3883465],[76.7673387,60.39293130000001],[76.7697251,60.394966399999994],[76.76578119999999,60.3947967],[76.77547679999998,60.4039054],[76.773459,60.405819300000005],[76.78415120000001,60.407086799999995],[76.78983079999999,60.412952600000004],[76.8128464,60.42119230000001],[76.8124577,60.4293811],[76.80578449999999,60.43166449999999],[76.8007609,60.438801399999996],[76.81082980000001,60.4405057],[76.81920310000001,60.4460198],[76.81425920000002,60.4485827],[76.81866690000001,60.451436199999996],[76.81139470000001,60.454215399999995],[76.8138045,60.4561861],[76.80957529999999,60.45682959999999],[76.81109960000002,60.458179900000005],[76.7986762,60.4593262],[76.8002955,60.461032700000004],[76.7960313,60.46576580000001],[76.8015814,60.466119400000004],[76.7993475,60.46875080000001],[76.81372360000002,60.4709112],[76.82915779999999,60.4669477],[76.84037679999999,60.4679794],[76.84689540000001,60.4747828],[76.8524942,60.47424099999999],[76.85351849999999,60.471224299999996],[76.86556829999999,60.472810800000005],[76.87007759999999,60.4749453],[76.8705559,60.478663499999996],[76.87636269999999,60.476801699999996],[76.8796509,60.480674799999996],[76.88737259999999,60.47873330000001],[76.9071782,60.4837018],[76.90723670000001,60.481198],[76.91089910000001,60.483686899999995],[76.91479920000002,60.48160639999999],[76.91527040000001,60.48480489999999],[76.92035460000001,60.48384149999999],[76.9185377,60.487535300000005],[76.92444490000001,60.490276900000005],[76.93888360000001,60.4891934],[76.9508859,60.497319000000005],[76.9636571,60.494826599999996],[76.969392,60.49693680000001],[76.97905709999999,60.5017483],[76.97593189999999,60.5038439],[76.98219279999999,60.5076269],[76.99215190000001,60.5086827],[76.9890724,60.511124099999996],[76.99762340000004,60.5070083],[77.0080259,60.50791220000001],[77.00608179999999,60.505470300000006],[77.0244622,60.5054883],[77.027433,60.509502100000006],[77.0317024,60.506458800000004],[77.0331955,60.508897399999995],[77.04350090000001,60.5075596],[77.04134,60.5106083],[77.0483048,60.50919220000001],[77.0474717,60.5139981],[77.0514392,60.5155604],[77.0515955,60.5199491],[77.0604495,60.5197175],[77.05997249999999,60.5231964],[77.06492220000001,60.52512600000001],[77.0665651,60.5226174],[77.07204479999999,60.523326700000005],[77.06888629999999,60.5260334],[77.07063749999999,60.52890930000001],[77.0663431,60.5296836],[77.0679963,60.5314592],[77.05849049999999,60.5339672],[77.0606077,60.5372527],[77.07236269999999,60.533647699999996],[77.06915740000001,60.539146],[77.06064350000001,60.5392971],[77.06706470000002,60.542275100000005],[77.0565564,60.549638200000004],[77.0626973,60.5523802],[77.05905609999999,60.5573203],[77.0639317,60.559432900000004],[77.054362,60.564571],[77.05822400000001,60.5669294],[77.05140340000001,60.5704618],[77.05834239999999,60.5715073],[77.0634183,60.5763464],[77.04812920000002,60.576973900000006],[77.05578569999999,60.581961899999996],[77.0418527,60.5827065],[77.0456525,60.59350870000001],[77.0534953,60.591046999999996],[77.052719,60.594718400000005],[77.06149260000001,60.59826280000001],[77.0556486,60.607272900000005],[77.0637453,60.612074],[77.0498316,60.613467899999996],[77.0526417,60.618840399999996],[77.0477505,60.62560080000001],[77.0360525,60.6141861],[77.02724470000001,60.6204212],[77.0181585,60.615216800000006],[77.006754,60.62200290000001],[76.99325840000002,60.6189941],[76.99452620000002,60.623436100000006],[76.9839213,60.6247668],[76.98429090000002,60.628715700000015],[76.9723849,60.625682100000006],[76.9556395,60.6284835],[76.96718330000002,60.631317800000005],[76.97220829999999,60.6360846],[76.9706901,60.64213280000001],[76.96107570000001,60.6444319],[76.95864440000001,60.64817360000001],[76.980036,60.6542383],[76.96068240000001,60.657461899999994],[76.96155470000002,60.6608449],[76.99105040000002,60.6571221],[77.00310940000001,60.6516178],[77.0093563,60.6537832],[77.0115988,60.6598701],[77.009421,60.662788600000006],[76.9923281,60.659702],[76.98561380000001,60.6632857],[77.0047172,60.66733060000001],[77.02573729999997,60.6790818],[77.02561709999999,60.6877319],[77.01416740000002,60.69297380000001],[77.04103350000001,60.69339420000001],[77.09754640000001,60.70529030000001],[77.1138105,60.7442612],[77.0982422,60.7535431],[77.08868009999999,60.76855180000001],[77.0802769,60.7690404],[77.07877889999997,60.77831950000001],[77.0702969,60.781304399999996],[77.0794519,60.786579],[77.0671727,60.79403380000001],[77.0904287,60.8020425],[77.0929326,60.8158751],[77.099577,60.82201380000001],[77.07593179999998,60.8217761],[77.09366160000002,60.8284442],[77.07560699999999,60.8377637],[77.0752693,60.8417581],[77.1104824,60.8585195],[77.19662620000001,60.8561509],[77.25322160000002,60.8396802],[77.31082960000002,60.83964709999999],[77.3279228,60.8368459],[77.34632440000001,60.827358800000006],[77.37277959999999,60.8191779],[77.4328393,60.81098049999999],[77.46196230000001,60.81044969999999],[77.50410900000001,60.81705709999999],[77.59121410000002,60.82149449999999],[77.70432310000001,60.819989899999996],[77.88935819999999,60.7788654],[77.91946040000002,60.7617661],[77.96996290000001,60.7406963],[77.99221020000002,60.747910600000004],[77.9969853,60.751659399999994],[77.9960961,60.755793700000005],[78.00497229999999,60.755878200000005],[78.08834529999999,60.7967844],[78.19539819999999,60.8024768],[78.3359041,60.7892406],[78.4867529,60.764638700000006],[78.64241129999999,60.816434199999996],[78.6979467,60.82521810000001],[78.7191461,60.810567299999995],[78.71889340000001,60.797394700000005],[78.73727620000001,60.7885015],[78.75648199999999,60.786459],[78.7655469,60.7813285],[78.7658972,60.776703100000006],[78.7774712,60.76529820000001],[78.7584622,60.76443870000001],[78.76786840000001,60.757105300000006],[78.76166350000003,60.754053],[78.78459380000001,60.750435800000005],[78.78670699999999,60.7527406],[78.79300360000002,60.7546511],[78.78845340000001,60.752439700000004],[78.7955184,60.749188200000006],[78.79440930000001,60.7522194],[78.80030789999999,60.7536419],[78.7956309,60.758514500000004],[78.8015801,60.754918100000005],[78.80378759999999,60.7592536],[78.810572,60.7592869],[78.8118074,60.764180800000005],[78.82016320000001,60.76210900000001],[78.8144885,60.7644249],[78.8189569,60.7674025],[78.83496860000001,60.7637841],[78.8396223,60.767929],[78.8463669,60.7638924],[78.84790590000001,60.76520680000001],[78.8433507,60.767405800000006],[78.850668,60.770488300000004],[78.85343549999999,60.768712600000015],[78.8503217,60.76372830000001],[78.85520629999999,60.76525690000001],[78.85851849999999,60.76225560000001],[78.8602089,60.7660144],[78.87045719999999,60.76617630000001],[78.8622622,60.7666945],[78.8614411,60.769120400000006],[78.8686735,60.76857650000001],[78.87917849999998,60.7763842],[78.8850674,60.774270300000005],[78.8821607,60.7767076],[78.8866337,60.779791900000006],[78.90543809999998,60.77910180000001],[78.90440860000001,60.7836627],[78.8995163,60.7858584],[78.91145960000003,60.786623399999996],[78.90677269999999,60.7881811],[78.9127617,60.789701300000004],[78.9082087,60.792406500000006],[78.91906740000002,60.7938965],[78.91980260000001,60.79795570000001],[78.9274508,60.79093570000001],[78.9291261,60.79365790000001],[78.9368738,60.79190530000001],[78.9398287,60.7967841],[78.94365330000002,60.796669200000004],[78.94026870000002,60.79121060000001],[78.94563430000001,60.796290000000006],[78.95104,60.7963444],[78.94455690000002,60.79224310000001],[78.94895550000001,60.788546700000005],[78.95325760000001,60.796404],[78.9568958,60.79601000000001],[78.95278869999999,60.793925400000006],[78.95837149999998,60.791007300000004],[78.96460960000003,60.7918432],[78.96409120000001,60.794228000000004],[78.95816360000002,60.79290120000001],[78.95694360000002,60.79878560000001],[78.9608475,60.7996934],[78.96304690000001,60.79651600000001],[78.9698362,60.800777599999996],[78.96344520000001,60.80266949999999],[78.9637601,60.79892160000001],[78.9528582,60.803931399999996],[78.96132560000002,60.8034702],[78.9630485,60.8065526],[78.96028560000002,60.8080917],[78.96311590000002,60.810512700000004],[78.96797480000001,60.81046719999999],[78.96819520000001,60.8054142],[78.9759906,60.8057054],[78.97077179999998,60.80781339999999],[78.98146790000001,60.81112759999999],[78.9737532,60.816158200000004],[78.98551590000001,60.820423999999996],[78.9877706,60.81980849999999],[78.98520330000001,60.816640899999996],[78.9924407,60.8161973],[78.98743960000002,60.814303699999996],[78.99144950000002,60.8103493],[78.9847489,60.80811200000001],[78.99231300000001,60.8078453],[78.99550360000002,60.8047068],[78.9985872,60.8065115],[79.0004732,60.803081799999994],[79.0084835,60.805932600000006],[79.0029214,60.8088091],[79.0103857,60.810437199999996],[79.01160500000002,60.80783709999999],[79.0295057,60.805735000000006],[79.02535599999999,60.8022947],[79.0390126,60.802741399999995],[79.03488300000001,60.8089666],[79.0424529,60.8126487],[79.0366412,60.81478549999999],[79.0430777,60.8187642],[79.0601979,60.817514499999994],[79.0554264,60.8162768],[79.0626531,60.815031399999995],[79.0582465,60.8116589],[79.06934629999999,60.8100257],[79.06377879999998,60.8058199],[79.07383689999999,60.8058771],[79.0748932,60.8031178],[79.0820037,60.8050708],[79.0807956,60.8010087],[79.08326600000001,60.799941100000005],[79.0872338,60.803732200000006],[79.0987559,60.805340300000005],[79.0897603,60.8101196],[79.09873649999999,60.81102179999999],[79.09856520000001,60.814438499999994],[79.10353799999999,60.815381599999995],[79.09992720000001,60.8175969],[79.1015759,60.81969169999999],[79.10602540000001,60.815115500000005],[79.1161211,60.8171628],[79.1154603,60.814253099999995],[79.12095049999999,60.8133025],[79.1189831,60.8099784],[79.12643479999998,60.8084786],[79.1262261,60.8148329],[79.12933249999998,60.8165786],[79.13799709999999,60.81678139999999],[79.137473,60.812964599999994],[79.1536336,60.81187709999999],[79.15323679999999,60.820531700000004],[79.1593394,60.818149399999996],[79.1655809,60.8257242],[79.17569239999999,60.8247967],[79.17293589999998,60.8216361],[79.1916861,60.82753280000001],[79.18637689999998,60.823989499999996],[79.1996158,60.8234202],[79.19384509999999,60.8213234],[79.19902900000001,60.8199958],[79.1974739,60.81740709999999],[79.2105773,60.8197426],[79.2045389,60.822908700000006],[79.2129471,60.8262717],[79.22192120000001,60.823886699999996],[79.2217658,60.81996639999999],[79.21654960000002,60.8165349],[79.23029420000002,60.812588],[79.23424980000001,60.8129966],[79.22729720000001,60.814373599999996],[79.23128690000001,60.816836599999995],[79.2463924,60.8097099],[79.25559340000001,60.8102513],[79.249708,60.807877899999994],[79.25164480000001,60.8044158],[79.2799148,60.8075009],[79.2794952,60.8037905],[79.2875573,60.804493799999996],[79.3024409,60.79573360000001],[79.3081582,60.79619090000001],[79.301714,60.790657700000004],[79.30540909999999,60.786198000000006],[79.3007366,60.7850694],[79.30584509999998,60.7836796],[79.30532269999999,60.7815064],[79.3134469,60.7825873],[79.31633709999998,60.774114000000004],[79.3049589,60.76896870000001],[79.3013433,60.770531000000005],[79.30492020000001,60.770416000000004],[79.30603409999999,60.77259690000001],[79.3024037,60.7730606],[79.28915400000001,60.7668654],[79.28278179999998,60.76737830000001],[79.28596990000001,60.764585100000005],[79.2807426,60.76431240000001],[79.279296,60.7612986],[79.2877754,60.759032100000006],[79.2823966,60.756617],[79.2930972,60.75588439999999],[79.2913121,60.7520918],[79.3003612,60.7524584],[79.3063937,60.747471399999995],[79.30342999999999,60.74695290000001],[79.30652,60.7446747],[79.30073019999999,60.74519930000001],[79.29728320000002,60.7411276],[79.30067779999999,60.739980700000004],[79.29768990000002,60.738289],[79.30039779999998,60.73633780000001],[79.292179,60.732744200000006],[79.2993772,60.729416400000005],[79.2915728,60.72837160000001],[79.29660760000002,60.72559130000001],[79.2903089,60.725871500000004],[79.2929183,60.72391840000001],[79.2884792,60.72073430000001],[79.29834869999999,60.718226800000004],[79.2983937,60.7149054],[79.3048377,60.7155715],[79.29715870000001,60.7127645],[79.29978709999999,60.7094607],[79.2960471,60.70755330000001],[79.30419490000001,60.70611870000001],[79.3055949,60.70243830000001],[79.31194940000002,60.702767900000005],[79.309297,60.7015442],[79.3120164,60.69863250000001],[79.3069272,60.69594330000001],[79.3121874,60.695161600000006],[79.3104395,60.6913075],[79.3374222,60.69267260000001],[79.3308665,60.6868881],[79.3422623,60.686058300000006],[79.34361430000001,60.6771693],[79.35209219999999,60.6728015],[79.3443813,60.66900270000001],[79.3617943,60.66812490000001],[79.3578679,60.66613190000001],[79.3636177,60.663692600000005],[79.357743,60.66230210000001],[79.37557129999998,60.6584456],[79.37612440000001,60.6558598],[79.36971199999999,60.65379],[79.37944149999998,60.651862099999995],[79.37413649999999,60.649217300000004],[79.37580149999998,60.6456618],[79.3866469,60.644132600000006],[79.38542779999999,60.640472700000004],[79.39026640000002,60.6348629],[79.4267966,60.639254900000005],[79.44614360000003,60.649216800000005],[79.4626881,60.6502933],[79.46949560000002,60.6550818],[79.5105372,60.66809280000001],[79.5214607,60.66517330000001],[79.5352331,60.668275400000006],[79.55218249999999,60.66657200000001],[79.5775815,60.6704286],[79.5869643,60.6762761],[79.6156393,60.6727644],[79.63168460000001,60.6822484],[79.6533619,60.686547],[79.67508919999999,60.679847699999996],[79.93995090000001,60.6702314],[79.9923803,60.6734762],[80.2009967,60.675321800000006],[80.4049723,60.7501975],[80.63905849999999,60.77073830000001],[80.7048373,60.8027794],[80.9840801,60.77452280000001],[81.05244739999999,60.755725000000005],[81.06886209999999,60.69315920000001],[81.0822967,60.669970000000006],[81.0984352,60.663329000000004],[81.10419040000001,60.642048200000005],[81.45874099999999,60.60713870000001],[81.58426320000002,60.6379827],[81.8795342,60.639791],[82.1673052,60.5163396],[82.40960070000001,60.608155300000014],[82.4008772,60.6359404],[82.39244199999999,60.650267799999995],[82.3882698,60.67285290000001],[82.3764514,60.7068791],[82.91940940000002,60.93200280000001],[83.1566832,61.02679510000001],[83.47690920000001,61.0356717],[83.94969410000002,60.8362171],[84.26310990000002,60.862517600000004],[84.6539197,61.0034985],[84.73508229999999,61.01426299999999],[85.27969999999999,61.1707697],[85.696583,61.2838155],[85.700535,61.3163686],[85.64073079999999,61.3670902],[85.7981925,61.45409849999999],[85.965282,61.459195300000005],[85.9766731,61.4826099],[85.96113740000001,61.54511960000001],[85.8425127,61.593921200000004],[85.71283879999999,61.5726147],[85.49285320000001,61.6172155],[85.4065558,61.68714739999999],[85.3408822,61.6866907],[85.2777984,61.6737218],[85.2299967,61.69840190000001],[85.17421209999999,61.70864890000001],[85.0968523,61.751986499999994],[84.99245360000002,61.76916070000001],[84.9218578,61.7898384],[84.87257209999997,61.77643530000001],[84.8408924,61.773046],[84.7354052,61.79269580000001],[84.67791509999999,61.80813030000001],[84.6395905,61.8319493],[84.6314612,61.85727969999999],[84.62469320000001,61.86708839999999],[84.6002555,61.88086779999999],[84.5455069,61.90235230000001],[84.52288579999998,61.9220435],[84.51650360000002,61.938909300000006],[84.51428740000001,61.9673482],[84.5232324,61.9830198],[84.52385709999999,61.99061210000001],[84.4908481,62.031780999999995],[84.48907249999999,62.041128],[84.49505970000001,62.06513800000001],[84.49198640000002,62.09847130000001],[84.48496910000001,62.1135673],[84.4480717,62.165132200000016],[84.44085950000002,62.19565670000001]]]}}