{"type":"Feature","properties":{"regionId":"krasnodarskiy_kray","name":"Краснодарский край","name:en":"Krasnodar Krai","timezone":"Europe/Moscow","name_ru":"Краснодарский край","name_en":"Krasnodar Krai","name_zh":"克拉斯诺达尔边疆区"},"geometry":{"type":"Polygon","coordinates":[[[40.7136025,43.532770600000006],[40.69220800000001,43.53597090000001],[40.688739000000005,43.5382861],[40.69220260000001,43.547897899999995],[40.67551790000001,43.55100109999999],[40.67527580000001,43.5569913],[40.661775600000006,43.5630484],[40.634257,43.550029499999994],[40.608878100000005,43.5473149],[40.59529390000001,43.5316556],[40.5874532,43.530908700000005],[40.564559100000004,43.5190582],[40.52330130000001,43.52050080000001],[40.5151017,43.52513430000001],[40.5054097,43.524875300000005],[40.4950514,43.5317889],[40.487312,43.543779],[40.47782109999999,43.5491264],[40.4629811,43.5465449],[40.43311310000001,43.55768309999999],[40.42671490000001,43.5533106],[40.4135512,43.552292200000004],[40.4033451,43.5553479],[40.388219,43.55446249999999],[40.35464849999999,43.5644531],[40.3449563,43.56239190000001],[40.32870220000001,43.566193500000004],[40.314104199999996,43.57837490000001],[40.305699499999996,43.5777482],[40.29944330000001,43.570244499999994],[40.29420220000001,43.571464899999995],[40.281422,43.578677],[40.27073610000001,43.5776177],[40.2596042,43.5861871],[40.241965,43.586398300000006],[40.2136217,43.5746703],[40.175904700000004,43.5739968],[40.171962,43.576665999999996],[40.1630297,43.572520600000004],[40.1572621,43.574555700000005],[40.130665,43.56503930000001],[40.117891199999995,43.56875420000001],[40.1038511,43.56819210000001],[40.0978832,43.56597850000001],[40.0979884,43.561858300000004],[40.090482800000004,43.55464359999999],[40.0952675,43.52969220000001],[40.0634861,43.505301],[40.0443855,43.4750713],[40.0420695,43.4535193],[40.031308200000005,43.4401496],[40.010147399999994,43.424351900000005],[40.01555570000001,43.4171737],[40.00841390000001,43.4052174],[40.008450700000004,43.3855697],[39.88448029999999,43.224430500000004],[39.8329005,43.2310749],[39.7840909,43.2449215],[39.739927,43.26543320000001],[39.70210620000001,43.29181590000001],[39.6720818,43.3230485],[39.641384599999995,43.36890290000001],[39.6045135,43.389611699999996],[39.555194300000004,43.41182319999999],[39.5173734,43.43814230000001],[39.487349099999996,43.4692996],[39.47118759999999,43.494287099999994],[39.436634399999996,43.510886799999994],[39.398813700000005,43.537162800000004],[39.3341367,43.6081944],[39.26173130000001,43.655618700000005],[39.2389865,43.6748157],[39.219900300000006,43.69598890000001],[39.204025,43.720313200000014],[39.16247190000001,43.74531960000001],[39.1277095,43.776746700000004],[39.0869741,43.79763680000001],[39.026833,43.844028599999994],[38.9720165,43.872710100000006],[38.9156433,43.9206938],[38.865893,43.9442422],[38.839878999999996,43.9610463],[38.8171342,43.9801454],[38.79737200000001,44.002145600000006],[38.733600200000005,44.028451800000006],[38.69137280000001,44.0507305],[38.6560031,44.0784916],[38.623879200000005,44.118782200000005],[38.6022698,44.1296005],[38.5676719,44.13315720000001],[38.5177236,44.144477099999996],[38.46034830000001,44.168603700000006],[38.4248518,44.1767412],[38.382715700000006,44.18314],[38.3300799,44.1847762],[38.279206900000005,44.19371990000001],[38.2317448,44.2096048],[38.1942774,44.228950800000014],[38.131564,44.238820700000005],[38.0841019,44.254693499999995],[38.0292497,44.285547300000005],[37.9964826,44.31479399999999],[37.9770238,44.3403773],[37.9424088,44.3615822],[37.909642999999996,44.3907896],[37.872077499999996,44.3998909],[37.8261662,44.417903499999994],[37.786056300000006,44.4419598],[37.7534705,44.470943399999996],[37.69501460000001,44.47221030000001],[37.640759900000006,44.4820497],[37.5766998,44.4799712],[37.52512000000001,44.4864773],[37.47631030000001,44.50003530000001],[37.429591300000006,44.521649599999996],[37.381063899999994,44.5302463],[37.3336018,44.5460403],[37.304763599999994,44.56011180000001],[37.26877370000001,44.5845022],[37.21653310000001,44.6072419],[37.167774300000005,44.64274210000001],[37.1486879,44.66357080000001],[37.12761390000001,44.69766739999999],[37.11895200000001,44.721731500000004],[37.1147406,44.7478252],[37.08174939999999,44.7736395],[37.0626631,44.7944211],[37.0475618,44.81678469999999],[37.03523210000001,44.8450639],[36.9857891,44.863913600000004],[36.95466499999999,44.88168539999999],[36.891634399999994,44.8944993],[36.8437596,44.9133794],[36.79092260000001,44.92297080000001],[36.739985600000004,44.9198903],[36.70513770000001,44.921789399999994],[36.609722500000004,44.94066719999999],[36.5679872,45.0506562],[36.5428648,45.1340402],[36.530485999999996,45.199202400000004],[36.594174200000005,45.252542000000005],[36.6030245,45.309387599999994],[36.66350190000001,45.3599397],[36.6815681,45.456611499999994],[36.668449900000006,45.6266206],[37.437589599999995,46.7158298],[37.620074,46.8298909],[38.140863599999996,46.8609996],[38.3381215,46.9807515],[38.659662499999996,47.003021499999996],[38.685837,46.8707027],[38.68573870000001,46.82613680000001],[38.8695636,46.8264117],[38.8695633,46.84122449999999],[38.9332943,46.8412909],[38.933270300000004,46.8264046],[38.89587290000001,46.8263895],[38.895954100000004,46.731792000000006],[38.8694828,46.731925700000005],[38.8696593,46.6825246],[38.8661419,46.682517000000004],[38.86626749999999,46.6646428],[38.86951560000001,46.6646292],[38.8696493,46.58460639999999],[38.8770179,46.5791899],[38.86817490000001,46.571330100000004],[38.869632900000006,46.56875200000001],[38.9023273,46.56011350000001],[38.9020805,46.634822],[38.919616999999995,46.6332144],[38.919728,46.629896],[38.9269685,46.63071670000001],[38.931851699999996,46.6249861],[38.9468703,46.629470000000005],[38.94626759999999,46.63363880000001],[38.961401699999996,46.636457300000004],[38.96803920000001,46.634443499999996],[38.9767689,46.6260818],[38.98441759999999,46.627425800000005],[38.9853643,46.6229875],[38.9984704,46.625885000000004],[38.996994300000004,46.62336520000001],[39.00291200000001,46.6214166],[39.008560200000005,46.6314901],[39.0164142,46.633103500000004],[39.03073030000001,46.6266254],[39.053985499999996,46.622504600000006],[39.0717628,46.59907080000001],[39.129623300000006,46.6041096],[39.1342009,46.6084645],[39.13771380000001,46.619550600000004],[39.143061499999995,46.6218041],[39.1506509,46.620603200000005],[39.1534267,46.609722100000006],[39.1694234,46.622915100000014],[39.19202920000001,46.613876999999995],[39.19557630000001,46.60875510000001],[39.20241970000001,46.60978],[39.20202930000001,46.61946749999999],[39.20909530000001,46.62057390000001],[39.20932290000001,46.682072100000006],[39.2272241,46.6819599],[39.2278905,46.708289],[39.2618455,46.70819870000001],[39.26256220000001,46.794294300000004],[39.3409762,46.79453480000001],[39.3409452,46.7994944],[39.36273990000001,46.799384100000005],[39.3609859,46.8024036],[39.3671577,46.8024386],[39.36786649999999,46.799061300000005],[39.38328979999999,46.8012022],[39.41778649999999,46.79626830000001],[39.445992800000006,46.8056793],[39.4461005,46.8180853],[39.486775900000005,46.81779769999999],[39.486641899999995,46.8052136],[39.5652247,46.8055966],[39.563778500000005,46.7879535],[39.622764000000004,46.78585090000001],[39.62292680000001,46.7882244],[39.7112851,46.7884677],[39.72027890000001,46.79155290000001],[39.722643100000006,46.7874335],[39.73591760000001,46.794013400000004],[39.748959600000006,46.787303800000004],[39.840837699999994,46.7891075],[39.8411186,46.7714668],[40.0632219,46.7719415],[40.063257,46.7419887],[40.079678300000005,46.741852800000004],[40.0789479,46.72962880000001],[40.0916826,46.7272255],[40.104755100000006,46.73021330000001],[40.1055374,46.73597240000001],[40.1457892,46.734004399999996],[40.1238292,46.72679430000001],[40.1240596,46.72227180000001],[40.127568700000005,46.721628700000004],[40.12603330000001,46.71815130000001],[40.1162904,46.718186800000005],[40.1166579,46.646098],[40.1034394,46.64592230000001],[40.10236080000001,46.6308915],[40.0930284,46.6306848],[40.0840186,46.63595170000001],[40.079546900000004,46.6328812],[40.070655,46.63607520000001],[40.0678142,46.63572310000001],[40.0668823,46.62805930000001],[40.0644057,46.6280494],[40.0646012,46.5919249],[40.0580631,46.59188739999999],[40.0643413,46.587685199999996],[40.064291,46.534308700000004],[40.0804457,46.534435],[40.091658300000006,46.539734100000004],[40.1045673,46.536528600000004],[40.11875330000001,46.5408561],[40.12525010000001,46.538848],[40.135707100000005,46.5413625],[40.1588681,46.535237800000004],[40.170112900000014,46.53877860000001],[40.17850690000001,46.5332295],[40.182534100000005,46.534252900000006],[40.1817972,46.538425600000004],[40.1871656,46.5398007],[40.2014957,46.533476300000004],[40.2214541,46.53782449999999],[40.2210435,46.50240230000001],[40.2338698,46.50231670000001],[40.233988200000006,46.496914700000005],[40.23801800000001,46.496790700000005],[40.23812190000001,46.448402900000005],[40.2859941,46.448444699999996],[40.28613000000001,46.376346399999996],[40.260581800000004,46.376221099999995],[40.260640900000006,46.367699099999996],[40.2475454,46.367710100000004],[40.247305600000004,46.345153100000005],[40.27223890000001,46.34448899999999],[40.272274800000005,46.31449309999999],[40.324277099999996,46.3143399],[40.3240925,46.282976000000005],[40.3285416,46.280381],[40.35215,46.2809096],[40.3679808,46.277295900000006],[40.37251810000001,46.279261399999996],[40.40809290000001,46.27213180000001],[40.5063645,46.27500530000001],[40.53726759999999,46.2726677],[40.571427099999994,46.2873936],[40.743525500000004,46.28554930000001],[40.744489699999995,46.22906330000001],[40.925714000000006,46.229994100000006],[40.927128200000006,46.29823100000001],[40.941112700000005,46.297391600000005],[40.952977399999995,46.2918766],[40.9904218,46.29836310000001],[40.9912348,46.2074097],[40.9719199,46.20731190000001],[40.97203280000001,46.19415600000001],[40.96575550000001,46.19395590000001],[40.967431399999995,46.18933870000001],[40.9788632,46.1877507],[40.978788200000004,46.1134055],[40.9914205,46.11635590000001],[40.9984618,46.1148429],[41.0022094,46.11897570000001],[41.009381,46.1169797],[41.04066459999999,46.122363400000005],[41.0518028,46.1192172],[41.0649764,46.12012910000001],[41.069513400000005,46.11333030000001],[41.069777,46.077570800000004],[41.1082242,46.077619399999996],[41.1084405,46.059741499999994],[41.1218425,46.0596109],[41.12179220000001,46.00567890000001],[41.134752000000006,46.0056932],[41.13505290000001,45.979184499999995],[41.160650000000004,45.9789676],[41.161177200000004,45.8798408],[41.2490098,45.88005139999999],[41.24890620000001,45.865111500000005],[41.250827699999995,45.8695247],[41.25521560000001,45.869181],[41.254749399999994,45.86513250000001],[41.262803600000005,45.857267499999985],[41.25073210000001,45.84948979999999],[41.23863570000001,45.8466422],[41.2435234,45.841741899999995],[41.239036600000006,45.838558600000006],[41.24033850000001,45.8352278],[41.233466,45.8313933],[41.239209,45.822751200000006],[41.2569371,45.818059],[41.260045000000005,45.79494690000001],[41.27279830000001,45.7948098],[41.272135900000016,45.7588342],[41.16937360000001,45.7596507],[41.1672375,45.6744391],[41.0531344,45.675001800000004],[41.0532558,45.693132100000014],[41.02911010000001,45.69319890000001],[41.0326145,45.6984835],[41.009815,45.70751870000001],[41.0077442,45.7130575],[41.000647699999995,45.709825300000006],[40.9790724,45.7136093],[40.9634575,45.705951500000005],[40.963033900000006,45.69373330000001],[40.8479682,45.694229],[40.8460433,45.516919900000005],[40.8822909,45.514764099999994],[40.923175400000005,45.516861999999996],[40.9224905,45.4471008],[40.9313548,45.4461426],[40.9406382,45.4358546],[40.9784026,45.4244194],[40.9792796,45.4137483],[40.9750195,45.4119305],[40.97355030000001,45.414358],[40.97348399999999,45.4115337],[40.9816168,45.4020085],[40.9757517,45.40174739999999],[40.9777539,45.397594],[40.9740332,45.39253910000001],[40.9791445,45.3904808],[40.9895587,45.39572830000001],[40.99531980000001,45.3930134],[40.991038800000005,45.377283199999994],[41.0071564,45.3780887],[41.0071945,45.3732388],[40.999548600000004,45.375449599999996],[41.0012033,45.367913],[40.9919687,45.3672282],[40.9894889,45.363835300000005],[40.99816830000001,45.3634226],[41.007195900000006,45.3495026],[41.0009092,45.3465926],[41.002075500000004,45.3432786],[40.9945213,45.34053],[41.003105700000006,45.3335452],[41.00257070000001,45.3297594],[40.9934772,45.322803],[40.996348600000005,45.32093090000001],[41.0065954,45.323718500000005],[41.00287530000001,45.3174333],[41.014858999999994,45.3179739],[41.0161208,45.30922939999999],[41.0246085,45.305722900000006],[41.019700300000004,45.301830499999994],[41.0202869,45.291492600000005],[41.0240854,45.29136630000001],[41.02335780000001,45.2886371],[41.0274601,45.290332000000014],[41.0266514,45.2873767],[41.03203250000001,45.280794300000004],[41.0203174,45.281707399999995],[41.034908,45.278034100000006],[41.0269892,45.2741075],[41.0145311,45.2778253],[41.0113569,45.275685700000004],[41.0154667,45.2712652],[41.0277072,45.271501300000004],[41.0249462,45.264346200000006],[41.016883699999994,45.2634004],[41.0181916,45.25832630000001],[41.021898,45.255982100000004],[41.031308700000004,45.2590154],[41.0388466,45.2556243],[41.0274564,45.23927280000001],[41.036945200000005,45.229535200000015],[41.0354076,45.225643100000006],[41.23271300000001,45.22398520000001],[41.2328846,45.233000800000006],[41.2582609,45.2328494],[41.258531000000005,45.250751300000005],[41.2648312,45.2506795],[41.26511220000002,45.257960399999995],[41.27899670000001,45.2638468],[41.2886438,45.249261],[41.29063910000001,45.23562390000001],[41.2974904,45.22356890000001],[41.35348039999999,45.22305390000001],[41.3531712,45.186895],[41.36591080000001,45.186898],[41.365587,45.177906],[41.352951499999996,45.1778773],[41.35187249999999,45.0902765],[41.3899316,45.0772689],[41.396649499999995,45.06923220000001],[41.4076506,45.06292590000001],[41.408832700000005,45.058350700000005],[41.4121803,45.0579172],[41.4092011,45.052870399999996],[41.4165176,45.0449209],[41.422554600000005,45.026613000000005],[41.43904739999999,45.012407499999995],[41.4462518,44.995151400000005],[41.4564792,44.9882632],[41.6539743,44.986253],[41.652161,44.90531790000001],[41.639563200000005,44.90539690000001],[41.6386764,44.8641035],[41.630521800000004,44.85064059999999],[41.62581280000001,44.851642899999995],[41.622329500000006,44.8475584],[41.616942,44.848898399999996],[41.6136937,44.8404259],[41.614857199999996,44.834324499999994],[41.609271,44.8347457],[41.61182099999999,44.827474099999996],[41.605790400000004,44.8259697],[41.6152512,44.79997820000001],[41.584451099999995,44.79421220000001],[41.5942248,44.76823880000001],[41.586294099999996,44.772360600000006],[41.57850880000001,44.7572273],[41.5638498,44.76161270000001],[41.5668312,44.7536338],[41.555177300000004,44.751347499999994],[41.559886199999994,44.73838830000001],[41.517138300000006,44.7302074],[41.5207235,44.72656090000001],[41.427092900000005,44.70847620000001],[41.4477758,44.6571982],[41.45688929999999,44.650612300000006],[41.476111,44.6475041],[41.49493280000001,44.595691300000006],[41.53164949999999,44.602582500000004],[41.5274524,44.6139404],[41.55196639999999,44.61815230000001],[41.5897072,44.515928900000006],[41.638335900000015,44.525138300000016],[41.6511304,44.490340700000004],[41.69995720000001,44.4996747],[41.703855100000006,44.4895424],[41.7366406,44.4834389],[41.73525120000001,44.4609574],[41.72510550000001,44.4596322],[41.72153850000001,44.455190800000004],[41.706222600000004,44.455178700000005],[41.697300600000005,44.4319921],[41.69390370000001,44.409880599999994],[41.62820180000001,44.40709639999999],[41.633695200000005,44.37789179999999],[41.597780300000004,44.3741208],[41.592001,44.363556300000006],[41.690496100000004,44.3334061],[41.743979700000004,44.26837720000001],[41.737652000000004,44.26238280000001],[41.7388575,44.25555010000001],[41.727856900000006,44.249298700000004],[41.72845920000001,44.23271490000001],[41.7192206,44.22295000000001],[41.7191671,44.219181],[41.7123614,44.2147773],[41.7090825,44.2042306],[41.7114032,44.1980714],[41.6996564,44.182968300000006],[41.69891170000001,44.171185200000004],[41.683131100000004,44.1676658],[41.6773424,44.161241],[41.67791570000001,44.1566398],[41.6646334,44.14831310000001],[41.6617478,44.141745],[41.65082039999999,44.132900400000004],[41.64793590000001,44.124526],[41.6349264,44.1299294],[41.6310233,44.126862100000004],[41.63521530000001,44.125775300000015],[41.6330937,44.123144700000005],[41.63766759999999,44.1174282],[41.5999994,44.112283999999995],[41.5545482,44.09850850000001],[41.5507843,44.09615830000001],[41.55668489999999,44.08722159999999],[41.5521216,44.076976300000005],[41.5536037,44.0642852],[41.5457018,44.0582535],[41.5453686,44.0419827],[41.5215495,44.04726099999999],[41.486748,44.046267699999994],[41.4824772,44.0494364],[41.4842163,44.0545721],[41.48009449999999,44.0508933],[41.4777208,44.0414523],[41.480239499999996,44.023647],[41.477203599999996,44.0179191],[41.481951499999994,44.0090618],[41.4811249,44.00217380000001],[41.4612138,44.001477699999995],[41.4525994,44.0041047],[41.432290900000005,44.0004426],[41.41517210000001,43.9823371],[41.405262900000004,43.981144799999996],[41.3932809,43.98568749999999],[41.38918459999999,43.99661590000001],[41.3801743,43.9996034],[41.3785345,44.005256800000005],[41.3762527,44.003058100000004],[41.3686968,44.004881999999995],[41.372851499999996,44.0098397],[41.357955399999994,44.011387899999995],[41.35444269999999,44.00942],[41.3626955,43.9997576],[41.3579123,44.000828399999996],[41.35748179999999,43.9969881],[41.3501629,43.9932715],[41.36011880000001,43.977994499999994],[41.3150387,43.979784499999994],[41.3088072,43.99795230000001],[41.31049709999999,43.999557700000004],[41.3014362,44.0004143],[41.3128598,44.006607699999996],[41.3132186,44.0076553],[41.29719310000001,44.0000606],[41.292763400000005,44.000815300000006],[41.3131591,44.015348800000005],[41.3203576,44.02838030000001],[41.3106551,44.020223900000005],[41.3074356,44.0219858],[41.3092371,44.015027499999995],[41.3063164,44.01231280000001],[41.3030651,44.01231280000001],[41.3047301,44.018885399999995],[41.3003924,44.0119957],[41.2978085,44.0127479],[41.301294799999994,44.021510500000005],[41.29514710000001,44.0168182],[41.296205400000005,44.008439100000004],[41.286242800000004,44.0138366],[41.2842011,44.0054649],[41.287238200000004,44.00295800000001],[41.2844767,44.001889799999994],[41.2776561,44.004234],[41.277815200000006,44.014288099999995],[41.2736208,44.01823290000001],[41.2570154,44.0107924],[41.2552669,44.0129621],[41.246592500000006,44.0099492],[41.252396100000006,44.0163549],[41.2501896,44.022004900000006],[41.256717200000004,44.022696200000006],[41.2579542,44.0292285],[41.265488500000004,44.03603530000001],[41.2738938,44.03821370000001],[41.2811918,44.0499762],[41.276534700000006,44.06607230000001],[41.272974500000004,44.0671944],[41.2780496,44.06935970000001],[41.2768736,44.0725801],[41.2819927,44.073023],[41.28339890000001,44.0700803],[41.2807441,44.0676407],[41.2878909,44.0584217],[41.2944868,44.0555372],[41.30147049999999,44.061718600000006],[41.291115900000015,44.085461599999995],[41.2833036,44.0846556],[41.26402890000001,44.094959],[41.24381830000001,44.094307900000004],[41.233854300000004,44.09873420000001],[41.2318005,44.0891304],[41.170304900000005,44.088684199999996],[41.16994570000001,44.1042649],[41.167460399999996,44.102948600000005],[41.16310280000001,44.109013700000006],[41.153660499999994,44.1089915],[41.155590700000005,44.1120577],[41.151275399999996,44.1136727],[41.152323800000005,44.117758200000004],[41.1245095,44.126257200000005],[41.1214544,44.126023],[41.11764899999999,44.1128627],[41.122556300000014,44.106523900000006],[41.0847882,44.09471280000001],[41.0615036,44.1126287],[41.03811810000001,44.12053520000001],[41.0356262,44.121109100000005],[41.031258900000005,44.112562700000005],[40.95485349999999,44.14107],[40.91412939999999,44.145296800000004],[40.894261699999994,44.13959200000001],[40.894294599999995,44.143030200000005],[40.8912762,44.142995400000004],[40.89124439999999,44.1038882],[40.926202700000005,44.090180600000004],[40.91066749999999,44.0836731],[40.91326939999999,44.080961499999994],[40.911523499999994,44.074857699999995],[40.920058700000006,44.0742724],[40.920524300000004,44.071039],[40.9268869,44.0680843],[40.922450500000004,44.0649854],[40.924002300000005,44.0618073],[40.9201275,44.05745639999999],[40.919053999999996,44.03814090000001],[40.9253014,44.023791200000005],[40.935458800000006,44.017352900000006],[40.92211020000001,44.0079639],[40.915119700000005,43.997725800000005],[40.91146499999999,43.9770609],[40.90053220000001,43.9652817],[40.900842499999996,43.960618200000006],[40.890207499999995,43.95448369999999],[40.8857488,43.94462339999999],[40.8771826,43.948087099999995],[40.8608261,43.94688039999999],[40.84102299999999,43.9333571],[40.840181099999995,43.9264281],[40.8342609,43.9210439],[40.8029719,43.91774159999999],[40.79951050000001,43.9025491],[40.7890906,43.89575560000001],[40.7859814,43.88000339999999],[40.77051020000001,43.8780194],[40.76577110000001,43.8722289],[40.76934030000001,43.868179000000005],[40.76298070000001,43.861427799999994],[40.75571510000001,43.84488129999999],[40.7529217,43.836755200000006],[40.7556627,43.829716700000006],[40.73916680000001,43.8136003],[40.73532600000001,43.805072300000006],[40.72280590000001,43.7948998],[40.73371080000001,43.785034800000005],[40.7419542,43.7826865],[40.74484749999999,43.771616200000004],[40.7577084,43.749776600000004],[40.7460754,43.7478161],[40.73230270000001,43.73865090000001],[40.71091570000001,43.73616890000001],[40.700717600000004,43.741241699999996],[40.690245100000006,43.726079500000004],[40.6754806,43.7154574],[40.6877232,43.7128134],[40.69600080000001,43.7038006],[40.692923500000006,43.69561360000001],[40.7128261,43.6858833],[40.716813800000004,43.67876270000001],[40.713542800000006,43.6730803],[40.706798600000006,43.6702304],[40.709309000000005,43.66078230000001],[40.69935630000001,43.6534429],[40.712417900000005,43.64592330000001],[40.71637210000001,43.63253480000001],[40.722889900000006,43.62777220000001],[40.722270400000006,43.62207590000001],[40.7256845,43.6174137],[40.74239730000001,43.6054304],[40.738189600000005,43.6004086],[40.73970070000001,43.589462499999996],[40.73235490000001,43.58853830000001],[40.72614530000001,43.5835901],[40.725369400000005,43.5765235],[40.730643,43.572728500000004],[40.72681530000001,43.5622447],[40.7291876,43.5591465],[40.7249795,43.5534987],[40.72585850000001,43.5480212],[40.7168966,43.542144],[40.7136025,43.532770600000006]],[[40.77573900000001,44.4650237],[40.7756376,44.4847132],[40.758546900000006,44.4915436],[40.742448200000005,44.52059130000001],[40.7460665,44.5248232],[40.73594490000001,44.529605600000004],[40.7308477,44.5521677],[40.724393600000006,44.55756459999999],[40.72380090000001,44.560708600000005],[40.72699500000001,44.5622805],[40.72370210000001,44.56648],[40.728634500000005,44.5677647],[40.73073270000001,44.5754432],[40.7306947,44.59567890000001],[40.735290600000006,44.6022212],[40.7334655,44.60819820000001],[40.714893499999995,44.627000900000006],[40.6960647,44.63448459999999],[40.6835996,44.648502400000005],[40.6798062,44.6645212],[40.6696425,44.6705671],[40.67259730000001,44.6770507],[40.664378600000006,44.6804113],[40.66378280000001,44.685754300000006],[40.652451,44.6878529],[40.6488791,44.69586230000001],[40.6531712,44.7007612],[40.649245900000004,44.706231900000006],[40.6504073,44.714331900000005],[40.6405091,44.72657790000001],[40.6405742,44.734183],[40.63683,44.739720000000005],[40.63915580000001,44.74673130000001],[40.6264078,44.761382700000006],[40.6330714,44.775982500000005],[40.62881670000001,44.77839870000001],[40.6197464,44.79812420000001],[40.610540900000004,44.8058165],[40.600500000000004,44.8081686],[40.5975972,44.81992739999999],[40.5945714,44.8216821],[40.5964884,44.8242933],[40.586528900000005,44.828765000000004],[40.5794806,44.8553063],[40.5879384,44.8635346],[40.5788262,44.86761],[40.5679001,44.8675376],[40.54386739999999,44.893576900000006],[40.5331795,44.900424599999994],[40.5396291,44.9063808],[40.530938600000006,44.9169054],[40.527814,44.9334741],[40.49827930000001,44.953976],[40.4504159,44.9800512],[40.4341279,44.996098200000006],[40.4336704,45.00075030000001],[40.424497699999996,45.0032901],[40.3889458,45.033996800000004],[40.3595019,45.05233880000001],[40.3507372,45.045170000000006],[40.34709169999999,45.04768139999999],[40.338943300000004,45.0443725],[40.3376288,45.04697290000001],[40.3459426,45.051476799999996],[40.34709169999999,45.0558429],[40.3369969,45.05116339999999],[40.32948759999999,45.057556399999996],[40.32815730000001,45.0536463],[40.3217823,45.0522767],[40.3223877,45.06050830000001],[40.31070139999999,45.0597655],[40.288202000000005,45.065836100000006],[40.2938294,45.0697236],[40.286268,45.072554700000005],[40.29315560000001,45.075896300000004],[40.2844809,45.07845290000001],[40.2904666,45.0821516],[40.284040999999995,45.086218900000006],[40.2946642,45.086083599999995],[40.27651220000001,45.10557080000001],[40.269940000000005,45.1056795],[40.261257300000004,45.1000564],[40.2530831,45.101201399999994],[40.2486596,45.0973474],[40.2493675,45.10335430000001],[40.23877060000001,45.1090848],[40.2431891,45.1131295],[40.227033000000006,45.1177569],[40.22065090000001,45.1173666],[40.2177962,45.1140728],[40.2124145,45.1164731],[40.2048989,45.11252220000001],[40.200435600000006,45.1164231],[40.193402000000006,45.11402449999999],[40.188540200000006,45.1182841],[40.178677300000004,45.1159515],[40.179048900000005,45.11031090000001],[40.1740829,45.1105972],[40.1740473,45.115537800000006],[40.1678106,45.117086199999996],[40.166282800000005,45.1218718],[40.162423800000006,45.1145346],[40.1552576,45.1209434],[40.144704,45.12215460000001],[40.134661699999995,45.1196823],[40.131021,45.11273990000001],[40.11933090000001,45.1166449],[40.10933380000001,45.114762],[40.1019641,45.10923590000001],[40.0892318,45.110053300000004],[40.086879499999995,45.10748759999999],[40.090482800000004,45.10453690000001],[40.089461099999994,45.09914630000001],[40.083679499999995,45.1008501],[40.0790076,45.1098863],[40.0738084,45.1099091],[40.070742200000005,45.10786099999999],[40.076326200000004,45.103630300000006],[40.065039000000006,45.094959900000006],[40.0614038,45.09854970000001],[40.0505751,45.100554900000006],[40.0469699,45.094382800000005],[40.040385,45.1031896],[40.02942,45.097593100000005],[40.02653590000001,45.092675500000006],[40.0138722,45.09620030000001],[40.0064052,45.08986099999999],[39.994494599999996,45.09530680000001],[39.9904697,45.09293730000001],[39.9906746,45.0884285],[39.984800799999995,45.0868543],[39.9764942,45.09137230000001],[39.9694458,45.0808132],[39.96366439999999,45.08571680000001],[39.9567134,45.0833264],[39.9500339,45.0851285],[39.9485344,45.0884657],[39.9532082,45.0913675],[39.9484206,45.09451250000001],[39.9363664,45.09212990000001],[39.9334773,45.09599270000001],[39.907427199999994,45.09375980000001],[39.899723,45.09119890000001],[39.9008423,45.08708959999999],[39.8940739,45.084694199999994],[39.9001473,45.0966772],[39.873733200000004,45.105409],[39.8705943,45.112585200000005],[39.8587712,45.112429],[39.851805899999995,45.1180278],[39.849516900000005,45.1095254],[39.8443378,45.1070005],[39.840743599999996,45.1103416],[39.84428469999999,45.116847799999995],[39.8312926,45.11317280000001],[39.8282463,45.121556700000006],[39.8223825,45.115329800000005],[39.8192033,45.1219095],[39.81560699999999,45.12263200000001],[39.8151317,45.114732200000006],[39.81086779999999,45.1142001],[39.8084498,45.12229090000001],[39.8006592,45.1306312],[39.785177600000004,45.12825610000001],[39.78073090000001,45.12355010000001],[39.780904,45.1332455],[39.76098890000001,45.137193100000005],[39.7537724,45.1322816],[39.7478185,45.1322449],[39.7405978,45.1360948],[39.72713900000001,45.15178469999999],[39.7176398,45.14955520000001],[39.7152478,45.143511200000006],[39.710838300000006,45.1462105],[39.713708700000005,45.151066099999994],[39.7117831,45.153170300000006],[39.699828100000005,45.1470497],[39.69806500000001,45.1490175],[39.70214690000001,45.156150000000004],[39.6879161,45.154832999999996],[39.68831130000001,45.16075850000001],[39.6795645,45.166920100000006],[39.68595580000001,45.169320500000005],[39.687391,45.174775200000006],[39.68530390000001,45.1820992],[39.6774001,45.1870539],[39.6894971,45.185844499999995],[39.691650200000005,45.187104399999996],[39.68811990000001,45.19277070000001],[39.670456300000005,45.203953000000006],[39.6203276,45.21711330000001],[39.595049100000004,45.210616800000004],[39.5828473,45.20093930000001],[39.570840499999996,45.2004262],[39.5456117,45.1885878],[39.5386919,45.1612681],[39.513307499999996,45.16117630000001],[39.498147900000006,45.14032220000001],[39.46891970000001,45.131348],[39.471519900000004,45.121248200000004],[39.454524799999994,45.1212092],[39.4672669,45.1107172],[39.462905500000005,45.101960999999996],[39.4399271,45.1109098],[39.4295448,45.1040967],[39.429235600000005,45.097673900000004],[39.42399220000001,45.0896768],[39.403393200000004,45.093676900000006],[39.3994072,45.0875968],[39.402504,45.0794285],[39.3990867,45.076703300000005],[39.3822498,45.0761041],[39.376052300000005,45.056553900000004],[39.34482909999999,45.042470800000004],[39.3260697,45.0448117],[39.3269998,45.033850900000004],[39.3220735,45.0301747],[39.30187039999999,45.03015070000001],[39.28909530000001,45.01782959999999],[39.2797642,45.0160267],[39.27270610000001,45.0192009],[39.2770447,45.0304064],[39.2716741,45.0298716],[39.2645819,45.0199981],[39.26234620000001,45.0034397],[39.2558262,45.001998],[39.23270860000001,45.010013900000004],[39.239331500000006,45.0160596],[39.230468200000004,45.0180078],[39.22370320000001,45.0092839],[39.221442200000006,44.9889885],[39.21488739999999,44.990231],[39.202230500000006,45.000621599999995],[39.17921930000001,44.989816399999995],[39.1490225,44.9940524],[39.1399966,44.998949],[39.127742700000006,44.9950278],[39.1167719,44.998242000000005],[39.0988601,44.9880797],[39.0786882,44.9886031],[39.075968200000005,44.9787164],[39.0703064,44.975543300000005],[39.059938800000005,44.97428759999999],[39.049011300000004,44.983391],[39.0414767,44.9848709],[39.0336055,44.980208],[39.028620700000005,44.970111700000004],[39.02245890000001,44.967958900000006],[39.0189092,44.97168699999999],[39.019833999999996,44.9829216],[39.0151745,44.9956035],[39.019277599999995,44.999928100000005],[39.014225499999995,45.003978700000005],[38.9977685,45.00331220000001],[38.978450300000006,45.0103925],[38.97344759999999,45.007383399999995],[38.969578600000006,44.99188779999999],[38.9628998,44.992082800000006],[38.953488099999994,44.998205000000006],[38.9471379,45.0165492],[38.957934099999996,45.028263900000006],[38.9533705,45.035442700000004],[38.938360200000005,45.0356296],[38.9071594,45.02226590000001],[38.8997742,45.022454200000006],[38.9002051,45.031667899999995],[38.909418900000006,45.044447899999994],[38.90767399999999,45.052170100000005],[38.899565,45.05400899999999],[38.8881344,45.0487244],[38.87798469999999,45.0380234],[38.8583566,45.0336293],[38.85463789999999,45.029783],[38.855289799999994,45.0212239],[38.8660764,45.0118957],[38.8658921,45.0066273],[38.8603849,45.001621099999994],[38.8561379,45.001298999999996],[38.8463106,45.008073],[38.8305219,45.005817900000004],[38.81740449999999,45.0125034],[38.813559,45.009571],[38.811752399999996,44.9982046],[38.8060531,44.9956857],[38.785869399999996,45.0045624],[38.77517470000001,45.0160066],[38.77001090000001,45.0273808],[38.7564685,45.03312270000001],[38.755905000000006,45.03890080000001],[38.76871750000001,45.0488689],[38.767909700000004,45.0566392],[38.76011000000001,45.060145500000004],[38.74801290000001,45.059552200000006],[38.732806200000006,45.043156],[38.7232848,45.0402795],[38.719475200000005,45.0429578],[38.7180811,45.0557335],[38.70779290000001,45.064562300000006],[38.69892250000001,45.06654880000001],[38.689717800000004,45.0599755],[38.689105000000005,45.0391916],[38.685906800000005,45.039156000000006],[38.684018200000004,44.9514152],[38.757178700000004,44.94808939999999],[38.75371510000001,44.95084609999999],[38.75789739999999,44.95499459999999],[38.7638594,44.955117],[38.77195520000001,44.9612028],[38.7758647,44.959128],[38.775187800000005,44.964076999999996],[38.7816019,44.967617399999995],[38.7878753,44.964439999999996],[38.7873268,44.956532300000006],[38.782493200000005,44.9522627],[38.7866078,44.9441349],[38.806926999999995,44.938943],[38.8159298,44.94406479999999],[38.8349779,44.932241499999996],[38.8367962,44.926368700000005],[38.845829599999995,44.9244145],[38.8438309,44.917750399999996],[38.8527107,44.9166081],[38.85174339999999,44.9091145],[38.8618452,44.9062598],[38.861732100000005,44.89837860000001],[38.855063099999995,44.8974409],[38.854754699999994,44.8938467],[38.8957466,44.8857525],[38.9296463,44.8750856],[38.9528141,44.863292300000005],[38.9790259,44.858569499999994],[38.9862986,44.8552628],[38.9880453,44.8442168],[39.02258810000001,44.84118539999999],[39.07539130000001,44.8231407],[39.0871685,44.8245719],[39.09075910000001,44.817163099999995],[39.1458094,44.83593290000001],[39.152771800000004,44.835918500000005],[39.24813080000001,44.820278300000005],[39.256344,44.8248743],[39.3049311,44.8254649],[39.35367659999999,44.8159999],[39.3533083,44.8093819],[39.35718939999999,44.808711300000006],[39.361572300000006,44.80891090000001],[39.3617098,44.81152719999999],[39.368380200000004,44.809415300000005],[39.3697761,44.81492399999999],[39.392658600000004,44.8132528],[39.456120999999996,44.81752399999999],[39.459596999999995,44.8064349],[39.4697971,44.811762099999996],[39.4843287,44.80444189999999],[39.4868351,44.8095203],[39.4809191,44.810769799999996],[39.483086799999995,44.81389339999999],[39.477975300000004,44.8153496],[39.483515800000006,44.8177537],[39.482990300000004,44.820153100000006],[39.559578200000004,44.806958800000004],[39.565757100000006,44.81248299999999],[39.56890030000001,44.8277084],[39.55778709999999,44.836637499999995],[39.60211620000001,44.84846709999999],[39.607593800000004,44.8461567],[39.607071399999995,44.85179109999999],[39.614614499999995,44.85460259999999],[39.6185494,44.8602135],[39.641949499999996,44.8656063],[39.6452294,44.8681818],[39.6418518,44.8692707],[39.6436948,44.8712143],[39.648960300000006,44.87172739999999],[39.6509568,44.8686643],[39.652909900000004,44.874174399999994],[39.6422699,44.8747501],[39.637110400000005,44.878531900000006],[39.6394516,44.8835781],[39.6455661,44.8862769],[39.6409238,44.8955618],[39.62659850000001,44.8960932],[39.630661399999994,44.89803210000001],[39.62391380000001,44.8990573],[39.6260673,44.902354200000005],[39.6161771,44.905629499999996],[39.617673999999994,44.9090751],[39.6136292,44.9071268],[39.59753980000001,44.9111238],[39.6007475,44.9141289],[39.5916926,44.9186481],[39.593851,44.923320700000005],[39.585411,44.923096],[39.58077290000001,44.927798800000005],[39.5795395,44.9224237],[39.572990600000004,44.92590130000001],[39.573692300000005,44.931862599999995],[39.57726739999999,44.9341097],[39.57486959999999,44.9416169],[39.570016900000006,44.9339441],[39.5663641,44.93431390000001],[39.559504,44.9391216],[39.56531260000001,44.9432316],[39.551379499999996,44.94488709999999],[39.547837799999996,44.952005],[39.5369882,44.9557707],[39.535413000000005,44.962441],[39.5246828,44.9614627],[39.5175659,44.9672311],[39.5044561,44.9680277],[39.5119395,44.9713262],[39.50911680000001,44.9738526],[39.5119007,44.976484899999996],[39.522782600000006,44.980095],[39.5113198,44.9835904],[39.517146999999994,44.9834392],[39.519018100000004,44.9872393],[39.5107165,44.98774649999999],[39.5043432,44.9831556],[39.5063213,44.9792796],[39.5016372,44.979933100000004],[39.4945097,44.975210800000006],[39.4869716,44.9802809],[39.49151200000001,44.98194049999999],[39.4858736,44.990418500000004],[39.4803568,44.98645749999999],[39.475028300000005,44.987666899999994],[39.4736082,44.9910638],[39.476545200000004,44.992645800000005],[39.4705001,44.9947778],[39.4747769,44.995179500000006],[39.47644759999999,44.9992434],[39.473908200000004,44.999852800000006],[39.4712487,45.035690800000005],[39.479981699999996,45.036171],[39.48743399999999,45.03225880000001],[39.486960999999994,45.037741],[39.4939826,45.0451647],[39.49511300000001,45.040023999999995],[39.5090621,45.0365972],[39.5131134,45.039341900000004],[39.506556100000005,45.04211600000001],[39.5061802,45.04515560000001],[39.518370100000006,45.042889499999994],[39.5194796,45.0453795],[39.5137367,45.04874530000001],[39.5239643,45.047897899999995],[39.52605260000001,45.049373300000006],[39.52317980000001,45.054617799999995],[39.5442505,45.0550851],[39.5424987,45.052371300000004],[39.531992,45.0516337],[39.52977320000001,45.0432422],[39.5473279,45.0429656],[39.554450499999994,45.046817499999996],[39.5504882,45.0426819],[39.5526232,45.039329200000005],[39.545418600000005,45.03357390000001],[39.5569042,45.0298843],[39.556852,45.0396612],[39.5602977,45.039329200000005],[39.561968300000004,45.0326147],[39.56870310000001,45.033278800000005],[39.5718355,45.038074900000005],[39.566092700000006,45.0470757],[39.579249,45.0462273],[39.5794881,45.053380999999995],[39.5830299,45.0550568],[39.58760739999999,45.0539239],[39.588108600000005,45.050005399999996],[39.582171800000005,45.0469886],[39.596354500000004,45.0435281],[39.604726,45.047609599999994],[39.607981099999996,45.0423972],[39.62212920000001,45.0490368],[39.6524243,45.0336827],[39.650878999999996,45.0232037],[39.6406963,45.02258990000001],[39.635527800000006,45.017497299999995],[39.643933100000005,45.01546749999999],[39.6533304,45.0184568],[39.6568283,45.0143603],[39.6446118,45.014323399999995],[39.64513390000001,45.00989439999999],[39.639987,45.0072083],[39.644204699999996,45.00486409999999],[39.598587900000005,44.9827514],[39.62001330000001,44.960311000000004],[39.651649299999995,44.9756472],[39.64455,44.9832324],[39.666544200000004,44.9932914],[39.670444599999996,44.991106200000004],[39.677567399999994,44.993689599999996],[39.6772472,44.984817699999994],[39.6714623,44.9801197],[39.6744548,44.978340100000004],[39.687508900000005,44.983538900000006],[39.690909500000004,44.981443899999995],[39.68931890000001,44.976904499999996],[39.678472500000005,44.9733991],[39.69623240000001,44.9684177],[39.689446399999994,44.9660716],[39.6885894,44.96257880000001],[39.681733200000004,44.96371890000001],[39.6854077,44.95789419999999],[39.69192880000001,44.9589086],[39.688278600000004,44.9539803],[39.69242520000001,44.9514029],[39.77375270000001,44.973710100000005],[39.764099800000004,44.9903734],[39.856363699999996,45.014963599999994],[39.8612535,45.0198793],[39.885147499999995,45.023049900000004],[39.8912365,45.0004978],[39.903691099999996,45.002109100000006],[39.924413200000004,44.9270935],[39.94189359999999,44.92975810000001],[39.9634786,44.892425300000006],[39.933944399999994,44.8838526],[39.95768319999999,44.84231880000001],[39.975723900000006,44.8473542],[39.98539,44.8304558],[39.9554547,44.82214520000001],[39.95076649999999,44.830508300000005],[39.9390725,44.8270301],[39.948496,44.81046249999999],[39.9454682,44.809625],[39.9579109,44.79375670000001],[39.98141699999999,44.8004363],[39.990725700000006,44.783985200000004],[39.994173,44.785127800000005],[40.0083475,44.759887899999995],[40.029016500000004,44.746997900000004],[39.9875098,44.7174554],[39.969720900000006,44.73005280000001],[39.9608172,44.723619400000004],[39.942818300000006,44.73630270000001],[39.9100781,44.713003900000004],[39.9123441,44.708191600000006],[39.9088098,44.69869490000001],[39.915864299999996,44.70093980000001],[39.9181454,44.697970100000006],[39.9161601,44.6896098],[39.92513810000001,44.6917746],[39.9273565,44.68731030000001],[39.896247599999995,44.6618048],[39.915962300000004,44.6510738],[39.9044178,44.641770900000004],[39.9203841,44.62610850000001],[39.9111083,44.6208797],[39.91487839999999,44.608468300000006],[39.924037,44.6107606],[39.932877399999995,44.602892100000005],[39.92912820000001,44.5902936],[39.8741643,44.591394300000005],[39.8723947,44.55555390000001],[39.884822899999996,44.5550654],[39.8794056,44.4327656],[39.87062649999999,44.43166899999999],[39.8625972,44.4143147],[39.8630586,44.407026099999996],[39.8790917,44.396542100000005],[39.8443135,44.3533926],[39.8697712,44.338186300000004],[39.8784658,44.346915],[39.8954986,44.35163759999999],[39.90728119999999,44.35102319999999],[39.9222574,44.3373143],[39.9405666,44.3407741],[39.9444727,44.3479752],[39.961862399999994,44.3479281],[39.9746113,44.33857390000001],[39.977208399999995,44.3268149],[39.971904099999996,44.32251420000001],[39.96630290000001,44.3064517],[39.968458600000005,44.293466],[39.9746021,44.2910771],[39.9740573,44.27541380000001],[39.989762999999996,44.261309700000005],[40.0102118,44.267078100000006],[40.060988900000005,44.26866890000001],[40.0771821,44.2520404],[40.09351730000001,44.246828900000004],[40.0762855,44.22999220000001],[40.0795618,44.22943980000001],[40.080352000000005,44.22145690000001],[40.0758407,44.2146912],[40.075869,44.198481],[40.0796205,44.196962600000006],[40.0875585,44.1786975],[40.073273300000004,44.1711415],[40.0705485,44.160946200000005],[40.0764598,44.154207899999996],[40.06875210000001,44.1456636],[40.0807291,44.1386685],[40.0872088,44.139242800000005],[40.086110600000005,44.13574830000001],[40.0930244,44.129584],[40.08706539999999,44.1238745],[40.0839005,44.1263415],[40.0744628,44.122049000000004],[40.0624775,44.12915120000001],[40.0569377,44.13755590000001],[40.0546729,44.13651020000001],[40.0161267,44.1064376],[40.0193649,44.09413680000001],[40.017851799999995,44.08784119999999],[39.9878187,44.0761516],[39.979747399999994,44.0795475],[39.9813863,44.0819036],[39.97891980000001,44.084441299999995],[39.9660261,44.089509],[39.9706827,44.0979966],[39.9647738,44.1046591],[39.95026549999999,44.099460300000004],[39.93533580000001,44.105114500000006],[39.920878900000005,44.1171219],[39.895369300000006,44.1249407],[39.88564949999999,44.1424298],[39.8780371,44.1481471],[39.8805339,44.1550998],[39.8756356,44.16296930000001],[39.8771006,44.168288100000005],[39.8650268,44.1843066],[39.8220494,44.180419900000004],[39.76859620000001,44.180348],[39.7763276,44.1697696],[39.7646012,44.1634565],[39.7618047,44.1488176],[39.773993700000005,44.1368656],[39.776672600000005,44.129454],[39.794054,44.1272276],[39.801186799999996,44.12237680000001],[39.8309651,44.078819900000006],[39.8284936,44.06534330000001],[39.8086093,44.0432088],[39.7967834,44.017459499999994],[39.79899690000001,44.0103748],[39.797083,43.9971935],[39.8191219,43.9836543],[39.7777748,43.961767099999996],[39.790605400000004,43.95454459999999],[39.807743699999996,43.9336363],[39.85145749999999,43.92423],[39.866976300000005,43.9303881],[39.8796519,43.9312488],[39.883770399999996,43.935031200000005],[39.9126762,43.9394982],[39.9027475,43.9537373],[39.9089201,43.9738829],[39.9229854,43.9725405],[39.9268081,43.969244499999995],[39.9254835,43.9644779],[39.92810610000001,43.9613032],[39.94213270000001,43.9563263],[39.9426361,43.948078100000004],[39.953483899999995,43.933295300000005],[39.978070200000005,43.912624099999995],[40.0028056,43.898786900000005],[40.0124249,43.884576599999995],[40.0269076,43.8796596],[40.0434752,43.880652],[40.0680637,43.867676599999996],[40.075790700000006,43.8560382],[40.09135380000001,43.8453821],[40.099052500000006,43.849501499999995],[40.09818330000001,43.85421759999999],[40.1043605,43.8619736],[40.104578200000006,43.866871499999995],[40.112671399999996,43.8681344],[40.150901399999995,43.85769489999999],[40.158305500000004,43.8607085],[40.1684415,43.87166069999999],[40.189061699999996,43.8729207],[40.19714200000001,43.860907],[40.1888365,43.8458073],[40.199654100000004,43.835012000000006],[40.2004658,43.823717800000004],[40.20811790000001,43.818781599999994],[40.20548230000001,43.801506999999994],[40.2143962,43.79224510000001],[40.2152606,43.7818859],[40.216864799999996,43.77911630000001],[40.23310190000001,43.77538290000001],[40.2494067,43.76211650000001],[40.2762564,43.7607877],[40.2944915,43.77055860000001],[40.29852610000001,43.779058000000006],[40.3040556,43.781756],[40.3195726,43.781877699999995],[40.3235494,43.7778198],[40.3477257,43.77219810000001],[40.3656669,43.773268800000004],[40.3713286,43.7772619],[40.3736351,43.79123800000001],[40.382040999999994,43.801973],[40.3802336,43.8200994],[40.393716000000005,43.8277568],[40.404216399999996,43.864867999999994],[40.4156102,43.872556700000004],[40.41991590000001,43.88044159999999],[40.402758000000006,43.8948156],[40.409686699999995,43.9387685],[40.4129408,43.941899799999995],[40.445457399999995,43.9464937],[40.450344699999995,43.9483497],[40.45526039999999,43.95785239999999],[40.47668959999999,43.9590513],[40.4804755,43.964505900000006],[40.47257520000001,43.9694803],[40.4683414,43.9855697],[40.457038399999995,44.002900700000005],[40.450625699999996,44.007350300000006],[40.4488013,44.017659099999996],[40.4402155,44.0213074],[40.4295314,44.0373004],[40.4294008,44.0524368],[40.413294199999996,44.06331360000001],[40.420540300000006,44.07535030000001],[40.42618280000001,44.09551760000001],[40.42532580000001,44.106638100000005],[40.432670800000004,44.1140168],[40.4294591,44.1141592],[40.4184413,44.12773680000001],[40.4055461,44.1328484],[40.405573700000005,44.1406524],[40.410176,44.1496364],[40.402925700000004,44.15213370000001],[40.399557200000004,44.1595626],[40.406097599999995,44.16731270000001],[40.39510090000001,44.184447299999995],[40.39619390000001,44.1914038],[40.35982939999999,44.24674530000001],[40.42431010000001,44.2811601],[40.4423407,44.2854242],[40.451545599999996,44.295047600000004],[40.454634199999994,44.305362900000006],[40.4829016,44.315372100000005],[40.462765000000005,44.348228999999996],[40.434918200000006,44.421516600000004],[40.4119725,44.422941300000005],[40.4155661,44.4248209],[40.40837280000001,44.435531100000006],[40.41076739999999,44.4385004],[40.4036049,44.443813399999996],[40.4093426,44.446875],[40.40788379999999,44.451560699999995],[40.3968146,44.45853230000001],[40.4003803,44.4607454],[40.3929648,44.470864199999994],[40.388628999999995,44.4716323],[40.3908304,44.4771857],[40.383443199999995,44.4772787],[40.3860725,44.4812963],[40.3840137,44.4825174],[40.39782699999999,44.487674899999995],[40.3972069,44.4920434],[40.4025942,44.49475280000001],[40.4028704,44.49953090000001],[40.4098565,44.502504300000005],[40.4068334,44.50513030000001],[40.4120269,44.50513030000001],[40.4122207,44.5088618],[40.4243456,44.51391590000001],[40.418013,44.514518300000006],[40.416966599999995,44.5208469],[40.419640799999996,44.52316810000001],[40.4104165,44.527727399999996],[40.415038200000005,44.5349946],[40.396911700000004,44.5325411],[40.38726599999999,44.5488575],[40.3495819,44.5479173],[40.3496522,44.5579079],[40.342234499999996,44.5579603],[40.341385499999994,44.567487099999994],[40.336645499999996,44.5675627],[40.3368931,44.573484699999995],[40.3403597,44.5727035],[40.3415409,44.579779300000006],[40.354494399999986,44.5972829],[40.3482621,44.60334220000001],[40.351895799999994,44.6129868],[40.3486091,44.6184825],[40.343262599999996,44.6199442],[40.3396582,44.62932310000001],[40.3428751,44.6452636],[40.350460299999995,44.649307],[40.37766969999999,44.6353444],[40.387753599999996,44.64277390000001],[40.386497199999994,44.64729739999999],[40.396014300000004,44.649538400000004],[40.396458200000005,44.6539962],[40.40176639999999,44.655044399999994],[40.40140749999999,44.6594384],[40.397642,44.6596981],[40.4042993,44.673173500000004],[40.3971718,44.67601890000001],[40.3933813,44.67536290000001],[40.396357900000005,44.6734006],[40.39236590000001,44.671305800000006],[40.388528900000004,44.678499200000005],[40.3819788,44.6766803],[40.38442049999999,44.680483499999994],[40.376244199999995,44.6810106],[40.373531,44.6877546],[40.3661648,44.6890472],[40.3660639,44.693617200000006],[40.3706703,44.69807050000001],[40.3645072,44.69711500000001],[40.3731919,44.7039618],[40.366842999999996,44.7078499],[40.3677556,44.7167071],[40.4039547,44.7175062],[40.405953600000004,44.73495270000001],[40.429827599999996,44.735372300000016],[40.4299974,44.762461800000004],[40.527497,44.76261500000001],[40.521191,44.7524945],[40.518736700000005,44.741185900000005],[40.532637300000005,44.74419],[40.5641394,44.74419830000001],[40.56859000000001,44.73886280000001],[40.5684248,44.654439399999994],[40.618710400000005,44.6537713],[40.618458800000006,44.635833000000005],[40.643729900000004,44.635810500000005],[40.643364,44.584312000000004],[40.670221,44.545973000000004],[40.66810000000001,44.538816000000004],[40.6588131,44.5304396],[40.6612499,44.4827091],[40.619703,44.4832],[40.619524,44.465084],[40.77573900000001,44.4650237]]]}}