{"type":"Feature","properties":{"regionId":"nenetskiy_avtonomnyy_okrug","name":"Ненецкий автономный округ","name:en":"Nenets Autonomous Okrug","timezone":"Europe/Moscow","name_ru":"Ненецкий автономный округ","name_en":"Nenets Autonomous Okrug","name_zh":"涅涅茨自治区"},"geometry":{"type":"MultiPolygon","coordinates":[[[[59.5894347,66.83429940000002],[59.5184312,66.823185],[59.5229864,66.8292955],[59.5106387,66.833297],[59.50539590000001,66.8311329],[59.504078,66.83407460000001],[59.5100657,66.83647509999999],[59.49854880000001,66.83619340000001],[59.494722900000006,66.8396333],[59.525445500000004,66.843652],[59.53393570000001,66.8504336],[59.56270190000001,66.84756640000002],[59.553563999999994,66.83835199999999],[59.56693370000001,66.83716540000002],[59.579458,66.8411188],[59.5894347,66.83429940000002]]],[[[50.8713315,69.12391099999999],[50.8689246,69.09085420000001],[50.861666199999995,69.0697629],[50.8359664,69.0306913],[50.7869961,68.9859518],[50.750777,68.9615871],[50.680737,68.92229470000001],[50.66431930000001,68.9100755],[50.638976500000005,68.8833569],[50.6164829,68.86672],[50.0792317,68.57757679999999],[50.005450800000006,68.5453416],[49.915053,68.519422],[49.7563055,68.48985940000001],[49.632445600000004,68.4722757],[49.568568400000004,68.46665260000002],[49.3161918,68.46157400000001],[49.24832580000001,68.4574702],[49.11550870000001,68.45796770000001],[48.78601530000001,68.4863284],[48.59567870000001,68.49660060000002],[48.393106,68.51273889999999],[48.24872380000001,68.52853309999999],[48.10516230000001,68.5538492],[47.9728731,68.58841819999999],[47.873890599999996,68.62331779999998],[47.78875270000001,68.66896960000001],[47.74436,68.70162580000002],[47.710732400000005,68.73421940000003],[47.681719900000004,68.77901440000001],[47.672440300000005,68.80230799999998],[47.654899799999995,68.92288779999998],[47.663440300000005,69.0434188],[47.678741300000006,69.1191508],[47.706165600000006,69.18078399999999],[47.7465072,69.2454757],[47.7573396,69.2697062],[47.798264200000006,69.3250836],[47.8451892,69.36873639999999],[47.93210820000001,69.42774279999999],[48.0035833,69.46680300000001],[48.13397260000001,69.52455640000001],[48.324040999999994,69.59683960000001],[48.3938292,69.61786860000001],[48.4988066,69.6403576],[48.550422499999996,69.6468762],[48.7068093,69.67505079999998],[48.8826503,69.69347259999999],[49.1129094,69.70162220000002],[49.31848039999999,69.697461],[49.4410387,69.68872709999998],[49.5452802,69.67614479999999],[49.6170165,69.66414440000001],[49.6831974,69.64878829999998],[49.769701000000005,69.62283519999998],[49.8394433,69.59709340000002],[50.0230275,69.54577609999998],[50.123026700000004,69.5126402],[50.4100053,69.4395913],[50.52280090000001,69.40337579999999],[50.569349200000005,69.38426560000002],[50.64047,69.3496769],[50.7370977,69.2929303],[50.76460590000001,69.2732307],[50.8238505,69.21996500000002],[50.8405485,69.19909279999999],[50.8615086,69.16247539999999],[50.8713315,69.12391099999999]]],[[[65.47401690000001,68.41795450000002],[65.45840360000001,68.41416850000002],[65.45848029999999,68.4164362],[65.44266320000003,68.42058709999999],[65.42282960000001,68.42266240000001],[65.41145260000002,68.41881860000001],[65.3925414,68.42150900000001],[65.37947319999999,68.418434],[65.38208729999998,68.4134373],[65.3773215,68.4086712],[65.35579649999998,68.4137445],[65.34718690000001,68.41051580000001],[65.3408069,68.4051347],[65.34126830000001,68.40221360000002],[65.33350440000001,68.3987542],[65.30037209999998,68.3944491],[65.2951445,68.39721640000002],[65.29622040000002,68.4005218],[65.28999370000001,68.4001375],[65.29053160000001,68.4030585],[65.280922,68.40667140000001],[65.2595322,68.40432660000002],[65.2515379,68.3969084],[65.2534215,68.39525560000001],[65.24719470000002,68.39479440000001],[65.22286360000001,68.40194310000001],[65.16459320000001,68.40313400000001],[65.16985209999999,68.40766390000003],[65.14702740000001,68.4054015],[65.12918679999999,68.4143828],[65.1151104,68.41505340000002],[65.05571499999999,68.40197370000001],[65.05337079999998,68.3980007],[65.06152220000001,68.38700109999999],[65.04354000000001,68.38808749999998],[65.03118560000001,68.3847507],[65.03466150000001,68.3825337],[65.0295582,68.3805412],[65.0276921,68.3831229],[64.98991290000001,68.3882012],[64.96844990000001,68.40324700000001],[64.95785120000001,68.40112230000001],[64.94966200000002,68.40451040000002],[64.94079640000001,68.40379490000001],[64.92326640000002,68.3944805],[64.91720050000002,68.3964706],[64.8845048,68.3894072],[64.87532139999999,68.39148300000001],[64.8789232,68.39406490000002],[64.8715545,68.399673],[64.87556879999998,68.40474350000001],[64.8487514,68.39879179999998],[64.8385217,68.4051983],[64.82422900000002,68.4085812],[64.8041731,68.40901600000001],[64.7775184,68.40132700000001],[64.7776625,68.39452680000001],[64.7718129,68.39092960000002],[64.7527655,68.38698149999999],[64.73489970000001,68.38638709999998],[64.7233445,68.3925426],[64.689601,68.3946011],[64.6636955,68.3846463],[64.6611309,68.38174829999998],[64.6636379,68.3762589],[64.65424390000001,68.3670398],[64.6061213,68.3626095],[64.5847399,68.3568179],[64.5779969,68.35225799999999],[64.57871729999998,68.34714440000002],[64.5835872,68.34312490000002],[64.5428127,68.33985990000001],[64.5420347,68.3374986],[64.5565867,68.3319028],[64.53566640000001,68.3292746],[64.52794370000001,68.3241877],[64.54010400000001,68.30758879999999],[64.52903869999999,68.3017619],[64.5323237,68.29920490000002],[64.5318627,68.29326930000002],[64.5280243,68.29062940000003],[64.5292922,68.28022390000002],[64.5463513,68.2740807],[64.5669706,68.27622050000001],[64.56847839999999,68.27475729999999],[64.5637104,68.27306779999999],[64.5646885,68.26977889999999],[64.5801335,68.2644221],[64.5620804,68.25402930000001],[64.5766457,68.24682520000002],[64.5682026,68.2352671],[64.5766457,68.21158790000001],[64.56102740000001,68.208411],[64.5827834,68.20213079999999],[64.5787204,68.19483199999999],[64.56797209999999,68.19337629999998],[64.54961630000001,68.1973045],[64.52316330000001,68.188623],[64.5079773,68.18726330000001],[64.5021565,68.1907214],[64.50025460000002,68.1994449],[64.45120990000002,68.2005792],[64.40400040000002,68.17868549999999],[64.3748439,68.17672779999998],[64.3778154,68.17252749999999],[64.3701659,68.1681404],[64.3745202,68.16544869999998],[64.37290209999998,68.1637197],[64.351486,68.161868],[64.3532335,68.15846269999999],[64.3634275,68.1571469],[64.381527,68.15773509999998],[64.3898902,68.1620692],[64.39742120000001,68.1603667],[64.37236979999999,68.14585709999999],[64.36922170000001,68.1405886],[64.37513919999999,68.1362893],[64.36772500000001,68.1275662],[64.33924520000001,68.1310076],[64.3368915,68.1300213],[64.34077509999999,68.12353239999999],[64.3230433,68.12337049999998],[64.30762650000001,68.1132168],[64.2708205,68.1197854],[64.25746320000002,68.11045279999999],[64.21692060000002,68.11378709999998],[64.1985912,68.1045509],[64.16814009999999,68.10983859999999],[64.1677282,68.10603199999998],[64.1781434,68.1006995],[64.16728690000001,68.1002386],[64.1603435,68.09278629999999],[64.1466777,68.0950261],[64.11810960000001,68.09022900000002],[64.1069295,68.09411500000002],[64.0826275,68.09196350000002],[64.08205009999999,68.08843309999999],[64.11096020000001,68.0827844],[64.1004274,68.0819278],[64.0799512,68.0864302],[64.07550849999998,68.0844427],[64.07659709999999,68.0801816],[64.09369090000001,68.07538139999998],[64.0830992,68.07465640000001],[64.0711248,68.06760240000001],[64.0469405,68.0679211],[64.04709120000001,68.06257769999999],[64.03271960000001,68.056696],[64.0208406,68.0552189],[64.01208209999999,68.0581187],[63.997061599999995,68.05486900000001],[63.9851201,68.0572713],[63.97517580000001,68.05283189999999],[63.97619520000001,68.0487416],[63.9538309,68.04755170000001],[63.964232900000006,68.04416060000003],[63.9228745,68.0430716],[63.9230202,68.03990540000001],[63.89811780000001,68.03833379999999],[63.9012384,68.0361474],[63.8965575,68.0340075],[63.877518,68.03639199999999],[63.867710900000006,68.0329095],[63.8787273,68.03123760000001],[63.8775492,68.02878889999998],[63.8949748,68.000676],[63.910898599999996,67.99804390000001],[63.8969825,67.99306020000002],[63.9013603,67.9869301],[63.91188719999999,67.9861163],[63.912286099999996,67.9813476],[63.9150233,67.9805921],[63.910690699999996,67.9778815],[63.91189979999999,67.97537519999999],[63.92415880000001,67.97340460000001],[63.9304293,67.9681151],[63.9298297,67.96489890000001],[63.9404336,67.96318140000001],[63.94129449999999,67.9585986],[63.93248739999999,67.9568029],[63.936123300000006,67.95484490000001],[63.9279242,67.9524044],[63.937962399999996,67.9513577],[63.9361446,67.94972330000002],[63.949832900000004,67.94518920000002],[63.94390739999999,67.94030000000001],[63.929551100000005,67.93711780000001],[63.9311779,67.9344771],[63.9228064,67.93123380000002],[63.932555400000005,67.92465000000001],[63.930815800000005,67.92095900000001],[63.9567524,67.9124343],[63.964874599999995,67.90638779999999],[63.9821638,67.9065709],[63.9977802,67.90140260000001],[63.9967946,67.89268990000001],[63.95082749999999,67.88965370000001],[63.95658749999999,67.8838695],[63.949190200000004,67.87293879999997],[63.926830200000005,67.87314119999999],[63.92615850000001,67.87096199999999],[63.9317506,67.868422],[63.917485299999996,67.8636841],[63.9219376,67.85731879999999],[63.9117358,67.8546792],[63.925959600000006,67.85070979999999],[63.924583,67.8459901],[63.91068979999999,67.8461872],[63.9074124,67.8398457],[63.893958600000005,67.83998009999999],[63.86928339999999,67.8310562],[63.868333400000004,67.8266602],[63.8432307,67.82258609999998],[63.83043,67.82681709999999],[63.81344449999999,67.82133219999999],[63.8055013,67.82502779999999],[63.804099099999995,67.82894139999999],[63.798547000000006,67.829297],[63.76841870000001,67.81633169999999],[63.76895610000001,67.81337679999999],[63.76401890000001,67.8114489],[63.77572370000001,67.8080557],[63.763365500000006,67.8002093],[63.7580608,67.8038049],[63.7589899,67.8061837],[63.747272900000006,67.810083],[63.75215070000001,67.81391330000001],[63.7478149,67.8157942],[63.706185000000005,67.8062553],[63.7173925,67.79739500000001],[63.701701,67.79446410000001],[63.712566300000006,67.7933229],[63.7067465,67.79047940000001],[63.70731430000001,67.78469860000001],[63.69997180000001,67.7834105],[63.702023600000004,67.777301],[63.6914421,67.774719],[63.710008800000004,67.76750160000002],[63.7059574,67.76316320000002],[63.73297080000001,67.75678809999998],[63.7310833,67.7534593],[63.749042200000005,67.75443960000001],[63.759161399999996,67.74861820000001],[63.7494062,67.74506320000002],[63.77391130000001,67.74668570000001],[63.770794900000006,67.74055670000001],[63.753922700000004,67.74031970000001],[63.75801980000001,67.7384059],[63.751367699999996,67.73351920000002],[63.7579488,67.73085920000001],[63.7546518,67.72734779999999],[63.7580262,67.7244008],[63.744244599999995,67.72142910000001],[63.7264819,67.7282208],[63.72678530000001,67.7314743],[63.7212466,67.7331305],[63.72101850000001,67.7367122],[63.7040284,67.73847869999999],[63.70011390000001,67.73712710000001],[63.70301560000001,67.73410550000001],[63.69827080000001,67.73256],[63.69017720000001,67.73755920000002],[63.676919100000006,67.73868960000001],[63.6751215,67.7375523],[63.679416100000005,67.73546990000001],[63.612064,67.7319889],[63.59953910000001,67.73664460000002],[63.570581499999996,67.73833529999999],[63.5602062,67.7424651],[63.554184799999994,67.73824390000001],[63.5543626,67.73309960000002],[63.55128919999999,67.7331343],[63.52850050000001,67.74061010000001],[63.49510480000001,67.7425777],[63.491742900000006,67.75570979999999],[63.462727300000005,67.7628207],[63.43513110000001,67.76490640000002],[63.42891800000001,67.7695458],[63.4096531,67.76612350000002],[63.3865557,67.7569082],[63.387786899999995,67.75465700000001],[63.38442769999999,67.7532891],[63.3342099,67.7524806],[63.328272600000005,67.74754390000003],[63.330421699999995,67.7430989],[63.324809599999995,67.74136800000001],[63.33044449999999,67.73936900000001],[63.3013726,67.7328922],[63.3133431,67.7283334],[63.316959399999995,67.72279259999999],[63.3079463,67.71433520000001],[63.26629530000001,67.71524020000001],[63.2594566,67.71090000000001],[63.2314516,67.71006330000002],[63.22602570000001,67.7062728],[63.228196900000015,67.6990587],[63.153326,67.69441460000002],[63.1461218,67.6902305],[63.1502117,67.68437209999998],[63.136658700000005,67.6770264],[63.136954700000004,67.67194049999999],[63.1447251,67.67094269999998],[63.116487799999994,67.6630847],[63.12372500000001,67.65647029999998],[63.119924,67.6528542],[63.12202230000001,67.6512782],[63.1075749,67.65172940000001],[63.1171377,67.64872749999999],[63.10637090000001,67.64341590000001],[63.0909775,67.6413419],[63.0944425,67.63743729999999],[63.0772147,67.63590719999999],[63.0884643,67.6341487],[63.0887076,67.6315755],[63.093499300000005,67.6331629],[63.094143900000006,67.63097379999999],[63.0857887,67.6291548],[63.082371300000005,67.63017769999999],[63.086421099999995,67.6315061],[63.085509,67.6338247],[63.061348300000006,67.63558929999999],[63.0666457,67.6296005],[63.0585576,67.62577149999997],[63.0376912,67.6249516],[62.987954599999995,67.614727],[62.972503,67.61526490000001],[62.9660773,67.611477],[62.968810000000005,67.60984009999999],[62.96704449999999,67.60821390000001],[62.9443369,67.60483889999999],[62.9485297,67.6012183],[62.943617399999994,67.59764160000002],[62.9533983,67.59499100000001],[62.94442099999999,67.59462130000001],[62.941234599999994,67.60012300000001],[62.9370784,67.6006404],[62.93231270000001,67.59933109999999],[62.9364134,67.5974621],[62.935194300000006,67.59380809999999],[62.925413400000004,67.594727],[62.91460739999999,67.6002497],[62.91789119999999,67.59234119999999],[62.9308502,67.586533],[62.92829880000001,67.5775098],[62.920068900000004,67.574369],[62.914213399999994,67.5674987],[62.92021570000001,67.562518],[62.9183802,67.5544038],[62.9268972,67.55131300000001],[62.922803900000005,67.54416250000001],[62.9267574,67.5404307],[62.9058086,67.53752490000002],[62.9049001,67.5328529],[62.909416900000004,67.53024370000001],[62.898228700000004,67.5279121],[62.898047,67.5224244],[62.879694099999995,67.51967520000001],[62.8453511,67.52249009999998],[62.837772900000004,67.51690380000001],[62.836142300000006,67.5150516],[62.8432921,67.51326970000002],[62.8449258,67.50935199999999],[62.8353625,67.5055108],[62.84835830000001,67.50607269999999],[62.8570588,67.5005733],[62.852836999999994,67.49942130000001],[62.857517699999995,67.495979],[62.854415599999996,67.49514300000001],[62.8539926,67.48952660000002],[62.88424109999999,67.48169690000002],[62.889875599999996,67.4717054],[62.895756600000006,67.46936090000001],[62.894267799999994,67.46432370000002],[62.9088957,67.4608317],[62.9054935,67.4575787],[62.9086919,67.4544479],[62.907039499999996,67.44987390000001],[62.9173023,67.44806750000001],[62.9009291,67.4369978],[62.9086939,67.4303485],[62.9043124,67.42696600000001],[62.9092709,67.42481370000002],[62.906772700000005,67.4221615],[62.9086178,67.4205473],[62.905158500000006,67.41970160000001],[62.914845199999995,67.4123989],[62.908503200000006,67.41151480000002],[62.9045832,67.4052882],[62.8973955,67.4051343],[62.9009271,67.40302090000002],[62.89637930000001,67.3995582],[62.8768103,67.40499450000002],[62.884608199999995,67.3935919],[62.882866099999994,67.38808519999999],[62.8497784,67.38277979999998],[62.8509951,67.3791638],[62.8656016,67.3700197],[62.7535116,67.35032279999999],[62.48449769999999,67.2792897],[62.150142200000005,67.1961101],[61.8466506,67.12615279999999],[61.84434459999999,67.1246153],[61.849631099999996,67.1201102],[61.8327854,67.11516060000001],[61.8094058,67.1144512],[61.808139800000006,67.1115479],[61.812608499999996,67.10898809999998],[61.80908769999999,67.10692320000001],[61.7848754,67.1100942],[61.7768859,67.10071679999999],[61.780596300000006,67.0968489],[61.75895680000001,67.0934443],[61.74823190000001,67.1017074],[61.7386174,67.1021184],[61.73260500000001,67.0994838],[61.7310612,67.09422430000002],[61.742923600000005,67.0839339],[61.7196051,67.0806013],[61.74311320000001,67.07803819999998],[61.7449278,67.07548539999999],[61.72677500000001,67.0602678],[61.7071114,67.05535189999999],[61.713612600000005,67.04760790000002],[61.707871,67.0426329],[61.716700100000004,67.0355437],[61.716050100000004,67.03056620000001],[61.69542890000001,67.02752410000001],[61.688988900000005,67.0219171],[61.67863260000001,67.0211051],[61.6854268,67.0155018],[61.6810222,67.01426050000002],[61.65363,67.0138403],[61.638946600000004,67.01914440000002],[61.638048100000006,67.0128395],[61.6463978,67.0064069],[61.646091399999996,67.0033695],[61.6310007,67.00082560000001],[61.6133055,67.00637699999999],[61.603845,67.0057935],[61.59802320000001,67.00275599999999],[61.59859780000001,66.99729360000003],[61.60311730000001,66.9930575],[61.6010107,66.99221920000002],[61.557806899999996,67.0095187],[61.5457802,67.00835179999999],[61.5298852,66.99753310000001],[61.514526399999994,66.99452450000003],[61.5016188,66.9988651],[61.50395520000001,67.0025615],[61.51552220000001,67.0064967],[61.514526399999994,67.0101769],[61.5080535,67.01090990000002],[61.4790211,67.0018282],[61.4722034,67.005195],[61.475459,67.0097431],[61.4673775,67.01105950000002],[61.4493375,67.0002719],[61.4600236,66.98849129999999],[61.458989499999994,66.9838943],[61.448992800000006,66.9813483],[61.422488300000005,66.98386430000001],[61.413443799999996,66.9786179],[61.38744429999999,66.9792985],[61.3854537,66.97818109999999],[61.3930098,66.97651809999999],[61.3852931,66.97280809999998],[61.3799254,66.9749687],[61.3821463,66.98128670000001],[61.3742109,66.9884129],[61.380548399999995,66.99419290000002],[61.369038,66.9917371],[61.35374959999999,66.99550540000001],[61.34511010000001,67.0013577],[61.3377992,66.9973774],[61.3457276,66.9937327],[61.3350298,66.992889],[61.32066,66.99599960000002],[61.320977,67.00061950000001],[60.1098549,67.0006373],[60.07847890000001,66.97837719999998],[60.057077699999994,66.9722377],[60.0480072,66.9647807],[60.0367837,66.96443460000002],[60.0319688,66.96068360000002],[60.0167625,66.9610071],[60.0134528,66.96224340000002],[60.0182898,66.96524930000001],[60.015954,66.96613980000001],[60.0006115,66.9603551],[59.9933746,66.9633041],[59.9883736,66.96165170000002],[59.9882055,66.95833009999998],[59.9789498,66.95862580000001],[59.98064749999999,66.95652980000001],[59.9758131,66.95557029999999],[59.9440929,66.9564963],[59.937724599999996,66.9525248],[59.930508200000006,66.95456360000003],[59.92811870000001,66.9506583],[59.910253,66.9624774],[59.9161883,66.9731776],[59.9325977,66.97804799999999],[59.9718172,66.9786397],[59.97484299999999,66.98109720000001],[59.9670457,66.9889689],[59.96681290000001,66.99360870000001],[59.97811060000001,67.00049609999999],[53.8754797,67.0014801],[52.1522299,67.10117199999999],[52.0728207,67.0671008],[52.0647079,67.05566340000001],[52.0372707,67.0596627],[52.0296436,67.05719020000001],[52.0305643,67.0497075],[52.0520072,67.04998950000001],[52.0429377,67.04629190000001],[52.0554072,67.04308879999999],[52.0563086,67.04037360000001],[52.048897,67.0364273],[52.0610661,67.0326366],[52.059513700000004,67.02952940000002],[52.01088039999999,67.02509249999999],[52.008272600000005,67.0319784],[52.0049281,67.0327344],[52.0017731,67.0270668],[51.996290300000005,67.0247832],[51.9495913,67.02044],[51.929816,67.01419140000002],[51.9540337,67.0054399],[51.954814899999995,67.0032065],[51.9490978,67.0005288],[51.9339595,67.00073869999999],[51.9347918,67.00552920000001],[51.9313628,67.00637889999999],[51.923695,67.00316660000001],[51.904871199999995,67.0024466],[51.8891839,66.99350910000001],[51.8836379,66.99450180000001],[51.8783797,67.00162490000002],[51.8662607,67.0035031],[51.8253465,66.9988072],[51.836413900000004,66.99432570000002],[51.869665999999995,66.99669380000002],[51.86851420000001,66.9938364],[51.8433247,66.991331],[51.8380665,66.98710260000001],[51.841471799999994,66.9827169],[51.866136000000004,66.9721148],[51.84447649999999,66.9767243],[51.8465798,66.9715335],[51.8234436,66.9629515],[51.822041399999996,66.9576401],[51.83165639999999,66.94552350000002],[51.8019052,66.94912160000003],[51.7869836,66.9608461],[51.749077,66.9488571],[51.747624699999996,66.94595490000002],[51.7500786,66.9439741],[51.78111530000001,66.94734990000002],[51.8019207,66.94368650000001],[51.7769014,66.93746140000002],[51.77506,66.9326891],[51.777953000000004,66.9217842],[51.755219200000006,66.9294451],[51.726633500000005,66.91904390000002],[51.697632000000006,66.920793],[51.6515443,66.9387986],[51.62607570000001,66.94199680000001],[51.619083499999995,66.9485348],[51.6112149,66.94972350000002],[51.571388999999996,66.94168560000003],[51.5436079,66.9452318],[51.5317957,66.93961450000002],[51.5200954,66.93922950000002],[51.50807280000001,66.9244061],[51.499489,66.9222841],[51.4997437,66.91590640000001],[51.5069092,66.91291090000001],[51.5100717,66.89796650000001],[51.5308737,66.88687029999998],[51.5438059,66.88391560000001],[51.541027099999994,66.87903789999999],[51.529239700000005,66.8742862],[51.529167,66.87009479999999],[51.5372827,66.8628193],[51.5331074,66.8581167],[51.5358461,66.8575029],[51.5080515,66.8523532],[51.4839203,66.83455000000001],[51.491011300000004,66.83065970000001],[51.485867899999995,66.82400609999999],[51.48764729999999,66.82245219999999],[51.49523790000001,66.8178121],[51.5165907,66.8133022],[51.5161657,66.80697849999999],[51.519866199999996,66.8018913],[51.536015000000006,66.79862700000001],[51.5380866,66.78993779999999],[51.541555800000005,66.7853198],[51.5463638,66.78481900000001],[51.54494739999999,66.77497460000001],[50.3466287,66.4730566],[49.0004687,66.11357109999999],[48.08464709999999,66.1292538],[48.0726454,66.1131057],[48.06375520000001,66.06794310000001],[48.054948399999994,66.0542128],[48.055725900000006,66.050586],[48.02913240000001,66.01328120000001],[47.91104179999999,66.032277],[47.849173900000004,65.9829686],[47.8245632,65.98158660000001],[47.7492265,65.9064585],[47.843529499999995,65.85533919999999],[47.79741820000001,65.8378952],[47.73835380000001,65.8209691],[47.4713459,65.8439348],[47.144758100000004,65.8213054],[46.7704491,65.93534269999999],[46.55815880000001,65.9780164],[46.4267247,66.0177366],[46.347104599999994,66.0382873],[46.307209199999996,66.0379412],[46.1391636,66.0521004],[46.1346726,66.05883589999999],[45.8484939,66.085428],[45.72583010000001,66.06901900000001],[45.697850900000006,66.07584049999998],[45.7032904,66.08326690000001],[45.5153818,66.11530079999999],[45.267540700000005,66.17824799999998],[44.9890025,66.2250467],[44.854937899999996,66.23057109999999],[44.5895235,66.29757660000001],[44.52075320000001,66.36162070000002],[44.2494548,66.43619240000001],[43.7096232,66.72466290000001],[43.20252910000001,66.96920550000002],[41.3125962,68.59766450000002],[43.120051800000006,68.8548943],[43.242791600000004,68.8654747],[43.4164107,68.86890109999999],[43.4924414,68.8673593],[43.6575898,68.85231219999999],[43.81624159999999,68.8260262],[43.909373800000004,68.8043831],[44.02071260000001,68.7868182],[44.09951570000001,68.76624430000001],[44.1730992,68.73812160000001],[44.1879554,68.73520360000002],[44.44752139999999,68.7457007],[44.76576910000001,68.75175340000001],[45.03850990000001,68.74751720000002],[45.3741656,68.7354405],[45.6808297,68.7103111],[45.9702398,68.66477699999999],[46.19572220000001,68.623205],[46.3647085,68.58711950000001],[46.6439219,68.51636370000001],[46.744730600000004,68.4843804],[46.823700300000006,68.44510940000002],[46.8510922,68.42664570000001],[46.8819026,68.3980216],[46.9046228,68.36163520000001],[47.069442200000005,68.16448869999999],[47.0804656,68.14344],[47.085346200000004,68.12207249999997],[47.0824316,68.08334869999999],[47.0738784,68.0619891],[47.1112919,68.0329866],[48.525381900000006,68.11126600000001],[48.619355600000006,68.1137195],[48.723591000000006,68.1109228],[48.824310000000004,68.1005704],[48.91758959999999,68.0830664],[49.02041320000001,68.0515873],[49.2316375,68.10213329999999],[49.47532290000001,68.17019619999999],[49.653838300000004,68.22796900000002],[49.740056700000004,68.26049470000001],[49.812380399999995,68.2803125],[49.9399455,68.32143179999998],[50.2559764,68.43505440000001],[50.3292427,68.47023709999999],[50.364986099999996,68.4931317],[50.4301656,68.52617819999999],[50.5422467,68.57388829999998],[50.6412656,68.6073756],[50.7549825,68.63773729999998],[50.91182769999999,68.6666074],[51.057794099999995,68.68288539999999],[51.22161500000001,68.6892561],[51.480693099999996,68.6838306],[51.5887676,68.68619829999999],[51.73491310000001,68.70492750000001],[51.906844199999995,68.7407774],[52.164329,68.81924390000002],[52.5302165,68.91829980000001],[53.0591184,69.04766840000002],[53.2208434,69.08142070000001],[53.31110149999999,69.0967057],[53.561013200000005,69.1324934],[53.70592250000001,69.1499475],[53.9588809,69.17307369999999],[54.156384599999996,69.1830932],[54.4484917,69.1896416],[54.721843,69.18329229999999],[55.5699417,69.12496060000001],[55.8125931,69.0872703],[55.9246927,69.0555034],[56.670717,69.0079565],[57.21811470000001,68.92926050000001],[57.425805100000005,68.95106890000001],[57.629564200000004,68.96766350000003],[57.8677202,69.01496160000002],[58.12898810000001,69.0593991],[58.5184643,69.1380093],[58.4330195,69.16871479999999],[58.35744459999999,69.19162380000002],[58.3085672,69.2122918],[58.27355820000001,69.2319288],[58.23258190000001,69.2459391],[58.18788249999999,69.2658324],[58.133258000000005,69.2995961],[58.0589438,69.32203659999999],[57.9897055,69.35308879999998],[57.93897830000001,69.38832679999999],[57.9088191,69.42638749999999],[57.9005116,69.4657909],[57.9086436,69.49517560000001],[57.92863870000001,69.52333259999999],[57.965452500000005,69.5618175],[58.0210146,69.5961707],[58.09505240000001,69.6260143],[58.184694099999994,69.65016209999999],[58.2864096,69.66765060000002],[58.396153600000005,69.67777999999998],[58.5095346,69.6801442],[58.6584021,69.67574989999999],[58.7717077,69.66394269999999],[58.8754762,69.64426080000001],[58.96523500000001,69.6175588],[58.988103,69.6080205],[59.038676,69.58440970000001],[59.09633720000001,69.54450260000002],[59.186367399999995,69.51456180000001],[59.237698900000005,69.48986460000002],[59.30365439999999,69.4797048],[59.4582386,69.44782080000002],[59.5847286,69.41092020000002],[59.67819920000001,69.37836079999998],[59.74552230000001,69.34404140000001],[59.8115398,69.29568760000001],[59.84219,69.25437289999999],[59.8471893,69.23168930000001],[59.8584157,69.2154792],[59.8660313,69.1969255],[59.971285099999996,69.14363940000001],[60.010388999999996,69.1141743],[60.0422735,69.08221370000001],[60.0745409,69.04332160000001],[60.086510200000006,69.0061474],[60.0854237,68.9865012],[60.0751614,68.96066460000003],[60.230213000000006,68.8990335],[60.2580695,68.9137074],[60.27918220000001,68.93412590000003],[60.31114749999999,68.9584065],[60.20594260000001,69.00342900000001],[60.16272580000001,69.02964990000001],[60.13296220000001,69.0537435],[60.108010400000005,69.08109160000001],[60.09201240000001,69.10724160000001],[60.08243530000001,69.1323994],[60.07845820000001,69.15564799999999],[60.0812322,69.19126580000001],[60.0619863,69.20804340000001],[59.9978053,69.2407777],[59.95107739999999,69.27097719999999],[59.894804699999995,69.29960700000001],[59.8639691,69.3214672],[59.8175907,69.34601990000002],[59.773948600000004,69.37979639999999],[59.7132684,69.41295900000001],[59.682066,69.43924920000002],[59.6608917,69.46958500000001],[59.62583510000001,69.4852886],[59.3580711,69.5234807],[59.194342000000006,69.5551796],[58.66855610000001,69.7153433],[58.3597163,69.8354243],[58.14695580000001,69.92585509999999],[58.1091034,69.9454753],[57.897174,70.0708964],[57.446829699999995,70.1632918],[57.884216499999994,70.44223450000001],[58.5947676,70.7643953],[59.245354000000006,70.6549958],[59.349256,70.64103490000001],[59.4735076,70.61256340000001],[59.52452890000001,70.596648],[59.6238546,70.5592425],[59.680487199999995,70.52222520000001],[59.8392903,70.46957540000001],[59.9045194,70.43825960000002],[59.9517581,70.40160240000002],[60.033232700000006,70.3598402],[60.06675310000001,70.3369678],[60.170588300000006,70.3080609],[60.24373870000001,70.2821746],[60.3697719,70.258934],[60.456706,70.23494340000002],[60.5268084,70.2069183],[60.5822427,70.1742916],[60.609688399999996,70.15048889999998],[60.66971270000001,70.12286679999998],[61.3821595,70.0522356],[61.5060019,70.0329426],[61.616769399999995,70.0054059],[62.0132747,69.9460875],[62.08186419999999,69.94280990000001],[62.179830200000005,69.93286490000001],[62.528900400000005,69.9266821],[62.8565778,69.91268480000001],[63.151663799999994,69.8881057],[63.341799099999996,69.8670511],[63.938841599999996,69.78411170000001],[64.4047158,69.7063243],[64.55140209999999,69.67805699999998],[64.7021129,69.6418486],[64.96504420000001,69.56391920000002],[65.1318098,69.3386958],[65.0776075,69.24929130000001],[65.05966550000001,69.2463807],[65.0645818,69.2409982],[65.0629619,69.2389525],[65.0712621,69.23963930000001],[65.0771339,69.23588809999998],[65.05501209999998,69.23724160000002],[65.0419388,69.2269463],[65.0335758,69.2253932],[65.0313716,69.2195872],[65.033657,69.2131403],[65.02523719999999,69.21029000000001],[65.0313867,69.2013731],[65.0250406,69.193918],[64.99543390000001,69.1920859],[64.85469040000001,69.17126660000001],[64.84912070000001,69.16737579999999],[64.84912070000001,69.1600432],[64.82963849999999,69.15596699999999],[64.80218149999999,69.13652090000001],[64.77647689999999,69.12903909999999],[64.7403014,69.1238099],[64.720055,69.11243129999998],[64.71677279999999,69.0865712],[64.7115378,69.07957569999999],[64.6967289,69.0722009],[64.6437229,69.06206660000001],[64.6084669,69.03785260000001],[64.53960900000001,69.0292809],[64.5351349,69.02007379999999],[64.5391803,69.00815490000001],[64.5228109,68.99424990000003],[64.5192408,68.97709040000001],[64.5574754,68.9726062],[64.5685022,68.96185510000001],[64.57820629999999,68.958973],[64.60839229999998,68.9623116],[64.61108300000001,68.95944809999999],[64.6076555,68.9556756],[64.62873319999999,68.94816300000002],[64.6178187,68.93798420000002],[64.6246374,68.9327364],[64.62344009999998,68.9307884],[64.6101366,68.9254154],[64.58199330000001,68.9223604],[64.551408,68.91066380000002],[64.55056640000001,68.9054531],[64.5762807,68.8953148],[64.55650370000001,68.86930809999998],[64.5646025,68.86409300000001],[64.57883419999999,68.8614543],[64.6546253,68.866444],[64.6874595,68.85904209999998],[64.71128860000002,68.86074249999999],[64.73142030000001,68.85392279999999],[64.74687920000001,68.8531115],[64.7569033,68.85589499999999],[64.758995,68.8594553],[64.74244560000001,68.87243639999998],[64.7885409,68.89357679999999],[64.7908158,68.88556709999999],[64.80951340000001,68.8776575],[64.86158300000001,68.87368249999999],[64.8640405,68.8695678],[64.85215869999999,68.86575719999999],[64.8579451,68.86234379999999],[64.87567849999998,68.86493060000001],[64.8905127,68.87249979999999],[64.92172460000002,68.8761117],[64.9223842,68.8722692],[64.9099827,68.86730940000001],[64.9115318,68.86360450000001],[64.9358678,68.85879879999997],[64.95221690000001,68.84691690000001],[64.9984755,68.8403527],[65.0243601,68.84418640000001],[65.0358017,68.8379105],[65.0291125,68.8315141],[65.03207279999998,68.8290342],[65.0488958,68.8260224],[65.05551849999999,68.8203229],[65.07147499999999,68.81812000000001],[65.08529360000001,68.81096860000001],[65.1219744,68.80792900000002],[65.12801719999999,68.80290799999999],[65.1407406,68.8040125],[65.13871069999999,68.8111611],[65.14428570000001,68.8133949],[65.18680499999999,68.81091370000001],[65.2108151,68.8137359],[65.2132478,68.8151514],[65.2027289,68.8218916],[65.2094402,68.824516],[65.2298864,68.81760320000002],[65.23183,68.8149082],[65.22844249999999,68.8078574],[65.23297360000001,68.8019389],[65.25634609999999,68.8103691],[65.2804938,68.80838849999998],[65.2851914,68.8038432],[65.29704620000001,68.80284009999998],[65.3153366,68.80548599999999],[65.32273609999997,68.81238219999999],[65.34453340000002,68.8124479],[65.3480367,68.81141590000001],[65.34921630000001,68.80420560000002],[65.346822,68.79697440000001],[65.3406478,68.79363120000001],[65.34742420000002,68.78833879999998],[65.3832356,68.79375490000001],[65.3988332,68.7926358],[65.40006460000002,68.78930229999999],[65.3940722,68.7848203],[65.39911040000001,68.7790162],[65.3861448,68.7738456],[65.35269749999999,68.743176],[65.35762590000002,68.7370515],[65.3509999,68.7285444],[65.3841358,68.71995920000002],[65.42358229999999,68.72948769999999],[65.42471940000001,68.73496560000002],[65.42971209999999,68.7367347],[65.44892760000002,68.73368960000002],[65.44965060000003,68.7222972],[65.46906400000002,68.70963520000001],[65.46482190000002,68.70464530000001],[65.46375520000001,68.69557249999998],[65.43762530000002,68.69343289999999],[65.4263667,68.6971462],[65.4027148,68.6819669],[65.41627970000002,68.67348299999999],[65.43040930000001,68.67704609999998],[65.43756880000001,68.67507399999998],[65.4269105,68.66813859999999],[65.4254814,68.6613617],[65.43606900000002,68.64677769999999],[65.4424485,68.6437557],[65.45636970000001,68.6451976],[65.4908775,68.6387896],[65.50155640000001,68.6339732],[65.5198459,68.61669040000001],[65.56121160000002,68.608162],[65.56443660000001,68.60404460000001],[65.5577466,68.59345920000001],[65.56127970000001,68.5905387],[65.5907283,68.5892448],[65.6035165,68.5816063],[65.62793029999999,68.5858594],[65.65594189999999,68.58257879999998],[65.67053249999998,68.5636283],[65.66570529999998,68.55839259999999],[65.6690844,68.55336390000001],[65.65650709999998,68.5483141],[65.6592492,68.54032330000001],[65.6286449,68.5341015],[65.624017,68.52846109999999],[65.59324070000001,68.5155113],[65.59449330000001,68.50790320000002],[65.6023994,68.5031853],[65.6089957,68.48914900000001],[65.5935963,68.48559350000001],[65.55508209999998,68.4852573],[65.54267960000001,68.4811878],[65.54015030000001,68.4791183],[65.5437443,68.473815],[65.54191960000003,68.4698376],[65.51623550000001,68.46541920000001],[65.51444190000001,68.4596073],[65.5093541,68.4561423],[65.50911340000002,68.4533167],[65.5143683,68.4508126],[65.5088416,68.44541260000001],[65.5121712,68.43366780000001],[65.46768760000002,68.42583109999998],[65.47401690000001,68.41795450000002]]]]}}