{"type":"Feature","properties":{"regionId":"novgorodskaya_oblast","name":"Новгородская область","name:en":"Novgorod Oblast","timezone":"Europe/Moscow","name_ru":"Новгородская область","name_en":"Novgorod Oblast","name_zh":"诺夫哥罗德州"},"geometry":{"type":"Polygon","coordinates":[[[36.18168239999999,58.51164959999999],[36.151989699999994,58.501344599999996],[36.135003600000005,58.50237250000001],[36.1245816,58.4979195],[36.1024468,58.5049542],[36.0745773,58.4966278],[36.0747969,58.4926395],[36.08253870000001,58.49275430000001],[36.08308769999999,58.49043],[36.06079580000001,58.4846903],[36.0592585,58.480241299999996],[36.051677999999995,58.481149099999996],[36.0430973,58.4736036],[36.015295800000004,58.4725976],[36.019700300000004,58.4591651],[36.00270690000001,58.461085],[35.992823800000004,58.45745459999999],[35.98764069999999,58.46209590000001],[35.9580542,58.46635090000001],[35.9415354,58.464841199999995],[35.9310499,58.4545629],[35.9214504,58.45190839999999],[35.918008900000004,58.439865499999996],[35.9419119,58.43839590000001],[35.939633,58.4230269],[35.927970900000005,58.42555380000001],[35.9163087,58.4204296],[35.9026508,58.4350774],[35.8880306,58.4329449],[35.887833699999995,58.429137100000005],[35.8912781,58.4286467],[35.8892321,58.42211370000001],[35.8771743,58.423349],[35.8738301,58.4192023],[35.861580999999994,58.4213651],[35.83531830000001,58.4158398],[35.829680499999995,58.420991300000004],[35.836414,58.426799200000005],[35.829581499999996,58.42959200000001],[35.76810940000001,58.432237900000004],[35.7778067,58.4462335],[35.7777898,58.452898499999996],[35.7549419,58.450110200000005],[35.7545764,58.4419456],[35.73274130000001,58.43408139999999],[35.7117519,58.437738700000004],[35.711708,58.440451599999996],[35.688914000000004,58.4419392],[35.69017930000001,58.4488231],[35.6790608,58.4466324],[35.6727466,58.45104969999999],[35.65671580000001,58.450978],[35.64488169999999,58.4601697],[35.6239444,58.455019300000004],[35.62253100000001,58.450428499999994],[35.587859599999994,58.455691699999996],[35.5626778,58.452809099999996],[35.55132759999999,58.45687439999999],[35.5367747,58.44593390000001],[35.5165293,58.447670599999995],[35.50201880000001,58.440348],[35.50453530000001,58.433901],[35.4975636,58.42860280000001],[35.4843356,58.43162349999999],[35.46012270000001,58.42865890000001],[35.462695100000005,58.42215880000001],[35.4748288,58.420216200000006],[35.4714252,58.4183634],[35.4757748,58.415158500000004],[35.4706565,58.4099947],[35.376725900000004,58.406808399999996],[35.3668565,58.4116193],[35.3039366,58.4097689],[35.30468109999999,58.3960069],[35.28886,58.3915054],[35.2711144,58.39182769999999],[35.264525600000006,58.386693599999994],[35.2549718,58.390496999999996],[35.247309900000005,58.3835712],[35.25595270000001,58.3799992],[35.2540186,58.3779239],[35.25641290000001,58.374063699999994],[35.283327,58.36566],[35.27675260000001,58.3452963],[35.26705530000001,58.3392823],[35.2708796,58.336244199999996],[35.26556020000001,58.3337064],[35.2649775,58.327863099999995],[35.25575490000001,58.31722709999999],[35.2590334,58.309938],[35.257034,58.300779399999996],[35.264811,58.29511710000001],[35.257889199999994,58.284598800000005],[35.26097270000001,58.27891980000001],[35.257167499999994,58.274199100000004],[35.2459075,58.27003810000001],[35.2428846,58.26576190000001],[35.2333615,58.263939500000006],[35.232686900000004,58.2576557],[35.22843650000001,58.25511120000001],[35.206943100000004,58.2582596],[35.195361500000004,58.2469046],[35.1714662,58.2462297],[35.1701485,58.241924],[35.160072500000005,58.23901300000001],[35.1550699,58.24225990000001],[35.142442800000005,58.23915010000001],[35.138817700000004,58.23231740000001],[35.1290444,58.225697100000005],[35.1312715,58.22066280000001],[35.1212079,58.220955900000014],[35.1184402,58.212464499999996],[35.0828607,58.2149515],[35.0778181,58.2135855],[35.0730011,58.206692700000005],[35.060437900000004,58.2063841],[35.058289699999996,58.201410900000006],[35.053782,58.1998995],[35.06013880000001,58.1962815],[35.05088789999999,58.1946154],[35.0042347,58.2078619],[35.002019700000005,58.212907900000005],[34.980924099999996,58.22183030000001],[34.984297899999994,58.225629000000005],[34.974672399999996,58.22553420000001],[34.963551800000005,58.2180876],[34.954946899999996,58.2201864],[34.95482789999999,58.22945210000001],[34.945448,58.23094030000001],[34.9288114,58.23157630000001],[34.9256818,58.2279916],[34.903947699999996,58.2277496],[34.898551600000005,58.2243945],[34.849315100000005,58.2278046],[34.82142699999999,58.231177100000004],[34.800621299999996,58.2448882],[34.7934836,58.24597180000001],[34.784904499999996,58.240408900000006],[34.756284699999995,58.233255400000004],[34.750245,58.23050930000001],[34.749008200000006,58.223636600000006],[34.72336590000001,58.215762100000006],[34.6894961,58.20013200000001],[34.713143800000005,58.19892420000001],[34.724218500000006,58.2020715],[34.723952900000015,58.193994200000006],[34.7177851,58.19379690000001],[34.7208212,58.190285300000006],[34.7168011,58.1895],[34.7165717,58.185445],[34.7366031,58.172141700000005],[34.72522220000001,58.16354220000001],[34.7174298,58.16153020000001],[34.711800499999995,58.1540158],[34.73134520000001,58.14232260000001],[34.7214947,58.09030250000001],[34.6716455,58.0734704],[34.6576124,58.08388059999999],[34.645992400000004,58.078059],[34.615103600000005,58.094454],[34.6175025,58.1063905],[34.6092938,58.108945000000006],[34.59814030000001,58.1054454],[34.5904626,58.1128178],[34.596769200000004,58.1143795],[34.596931100000006,58.1184184],[34.5602914,58.115114600000005],[34.560231800000004,58.110478300000004],[34.5519739,58.1047231],[34.527531100000004,58.117052900000004],[34.504716200000004,58.1148223],[34.4843388,58.1277411],[34.4980891,58.1392931],[34.4724918,58.154774399999994],[34.4254843,58.1492609],[34.39975210000001,58.158317700000005],[34.3700367,58.1616577],[34.3690116,58.1644467],[34.37484539999999,58.163831200000004],[34.379375100000004,58.17186739999999],[34.35748129999999,58.176970600000004],[34.3494733,58.16474530000001],[34.336118500000005,58.1609016],[34.3307628,58.1679643],[34.27885010000001,58.1773824],[34.276928500000004,58.1879179],[34.23537430000001,58.1859824],[34.22339510000001,58.187271499999994],[34.219177,58.19269690000001],[34.20752830000001,58.190637800000005],[34.208446300000006,58.194815000000006],[34.20510800000001,58.1974077],[34.196453500000004,58.1956015],[34.1900485,58.2004479],[34.20291410000001,58.2024945],[34.204372500000005,58.2058847],[34.1806943,58.2127545],[34.1707654,58.2128455],[34.14926439999999,58.200866],[34.136602,58.208557400000004],[34.13331060000001,58.2145546],[34.12145890000001,58.2132906],[34.1102038,58.2036506],[34.0910015,58.1977544],[34.0708706,58.19601120000001],[34.0632354,58.191565100000005],[34.04746939999999,58.195007600000004],[34.02601290000001,58.184289799999995],[34.0276473,58.188131500000004],[34.02271860000001,58.18815670000001],[34.02232320000001,58.1960746],[34.0167448,58.19632920000001],[34.018985,58.205009000000004],[34.001851699999996,58.2073842],[33.99827500000001,58.2133948],[33.9882367,58.20824],[33.986611499999995,58.202384800000004],[33.963410200000006,58.1994434],[33.968536500000006,58.19595070000001],[33.9632655,58.1918993],[33.9630863,58.1880272],[33.9731012,58.182247499999995],[33.971558,58.1802761],[33.959749599999995,58.1805819],[33.951625199999995,58.173731000000004],[33.92813200000001,58.16329220000001],[33.8029655,58.1378069],[33.801116,58.14355830000001],[33.79387810000001,58.1469711],[33.797842200000005,58.152176700000005],[33.781199300000004,58.160920600000004],[33.780013000000004,58.1697946],[33.74216130000001,58.162665100000005],[33.705873700000005,58.170305000000006],[33.696798400000006,58.15253560000001],[33.665873700000006,58.14852380000001],[33.66943590000001,58.1400838],[33.651294299999996,58.138394500000004],[33.6526235,58.1322345],[33.6443617,58.1269648],[33.637841599999994,58.12863190000001],[33.6354394,58.12330430000001],[33.6374984,58.121963300000004],[33.6315996,58.1164033],[33.63531650000001,58.1073346],[33.62801980000001,58.1072116],[33.616973900000005,58.1126457],[33.621914200000006,58.11488649999999],[33.6171374,58.12207830000001],[33.60291670000001,58.12491990000001],[33.5975842,58.120670200000006],[33.58595520000001,58.120475500000005],[33.5751891,58.10855930000001],[33.5838927,58.10277500000001],[33.6029812,58.100814],[33.594103200000006,58.09051270000001],[33.5854055,58.090006900000006],[33.565817,58.0748998],[33.557296199999996,58.074592100000004],[33.528563600000005,58.0584089],[33.53311560000001,58.0507734],[33.554386199999996,58.04270330000001],[33.5548721,58.0393344],[33.5440858,58.0347968],[33.569503600000004,58.0236854],[33.591032600000005,58.0312426],[33.59810320000001,58.02735320000001],[33.606428900000004,58.035974800000005],[33.624540100000004,58.038731600000006],[33.62955480000001,58.017459699999996],[33.62261810000001,58.01404149999999],[33.626126500000005,58.0091145],[33.62516070000001,58.00512870000001],[33.6365811,58.0054826],[33.640150000000006,57.99791810000001],[33.649483999999994,57.9979544],[33.6582004,58.0022097],[33.6777607,58.000427599999995],[33.6800751,58.003213200000005],[33.68455530000001,58.0002821],[33.6895047,58.0028355],[33.692727700000006,57.9904292],[33.6779655,57.981365],[33.67865290000001,57.9746689],[33.691149800000005,57.96851220000001],[33.668347700000005,57.9610453],[33.6840063,57.9056011],[33.6818908,57.899990900000006],[33.6470592,57.8732257],[33.60580230000001,57.869105100000006],[33.606250300000006,57.8719537],[33.597557800000004,57.8743561],[33.584338200000005,57.866185200000004],[33.5792732,57.8684219],[33.5713334,57.860773900000005],[33.561546,57.85680139999999],[33.558103,57.858176300000004],[33.5473517,57.851163899999996],[33.559826799999996,57.846922],[33.5700942,57.84744799999999],[33.57531220000001,57.8439423],[33.5675944,57.8353011],[33.5449912,57.836257599999996],[33.549449499999994,57.826813],[33.555424599999995,57.8260432],[33.5502731,57.819707799999996],[33.558893399999995,57.8166957],[33.5632094,57.80428939999999],[33.56034530000001,57.8030086],[33.56473590000001,57.795364500000005],[33.5492917,57.79453060000001],[33.54349139999999,57.79132330000001],[33.5479395,57.788197600000004],[33.5513292,57.7674869],[33.546596900000004,57.762654700000006],[33.567818,57.7569211],[33.572053700000005,57.75261810000001],[33.5662295,57.74633990000001],[33.5864727,57.739468900000006],[33.59311870000001,57.7276175],[33.5802927,57.726515200000016],[33.5692415,57.7134179],[33.559276,57.71539690000001],[33.53553300000001,57.71068439999999],[33.5318108,57.7184436],[33.5096639,57.72880880000001],[33.5079376,57.7175019],[33.4946423,57.714412300000006],[33.489617499999994,57.7206094],[33.4802102,57.71453280000001],[33.482282,57.70573400000001],[33.4884754,57.705217700000006],[33.492127100000005,57.6992745],[33.4856765,57.686683599999995],[33.4765416,57.67935310000001],[33.464281099999994,57.679198500000005],[33.45645699999999,57.68517930000001],[33.45587,57.69262280000001],[33.44089739999999,57.6937404],[33.426627499999995,57.70031110000001],[33.351846399999985,57.66667890000001],[33.35528119999999,57.658734300000006],[33.35066199999999,57.655762200000005],[33.3347203,57.657586499999994],[33.324956,57.6509973],[33.306630999999996,57.648529100000005],[33.301009799999996,57.62918870000001],[33.30642139999999,57.6203744],[33.3244502,57.6148124],[33.326931900000005,57.606529800000004],[33.318586499999995,57.583298],[33.29491850000001,57.5829412],[33.3047487,57.56523560000001],[33.29306830000001,57.549449599999996],[33.268076400000005,57.5538383],[33.2530624,57.544851799999996],[33.233437,57.54571860000001],[33.231411,57.535369800000005],[33.232229200000006,57.4775288],[33.2461646,57.4766432],[33.2484746,57.4712788],[33.266631100000005,57.4633977],[33.26398580000001,57.438852000000004],[33.255672000000004,57.4397747],[33.26403330000001,57.421919900000006],[33.2400436,57.411425799999996],[33.2134177,57.411761799999994],[33.19615270000001,57.4238947],[33.177577,57.422311500000006],[33.160374700000006,57.4307977],[33.185483399999995,57.44438159999999],[33.184909499999996,57.4539609],[33.1549162,57.455583399999995],[33.127341200000004,57.4652207],[33.07835030000001,57.46611310000001],[33.0707456,57.4623665],[33.0730247,57.442788900000004],[33.05048639999999,57.4298995],[33.018319500000004,57.435846999999995],[33.006652700000004,57.441964999999996],[33.0041287,57.4490299],[32.99331620000001,57.4523699],[32.983525,57.4523485],[32.9847938,57.4464458],[32.962561900000004,57.4466057],[32.9372787,57.46557190000001],[32.9159206,57.4451442],[32.871532800000004,57.451668299999994],[32.859808699999995,57.46045530000001],[32.8429754,57.45728349999999],[32.8317028,57.45917],[32.8262856,57.455627099999994],[32.78857970000001,57.467192100000005],[32.7877968,57.4607364],[32.78036,57.4589117],[32.7812733,57.4490851],[32.76576030000001,57.440477699999995],[32.7576724,57.439924],[32.7498442,57.4437155],[32.706919400000004,57.4340253],[32.70509280000001,57.4161829],[32.70992030000001,57.413653399999994],[32.7068447,57.4065608],[32.6819738,57.410074699999996],[32.66225880000001,57.3908918],[32.6677243,57.3837528],[32.66592070000001,57.37764779999999],[32.67097270000001,57.375154200000004],[32.663906600000004,57.3679208],[32.656840499999994,57.3683074],[32.6551114,57.3634702],[32.6362692,57.36744769999999],[32.632926700000006,57.363559800000004],[32.648394200000006,57.357550499999995],[32.64039830000001,57.3493478],[32.6268314,57.34467999999999],[32.627290200000004,57.34156779999999],[32.632009100000005,57.3401177],[32.6316785,57.3348588],[32.593405700000005,57.328621],[32.59575250000001,57.3217591],[32.5826489,57.3207885],[32.5459011,57.34028049999999],[32.541330300000006,57.3396433],[32.54762139999999,57.3244537],[32.539357700000004,57.3162039],[32.516148900000005,57.3087611],[32.513888599999994,57.3015912],[32.508541300000005,57.29814320000001],[32.491714900000005,57.29761310000001],[32.485476999999996,57.2824374],[32.4771481,57.28572890000001],[32.449699499999994,57.2800098],[32.4364385,57.276537000000005],[32.4340683,57.26925880000001],[32.4067194,57.2672801],[32.4105172,57.2628046],[32.4010883,57.259334200000005],[32.3919484,57.26013500000001],[32.38498059999999,57.2300855],[32.377129399999994,57.2246486],[32.3633662,57.229478400000005],[32.35985779999999,57.225463600000005],[32.3465148,57.229347100000005],[32.3224439,57.22731470000001],[32.318487899999994,57.2378024],[32.31372739999999,57.234101200000005],[32.29220430000001,57.240813800000005],[32.29373550000001,57.246916500000005],[32.2817713,57.253343300000004],[32.27871380000001,57.2503836],[32.2739935,57.2532853],[32.2779092,57.2582175],[32.27617430000001,57.259781399999994],[32.26203620000001,57.262538100000015],[32.2492496,57.256041599999996],[32.23637280000001,57.25511390000001],[32.23018220000001,57.24255260000001],[32.239065000000004,57.236099200000005],[32.23112510000001,57.2296824],[32.248830500000004,57.22554260000001],[32.2510306,57.22259340000001],[32.2439065,57.2190767],[32.252916400000004,57.20999990000001],[32.2503493,57.20255550000001],[32.226495500000006,57.189373100000005],[32.220291800000005,57.193166000000005],[32.2125094,57.191307800000004],[32.210399,57.1867334],[32.1912073,57.1907805],[32.1815881,57.17860220000001],[32.1600776,57.179692],[32.155923900000005,57.1844184],[32.1034015,57.1867135],[32.09150090000001,57.1759044],[32.083322900000006,57.1765836],[32.079959300000006,57.17047],[32.08108049999999,57.159026499999996],[32.020452000000006,57.1495565],[32.015875,57.128794500000005],[32.0015373,57.1242216],[32.001669199999995,57.1138381],[31.9918424,57.116881899999996],[31.9679018,57.11498399999999],[31.9691549,57.1091825],[31.963878700000002,57.106388900000006],[31.939410499999997,57.09933220000001],[31.936838400000003,57.0946748],[31.9229152,57.09523480000001],[31.928792299999994,57.0835304],[31.934965600000005,57.0841335],[31.926681799999997,57.0802331],[31.9137841,57.079570000000004],[31.906331899999998,57.086242],[31.8821547,57.0945411],[31.896332799999996,57.102190400000005],[31.8923604,57.1133216],[31.901211999999997,57.1146125],[31.898326599999997,57.125241900000006],[31.8897734,57.12317220000001],[31.8800867,57.130835100000006],[31.8731824,57.120990500000005],[31.8614454,57.1224074],[31.8553258,57.1176038],[31.855549299999996,57.1140539],[31.838947700000002,57.1129619],[31.802251400000003,57.100356700000006],[31.7790357,57.09861000000001],[31.7672712,57.10821080000001],[31.757309799999998,57.1102279],[31.7583566,57.11297830000001],[31.755727799999995,57.114047299999996],[31.744061400000003,57.1071064],[31.748829599999997,57.1050601],[31.740750499999997,57.0965075],[31.7435534,57.0929694],[31.733312799999997,57.0877927],[31.7312132,57.09300220000001],[31.7252517,57.09202890000001],[31.718983400000003,57.0836012],[31.7120273,57.080848599999996],[31.7157755,57.0770131],[31.711352,57.0730486],[31.68957,57.0715949],[31.683517499999997,57.0665642],[31.684418400000002,57.0629445],[31.671456400000004,57.058433900000004],[31.671558400000006,57.0436362],[31.647391300000002,57.026185000000005],[31.653570000000002,57.013395300000006],[31.6792128,57.012223],[31.689422799999996,57.00728659999999],[31.7028371,56.9932504],[31.696008000000003,56.9900617],[31.689747999999998,56.997900200000004],[31.6663384,56.998816700000006],[31.646749199999995,57.00331320000001],[31.639807800000003,56.9920084],[31.632188400000004,56.9937376],[31.615115600000003,56.9843921],[31.613833200000002,56.990602800000005],[31.563951400000004,56.97763439999999],[31.5595453,56.96273600000001],[31.5474772,56.963137200000006],[31.531003100000003,56.9465776],[31.5091699,56.952747699999996],[31.4998412,56.9473354],[31.488608699999997,56.9520625],[31.476155600000002,56.95258749999999],[31.466146399999996,56.943386499999995],[31.4608997,56.9510028],[31.4551687,56.9495061],[31.441734799999995,56.9544359],[31.441607899999997,56.9500783],[31.4374106,56.9478332],[31.439751400000002,56.942153600000005],[31.4351504,56.93603280000001],[31.4376527,56.933126200000004],[31.4343809,56.9246943],[31.4131387,56.9145628],[31.390855700000007,56.909066499999994],[31.386644299999997,56.91086759999999],[31.391971700000006,56.91487759999999],[31.3731456,56.921635300000005],[31.368724699999998,56.9275216],[31.339827400000004,56.9254072],[31.343863300000002,56.92875490000001],[31.334984300000006,56.9392365],[31.308221,56.937680699999994],[31.3065713,56.9407337],[31.3229572,56.951255999999994],[31.317871900000007,56.953192800000004],[31.307297700000003,56.9470738],[31.3001945,56.9484826],[31.298761999999996,56.95573580000001],[31.276731899999998,56.9484843],[31.255799199999995,56.95424919999999],[31.241306499999997,56.951508999999994],[31.237556700000003,56.9430233],[31.225771799999997,56.942539000000004],[31.225126099999997,56.9368586],[31.2046603,56.942175000000006],[31.201879100000003,56.939809],[31.205430699999997,56.9370348],[31.1881569,56.94068959999999],[31.1009482,56.930977],[31.097911700000004,56.93861530000001],[31.0787504,56.939050300000005],[31.069697799999997,56.9432243],[31.0728748,56.9457637],[31.066322499999995,56.95185759999999],[31.0690512,56.95662479999999],[31.0542869,56.9549793],[31.049221799999998,56.9580938],[31.037475000000004,56.9779498],[31.031224400000003,56.975306800000006],[31.0293031,56.9772117],[31.030901100000005,56.9875802],[31.004928800000002,56.986640799999996],[31.0131192,56.9827066],[31.0067578,56.977791399999994],[30.989935999999997,56.9770312],[30.9875887,56.9722046],[30.985943699999996,56.9758747],[30.9788688,56.9752543],[30.978756799999996,56.969897399999994],[30.975096399999998,56.9684441],[30.935742899999994,56.9730395],[30.930764,56.9716032],[30.9279875,56.966432600000005],[30.909603399999998,56.9680601],[30.906156799999998,56.960783],[30.887869100000003,56.9515428],[30.8808793,56.9525002],[30.885379899999997,56.9461807],[30.881645799999998,56.9434039],[30.871113400000002,56.94120139999999],[30.869964200000002,56.9437867],[30.861251000000003,56.9442653],[30.8585704,56.935839200000004],[30.850623199999998,56.935551800000006],[30.849091400000002,56.9322005],[30.837601400000004,56.932487599999995],[30.8367394,56.93564739999999],[30.844877900000004,56.940913800000004],[30.8355252,56.944145999999996],[30.836068300000004,56.95106319999999],[30.843536499999995,56.9569998],[30.8157688,56.960159100000006],[30.811364500000003,56.9561375],[30.8201736,56.954414199999995],[30.818067400000004,56.950009599999994],[30.8045665,56.952307399999995],[30.7981515,56.94780699999999],[30.7862784,56.949817599999996],[30.765500799999995,56.9457],[30.7634901,56.946370200000004],[30.765500599999996,56.950295999999994],[30.748552599999996,56.953838499999996],[30.752382299999997,56.96073260000001],[30.7344766,56.967722],[30.72921,56.9743287],[30.707091600000002,56.976339100000004],[30.6865049,56.9845733],[30.700292299999997,56.99615930000001],[30.675652499999998,57.0041561],[30.688416699999998,57.041401199999996],[30.687548999999997,57.1490246],[30.630184100000005,57.173901900000004],[30.672034,57.209825800000004],[30.745662799999995,57.263207900000005],[30.713682,57.26751610000001],[30.680935,57.2776651],[30.5410427,57.304089899999994],[30.5101143,57.3232873],[30.4907554,57.3310907],[30.4933287,57.3334663],[30.490011,57.3355066],[30.474591,57.3374252],[30.465014799999995,57.34483039999999],[30.464248499999997,57.350096699999995],[30.497089799999998,57.366709900000004],[30.493929599999998,57.374274099999994],[30.505323799999996,57.3763808],[30.5107812,57.38174299999999],[30.536760400000002,57.385972800000005],[30.5226534,57.395435500000005],[30.498620399999997,57.3914135],[30.488087399999998,57.4007011],[30.478129199999994,57.4035735],[30.451702499999996,57.3984025],[30.453331,57.385572],[30.4658743,57.384040199999994],[30.4768862,57.37255030000001],[30.4578325,57.3642197],[30.427383799999998,57.366257499999996],[30.4289152,57.3771456],[30.414743599999998,57.387103399999994],[30.412349399999997,57.39572090000001],[30.425754199999997,57.3984978],[30.435616099999997,57.404769699999996],[30.431498700000002,57.4084081],[30.4367648,57.4106105],[30.4374347,57.4167385],[30.4269978,57.4198981],[30.423358999999998,57.4242068],[30.427380199999998,57.4294731],[30.443274199999998,57.43837820000001],[30.452753599999998,57.4368463],[30.461849599999997,57.440484999999995],[30.458306699999998,57.442687199999995],[30.469317599999997,57.44958139999999],[30.4636674,57.465380100000004],[30.4752531,57.4672953],[30.472763399999998,57.47069439999999],[30.4769761,57.475865],[30.489232099999995,57.4752907],[30.4860719,57.4831422],[30.494497799999998,57.4850573],[30.498710899999995,57.482950900000006],[30.505413199999996,57.486206499999994],[30.504838200000002,57.495494300000004],[30.522743499999994,57.494632800000005],[30.5304031,57.5016706],[30.530977300000004,57.507607199999995],[30.5156343,57.5014357],[30.4964116,57.5067448],[30.4798469,57.505404],[30.4689311,57.509616900000005],[30.463376899999997,57.521872800000004],[30.483100999999998,57.5286714],[30.492675999999996,57.529677],[30.495452899999997,57.5272833],[30.499187,57.5300601],[30.504069400000002,57.5446142],[30.542752299999997,57.5466256],[30.5458161,57.549881199999994],[30.5424647,57.55160459999999],[30.544762499999997,57.5549559],[30.5611357,57.5566797],[30.5636247,57.5652016],[30.680626699999998,57.6440539],[30.5188092,57.6424714],[30.511915100000007,57.645152300000014],[30.5083717,57.655589],[30.505020499999997,57.6548229],[30.4958648,57.66093990000001],[30.489304899999997,57.660000600000004],[30.482770599999995,57.66670250000001],[30.486509099999996,57.669249300000004],[30.468729699999994,57.6814409],[30.4522603,57.6879995],[30.4773457,57.707197900000004],[30.4745688,57.70968739999999],[30.494388400000002,57.72098630000001],[30.4734189,57.72443290000001],[30.4762909,57.7338165],[30.497429799999995,57.741030200000004],[30.5003064,57.7534612],[30.495011599999998,57.771958000000005],[30.4522541,57.77699810000001],[30.448667099999998,57.78031380000001],[30.4346373,57.7746669],[30.433057700000003,57.77837090000001],[30.4197948,57.77613670000001],[30.4172103,57.7816907],[30.4352241,57.803066199999996],[30.446343699999996,57.79960020000001],[30.468320699999996,57.800015200000004],[30.511865800000006,57.806042399999995],[30.5090974,57.81490739999999],[30.5222717,57.8169232],[30.5401686,57.8409687],[30.5297707,57.85147149999999],[30.530765400000003,57.857000299999996],[30.543246399999997,57.86385],[30.5250585,57.870653999999995],[30.533575300000003,57.8731627],[30.520656499999998,57.88352449999999],[30.473668999999997,57.8857781],[30.4671034,57.879266099999995],[30.435462299999998,57.8792657],[30.431783799999998,57.876860099999995],[30.4195697,57.8808222],[30.413997600000002,57.8926734],[30.3986887,57.8910537],[30.3976738,57.8961611],[30.388503399999998,57.903389499999996],[30.356868900000006,57.905391],[30.3457582,57.902884699999994],[30.337474600000004,57.9069507],[30.3360496,57.9160354],[30.330765000000003,57.916813399999995],[30.298692899999995,57.9096306],[30.289227999999998,57.9105585],[30.286779499999994,57.9062985],[30.2580197,57.8960467],[30.240322499999994,57.8958448],[30.2452741,57.8916002],[30.215143299999998,57.8969497],[30.210311,57.901772300000005],[30.206476499999997,57.899813300000005],[30.2088568,57.8956913],[30.200286799999997,57.8947855],[30.1528145,57.9077487],[30.1694838,57.9173239],[30.174743199999998,57.926448],[30.1615134,57.926162500000004],[30.114097900000004,57.941019999999995],[30.0849018,57.9392837],[30.090409499999996,57.9497146],[30.0714986,57.958847799999994],[30.061602399999998,57.951128],[30.040289199999997,57.9521841],[29.991523799999996,57.9424165],[29.9788271,57.955339300000006],[29.964700599999997,57.955884999999995],[29.940281999999996,57.94464969999999],[29.900634499999995,57.9409402],[29.909527799999996,57.95465659999999],[29.883200199999997,57.9589505],[29.874230100000002,57.9470121],[29.866526099999998,57.9501325],[29.869093,57.9595355],[29.887114,57.9684846],[29.8790022,57.98122599999999],[29.883240199999996,57.9864738],[29.878042599999997,57.9889925],[29.876606499999998,57.99653730000001],[29.8864174,57.9962965],[29.9010109,57.9897119],[29.9115808,57.99592560000001],[29.922902499999996,57.9950604],[29.9208015,58.0034693],[29.935019699999998,58.0048169],[29.9373019,58.0021679],[29.960427499999994,58.0113268],[29.955245299999998,58.012739800000006],[29.9470633,58.0237876],[29.993894400000002,58.032509600000004],[29.9866517,58.036354100000004],[29.9910845,58.039314000000005],[29.986696199999994,58.0485476],[29.981186199999996,58.0499176],[29.9598149,58.045175500000006],[29.9598927,58.0423634],[29.9366715,58.0395279],[29.942849199999994,58.0429376],[29.93467,58.0458594],[29.929333299999996,58.04088039999999],[29.9138367,58.0464213],[29.912688,58.0422669],[29.904932,58.044947699999994],[29.894878500000004,58.041787799999994],[29.8833879,58.05064449999999],[29.886739199999994,58.0514106],[29.882046899999995,58.059644999999996],[29.889036499999996,58.06251770000001],[29.8682585,58.0660601],[29.8706522,58.067592100000006],[29.862704799999996,58.069985800000005],[29.834094600000004,58.06839800000001],[29.813940400000003,58.076337200000005],[29.790718499999997,58.0913895],[29.7646556,58.0892778],[29.7589316,58.08553090000001],[29.748218799999997,58.0932248],[29.7129194,58.094931900000006],[29.7087541,58.093888],[29.702769999999997,58.081793499999996],[29.6786314,58.075507900000005],[29.654590900000002,58.081180399999994],[29.652962600000002,58.0852225],[29.662652199999997,58.08926739999999],[29.6484311,58.0888993],[29.6493379,58.0916889],[29.6287755,58.100213700000005],[29.645099199999997,58.10811480000001],[29.6496803,58.12280590000001],[29.660745199999997,58.12590010000001],[29.6611289,58.133009900000005],[29.671525400000004,58.134785300000004],[29.666157100000003,58.143153500000004],[29.677877400000007,58.152711700000005],[29.6756594,58.160674900000004],[29.681900900000002,58.1664898],[29.7050304,58.167497499999996],[29.7047613,58.170336500000005],[29.685950100000003,58.17755580000001],[29.676749199999996,58.186278800000004],[29.689551,58.1898068],[29.679807400000005,58.1982684],[29.6898446,58.2034706],[29.685596999999998,58.21071560000001],[29.636902400000004,58.2149071],[29.6373225,58.22467030000001],[29.6512098,58.22467820000001],[29.6590282,58.2341664],[29.637916500000003,58.23536060000001],[29.637894800000005,58.239307200000006],[29.6187256,58.2516728],[29.6334121,58.2562342],[29.6837609,58.2536387],[29.6987634,58.257277499999994],[29.7607859,58.2496742],[29.7818805,58.2567455],[29.796338999999996,58.253203],[29.8115628,58.26057600000001],[29.8224784,58.25827820000001],[29.822190799999998,58.264118900000014],[29.8166373,58.2644061],[29.815870800000003,58.27235340000001],[29.837893300000005,58.2727846],[29.8299455,58.280827499999994],[29.852351000000002,58.2814981],[29.862787299999997,58.2894456],[29.857080100000005,58.30419],[29.899891100000005,58.3026533],[29.894490400000002,58.3106059],[29.9166474,58.3105054],[29.908647899999995,58.34833280000001],[29.9330633,58.3626001],[29.9311481,58.36643],[29.904817,58.3637486],[29.8925603,58.374855399999994],[29.9004111,58.386249799999995],[29.913241499999998,58.387590599999996],[29.913505,58.390509900000005],[29.8941866,58.3986973],[29.8897817,58.4058785],[29.897107600000002,58.414262099999995],[29.8793805,58.4232712],[29.9067916,58.430935500000004],[29.907519599999997,58.43769439999999],[29.9226711,58.4407111],[29.914880200000002,58.445654499999996],[29.8969115,58.4347425],[29.883747299999996,58.4406358],[29.885279099999998,58.442646599999996],[29.895706799999996,58.4499903],[29.9066354,58.453064299999994],[29.9364019,58.4429434],[29.9393585,58.44517870000001],[29.9547286,58.442551800000004],[29.9551737,58.4386899],[29.9599332,58.4365084],[29.9809641,58.4374379],[30.008223799999996,58.4472283],[30.0211289,58.44797139999999],[30.038983,58.442140300000005],[30.0564708,58.443896699999996],[30.0639337,58.454506699999996],[30.060421299999998,58.4564823],[30.065323499999995,58.4620435],[30.060786799999995,58.463141],[30.062212899999995,58.47400699999999],[30.080724999999997,58.4790561],[30.0977739,58.479715000000006],[30.108895400000005,58.4893007],[30.123529799999996,58.488057],[30.132895500000004,58.4920084],[30.093382199999997,58.502709100000004],[30.100845300000003,58.510319100000004],[30.0971134,58.511562999999995],[30.0997474,58.514489899999994],[30.110457900000004,58.5158028],[30.1289128,58.527395500000004],[30.154447700000002,58.5249978],[30.167985400000006,58.531424599999994],[30.1415259,58.5535826],[30.1364039,58.55409469999999],[30.1363305,58.55782649999999],[30.1197932,58.565801900000004],[30.1051209,58.5892349],[30.0978026,58.60803990000001],[30.085106999999997,58.6138386],[30.086716599999995,58.6155215],[30.083423799999995,58.61786299999999],[30.0774237,58.618301900000006],[30.072915100000003,58.62838670000001],[30.117224700000005,58.6354641],[30.113390600000002,58.64035630000001],[30.1000291,58.6417428],[30.1073255,58.6460932],[30.1251997,58.646857399999995],[30.0950084,58.6591611],[30.0604787,58.6613801],[30.060740599999995,58.663917500000004],[30.068058999999998,58.6636997],[30.0680567,58.672336400000006],[30.111478500000004,58.67557730000001],[30.111025300000005,58.677998800000005],[30.1187663,58.682357700000004],[30.1489723,58.693944900000005],[30.136838000000004,58.69855380000001],[30.141232199999997,58.7002575],[30.122101400000002,58.700548600000005],[30.117900800000005,58.705679200000006],[30.122169,58.7079596],[30.1113363,58.70871840000001],[30.1029094,58.724361],[30.116488400000005,58.73113890000001],[30.121104000000003,58.7247294],[30.134388100000006,58.72370890000001],[30.131368400000007,58.732766500000004],[30.124479400000002,58.73561380000001],[30.134424700000004,58.73809620000001],[30.135006100000002,58.7490977],[30.169001100000003,58.74613030000001],[30.1882667,58.759909900000004],[30.193125900000002,58.759615700000005],[30.202636399999996,58.751985499999996],[30.199465600000003,58.74884230000001],[30.203051000000002,58.7478912],[30.2247956,58.760830500000004],[30.231079100000002,58.7596819],[30.225323999999997,58.7434786],[30.287269799999997,58.750244099999996],[30.295563599999998,58.7448705],[30.295553899999998,58.7396045],[30.3181078,58.746180300000006],[30.325968100000004,58.74519320000001],[30.327115700000004,58.7542924],[30.342639099999996,58.7593801],[30.348861700000004,58.752901900000005],[30.3489685,58.7474487],[30.363682299999997,58.74957020000001],[30.3723882,58.7462711],[30.3723247,58.743856300000004],[30.3841339,58.741894699999996],[30.3757941,58.732947],[30.3810094,58.731989399999996],[30.3782097,58.72832650000001],[30.3701261,58.72592800000001],[30.371018100000004,58.71855220000001],[30.373565900000003,58.715438600000006],[30.391067400000004,58.71870510000001],[30.406440599999996,58.70287580000001],[30.446898,58.701906900000004],[30.444995300000002,58.704467799999996],[30.484104799999997,58.716176000000004],[30.4960313,58.72371290000002],[30.5540562,58.7242261],[30.5618321,58.72656870000001],[30.577472,58.7100311],[30.573155200000002,58.704396800000005],[30.586033399999998,58.7044702],[30.5986914,58.71573890000001],[30.619838000000005,58.714550200000005],[30.6431055,58.731892300000005],[30.653861500000005,58.73577060000001],[30.6572275,58.73277060000001],[30.664178600000003,58.73657560000001],[30.6780085,58.72830750000001],[30.6683503,58.721063300000004],[30.682399699999998,58.7137464],[30.6913996,58.716892900000005],[30.7063259,58.72805190000001],[30.712765,58.72900320000001],[30.7082281,58.732588500000006],[30.7137889,58.73639360000001],[30.710642299999996,58.7403448],[30.7127641,58.74283270000001],[30.700690599999998,58.74517390000001],[30.7080803,58.7560767],[30.702372799999996,58.75754],[30.7139692,58.778192900000015],[30.715278,58.8093093],[30.728271999999997,58.8139193],[30.7265888,58.818236399999996],[30.716125100000003,58.8211631],[30.715246699999998,58.8256997],[30.695856100000004,58.82855310000001],[30.6932215,58.8360165],[30.678880000000003,58.8335285],[30.6816602,58.839089599999994],[30.676782,58.842198200000006],[30.676318000000002,58.849553],[30.682719899999995,58.8587179],[30.700573799999997,58.85769379999999],[30.705549799999993,58.8535231],[30.7195252,58.8587185],[30.7362816,58.8568163],[30.740232199999994,58.8668409],[30.749598,58.870060599999995],[30.754794,58.856377599999995],[30.762184299999998,58.856524099999994],[30.772317599999997,58.872841599999994],[30.791049199999996,58.87781759999999],[30.813166900000002,58.876561699999996],[30.922425899999997,58.921503300000005],[30.9523517,58.9427602],[30.965082199999994,58.9639071],[30.954105900000002,58.9731448],[30.978617899999996,58.9807551],[30.9790564,58.989316200000005],[31.003275400000003,59.000292300000005],[30.986660399999998,59.0124979],[30.9642674,59.016809099999996],[30.9560045,59.0332554],[30.970419299999996,59.0336032],[30.971150400000003,59.043847299999996],[30.983369999999997,59.0439938],[30.990028799999997,59.040554900000004],[31.0173206,59.05967149999999],[31.02193,59.0658911],[31.046515,59.0754771],[31.0563932,59.074891799999996],[31.050978800000003,59.0709405],[31.0597596,59.0679406],[31.0698569,59.073867699999994],[31.0809047,59.0906791],[31.1294907,59.089289599999994],[31.150198900000003,59.07875320000001],[31.164101700000003,59.07540590000001],[31.165200199999997,59.06135690000001],[31.155029799999998,59.05462489999999],[31.172371700000003,59.050088599999995],[31.165128,59.0462104],[31.187225700000003,59.0470888],[31.2186776,59.00825530000001],[31.300095400000004,59.0068462],[31.2977536,59.012480399999994],[31.3173266,59.018005200000005],[31.306643299999998,59.0229075],[31.316521100000003,59.0272248],[31.319960300000005,59.02554200000001],[31.3268382,59.029200700000004],[31.335692299999998,59.02415200000001],[31.365911999999998,59.0263476],[31.370741,59.031103900000005],[31.371179400000003,59.0413479],[31.3683257,59.0420796],[31.3715449,59.0469821],[31.3597639,59.053494199999996],[31.3507638,59.0529087],[31.3568368,59.056421099999994],[31.375349199999995,59.0560921],[31.379958600000005,59.0640679],[31.4000807,59.0646536],[31.4165803,59.0741479],[31.425946399999997,59.07217240000001],[31.4568238,59.0871732],[31.4530919,59.0892219],[31.458433199999995,59.09390500000001],[31.463042999999995,59.0926612],[31.476981600000002,59.1018993],[31.4673956,59.1104603],[31.4698101,59.113753],[31.462931299999997,59.12436280000001],[31.490454,59.142073100000005],[31.489906199999997,59.1509964],[31.4938763,59.154047299999995],[31.4908885,59.1604066],[31.496270799999998,59.1669077],[31.475234299999997,59.16793030000001],[31.5106729,59.201146300000005],[31.499711299999998,59.20695620000001],[31.512063100000002,59.2127843],[31.5306591,59.202788000000005],[31.5297673,59.2058145],[31.5712625,59.2112011],[31.5751629,59.225874000000005],[31.585655199999998,59.2356344],[31.583337299999997,59.23953520000001],[31.5672294,59.2438498],[31.5673116,59.2474119],[31.562152499999996,59.251018300000005],[31.5638722,59.2589816],[31.5554337,59.259090300000004],[31.5455816,59.26594610000001],[31.5430533,59.26817430000001],[31.547439199999996,59.272274200000005],[31.540481,59.274330000000006],[31.5417967,59.2773616],[31.529239999999998,59.2847937],[31.537178700000005,59.28825990000001],[31.5362242,59.293279600000005],[31.539655400000004,59.2946497],[31.5377463,59.29662570000001],[31.5644786,59.29934610000001],[31.561743899999996,59.3023402],[31.5496781,59.3022318],[31.5440055,59.30768569999999],[31.5468275,59.311349699999994],[31.544457400000002,59.315335000000005],[31.534186100000003,59.31724799999999],[31.5492764,59.3341638],[31.5488926,59.352391499999996],[31.542746499999993,59.3563957],[31.5524043,59.369068999999996],[31.6089875,59.3773468],[31.645139799999995,59.364688599999994],[31.6687804,59.3652005],[31.674559300000002,59.3668306],[31.671850500000005,59.3690916],[31.6802867,59.3702483],[31.6919478,59.3658973],[31.692334799999998,59.360599],[31.695067,59.35964429999999],[31.692271100000003,59.35769989999999],[31.7059969,59.3537136],[31.704712499999996,59.350893199999994],[31.710124,59.348844799999995],[31.7348025,59.3515356],[31.736432499999996,59.34443149999999],[31.733944700000002,59.342968],[31.707181900000002,59.343264299999994],[31.7109245,59.3369978],[31.737560000000002,59.338067499999994],[31.740244299999997,59.3440227],[31.753853300000003,59.3439752],[31.764143599999997,59.339192700000005],[31.748180799999997,59.328974900000006],[31.7441291,59.3300751],[31.725703199999995,59.3234609],[31.7414677,59.31531390000001],[31.751648,59.3244718],[31.761978300000003,59.3177629],[31.775241299999998,59.315398],[31.786152799999996,59.317756499999994],[31.798675199999998,59.31280699999999],[31.8064481,59.32220530000001],[31.8229896,59.3260419],[31.8224833,59.3284449],[31.803709799999996,59.326720900000005],[31.787215,59.3352822],[31.803192199999998,59.3445403],[31.807288000000003,59.3527608],[31.833458700000005,59.35367719999999],[31.837762100000003,59.3590908],[31.8644834,59.360636],[31.870458100000004,59.3665171],[31.886236499999995,59.3676117],[31.871370000000002,59.37564139999999],[31.8725531,59.3805218],[31.8913447,59.370673499999995],[31.9017341,59.373342300000004],[31.9111397,59.38198699999999],[31.915683799999996,59.392441399999996],[31.9136374,59.398634300000005],[31.919914900000002,59.398901800000004],[31.9180215,59.4027419],[31.9231673,59.410402999999995],[31.949389699999998,59.4297145],[31.964321799999997,59.4327634],[31.976945999999998,59.41927139999999],[31.987246799999994,59.420189300000004],[31.9799303,59.4126318],[31.966496299999996,59.407237099999996],[31.972628299999997,59.405488399999996],[31.978744999999996,59.411427999999994],[32.0046423,59.4187278],[32.005041399999996,59.4069247],[32.022854200000005,59.393865],[32.0349643,59.390622],[32.0416342,59.393733100000006],[32.0384978,59.403281699999994],[32.075143600000004,59.393852200000005],[32.080029599999996,59.3861908],[32.0948502,59.3823364],[32.1007838,59.385114300000005],[32.1183471,59.3840052],[32.117074099999996,59.3715928],[32.1711646,59.334213399999996],[32.1668687,59.328592500000006],[32.175557100000006,59.324195],[32.19062590000001,59.31979739999999],[32.22073910000001,59.332794],[32.22563520000001,59.34122109999999],[32.223113900000016,59.3553796],[32.22637070000001,59.3551514],[32.22899900000001,59.34226139999999],[32.2165248,59.323190600000004],[32.185100000000006,59.311951799999996],[32.19545880000001,59.3032532],[32.2068577,59.305438900000006],[32.205422000000006,59.3093208],[32.2112869,59.30801890000001],[32.22927670000001,59.3127195],[32.232819400000004,59.3181236],[32.241585300000004,59.32243570000001],[32.256851399999995,59.325797900000005],[32.2480871,59.329466499999995],[32.249726300000006,59.332501300000004],[32.24030270000001,59.3424706],[32.245209100000004,59.34404309999999],[32.2596489,59.3331967],[32.262054000000006,59.3264673],[32.234663499999996,59.3166327],[32.234747399999996,59.3118329],[32.22341020000001,59.303789699999996],[32.2068977,59.29874190000001],[32.19972200000001,59.29030200000001],[32.22018260000001,59.27718],[32.248454200000005,59.290439400000004],[32.275185400000005,59.288797300000006],[32.2978754,59.27876930000001],[32.3008859,59.2694866],[32.29205850000001,59.2640948],[32.2972216,59.2616946],[32.3136509,59.26331870000001],[32.315486199999995,59.2600891],[32.27991840000001,59.2588663],[32.290809700000004,59.2432747],[32.31347139999999,59.246787399999995],[32.317271999999996,59.238504500000005],[32.3103761,59.23217050000001],[32.29919050000001,59.2320276],[32.2867851,59.22501310000001],[32.29214190000001,59.221194200000006],[32.3029954,59.2219872],[32.3034532,59.215474900000004],[32.287288499999995,59.2166072],[32.280203300000004,59.21213600000001],[32.282489,59.200728600000005],[32.3061315,59.19635510000001],[32.3069703,59.1879938],[32.318439,59.1807663],[32.3297595,59.18033520000001],[32.3497376,59.1715216],[32.368643999999996,59.17249590000001],[32.3923544,59.163068],[32.469042800000004,59.156207599999995],[32.4828032,59.1502524],[32.482931900000004,59.13894870000001],[32.474262599999996,59.140854499999996],[32.4667345,59.1382078],[32.4355838,59.1524564],[32.4222915,59.1537685],[32.4107972,59.1522273],[32.410641999999996,59.14961280000001],[32.40761139999999,59.151250999999995],[32.392760800000005,59.141917],[32.407466299999996,59.13211660000001],[32.4245469,59.12735180000001],[32.4270013,59.12233040000001],[32.4250984,59.120961300000005],[32.42991260000001,59.1177555],[32.44789449999999,59.117922],[32.4437971,59.114848699999996],[32.4498828,59.1128467],[32.4515951,59.108135300000015],[32.49970030000001,59.11250810000001],[32.537770900000005,59.12059030000001],[32.569351100000006,59.131756800000005],[32.582070800000004,59.139774100000004],[32.5787684,59.1152285],[32.62560070000001,59.1099991],[32.628352700000015,59.1147681],[32.65831690000001,59.1204677],[32.6586218,59.1249215],[32.664272700000005,59.12858520000001],[32.6594149,59.13203300000001],[32.666646,59.1324614],[32.67205990000001,59.138912900000015],[32.669301100000006,59.1409617],[32.679937,59.1448111],[32.7132863,59.1445427],[32.72590810000001,59.1484576],[32.728833400000006,59.1739214],[32.7394431,59.1770679],[32.746760300000005,59.17516560000001],[32.757735800000006,59.1801415],[32.7641744,59.1880441],[32.738417500000004,59.19567190000001],[32.7570027,59.2013064],[32.7564902,59.205477200000004],[32.76585620000001,59.20635540000001],[32.76885590000001,59.21081890000001],[32.76241670000001,59.2132335],[32.77017250000001,59.218648300000005],[32.7619035,59.22825200000001],[32.74573240000001,59.23095910000001],[32.74558580000001,59.23439810000001],[32.7368049,59.2402517],[32.744706900000004,59.2480812],[32.726294300000006,59.257713900000006],[32.7370961,59.26330080000001],[32.744632800000005,59.262715600000014],[32.7449985,59.265203400000004],[32.732449200000005,59.2714411],[32.7543997,59.286075800000006],[32.76318030000001,59.286076],[32.773203800000005,59.30166169999999],[32.8469212,59.348620999999994],[32.92141,59.3486222],[32.9377988,59.373098399999996],[32.9707249,59.39219680000001],[32.9666271,59.3943919],[32.9686018,59.4089714],[32.966106100000005,59.4202024],[33.0051865,59.42653330000001],[33.0209916,59.4263872],[33.03877260000001,59.4217777],[33.048065300000005,59.4230949],[33.056956,59.4185035],[33.062299,59.39530820000001],[33.060836,59.3889422],[33.0715925,59.38469839999999],[33.0636901,59.38243],[33.066544,59.3795031],[33.112934200000005,59.388504],[33.13843560000001,59.3713457],[33.1417281,59.3755165],[33.148386800000004,59.3747117],[33.1551911,59.3838583],[33.2128517,59.3630236],[33.23473010000001,59.362438600000004],[33.24965830000001,59.34480449999999],[33.261585700000005,59.3371948],[33.262062400000005,59.320932400000004],[33.3427711,59.315153200000005],[33.3484008,59.3852518],[33.449487999999995,59.377277799999995],[33.483110200000006,59.3799857],[33.52379380000001,59.378010800000006],[33.5368178,59.38708429999999],[33.6302949,59.3824943],[33.62203000000001,59.327798300000005],[33.66337200000001,59.327286699999995],[33.670543200000004,59.3209941],[33.66073900000001,59.3087742],[33.6904466,59.31060399999999],[33.70636220000001,59.29820170000001],[33.73376510000001,59.29765330000001],[33.743936600000005,59.28777530000001],[33.7566681,59.2932634],[33.764790500000004,59.287556200000004],[33.753156600000004,59.281409499999995],[33.7576202,59.27877540000001],[33.7735714,59.283019700000004],[33.783523300000006,59.27409290000001],[33.77562090000001,59.271531700000004],[33.7820605,59.26472690000001],[33.7968412,59.26331850000001],[33.804305,59.258782000000004],[33.8054032,59.249196500000004],[33.79369580000001,59.24809880000001],[33.799769600000005,59.239318200000014],[33.8195263,59.2344892],[33.8193072,59.22717210000001],[33.8080386,59.230245100000005],[33.79139290000001,59.2161775],[33.8001013,59.200665300000004],[33.907846199999994,59.207325700000005],[33.913991499999995,59.22583820000001],[33.92273510000001,59.23211290000002],[33.92207630000001,59.23672270000001],[33.9274177,59.23811300000001],[33.93254,59.234674],[33.9359805,59.21184449999999],[33.9298348,59.19999060000001],[33.941542399999996,59.19808830000001],[33.946847999999996,59.1872956],[33.966019100000004,59.1860519],[33.972166300000005,59.173905500000004],[33.9817518,59.1733935],[33.9902402,59.1658935],[34.004289299999996,59.1631864],[34.0298485,59.1503017],[34.0671812,59.1501812],[34.0767673,59.140522600000004],[34.093816000000004,59.1452791],[34.099377200000006,59.14301090000001],[34.099011700000005,59.1374498],[34.1164263,59.1419136],[34.117888799999996,59.156840599999995],[34.1032543,59.1589624],[34.1057414,59.170157700000004],[34.158973,59.1830185],[34.176534800000006,59.173286999999995],[34.2032791,59.173836200000004],[34.2116203,59.17873880000001],[34.2152041,59.2052271],[34.24835070000001,59.20713010000001],[34.25511970000001,59.198496000000006],[34.2569496,59.188691],[34.284170100000004,59.17815470000001],[34.291487,59.1824719],[34.3301216,59.1837897],[34.3194381,59.19052130000001],[34.33129149999999,59.19747280000001],[34.336047699999995,59.196887499999995],[34.3352425,59.20091190000001],[34.3408768,59.20091200000001],[34.34146189999999,59.204131600000004],[34.350096199999996,59.2040586],[34.3497306,59.2004],[34.362169800000004,59.200327],[34.3620968,59.19644890000001],[34.356828699999994,59.19352200000001],[34.380829999999996,59.177717200000004],[34.3829516,59.18291250000001],[34.3919518,59.182766300000004],[34.3979532,59.160631900000006],[34.4233441,59.15668109999999],[34.42312530000001,59.1446809],[34.450966199999996,59.160065700000004],[34.4795775,59.1416269],[34.5119558,59.1446458],[34.5360304,59.12613370000001],[34.55688489999999,59.11801200000001],[34.5801898,59.121616100000004],[34.6271665,59.114153300000005],[34.6584141,59.1214647],[34.69221640000001,59.110879999999995],[34.7069247,59.0978556],[34.7174613,59.10049],[34.725364000000006,59.09800230000001],[34.719092800000006,59.07780399999999],[34.78713870000001,59.0592659],[34.8649221,59.0555146],[34.89711510000001,59.0491055],[34.880475999999994,59.0379943],[34.886034599999995,59.0215865],[34.854363799999994,59.005326000000004],[34.8682924,58.9905945],[34.9640186,58.9723896],[34.962140600000005,58.9590559],[34.952621199999996,58.954057299999995],[34.9622712,58.9482699],[34.9820395,58.946546999999995],[34.99825680000001,58.9399831],[35.001918200000006,58.9460257],[35.0122993,58.95146709999999],[35.0374784,58.954020699999994],[35.0501428,58.9496928],[35.0471046,58.93273030000001],[35.0212038,58.9315437],[35.0104256,58.9343405],[35.0041408,58.9315859],[35.0074723,58.92656830000001],[35.033950700000005,58.9259617],[35.038081,58.923528100000006],[35.0437215,58.927114700000004],[35.0593965,58.9247491],[35.071264299999996,58.9268175],[35.099591000000004,58.9390545],[35.0980774,58.942706900000005],[35.110562300000005,58.947874299999995],[35.1175702,58.9455697],[35.126323600000006,58.9509527],[35.1540118,58.949504],[35.154643699999994,58.9438337],[35.1788602,58.948818800000005],[35.1849741,58.9433104],[35.1766361,58.939081599999994],[35.1818386,58.9332412],[35.1800224,58.92837260000001],[35.185427499999996,58.9242655],[35.199209200000006,58.9217449],[35.199426,58.91884699999999],[35.19332000000001,58.911746699999995],[35.18688469999999,58.910890099999996],[35.185952400000005,58.9053455],[35.177472200000004,58.9036788],[35.175683,58.906848399999994],[35.171818900000005,58.9048393],[35.1612487,58.9072222],[35.16285810000001,58.905313400000004],[35.156062999999996,58.89859220000001],[35.13830880000001,58.885517],[35.131941399999995,58.86831690000001],[35.1432633,58.8490198],[35.1302384,58.8276137],[35.128426000000005,58.815249699999995],[35.152763300000004,58.8152262],[35.168358300000016,58.8202184],[35.1752891,58.8165888],[35.209615500000005,58.82911800000001],[35.22677120000001,58.829927399999995],[35.222325300000016,58.8232331],[35.24563200000001,58.815664899999994],[35.2348219,58.808805],[35.22672480000001,58.8080017],[35.224481499999996,58.79137550000001],[35.22651190000001,58.789790800000006],[35.23827630000001,58.79753040000001],[35.253609,58.79257250000001],[35.253688999999994,58.7878401],[35.24706749999999,58.78555080000001],[35.247235700000004,58.780740200000004],[35.2786601,58.78633270000001],[35.286575400000004,58.78253900000001],[35.2803795,58.777661699999996],[35.2890175,58.767487599999995],[35.2973605,58.772268700000005],[35.2918535,58.776714500000004],[35.29844000000001,58.7807236],[35.2899671,58.79077990000001],[35.29676620000001,58.79381990000001],[35.293246200000006,58.79599420000001],[35.299955900000015,58.7998847],[35.31740189999999,58.799765400000005],[35.317383899999996,58.804672399999994],[35.329160800000004,58.809572200000005],[35.33104939999999,58.8064621],[35.3353618,58.8071537],[35.342519100000004,58.81423159999999],[35.341605699999995,58.8168327],[35.3666833,58.8273813],[35.36091690000001,58.830062999999996],[35.365304200000004,58.8353064],[35.3644003,58.8386941],[35.35307159999999,58.8411599],[35.353399399999994,58.838952400000004],[35.3429934,58.83879890000001],[35.34480479999999,58.8424067],[35.358572300000006,58.8424761],[35.3602649,58.8468786],[35.387200099999994,58.84104119999999],[35.406484999999996,58.8455617],[35.4093862,58.84934],[35.4375596,58.847561199999994],[35.461427799999996,58.8611231],[35.46892810000001,58.8486201],[35.4916859,58.84362949999999],[35.498962600000006,58.837898599999995],[35.507006399999995,58.8412723],[35.5031164,58.8443557],[35.5150346,58.8484937],[35.51508749999999,58.84484729999999],[35.5525671,58.8473331],[35.55728099999999,58.8283873],[35.575545700000006,58.8291818],[35.579260399999995,58.810315900000006],[35.72652610000001,58.818099499999995],[35.72576020000001,58.82091870000001],[35.711735100000006,58.8219231],[35.72403800000001,58.838771],[35.707123900000006,58.8382007],[35.709970500000004,58.841810699999996],[35.73334220000001,58.8417378],[35.74311970000001,58.83875260000001],[35.75633030000001,58.842317800000004],[35.76921810000001,58.8335412],[35.7763877,58.833227699999995],[35.7757975,58.8297548],[35.79517460000001,58.8270912],[35.80549739999999,58.81938739999999],[35.82877580000001,58.8126633],[35.8243626,58.8070051],[35.796712100000015,58.8124258],[35.7906477,58.821447899999995],[35.778555300000015,58.8256661],[35.776892100000005,58.821789599999995],[35.759546300000004,58.819648799999996],[35.7449925,58.822129800000006],[35.7504986,58.7815993],[35.762220000000006,58.773719500000006],[35.775429,58.77221410000001],[35.778577600000006,58.76880250000001],[35.776391200000006,58.76150570000001],[35.782263300000004,58.7579402],[35.783202900000006,58.7536981],[35.8052505,58.7519718],[35.8350205,58.75555030000001],[35.8585078,58.7448733],[35.8752785,58.7460116],[35.878768900000004,58.74979290000001],[35.8996065,58.7554145],[35.9154017,58.7539671],[35.92539310000001,58.747784599999996],[35.9734427,58.749256700000004],[35.9777403,58.74505590000001],[35.9777598,58.74021320000001],[35.9664468,58.735173900000014],[35.94188659999999,58.734934],[35.916476499999995,58.739376500000006],[35.922548400000004,58.733983],[35.939134,58.73337730000001],[35.9459045,58.7301215],[35.944690699999995,58.72529030000001],[35.96234820000001,58.7278031],[35.967051399999995,58.733535900000014],[35.9958892,58.73502250000001],[35.9986504,58.730895800000006],[35.979481099999994,58.72984230000001],[35.970911300000004,58.72258370000001],[35.992850700000005,58.71975880000001],[35.99522890000001,58.70405890000001],[36.0107625,58.70305630000001],[36.019766,58.72837340000001],[36.03331180000001,58.72515460000001],[36.0452207,58.714719],[36.069363900000006,58.710090300000005],[36.06615180000001,58.7218971],[36.11113890000001,58.72243730000001],[36.1069495,58.716484799999996],[36.119013100000004,58.699482100000004],[36.11737290000001,58.694540700000005],[36.1217684,58.6809911],[36.12215980000001,58.67655330000001],[36.1164213,58.6740691],[36.1535565,58.6328272],[36.1276886,58.62397240000001],[36.1498005,58.61311080000001],[36.1604813,58.61787699999999],[36.199279600000004,58.6186897],[36.2003004,58.610647099999994],[36.212521300000006,58.606008100000004],[36.21974530000001,58.6076573],[36.228918700000015,58.60017870000001],[36.2242608,58.597092700000005],[36.225289800000006,58.5841071],[36.22868580000001,58.5824745],[36.212666,58.568267],[36.212545000000006,58.5595213],[36.19031470000001,58.546668499999996],[36.1996642,58.5419681],[36.19600090000001,58.53677030000001],[36.1997836,58.535360100000005],[36.187793,58.53232570000001],[36.178425100000005,58.5393275],[36.173405100000004,58.535537700000006],[36.17839680000001,58.532546],[36.179163100000004,58.5280846],[36.1888648,58.524032500000004],[36.1772517,58.5214318],[36.18168239999999,58.51164959999999]]]}}