{"type":"Feature","properties":{"regionId":"novosibirskaya_oblast","name":"Новосибирская область","name:en":"Novosibirsk Oblast","timezone":"Asia/Novosibirsk","name_ru":"Новосибирская область","name_en":"Novosibirsk Oblast","name_zh":"新西伯利亚州"},"geometry":{"type":"Polygon","coordinates":[[[77.9065061,53.291410000000006],[77.33912790000001,53.594931800000005],[76.8290166,53.849460699999995],[76.5378313,53.999852600000004],[76.52938649999999,54.017187099999994],[76.50409970000001,54.0317861],[76.49828450000001,54.0712511],[76.43491500000002,54.12257240000001],[76.44044000000001,54.16733060000001],[76.58268149999999,54.14879330000001],[76.6162802,54.16200490000001],[76.6165969,54.153284299999996],[76.6450202,54.124447599999996],[76.67135889999999,54.13265630000001],[76.69534599999999,54.1469985],[76.7564658,54.161826],[76.74936970000002,54.1830292],[76.789561,54.199451100000005],[76.8109574,54.2171449],[76.8278407,54.2248837],[76.83545629999999,54.26267860000001],[76.82871079999998,54.274150500000005],[76.8647735,54.286170500000004],[76.87051129999999,54.297601],[76.87856709999998,54.3017602],[76.8602013,54.36114439999999],[76.82074849999998,54.36810560000001],[76.78807819999999,54.360039],[76.7807245,54.377652399999995],[76.8748004,54.39823620000001],[76.87758109999999,54.4029411],[76.9356376,54.4156907],[76.9524626,54.4157668],[76.93582490000001,54.42569030000001],[76.9395308,54.437918200000006],[76.9289614,54.45776789999999],[76.87479909999999,54.4482904],[76.84413560000002,54.4396709],[76.8266019,54.42893380000001],[76.79552860000001,54.41902449999999],[76.7297592,54.4180291],[76.73046550000001,54.4027448],[76.69127900000001,54.3750062],[76.6748056,54.344998999999994],[76.645675,54.3367779],[76.6075913,54.335617],[76.5981578,54.34309149999999],[76.57536679999998,54.339485499999995],[76.54471410000001,54.3277077],[76.475925,54.3182396],[76.35205749999999,54.334001199999996],[76.25728970000002,54.35927139999999],[76.229287,54.3232219],[76.1864842,54.3015526],[76.2278221,54.27609580000001],[76.2013926,54.259798700000005],[75.68877719999998,54.12262520000001],[75.68680829999998,54.33919830000001],[75.6911977,54.4551743],[75.6910584,54.5460335],[75.8040329,54.54015230000001],[75.82707289999999,54.59935600000001],[75.84464100000001,54.602169800000006],[75.8518465,54.6075912],[75.8377092,54.62852170000001],[75.8368855,54.6390899],[75.82460090000001,54.6664024],[75.80291509999999,54.6712061],[75.8005129,54.686578000000004],[75.8088164,54.691724900000004],[75.79865970000002,54.69817560000001],[75.78466030000001,54.694126600000004],[75.73627920000001,54.70078290000001],[75.73662290000001,54.6742937],[75.68422560000002,54.674746],[75.68597659999999,54.7046941],[75.63885859999999,54.81005],[75.61119400000001,54.805331800000005],[75.60379499999999,54.8209868],[75.54546340000002,54.81680449999999],[75.5499673,54.79954120000001],[75.5289507,54.8032939],[75.4968883,54.866020999999996],[75.49056150000001,54.8843566],[75.51393660000001,54.90108409999999],[75.51415080000001,54.913308],[75.44252290000001,54.915559200000004],[75.44713390000003,54.903120900000005],[75.3449463,54.902905600000004],[75.33207889999998,54.911162],[75.38183049999999,54.990724300000004],[75.40960240000001,54.99093890000001],[75.4054203,54.999517000000004],[75.3684598,55.067782],[75.3143827,55.0669616],[75.3120223,55.12775890000001],[75.2755652,55.1219684],[75.26066040000002,55.1306536],[75.2519745,55.1501687],[75.293471,55.1711854],[75.2677359,55.19563280000001],[75.2699873,55.211395100000004],[75.28124580000001,55.22501290000002],[75.27534819999998,55.22898020000001],[75.2751334,55.242490700000005],[75.2278452,55.28270020000001],[75.20200340000001,55.285166200000006],[75.19953629999999,55.32108699999999],[75.17047749999998,55.3262336],[75.1776611,55.35246059999999],[75.09151550000001,55.3766322],[75.1986273,55.425701100000005],[75.1622935,55.4471304],[75.2364848,55.475591800000004],[75.3216485,55.4979835],[75.31243269999999,55.537969499999996],[75.292,55.5487625],[75.2883537,55.556597599999996],[75.2836825,55.5573979],[75.2751938,55.5486221],[75.2609003,55.5493235],[75.22080179999999,55.5406161],[75.19577779999997,55.552481199999995],[75.18537639999998,55.565991600000004],[75.1407693,55.583898],[75.1512774,55.593548500000004],[75.17014929999999,55.5979449],[75.1849463,55.6133857],[75.1917016,55.6147796],[75.19534719999999,55.6190687],[75.2233335,55.61971230000001],[75.2354501,55.62593150000001],[75.25635940000001,55.625502800000014],[75.24542190000001,55.638262600000004],[75.19234399999999,55.655311100000006],[75.1906282,55.6582062],[75.1154612,55.6859772],[75.1182489,55.6916603],[75.11288749999999,55.699380500000004],[75.1295074,55.7098888],[75.08801,55.72683020000001],[75.1044151,55.7564248],[75.23019340000002,55.73090590000001],[75.36937429999999,55.740664599999995],[75.3673354,55.805322100000005],[75.34674779999999,55.800067799999994],[75.3433163,55.8099326],[75.3329152,55.8126132],[75.30385609999999,55.8320209],[75.265147,55.833414499999996],[75.2624275,55.844121799999996],[75.3235843,55.897643499999994],[75.35693169999999,55.913084299999994],[75.41837249999999,55.934959],[75.51433940000001,55.996722000000005],[75.53138829999999,56.008838700000005],[75.52849249999998,56.0316779],[75.5845725,56.031142200000005],[75.5944372,56.038969800000004],[75.6534124,56.036933000000005],[75.6778597,56.0555905],[75.68129060000001,56.0729612],[75.7357615,56.099768100000006],[75.7315793,56.11263530000001],[75.9595448,56.11510330000001],[75.9797033,56.12539710000001],[76.01401510000001,56.1636772],[76.04285960000001,56.150595700000004],[76.07213279999998,56.147057499999995],[76.12092109999999,56.15488539999999],[76.13861440000001,56.121431],[76.1626331,56.131939300000006],[76.2264331,56.14523590000001],[76.306639,56.1572458],[76.3028854,56.18105],[76.2317927,56.2171847],[76.1705643,56.2813055],[76.12670849999998,56.268223600000006],[76.1022602,56.290312000000014],[76.07877729999997,56.29299250000001],[76.0789916,56.297496],[76.0983998,56.299962400000005],[76.0812427,56.325374800000006],[76.0838147,56.386064899999994],[76.07845289999999,56.4024705],[76.05593479999999,56.416087999999995],[76.0924991,56.42530970000001],[76.12513709999998,56.41768979999999],[76.1196275,56.4354965],[76.10800769999999,56.446056],[76.0866025,56.4414148],[76.0855948,56.4441966],[76.09077289999999,56.448726],[76.07790729999999,56.4480221],[76.08046360000002,56.455988],[76.04723750000001,56.464172700000006],[76.03719760000001,56.45763099999999],[76.02832819999999,56.457187299999994],[76.02798809999999,56.4609991],[76.0212427,56.4611235],[76.0188459,56.455881999999995],[76.028289,56.45364469999999],[76.02779779999999,56.4487144],[76.02347739999999,56.4483404],[76.01822970000002,56.454791799999995],[76.01526690000001,56.45156099999999],[76.0210273,56.445539000000004],[76.0102813,56.4454602],[76.007532,56.44784189999999],[76.012687,56.453379],[76.0020598,56.4543578],[76.01213179999999,56.4599232],[75.99944260000001,56.462450000000004],[75.99706340000003,56.4547522],[75.99190520000002,56.4583576],[75.99447980000001,56.463382],[75.98808229999999,56.4639954],[75.9839583,56.459248599999995],[75.9850422,56.46447739999999],[75.9826101,56.46557270000001],[75.9715758,56.4613577],[75.9729293,56.457092599999996],[75.9584185,56.4500108],[75.96625270000001,56.44728119999999],[75.96606920000002,56.4449366],[75.95425240000002,56.4466169],[75.95047209999998,56.43853590000001],[75.9404793,56.4407573],[75.93926330000002,56.4443959],[75.94952040000003,56.4463685],[75.9424091,56.4484287],[75.9253052,56.446047099999994],[75.91964790000002,56.4409472],[75.912431,56.4406257],[75.91602620000002,56.4352914],[75.91303900000001,56.4320465],[75.9005613,56.434034399999994],[75.90011190000001,56.430847899999996],[75.91322410000002,56.4277635],[75.9051347,56.42391860000001],[75.8999004,56.4141803],[75.8934501,56.4158913],[75.8918375,56.4214331],[75.88039079999999,56.42051200000001],[75.8800736,56.4161545],[75.87134979999999,56.4108167],[75.8658247,56.4150578],[75.85752390000002,56.41312739999999],[75.85757679999999,56.40897390000001],[75.8624409,56.4069555],[75.8556205,56.4012653],[75.83132990000001,56.417848299999996],[75.8329574,56.4258365],[75.84327990000001,56.4372032],[75.84293179999999,56.4438143],[75.8352069,56.4482913],[75.8382689,56.4526524],[75.8480117,56.456085599999994],[75.84606300000002,56.458127],[75.84903229999999,56.4604468],[75.84030990000001,56.466385100000004],[75.84123760000001,56.4742721],[75.83594849999999,56.4790043],[75.8551555,56.4967271],[75.96204879999999,56.50749139999999],[76.0169786,56.5691034],[76.0382329,56.6178305],[76.10466380000001,56.6106733],[76.1464189,56.617911],[76.166647,56.618004],[76.16683239999999,56.62691170000001],[76.15272809999998,56.638788600000005],[76.17861599999999,56.6534493],[76.2891273,56.696968000000005],[76.26100900000002,56.8185207],[76.24054890000001,56.826137700000004],[76.2504306,56.8358721],[76.25377069999999,56.84756339999999],[76.2508941,56.8511822],[76.26054340000002,56.88458609999999],[76.19503239999999,56.9433207],[76.18389699999999,56.9682808],[76.14025500000001,57.1129637],[76.09501460000001,57.235533300000014],[76.6978947,57.215498200000006],[76.91686140000002,57.160251200000005],[76.9454587,57.1696912],[78.4634379,57.16500980000001],[78.44032300000002,57.1133454],[79.19821390000001,57.001034],[79.5885764,56.923160100000004],[80.26351670000001,56.4224455],[81.2202737,56.537592800000006],[81.4751273,56.3310221],[81.5734033,56.2418883],[81.99190380000002,56.3335472],[82.16149460000001,56.334661999999994],[82.1963419,56.3437962],[82.22706930000001,56.34217890000001],[82.25608,56.3488381],[82.26792470000002,56.355115700000006],[82.3403658,56.357303099999996],[82.3501505,56.3608218],[82.3525537,56.36586139999999],[82.3870577,56.375938700000006],[82.3944391,56.382116800000006],[82.41812840000001,56.385443099999996],[82.42533819999998,56.3909546],[82.4505724,56.392569800000004],[82.45091570000001,56.395800200000004],[82.463447,56.3961802],[82.4715151,56.4007402],[82.4950327,56.39903030000001],[82.5010408,56.402165100000005],[82.49846590000001,56.404064899999995],[82.5006975,56.4052997],[82.50704900000001,56.4034],[82.5103105,56.4064394],[82.5254167,56.407769099999996],[82.5303949,56.4050147],[82.5298799,56.400930200000005],[82.54532950000001,56.4015002],[82.5576891,56.397795300000006],[82.5896181,56.4053946],[82.5964845,56.4097636],[82.6012911,56.407769099999996],[82.60867249999998,56.41166299999999],[82.6311601,56.4102384],[82.64111650000001,56.41764539999999],[82.6553644,56.415271499999996],[82.66102920000002,56.420114100000006],[82.6748332,56.419441199999994],[82.68959609999999,56.42551730000001],[82.7050456,56.4183018],[82.7138003,56.4191564],[82.71362870000002,56.4155482],[82.7328547,56.41469349999999],[82.73766120000002,56.41165469999999],[82.732612,56.408908800000006],[82.74617330000001,56.4064394],[82.74016510000001,56.4017851],[82.74823320000002,56.3996003],[82.755443,56.4064394],[82.7667726,56.40662939999999],[82.77604229999999,56.4118529],[82.8093447,56.420209],[82.80539639999999,56.4218231],[82.8120912,56.42505090000001],[82.8088297,56.4278039],[82.82084599999999,56.429607499999996],[82.81912940000002,56.4331194],[82.8246225,56.434827799999994],[82.8093447,56.4443175],[82.8124346,56.4457408],[82.8083147,56.4469742],[82.8136362,56.447448599999994],[82.80848629999998,56.4493461],[82.8117479,56.4517179],[82.80247819999998,56.45266649999999],[82.809688,56.45608149999999],[82.80161990000002,56.456935200000004],[82.8029932,56.4588322],[82.79835829999999,56.4610137],[82.7932085,56.459021899999996],[82.79149190000001,56.4647124],[82.8060831,56.4691694],[82.80247819999998,56.471634699999996],[82.8050531,56.4764701],[82.7997316,56.4791245],[82.8036798,56.4849068],[82.79750000000001,56.48784499999999],[82.8059114,56.490214300000005],[82.79921660000002,56.492962600000006],[82.8031648,56.498458500000005],[82.80041829999999,56.500163900000004],[82.8095163,56.5048062],[82.8014482,56.5092584],[82.8103746,56.5138049],[82.8079714,56.516172600000004],[82.8428186,56.52516860000001],[82.84127370000002,56.5274409],[82.8498567,56.530281099999996],[82.8579248,56.529239700000005],[82.8572382,56.531795800000005],[82.8630747,56.5350144],[82.87766590000001,56.535677],[82.87886749999998,56.5331211],[82.883159,56.536055600000005],[82.89912360000002,56.530281099999996],[82.91955130000001,56.53293180000001],[82.9252161,56.5307545],[82.9461588,56.5377594],[82.949077,56.5341624],[82.94787540000002,56.530565100000004],[82.9547418,56.52677820000001],[82.96178,56.52810370000001],[82.96040670000001,56.524127],[82.9768862,56.52204390000001],[82.9863275,56.5164567],[83.0158533,56.5240324],[83.0282129,56.5164567],[83.0331911,56.52015000000001],[83.0398859,56.5184455],[83.04022920000003,56.52071820000001],[83.04967060000001,56.52081290000001],[83.0541338,56.525263300000006],[83.05894029999999,56.525263300000006],[83.06271679999999,56.5293344],[83.05928360000001,56.5362449],[83.08262960000002,56.5429649],[83.08640609999999,56.5458986],[83.08503279999998,56.548548200000006],[83.10887159999999,56.5500106],[83.2888285,56.4431768],[83.26076040000001,56.40762149999999],[83.1439151,56.375560300000004],[83.1446751,56.3602755],[83.15776079999999,56.3627434],[83.19298809999998,56.3279879],[83.13689819999999,56.29695090000001],[83.1487026,56.28889890000001],[83.0648401,56.2304766],[83.08837899999999,56.216049],[83.1205014,56.2092904],[83.15923409999999,56.227520600000005],[83.1964626,56.217654399999994],[83.19370599999999,56.21314290000001],[83.200192,56.2144356],[83.1998999,56.2102005],[83.21191120000002,56.20773820000001],[83.21302490000002,56.20238230000001],[83.2029283,56.200237300000005],[83.21040040000001,56.199485100000004],[83.21312470000002,56.1944603],[83.2089938,56.190701000000004],[83.2170188,56.187946499999995],[83.2014418,56.18402],[83.2103457,56.1838989],[83.21352140000002,56.180665],[83.2048981,56.1815682],[83.2106425,56.1782972],[83.20820440000001,56.1771984],[83.17724879999999,56.184911],[83.16042560000001,56.1726804],[83.1831233,56.1643911],[83.16922840000001,56.159156800000005],[83.1743556,56.1556619],[83.17273049999997,56.1525796],[83.16272909999999,56.153995800000004],[83.16747809999998,56.1519601],[83.16706260000001,56.149070900000005],[83.1574261,56.1496058],[83.15962960000002,56.144712600000005],[83.14952460000002,56.14615920000001],[83.14722530000002,56.137396900000006],[83.13703960000001,56.138784900000005],[83.14167360000002,56.13595830000001],[83.1329149,56.129501000000005],[83.13938429999999,56.125662000000005],[83.1341301,56.1264574],[83.1308545,56.122912000000014],[83.13537319999999,56.1195031],[83.17983349999999,56.1128996],[83.18464,56.106869399999994],[83.195283,56.1039017],[83.22098079999999,56.0858283],[83.2741579,56.113939],[83.30231719999999,56.09573570000001],[83.2337477,56.056269199999996],[83.23697940000001,56.03237060000001],[83.2453682,56.024072800000006],[83.2295709,56.0120055],[83.3064838,55.9944851],[83.34037879999998,55.979045],[83.31371,55.961171300000004],[83.37702360000002,55.917896199999994],[83.3926284,55.9113355],[83.400827,55.89518230000001],[83.37568509999998,55.896017900000004],[83.3897444,55.8644537],[83.382134,55.85268049999999],[83.3521269,55.8485394],[83.31645560000001,55.855874799999995],[83.2932408,55.8275985],[83.28921430000001,55.81163039999999],[83.27087549999999,55.7845037],[83.21859900000001,55.7547986],[83.21155540000002,55.74093370000001],[83.210779,55.73031870000001],[83.25787829999999,55.71217680000001],[83.3151567,55.70331180000001],[83.3086555,55.691513500000006],[83.3151024,55.6890079],[83.32627509999999,55.6905848],[83.32600209999998,55.70375260000001],[83.3367904,55.7106008],[83.37792300000001,55.717162300000005],[83.39215779999999,55.71395510000001],[83.4157123,55.72635870000001],[83.4454891,55.72309870000001],[83.44403440000002,55.6936607],[83.42249179999999,55.6766531],[83.44353930000001,55.6702255],[83.47258229999998,55.69870180000001],[83.5017495,55.706690800000004],[83.5232031,55.69533700000001],[83.52026960000002,55.6893868],[83.54048370000001,55.67973080000001],[83.615655,55.6646601],[83.61840729999999,55.6774669],[83.62809909999999,55.6899465],[83.63469380000001,55.70803130000001],[83.643134,55.72053670000001],[83.66764690000001,55.739602600000005],[83.6659486,55.743687599999994],[83.65003619999999,55.74325290000001],[83.64498160000001,55.748188000000006],[83.6685074,55.7500104],[83.6640461,55.76205050000001],[83.67271239999998,55.767614300000005],[83.68230159999999,55.7648691],[83.68420470000001,55.755641],[83.6964198,55.7558234],[83.69870039999999,55.7597925],[83.69593309999999,55.7632665],[83.6743746,55.7738091],[83.69294849999999,55.77881970000001],[83.6959449,55.7876338],[83.7093967,55.779675600000004],[83.7324886,55.7848823],[83.746832,55.8041186],[83.7278029,55.8165504],[83.73426600000002,55.8189228],[83.7384558,55.835183300000004],[83.76835390000001,55.8355431],[83.78598079999999,55.85184199999999],[83.77540279999998,55.857456199999994],[83.81677859999999,55.903748],[83.8560917,55.909589399999994],[83.85187429999999,55.932560200000005],[83.879665,55.93293620000001],[83.88159470000001,55.95416949999999],[83.90320390000002,55.96235380000001],[83.9218225,55.9761865],[83.9233117,55.978621499999996],[83.91904440000002,55.98046109999999],[83.9250537,55.9822399],[83.91891820000001,55.9831174],[83.9209101,55.9857234],[83.93196100000002,55.985095],[83.9438801,56.0001817],[83.95289849999999,56.0015397],[83.95334129999999,56.005628],[83.95721780000001,56.006779300000005],[83.94970550000001,56.0110583],[83.95262070000001,56.015014300000004],[84.06228340000001,56.02632210000001],[84.0748143,56.01784719999999],[84.20257709999998,56.059192900000006],[84.2401788,56.0305896],[84.2506826,56.034348900000005],[84.2945423,56.002005700000005],[84.3379769,55.9804958],[84.3846702,56.0005575],[84.3850204,56.0151842],[84.3930686,56.0156837],[84.40650470000001,56.0305036],[84.44003640000001,56.0429211],[84.45348879999999,56.0432135],[84.44904040000002,56.04071220000001],[84.4721992,56.0156955],[84.51710440000002,56.02891620000001],[84.5270495,56.0286806],[84.53111740000001,56.0247275],[84.5468795,56.025641300000004],[84.55726670000001,56.020095100000006],[84.5540687,56.0147023],[84.57107699999999,56.0048319],[84.5651353,55.999293300000005],[84.53414300000001,55.989666799999995],[84.5425719,55.983147599999995],[84.5270175,55.97732739999999],[84.52817529999999,55.97384749999999],[84.5245611,55.9728488],[84.5322015,55.964798200000004],[84.53725560000002,55.9640209],[84.5285538,55.952572200000006],[84.50756300000002,55.9584173],[84.4820662,55.9580399],[84.4810757,55.955245],[84.48797350000001,55.9456568],[84.54311430000001,55.9320366],[84.5397756,55.9211177],[84.5269614,55.923283399999995],[84.49799450000002,55.917214599999994],[84.49221920000002,55.913402],[84.49230960000001,55.90128739999999],[84.4554015,55.8942486],[84.4687574,55.872659],[84.49032970000002,55.8741438],[84.49711290000002,55.8789677],[84.516362,55.880820899999996],[84.51898249999999,55.856679899999996],[84.53752070000002,55.8533933],[84.5423937,55.8481595],[84.5557494,55.84434699999999],[84.56143390000001,55.833003999999995],[84.5749953,55.832676],[84.5750692,55.8263649],[84.55926900000001,55.823708200000006],[84.5522552,55.80163039999999],[84.57560289999999,55.8026792],[84.59324920000002,55.7966624],[84.6079425,55.799245400000004],[84.60818019999999,55.76653860000001],[84.59419290000001,55.76653860000001],[84.57858149999998,55.76193630000001],[84.52724360000002,55.76102890000001],[84.5391472,55.718643900000004],[84.5614893,55.72055020000001],[84.56716510000001,55.700248200000004],[84.59252670000001,55.705025000000006],[84.6041457,55.686559300000006],[84.61016660000001,55.69583630000001],[84.62036379999999,55.696829],[84.6215369,55.69330970000001],[84.62902679999999,55.69294870000001],[84.63102560000002,55.6875957],[84.639658,55.684816],[84.68878019999998,55.681451599999995],[84.7035714,55.669652500000005],[84.71146420000002,55.668962500000006],[84.70794240000001,55.652123700000004],[84.6796517,55.6530735],[84.6934032,55.642534500000004],[84.74181200000001,55.6422076],[84.7427466,55.62952190000001],[84.7527054,55.6155824],[84.75111120000001,55.599512300000015],[84.76669310000001,55.5773457],[84.78552420000001,55.529037],[84.78391360000002,55.5242373],[84.7274969,55.52311260000001],[84.7311585,55.5190922],[84.72333069999999,55.5070568],[84.7262185,55.5007401],[84.7378858,55.49847270000001],[84.75589009999999,55.467181599999996],[84.72465820000001,55.4463013],[84.62079099999998,55.404216399999996],[84.65276119999999,55.380405999999994],[84.6938533,55.3728054],[84.75460390000002,55.37966159999999],[84.8188974,55.3616239],[84.8588595,55.3751601],[84.8894225,55.3555043],[84.8907493,55.34864399999999],[84.90560500000001,55.3373073],[84.9067014,55.331587999999996],[84.9163573,55.323534200000005],[84.9084163,55.3127957],[84.9154551,55.3082612],[84.90931900000001,55.29461250000001],[84.910041,55.2873934],[84.9134702,55.287122700000005],[84.91301910000001,55.27963290000001],[84.9167189,55.277534800000005],[84.8943395,55.26812730000001],[84.8647947,55.26262890000001],[84.86058990000001,55.254298],[84.8284647,55.2411681],[84.8182678,55.227090700000005],[84.90035060000001,55.185079300000005],[84.915457,55.183956900000005],[84.91762310000003,55.163788600000004],[84.92718860000001,55.163608100000005],[84.91609020000001,55.085528700000005],[84.9050814,55.0551632],[84.87810019999999,55.0202405],[84.8368286,55.0088696],[84.8374854,54.996983900000004],[84.8454683,54.990222100000004],[84.85806709999999,54.988367399999994],[84.8880216,54.9696097],[84.88647499999999,54.9628056],[84.88061900000001,54.9593356],[84.8875369,54.952149399999996],[84.9109485,54.95344119999999],[84.90760980000002,54.94577090000001],[84.97177049999999,54.9445079],[85.0008282,54.9126085],[85.0026332,54.907104],[85.0387297,54.87373830000001],[85.07909209999998,54.855580999999994],[85.06535269999999,54.853348399999994],[85.0659282,54.8507521],[85.0611583,54.8520578],[85.06424640000002,54.85048989999999],[85.05858709999998,54.8507388],[85.060098,54.8483765],[85.04715770000001,54.8441267],[85.0695351,54.8344483],[85.0881147,54.8161756],[85.0026403,54.799801900000006],[85.0129859,54.780007399999995],[84.9828486,54.779861],[84.9786677,54.7774087],[84.96446360000003,54.7808819],[84.9637418,54.77077510000001],[84.9582372,54.767346],[84.94713780000001,54.76308220000001],[84.931075,54.76217970000001],[84.91104190000001,54.7521405],[84.902018,54.74519200000001],[84.9059886,54.73623580000001],[84.8945308,54.72854020000001],[84.94763650000002,54.709029],[84.94909870000001,54.7040038],[84.9817473,54.7047575],[84.9807832,54.69339520000001],[85.0029618,54.6804586],[84.98932900000001,54.6668914],[85.0118428,54.63819540000001],[85.00114900000001,54.633842800000004],[85.0013675,54.62961830000001],[84.9308403,54.6091815],[85.1161717,54.4386068],[84.8431757,54.339579],[84.8431758,54.3337481],[84.825955,54.3265673],[84.8140805,54.328129700000005],[84.80765060000002,54.3346118],[84.8158569,54.339578800000005],[84.8074344,54.3430341],[84.81196950000002,54.35145639999999],[84.7800077,54.34109039999999],[84.71111750000001,54.3080487],[84.6923293,54.289260399999996],[84.68498679999999,54.28753280000001],[84.67073339999999,54.2918518],[84.64460260000001,54.280190000000005],[84.63358879999998,54.26896030000001],[84.59687609999999,54.2549228],[84.57722420000002,54.23743030000001],[84.573769,54.22425690000001],[84.57754849999999,54.2078442],[84.54453480000001,54.162715700000014],[84.53349370000001,54.157310200000005],[84.45823229999999,54.1460802],[84.44525970000002,54.138940000000005],[84.423031,54.1467278],[84.4304813,54.161628900000004],[84.39808729999999,54.177609399999994],[84.37087669999998,54.1726424],[84.3676374,54.1616286],[84.3531683,54.1583891],[84.3000424,54.162060200000006],[84.2793104,54.1562292],[84.2685124,54.1637876],[84.2730474,54.171562],[84.2769347,54.17242590000001],[84.2765027,54.1786886],[84.25274719999999,54.17955230000001],[84.24659450000001,54.1844143],[84.23503849999999,54.1851671],[84.2216489,54.19121380000001],[84.20825960000002,54.188838200000006],[84.1896872,54.17933610000001],[84.18601609999999,54.1719935],[84.1469277,54.1665944],[84.11712560000002,54.15428469999999],[84.0510425,54.13463230000001],[83.99770090000001,54.12253850000001],[83.9574311,54.1073663],[83.925815,54.1045761],[83.87482109999999,54.0802104],[83.86143179999999,54.078914600000004],[83.8573284,54.087984799999994],[83.8845389,54.105261399999996],[83.88129950000001,54.11044439999999],[83.88397909999999,54.12139260000001],[83.83726000000001,54.11871790000001],[83.82909209999998,54.1278201],[83.7860431,54.112562100000005],[83.7244161,54.100675800000005],[83.69603779999998,54.1018098],[83.6635417,54.111180499999996],[83.5541405,54.1092291],[83.54426110000001,54.09548230000001],[83.5323834,54.093201300000004],[83.53331320000001,54.077922],[83.49051120000001,54.0773536],[83.48014350000001,54.0634657],[83.4759464,54.0632094],[83.48826300000002,53.978316400000004],[83.44225780000001,53.9737416],[83.4459482,53.941922399999996],[83.3555657,53.932337700000005],[83.34919660000001,53.934280599999994],[83.3061014,54.06486639999999],[83.30926070000001,54.070599800000004],[83.29887219999999,54.0745486],[83.30210279999999,54.0793898],[83.3012323,54.0849268],[83.2907611,54.0858221],[83.2890337,54.0694094],[83.2749967,54.05126899999999],[83.22003529999999,54.049973],[83.1980567,54.065828100000004],[83.09996300000002,54.01218],[83.08958849999999,54.00299530000001],[83.1046352,53.99615380000001],[83.1034263,53.9915077],[83.05379509999999,53.970347399999994],[83.05677999999999,53.9679297],[83.05492980000001,53.965022100000006],[83.049795,53.968519500000006],[82.71491960000003,53.77683290000001],[82.7577752,53.7444107],[82.75605060000001,53.73972830000001],[82.620925,53.668409600000004],[82.6649309,53.6388042],[82.66143749999999,53.6324887],[82.53481070000001,53.565610500000005],[82.51271229999999,53.55186259999999],[82.5085202,53.5454492],[82.5695008,53.51686479999999],[82.5818045,53.5137325],[82.58069370000001,53.506373],[82.57587939999999,53.5004932],[82.57018099999999,53.4991671],[82.5544241,53.499339500000005],[82.5304884,53.5094304],[82.52832889999999,53.505543200000005],[82.50159980000001,53.4960651],[82.4720839,53.49523550000001],[82.42533749999998,53.515933000000004],[82.4202977,53.5149919],[82.41594900000001,53.508126600000004],[82.4098975,53.5093862],[82.40997940000001,53.503106800000005],[82.39188940000001,53.509958600000004],[82.3699016,53.5134752],[82.3543539,53.5262833],[82.33734279999999,53.5278978],[82.33878779999998,53.530929],[82.3347114,53.5351215],[82.33780340000001,53.5414303],[82.3339384,53.5444312],[82.3269447,53.5418332],[82.3333672,53.5575252],[82.3306083,53.565144200000006],[82.32517789999999,53.559096],[82.29853460000001,53.5574929],[82.29792420000003,53.5711771],[82.28837239999999,53.5789775],[82.26009450000001,53.5821413],[82.2420086,53.5800512],[82.20881709999999,53.5889006],[82.20212660000001,53.5942596],[82.2037462,53.600522500000004],[82.1998589,53.603546],[82.2037671,53.61685],[82.1931852,53.6142584],[82.194481,53.6105871],[82.17775749999998,53.61015510000001],[82.16782360000002,53.6023805],[82.155514,53.604108100000005],[82.15205849999998,53.60993890000001],[82.15346809999998,53.6190207],[82.1652268,53.62077990000001],[82.17257419999999,53.6298071],[82.18742040000001,53.63799290000001],[82.18370219999998,53.64831200000001],[82.1875924,53.6526225],[82.1843652,53.658778500000004],[82.1935907,53.6739873],[82.1914309,53.6780904],[82.1836566,53.672259600000004],[82.1629247,53.664917],[82.13548999999999,53.6460609],[82.09986500000001,53.6564943],[82.1031043,53.6595177],[82.09295420000001,53.66210910000001],[82.06639129999999,53.661677],[82.0601589,53.66410810000001],[82.05522390000002,53.67599930000001],[82.0585104,53.682990800000006],[81.98878169999999,53.70517390000001],[81.96076140000001,53.7104467],[81.96090290000001,53.7170749],[81.9563927,53.7195174],[81.94206990000002,53.713487799999996],[81.8518659,53.714218800000005],[81.8322305,53.69370520000001],[81.83091590000001,53.687339],[81.81838179999998,53.68525090000001],[81.8175561,53.701379700000004],[81.811845,53.70413560000001],[81.80807679999998,53.71124639999999],[81.7983248,53.712901200000005],[81.78728960000002,53.724015400000006],[81.80874699999998,53.73214990000001],[81.79983440000001,53.737516600000006],[81.79485420000002,53.7452801],[81.7881786,53.744504],[81.7854102,53.7499877],[81.77137859999999,53.76012030000001],[81.74628390000002,53.757229699999996],[81.74229300000002,53.76300210000001],[81.7207895,53.77012930000001],[81.71422290000002,53.777357800000004],[81.7347443,53.791326500000004],[81.73416520000002,53.79483390000001],[81.7467438,53.79804290000001],[81.74721670000002,53.8031945],[81.75106900000002,53.8052545],[81.74390500000001,53.8117723],[81.742681,53.8215435],[81.7197459,53.84396949999999],[81.8343671,53.872415100000005],[81.8336029,53.90357530000001],[81.82747609999998,53.920151700000005],[81.84557889999999,53.9242258],[81.8393608,53.947391599999996],[81.82960849999999,53.965494],[81.7729162,53.9587776],[81.74861000000001,53.948264099999996],[81.70392500000001,53.974083099999994],[81.72868249999999,53.98687749999999],[81.7143423,53.9863313],[81.6965091,53.980541499999994],[81.6647847,53.981222499999994],[81.6440185,53.967253],[81.62230699999998,53.958804199999996],[81.5838797,53.923821],[81.5840579,53.91680739999999],[81.56960370000002,53.9087914],[81.5403908,53.905841699999996],[81.54235279999999,53.9336581],[81.5639386,53.971585399999995],[81.5613148,53.99313980000001],[81.5657007,54.004292],[81.5971281,54.0087675],[81.6138041,54.020343800000006],[81.5950829,54.02915830000001],[81.5111578,54.026845800000004],[81.49412060000003,54.0288071],[81.49735030000001,54.03525230000001],[81.48092140000001,54.057737499999995],[81.4856724,54.05989709999999],[81.4660984,54.0855419],[81.38583749999998,54.053070999999996],[81.34378729999999,54.0819238],[81.32931809999998,54.07911630000001],[81.3225152,54.09099380000001],[81.2765163,54.080843599999994],[81.25362450000002,54.089697699999995],[81.2389394,54.0860263],[81.2107083,54.1170922],[81.14795050000001,54.1099345],[81.1419418,54.1116139],[81.1339366,54.1178343],[81.1204226,54.1416921],[81.11216040000001,54.16542820000001],[81.09451980000001,54.19077620000001],[81.01132190000001,54.2646594],[80.99177879999999,54.294529100000005],[80.9517095,54.375622],[80.8197509,54.34382479999999],[80.8428541,54.3025945],[80.86128350000001,54.25782339999999],[80.8693955,54.24841990000001],[80.82558839999999,54.2356466],[80.80922600000001,54.2536387],[80.798921,54.2561972],[80.70491070000001,54.2210295],[80.67477269999998,54.20260580000001],[80.66166540000002,54.187530300000006],[80.64763420000001,54.1864952],[80.62866709999999,54.2018099],[80.5396103,54.173189300000004],[80.5721549,54.130300500000004],[80.51817779999999,54.1032984],[80.4923158,54.1028776],[80.46402740000002,54.118593800000006],[80.35491360000002,54.0819177],[80.31496170000001,54.059889899999995],[80.2305322,54.037182],[80.2214984,54.0458931],[80.2026088,54.080795200000004],[80.0673712,54.0489565],[80.08068340000001,54.016824799999995],[80.0938451,54.0054735],[80.11843109999998,53.9941091],[80.09460750000001,53.990094],[80.0248466,53.9653897],[80.02679029999999,53.9617315],[79.9604571,53.9437625],[79.96612220000002,53.935399800000006],[79.9031812,53.918782900000004],[79.89882779999999,53.925448],[79.864882,53.915029],[79.8775131,53.898675000000004],[79.8497852,53.8911316],[79.8878,53.842111],[79.77718060000001,53.8125435],[79.759116,53.835548],[79.6664182,53.810318900000006],[79.66895699999999,53.806602],[79.623823,53.794588000000005],[79.63874499999999,53.775449],[79.6421415,53.77603310000001],[79.63971409999999,53.743749],[79.42194,53.67821200000001],[79.41187300000001,53.67927],[79.412441,53.68384399999999],[79.385613,53.710239],[79.29911900000002,53.703933000000006],[79.257992,53.677366],[79.12259699999998,53.674433],[79.08817499999999,53.69829500000001],[79.040761,53.652731],[78.94220900000002,53.676688],[78.792326,53.658405],[78.707781,53.630925000000005],[78.69012900000001,53.65182109999999],[78.6153235,53.6369285],[78.63686609999999,53.59935220000001],[78.65111970000001,53.5822918],[78.64507289999999,53.5733296],[78.645884,53.512537900000005],[78.57970069999999,53.512120200000005],[78.5805568,53.5008758],[78.57548189999999,53.495045000000005],[78.559285,53.497744399999995],[78.56230829999998,53.503467199999996],[78.5230038,53.5123212],[78.51814460000001,53.521391200000004],[78.52624279999999,53.52819390000001],[78.5248391,53.5300296],[78.50767040000001,53.52625020000001],[78.50248739999999,53.528409700000005],[78.5082105,53.518151800000005],[78.5025957,53.5110253],[78.49411940000003,53.5085417],[78.4229611,53.5132922],[78.4217198,53.4861898],[78.3805053,53.4862553],[78.37645309999999,53.4828303],[78.377425,53.477431499999994],[78.3645362,53.475295100000004],[78.35232649999999,53.47530570000001],[78.2925541,53.495356400000006],[78.2697168,53.4896322],[78.2531969,53.4997643],[78.2660451,53.5102552],[78.23588679999999,53.535750400000005],[78.23221530000001,53.54752],[78.23804609999999,53.55140719999999],[78.23329500000001,53.552595000000004],[78.23162010000001,53.6170579],[78.2021417,53.622996500000006],[78.15689849999998,53.6217005],[78.15716920000001,53.586067699999994],[78.1037194,53.5857434],[78.10789129999999,53.576234],[77.9928251,53.576564499999996],[77.993041,53.579911800000005],[77.95848769999999,53.5815313],[77.94185900000002,53.574080599999995],[77.91578799999999,53.571123300000004],[77.91173330000001,53.5505412],[77.91216550000001,53.534344499999996],[77.93176430000001,53.503354900000005],[77.9627776,53.4872726],[77.9788435,53.4916936],[78.00443460000001,53.48780659999999],[78.0137749,53.4803562],[78.07240769999999,53.47323],[78.07294809999998,53.448934900000005],[78.069061,53.4393248],[77.9224486,53.4487165],[77.91681090000002,53.4199957],[77.93786690000002,53.414488899999995],[77.9374353,53.398400300000006],[77.96452210000001,53.3915661],[77.9488007,53.38489349999999],[77.9345778,53.357522499999995],[77.8889532,53.3671942],[77.9065061,53.291410000000006]]]}}