{"type":"Feature","properties":{"regionId":"omskaya_oblast","name":"Омская область","name:en":"Omsk Oblast","timezone":"Asia/Omsk","name_ru":"Омская область","name_en":"Omsk Oblast","name_zh":"鄂木斯克州"},"geometry":{"type":"MultiPolygon","coordinates":[[[[70.80811360000001,56.3618725],[70.8005974,56.3639419],[70.7823629,56.362045],[70.7586702,56.38163639999999],[70.753041,56.38144489999999],[70.76052570000002,56.38781699999999],[70.7651486,56.3830119],[70.77480320000001,56.38149709999999],[70.7859044,56.3973906],[70.78662770000001,56.4034991],[70.82341279999999,56.398514000000006],[70.80811360000001,56.3618725]]],[[[70.79536940000001,55.929565200000006],[70.76032450000001,55.929521900000005],[70.70243109999998,55.9531257],[70.7445775,55.95960769999999],[70.79490620000001,55.9550704],[70.79722190000003,55.9543789],[70.79536940000001,55.929565200000006]]],[[[70.82217179999998,56.0460055],[70.82086179999999,56.0131889],[70.80557869999998,55.9846193],[70.73964310000001,55.9797336],[70.72370509999999,56.013555000000004],[70.7547079,56.0328334],[70.75492620000001,56.046980999999995],[70.82217179999998,56.0460055]]],[[[75.68877719999998,54.12262520000001],[75.5981075,54.09879260000001],[75.52901320000001,54.115068],[75.37558499999999,54.070104300000004],[75.4351924,54.00948439999999],[75.44080720000001,54.0084667],[75.44106730000001,53.97233250000001],[75.4108585,53.97231820000001],[75.41094490000002,53.95964179999999],[75.37746209999999,53.9595564],[75.3316828,53.942316000000005],[75.29364790000001,53.920539000000005],[75.26612630000001,53.909660499999994],[75.21746290000002,53.876105],[75.1599835,53.848176900000006],[75.1483519,53.84688369999999],[75.13650729999999,53.836739300000005],[75.0465813,53.79269670000001],[75.0303555,53.79587090000001],[75.0263695,53.802818900000005],[74.98414350000002,53.811585599999994],[74.97405950000001,53.8226286],[74.88579999999999,53.823100000000004],[74.8569,53.8184],[74.79460000000002,53.8245],[74.7751,53.7834],[74.76320000000001,53.743700000000004],[74.67369999999998,53.755300000000005],[74.6426,53.6724],[74.6335,53.669000000000004],[74.4584161,53.69093220000001],[74.42103809999999,53.593317000000006],[74.45150000000001,53.5889],[74.4485451,53.5808938],[74.4875408,53.575577100000004],[74.4865,53.5694],[74.4533213,53.53784449999999],[74.3905984,53.4559828],[74.29145120000001,53.4914903],[74.30473599999999,53.5177632],[74.2684976,53.52363330000001],[74.2868504,53.56077830000001],[74.2346928,53.5696698],[74.24262480000002,53.587955900000004],[74.16293599999999,53.6013833],[74.14710000000001,53.5558],[74.052604,53.56651780000001],[74.0717464,53.62958590000001],[73.90114700000001,53.65122139999999],[73.82134529999999,53.578387],[73.74792570000002,53.607072200000005],[73.6667641,53.613281699999995],[73.6455058,53.552916],[73.594035,53.559313800000005],[73.5801762,53.5196169],[73.438715,53.4354965],[73.3625009,53.4674741],[73.38711550000001,53.488732000000006],[73.3978845,53.52215180000001],[73.3460793,53.5341068],[73.34682420000001,53.54319830000001],[73.3417,53.544799999999995],[73.2384251,53.5675771],[73.2513742,53.5978506],[73.27771209999999,53.6395515],[73.25540779999999,53.6412488],[73.2530578,53.674061699999996],[73.32272069999999,53.676073800000005],[73.3417793,53.71788779999999],[73.35556809999999,53.76615960000001],[73.3427,53.78810000000001],[73.40129660000002,53.79301030000001],[73.44913020000001,53.8073197],[73.4291613,53.8230341],[73.42924140000001,53.848179],[73.4530853,53.8760982],[73.5716712,53.869127],[73.6910819,53.85606609999999],[73.7493,53.995200000000004],[73.7678789,54.05382149999999],[73.70011560000002,54.048838200000006],[73.70366040000002,54.06595490000001],[73.63003479999999,54.0709236],[73.65797269999999,54.046379],[73.60962430000001,54.008405100000004],[73.5781459,54.01448009999999],[73.51879819999999,54.0032498],[73.5219911,53.96535260000001],[73.5374,53.9499],[73.53750000000001,53.9462],[73.5225,53.9399],[73.5104,53.937799999999996],[73.4586309,53.963691399999995],[73.4045061,53.97850880000001],[73.40350000000001,53.9452],[73.3,53.9431],[73.28450000000001,53.949999999999996],[73.1991819,53.96931610000001],[73.0669683,53.985537],[73.07220829999999,54.0300432],[73.05773289999999,54.0320017],[73.0596813,54.0401499],[72.9786593,54.04948699999999],[72.99458090000002,54.09841200000001],[72.83167420000001,54.0979842],[72.82566609999999,54.1206774],[72.72374429999999,54.123115800000015],[72.6087934,54.1368406],[72.61285099999999,54.12195880000001],[72.56020000000001,54.1164],[72.5309,54.043],[72.5648,54.0392],[72.57169999999999,54.050999999999995],[72.5964,54.0461],[72.67439999999999,54.0449],[72.71460000000002,54.007],[72.7052,53.9565],[72.6931,53.9554],[72.556,53.9797],[72.49326990000003,53.90346939999999],[72.43050000000001,53.9141],[72.37519999999999,53.9462],[72.41680000000001,53.987399999999994],[72.4298,54.0247],[72.43310000000001,54.0447],[72.3977,54.05],[72.4068,54.0746],[72.3712,54.081799999999994],[72.37889999999999,54.1054],[72.4327,54.1011],[72.4393,54.1182],[72.5054,54.111599999999996],[72.51750000000001,54.1406],[72.44060000000002,54.145500000000006],[72.4003,54.154399999999995],[72.3092,54.1892],[72.3379479,54.2458094],[72.29140000000001,54.2498],[72.29950000000001,54.290400000000005],[72.2958,54.3003],[72.2828,54.31079999999999],[72.2007905,54.35339449999999],[72.0126,54.3693],[72.0424,54.3411],[72.0443,54.3358],[72.042,54.3249],[72.0756,54.328500000000005],[72.0835,54.326],[72.1046,54.3101],[72.12629999999999,54.3065],[72.13279999999999,54.302],[72.1347,54.29650000000001],[72.1315,54.27590000000001],[72.1161,54.2764],[72.1119,54.270900000000005],[72.1018,54.240100000000005],[72.09750000000001,54.2148],[72.17239999999998,54.194900000000004],[72.21010000000001,54.1815],[72.2255,54.1801],[72.1832,54.127],[72.17429999999999,54.12230000000001],[72.10079999999999,54.145900000000005],[72.1105,54.160500000000006],[72.1113,54.1702],[72.07379999999999,54.1801],[72.0765,54.185700000000004],[72.05760000000001,54.193200000000004],[72.0617,54.200500000000005],[71.95120000000001,54.2413],[71.93480000000001,54.226400000000005],[71.91340000000001,54.22690000000001],[71.82369999999999,54.238800000000005],[71.7555,54.2522],[71.7265,54.184599999999996],[71.7669,54.1468],[71.72269999999999,54.1038],[71.67559999999999,54.10830000000001],[71.6749,54.0976],[71.6199,54.0972],[71.6118,54.1145],[71.4899,54.097100000000005],[71.49040000000001,54.1566],[71.3882,54.163900000000005],[71.3876,54.179],[71.29740000000001,54.182700000000004],[71.2771,54.1472],[71.17639999999999,54.0917],[71.12599999999999,54.1266],[71.13529999999999,54.1598],[71.1048,54.162000000000006],[71.1105,54.1834],[71.0556,54.188],[71.0563,54.202400000000004],[71.0732,54.20210000000001],[71.0736,54.27230000000001],[70.99990000000001,54.27250000000001],[71.0017,54.3084],[70.9983,54.3338],[71.112,54.3326],[71.1113,54.3191],[71.1999,54.3077],[71.20710000000001,54.3273],[71.1979,54.3284],[71.1975,54.3501],[71.2267,54.349399999999996],[71.23420000000002,54.402100000000004],[71.2003,54.4029],[71.20490000000001,54.4585],[71.17389999999999,54.4571],[71.17229999999998,54.541799999999995],[71.16879999999999,54.5645],[71.17239999999998,54.5734],[71.21130000000001,54.606700000000004],[71.2884,54.6016],[71.2893,54.645700000000005],[71.29360000000001,54.6662],[71.24090000000001,54.665600000000005],[71.2389,54.6861],[71.21100000000001,54.6866],[71.2103,54.7019],[71.0984,54.699400000000004],[71.0956,54.704],[71.09920000000001,54.7136],[71.08269999999999,54.724900000000005],[71.0726,54.7396],[71.0355,54.7742],[71.0289,54.79860000000001],[71.0126,54.8131],[71.02869999999999,54.8246],[71.0222,54.8499],[70.99460000000002,54.858399999999996],[70.96010000000001,54.8859],[70.99660000000002,54.932100000000005],[71.003,54.95459999999999],[71.0092,54.96510000000001],[70.9804,54.9817],[70.9963,54.98779999999999],[70.9957,55.0067],[71.00720000000001,55.018100000000004],[71.00829999999999,55.0406],[71.00569999999999,55.0505],[70.99160000000002,55.0509],[70.9924,55.066900000000004],[71.0245,55.0825],[70.9248,55.125600000000006],[70.9298,55.164],[70.8819,55.1801],[70.82229999999998,55.2519],[70.8043,55.269400000000005],[70.82669999999999,55.2779],[70.8161,55.288000000000004],[70.6996,55.287],[70.6241,55.2503],[70.47800289999999,55.272942500000006],[70.4751161,55.2817114],[70.46119770000001,55.285825900000006],[70.48661450000002,55.29793290000001],[70.4987393,55.330814499999995],[70.45650040000001,55.392328000000006],[70.43959570000001,55.407524599999995],[70.53661060000002,55.47815330000001],[70.56696000000001,55.4938692],[70.63691940000001,55.49852010000001],[70.67337259999998,55.49052890000001],[70.71982380000001,55.5598555],[70.75697229999999,55.5847221],[70.7539967,55.6090541],[70.71009190000001,55.625407],[70.64543029999999,55.6247734],[70.5634571,55.650732100000006],[70.53172550000001,55.69437260000001],[70.54186960000003,55.736887599999996],[70.5878374,55.76459220000001],[70.58240579999999,55.7674682],[70.58936360000001,55.7720245],[70.5504867,55.79174890000001],[70.56111220000001,55.8022403],[70.6460123,55.81106919999999],[70.64724910000001,55.79973650000001],[70.6980626,55.8001493],[70.7486881,55.825476300000005],[70.7782347,55.82468459999999],[70.82871289999999,55.8346168],[70.75714070000001,55.855256399999995],[70.67839959999999,55.8423256],[70.6025653,55.837172900000006],[70.58578739999999,55.8229014],[70.52476460000001,55.8417957],[70.4717396,55.851273199999994],[70.4737742,55.8667273],[70.4814712,55.8697935],[70.4806123,55.9059668],[70.5879412,55.9053886],[70.579544,55.910326399999995],[70.8085397,55.9026219],[70.8674118,55.962189],[70.89874139999999,56.067522800000006],[70.91382850000001,56.085713000000005],[70.90159860000001,56.084211499999995],[70.90236560000001,56.1122831],[70.87912879999999,56.146069499999996],[70.8614887,56.1404026],[70.80617649999999,56.1863144],[70.8236224,56.19544220000001],[70.81455410000001,56.21831060000001],[70.8002424,56.2115164],[70.7737265,56.2124171],[70.73222870000001,56.2531271],[70.78884649999999,56.271192500000005],[70.85189390000001,56.30179749999999],[70.94841660000002,56.3048357],[70.9394683,56.31684409999999],[70.9282427,56.3170539],[70.9123933,56.353903499999994],[70.92746620000001,56.3792339],[70.87706560000001,56.3873557],[70.87100749999999,56.403316700000005],[70.84106290000001,56.409388],[70.8406353,56.418571],[70.81265570000001,56.44257030000001],[70.79118640000002,56.4164573],[70.7354584,56.4245891],[70.8010868,56.4513167],[70.89465380000001,56.4615931],[70.92630340000001,56.45447729999999],[70.9841329,56.46223630000001],[71.01258279999999,56.4889867],[71.0845983,56.524165700000005],[71.1136887,56.624042900000006],[71.0128491,56.64515260000001],[71.02038239999999,56.6829541],[71.07576619999999,56.6910852],[71.1205262,56.65295530000001],[71.2259169,56.6445573],[71.2638433,56.656552600000005],[71.2956911,56.63810800000001],[71.3389527,56.63206230000001],[71.3698867,56.631768],[71.39222740000001,56.647584499999994],[71.38956320000001,56.66393790000001],[71.38189799999999,56.67887890000001],[71.43415090000002,56.682176600000005],[71.44900940000002,56.67641230000001],[71.5537291,56.6702905],[71.5766217,56.7112751],[71.5813706,56.7434917],[71.56558849999999,56.752900600000004],[71.598779,56.7577443],[71.6305166,56.755331600000005],[71.67732889999999,56.76522320000001],[71.63838479999998,56.880990499999996],[71.604991,56.932928800000006],[71.29729640000002,57.085244499999995],[71.2294102,57.1746569],[71.21527300000001,57.1711415],[71.1860098,57.19519900000001],[71.1156045,57.20239780000001],[71.1057836,57.217461899999996],[71.0818571,57.23435560000001],[71.0860152,57.23580930000001],[71.0828842,57.242729800000006],[71.07050799999999,57.258979200000006],[71.08952980000001,57.2579026],[71.0950104,57.2873797],[71.0529049,57.29357540000001],[71.0592438,57.333943399999995],[71.06500869999999,57.3508922],[71.0186857,57.356162399999995],[71.01329050000001,57.345590800000004],[70.9746343,57.351551799999996],[70.98109840000001,57.367341599999996],[70.99789290000001,57.370088499999994],[71.0068122,57.377302900000004],[70.9832171,57.3871052],[70.9797208,57.3797738],[70.9486478,57.38368559999999],[70.94499520000002,57.37271880000001],[70.92377979999999,57.35492709999999],[70.8451957,57.3647259],[70.84063950000001,57.376994499999995],[70.83711440000002,57.3784211],[70.82287879999997,57.3765762],[70.8156076,57.36517800000001],[70.7867952,57.3649791],[70.77705350000001,57.3564951],[70.7680548,57.354133399999995],[70.7751119,57.34388419999999],[70.7638688,57.34179399999999],[70.76612600000001,57.334180599999996],[70.7761977,57.3267879],[70.7748974,57.3243016],[70.75867179999999,57.317596099999996],[70.73414000000001,57.321822],[70.72984849999999,57.3163588],[70.7320208,57.306433],[70.7124095,57.298401600000005],[70.73121280000001,57.29117010000001],[70.73490290000001,57.2866992],[70.75831,57.2849498],[70.7782565,57.27730220000001],[70.78082260000001,57.275989],[70.7785614,57.2648232],[70.76574699999999,57.26411990000001],[70.75375229999999,57.250143300000005],[70.7173401,57.232867399999996],[70.73361220000001,57.212013500000005],[70.7086433,57.21229030000001],[70.70287599999999,57.201682999999996],[70.68925300000001,57.19955670000001],[70.6664831,57.2022675],[70.653759,57.19899780000001],[70.62157699999999,57.209976700000006],[70.61665440000002,57.20503080000001],[70.58193209999999,57.2056695],[70.5875309,57.22384590000001],[70.60802249999999,57.226605500000005],[70.62927499999999,57.2342881],[70.6065416,57.280058100000005],[70.5693951,57.272276600000005],[70.53071709999999,57.27525830000001],[70.5206687,57.286626399999996],[70.45883049999999,57.282399100000006],[70.37234919999999,57.329436900000005],[70.36921340000002,57.3720481],[70.41823560000002,57.41511390000001],[70.57834989999999,57.45804699999999],[70.58755380000001,57.476986],[70.62211479999999,57.495699],[70.63284809999998,57.501159],[70.6856931,57.515540900000005],[70.69020060000001,57.553786599999995],[70.681918,57.574277699999996],[70.67528739999999,57.5712228],[70.6577207,57.5849106],[70.6464442,57.5882993],[70.6239552,57.5884431],[70.59886420000001,57.5772224],[70.55654799999999,57.7197809],[70.4780059,57.73519210000001],[70.47546009999999,57.7688876],[70.39233579999998,57.7824647],[70.43035809999999,57.842975900000006],[70.4222414,57.8436783],[70.42035179999999,57.8466239],[70.42529320000001,57.860841799999996],[70.4247911,57.8730036],[70.4158577,57.8770756],[70.4026468,57.8776151],[70.4266585,57.893274],[70.4051085,57.9029205],[70.39156330000002,57.8897569],[70.38294839999999,57.88738479999999],[70.36210179999999,57.8966919],[70.35838159999999,57.901292999999995],[70.3798035,57.915815300000006],[70.3675561,57.920509],[70.37709629999999,57.94044039999999],[70.3832332,57.9388898],[70.39534669999999,57.9454356],[70.40892120000001,57.94728609999999],[70.41745320000003,57.945063399999995],[70.4270015,57.9374599],[70.439796,57.938788800000005],[70.44046800000001,57.94480459999999],[70.43041340000002,57.9521643],[70.85043859999999,58.527528800000006],[70.85483049999999,58.5297805],[70.870273,58.5270711],[70.8702067,58.53257370000001],[70.8819464,58.528924800000006],[70.89096450000001,58.5319704],[70.89398940000001,58.5306096],[70.8898095,58.5294425],[70.89507099999999,58.52793020000001],[70.89852900000001,58.5307946],[70.90117660000001,58.52630690000001],[70.91250970000002,58.530480999999995],[70.9263283,58.53008739999999],[70.92843169999999,58.52879850000001],[70.91912180000001,58.52499890000001],[70.92487009999999,58.52597960000001],[70.9307059,58.5228672],[70.94850440000002,58.52841420000001],[70.9473878,58.5242839],[70.9389988,58.521562100000004],[70.94439860000001,58.5178592],[70.93950040000001,58.5145827],[70.94766620000003,58.51406099999999],[70.95092060000002,58.5107279],[70.9649382,58.5147165],[70.9653241,58.5086294],[70.96123320000002,58.504783599999996],[70.97388149999999,58.506284699999995],[70.9713902,58.504725900000004],[70.97811960000001,58.50339090000001],[70.9757137,58.50006439999999],[70.98416830000001,58.503486499999994],[71.00276960000001,58.502419],[71.00706930000001,58.5052772],[71.0132328,58.5009276],[71.01432700000001,58.5044319],[71.01962940000003,58.503108600000004],[71.0256616,58.50877570000001],[71.0294109,58.5069413],[71.03660660000001,58.51213190000001],[71.03647169999999,58.505933000000006],[71.0436775,58.51124049999999],[71.04634370000001,58.506452100000004],[71.05173599999999,58.5115036],[71.05568109999999,58.5041233],[71.06111640000002,58.5082916],[71.06322510000001,58.5077209],[71.06014400000001,58.5030937],[71.0693506,58.5061835],[71.06557509999999,58.5025278],[71.07125470000001,58.4968545],[71.0732945,58.499754200000005],[71.071101,58.503513700000006],[71.07378299999999,58.5049626],[71.08024960000002,58.50217500000001],[71.0762989,58.4994662],[71.0843419,58.49645530000001],[71.07688499999999,58.4943961],[71.0838267,58.49320290000001],[71.08350940000001,58.4899595],[71.0791133,58.489675399999996],[71.0830943,58.4856498],[71.0795667,58.484492599999996],[71.0801951,58.480056999999995],[71.0923056,58.4834709],[71.0885197,58.476553700000004],[71.100723,58.479306900000005],[71.0958526,58.4770548],[71.1041641,58.4708581],[71.11069990000001,58.47704399999999],[71.1152973,58.476958700000004],[71.1081193,58.4700736],[71.11724330000001,58.4638354],[71.11518779999999,58.4611516],[71.12071679999998,58.45946119999999],[71.11362300000002,58.4559882],[71.12254449999999,58.454849399999986],[71.1171759,58.45146209999999],[71.11119520000001,58.454671899999994],[71.1101555,58.4520194],[71.10003049999999,58.45186369999999],[71.10681679999999,58.4468523],[71.09822000000001,58.44888099999999],[71.1021255,58.4461818],[71.09663400000001,58.4462532],[71.0985843,58.4426396],[71.09126250000001,58.4403792],[71.1056352,58.4386724],[71.09594709999999,58.4371536],[71.1013695,58.4352735],[71.0990061,58.4315851],[71.1018293,58.4278089],[71.107108,58.4323734],[71.1120462,58.4303607],[71.1110754,58.434179],[71.12504819999998,58.43270690000001],[71.12292709999998,58.4379192],[71.1295598,58.4408421],[71.1345476,58.4394362],[71.134638,58.4420492],[71.13977509999998,58.4420853],[71.1441618,58.446235300000005],[71.1473111,58.438312300000014],[71.1516905,58.442596800000004],[71.16537149999998,58.441161099999995],[71.16166050000001,58.4347233],[71.1697306,58.437705300000005],[71.16800119999999,58.4340528],[71.17145839999999,58.4319406],[71.16865179999999,58.4299643],[71.1786856,58.427852200000004],[71.17573409999997,58.42320290000001],[71.18028629999999,58.4258045],[71.17981689999999,58.42313370000001],[71.19585009999999,58.41963139999999],[71.20919460000002,58.423720100000004],[71.2153967,58.42110890000001],[71.2197583,58.4244913],[71.22433819999999,58.420506700000004],[71.2360302,58.4188427],[71.23007249999999,58.415776900000004],[71.2359148,58.415451399999995],[71.23263370000001,58.412896599999996],[71.2421403,58.4081465],[71.24718190000002,58.4080624],[71.24869330000001,58.41164299999999],[71.25533149999998,58.40675220000001],[71.26262820000001,58.410575],[71.25983360000001,58.407463699999994],[71.26321770000001,58.405710000000006],[71.2664051,58.408778100000006],[71.2700038,58.4056105],[71.27257179999998,58.409243599999996],[71.2734447,58.4049901],[71.2743441,58.407801899999995],[71.27987259999999,58.40528139999999],[71.2837837,58.4071428],[71.2823279,58.40513520000001],[71.2884655,58.400609599999996],[71.29386190000001,58.4004083],[71.2920826,58.3976578],[71.29530779999999,58.3967478],[71.28954360000002,58.39503800000001],[71.2929529,58.39033190000001],[71.3047257,58.3909175],[71.30459970000001,58.38756539999999],[71.2997162,58.3871724],[71.30082300000001,58.3843927],[71.3059274,58.3866452],[71.3115762,58.3834537],[71.30834799999998,58.3825849],[71.31192960000003,58.3802329],[71.30843079999998,58.3776429],[71.31547889999999,58.374502],[71.3116413,58.3727449],[71.3066141,58.3756166],[71.30137549999999,58.3729579],[71.30420860000001,58.370661999999996],[71.29650300000002,58.3701853],[71.30172370000001,58.36515980000001],[71.295041,58.3669619],[71.29123040000002,58.361633999999995],[71.29493330000001,58.358914399999996],[71.2937394,58.352085699999996],[71.27839089999999,58.3505525],[71.27672869999999,58.343538900000006],[71.2590208,58.340336900000004],[71.25112610000001,58.333235300000005],[71.2378378,58.3278587],[71.2059651,58.1121645],[71.2209472,58.1000297],[71.23425350000002,58.09421530000001],[71.2311783,58.0875428],[71.2208623,58.085258100000004],[71.20715320000002,58.0761947],[71.21424410000002,58.068815400000005],[71.2080967,58.06501610000001],[71.21264740000001,58.0610348],[71.2135228,58.0531576],[71.2234764,58.055329],[71.25673599999999,58.05168719999999],[71.27204689999999,58.05366649999999],[71.280177,58.059424799999995],[71.3156611,58.0675839],[71.31822920000002,58.0699394],[71.3158974,58.0723636],[71.3267946,58.0777791],[71.33995300000001,58.0745724],[71.38979609999998,58.0780663],[71.4031738,58.0642095],[71.4151343,58.06665520000001],[71.43183560000001,58.0619626],[71.4534376,58.06261570000001],[71.4665978,58.0645946],[71.4844968,58.0729205],[71.49117120000001,58.0742256],[71.49968040000002,58.0706613],[71.5183964,58.0775904],[71.54431090000001,58.0748511],[71.99019590000002,58.115843399999996],[72.0198307,58.1071971],[72.04346400000001,58.104739],[72.0452709,58.101261199999996],[72.0673548,58.096673200000005],[72.076195,58.0896146],[72.08990560000001,58.0863348],[72.093538,58.0811113],[72.09145370000002,58.0746167],[72.10088119999999,58.06625880000001],[72.1045855,58.0535284],[72.16715640000001,58.014697899999994],[72.3212889,58.00818530000001],[72.74641340000002,58.000739900000006],[72.8115362,57.9967477],[72.8276682,58.002817300000004],[72.86277689999999,58.0006748],[72.87576219999998,58.0045402],[72.87555839999999,58.0090825],[72.88755040000001,58.0125635],[72.883494,58.0146385],[72.8871678,58.0163626],[72.88531219999999,58.0181235],[72.89464520000001,58.02083580000001],[72.8925941,58.02448439999999],[72.90652070000002,58.031435],[72.90794090000001,58.03913190000001],[72.9150575,58.0399877],[72.91621490000003,58.0435296],[72.924171,58.0428017],[72.9213001,58.0439986],[72.93157980000001,58.0511986],[72.9321372,58.0577781],[72.95096460000002,58.05960399999999],[72.9478488,58.063476],[72.9502587,58.06591270000001],[72.94651460000003,58.06751320000001],[72.9480486,58.0699634],[73.12828749999998,58.1553042],[73.50056390000002,58.143468],[74.2196308,58.1362977],[74.4554941,58.24203270000001],[74.56779709999999,58.276527900000005],[74.57712550000001,58.2760244],[74.58540699999999,58.2813291],[74.6271845,58.287328900000006],[74.64235279999998,58.3028437],[74.63742660000001,58.3045386],[74.64073049999999,58.31008639999999],[74.6272897,58.3098157],[74.63959879999999,58.311958499999996],[74.6358542,58.315499499999994],[74.6421677,58.31588429999999],[74.6394635,58.3191069],[74.64632340000001,58.323725700000004],[74.63675269999999,58.3224978],[74.6398943,58.325209300000004],[74.63567009999998,58.325275700000006],[74.64162660000002,58.3296576],[74.6478375,58.3287014],[74.64752760000002,58.33124459999999],[74.66303219999999,58.330573300000005],[74.6646185,58.3352041],[74.6579833,58.33613020000001],[74.66361,58.342358000000004],[74.6595243,58.343936],[74.67346479999999,58.348164],[74.67348219999998,58.3517058],[74.6795559,58.351509099999994],[74.66966930000001,58.35629539999999],[74.67892259999999,58.35384679999999],[74.68372529999999,58.35909049999999],[74.8061447,58.4100528],[74.8131084,58.40815860000001],[74.82719440000001,58.4133704],[74.82674909999999,58.41544939999999],[74.8751034,58.4211487],[74.8843189,58.4250946],[74.8920117,58.422951600000005],[74.89710960000002,58.427564499999995],[74.91178310000001,58.42801620000001],[74.91038920000001,58.43726409999999],[74.91741910000002,58.445658900000005],[74.91126670000003,58.453955900000004],[74.9138975,58.458808999999995],[74.9505583,58.47219390000001],[74.95662490000002,58.48108469999999],[74.9497758,58.490866399999994],[74.95110620000001,58.4935862],[75.10823749999999,58.5762449],[75.37683509999998,58.4541007],[75.2549651,58.4173506],[75.05666450000001,58.339153200000005],[75.2424887,58.202614800000006],[75.071473,58.116792800000006],[75.302963,58.0268041],[75.4988351,57.9604112],[75.5657616,57.9345851],[75.57608249999998,57.878807099999996],[75.55003909999999,57.62521850000001],[75.70412450000002,57.6249966],[75.8482675,57.385800499999995],[75.9654111,57.393694399999994],[76.09501460000001,57.235533300000014],[76.14025500000001,57.1129637],[76.18389699999999,56.9682808],[76.19503239999999,56.9433207],[76.26054340000002,56.88458609999999],[76.2508941,56.8511822],[76.25377069999999,56.84756339999999],[76.2504306,56.8358721],[76.24054890000001,56.826137700000004],[76.26100900000002,56.8185207],[76.2891273,56.696968000000005],[76.17861599999999,56.6534493],[76.15272809999998,56.638788600000005],[76.16683239999999,56.62691170000001],[76.166647,56.618004],[76.1464189,56.617911],[76.10466380000001,56.6106733],[76.0382329,56.6178305],[76.0169786,56.5691034],[75.96204879999999,56.50749139999999],[75.8551555,56.4967271],[75.83594849999999,56.4790043],[75.84123760000001,56.4742721],[75.84030990000001,56.466385100000004],[75.84903229999999,56.4604468],[75.84606300000002,56.458127],[75.8480117,56.456085599999994],[75.8382689,56.4526524],[75.8352069,56.4482913],[75.84293179999999,56.4438143],[75.84327990000001,56.4372032],[75.8329574,56.4258365],[75.83132990000001,56.417848299999996],[75.8556205,56.4012653],[75.8624409,56.4069555],[75.85757679999999,56.40897390000001],[75.85752390000002,56.41312739999999],[75.8658247,56.4150578],[75.87134979999999,56.4108167],[75.8800736,56.4161545],[75.88039079999999,56.42051200000001],[75.8918375,56.4214331],[75.8934501,56.4158913],[75.8999004,56.4141803],[75.9051347,56.42391860000001],[75.91322410000002,56.4277635],[75.90011190000001,56.430847899999996],[75.9005613,56.434034399999994],[75.91303900000001,56.4320465],[75.91602620000002,56.4352914],[75.912431,56.4406257],[75.91964790000002,56.4409472],[75.9253052,56.446047099999994],[75.9424091,56.4484287],[75.94952040000003,56.4463685],[75.93926330000002,56.4443959],[75.9404793,56.4407573],[75.95047209999998,56.43853590000001],[75.95425240000002,56.4466169],[75.96606920000002,56.4449366],[75.96625270000001,56.44728119999999],[75.9584185,56.4500108],[75.9729293,56.457092599999996],[75.9715758,56.4613577],[75.9826101,56.46557270000001],[75.9850422,56.46447739999999],[75.9839583,56.459248599999995],[75.98808229999999,56.4639954],[75.99447980000001,56.463382],[75.99190520000002,56.4583576],[75.99706340000003,56.4547522],[75.99944260000001,56.462450000000004],[76.01213179999999,56.4599232],[76.0020598,56.4543578],[76.012687,56.453379],[76.007532,56.44784189999999],[76.0102813,56.4454602],[76.0210273,56.445539000000004],[76.01526690000001,56.45156099999999],[76.01822970000002,56.454791799999995],[76.02347739999999,56.4483404],[76.02779779999999,56.4487144],[76.028289,56.45364469999999],[76.0188459,56.455881999999995],[76.0212427,56.4611235],[76.02798809999999,56.4609991],[76.02832819999999,56.457187299999994],[76.03719760000001,56.45763099999999],[76.04723750000001,56.464172700000006],[76.08046360000002,56.455988],[76.07790729999999,56.4480221],[76.09077289999999,56.448726],[76.0855948,56.4441966],[76.0866025,56.4414148],[76.10800769999999,56.446056],[76.1196275,56.4354965],[76.12513709999998,56.41768979999999],[76.0924991,56.42530970000001],[76.05593479999999,56.416087999999995],[76.07845289999999,56.4024705],[76.0838147,56.386064899999994],[76.0812427,56.325374800000006],[76.0983998,56.299962400000005],[76.0789916,56.297496],[76.07877729999997,56.29299250000001],[76.1022602,56.290312000000014],[76.12670849999998,56.268223600000006],[76.1705643,56.2813055],[76.2317927,56.2171847],[76.3028854,56.18105],[76.306639,56.1572458],[76.2264331,56.14523590000001],[76.1626331,56.131939300000006],[76.13861440000001,56.121431],[76.12092109999999,56.15488539999999],[76.07213279999998,56.147057499999995],[76.04285960000001,56.150595700000004],[76.01401510000001,56.1636772],[75.9797033,56.12539710000001],[75.9595448,56.11510330000001],[75.7315793,56.11263530000001],[75.7357615,56.099768100000006],[75.68129060000001,56.0729612],[75.6778597,56.0555905],[75.6534124,56.036933000000005],[75.5944372,56.038969800000004],[75.5845725,56.031142200000005],[75.52849249999998,56.0316779],[75.53138829999999,56.008838700000005],[75.51433940000001,55.996722000000005],[75.41837249999999,55.934959],[75.35693169999999,55.913084299999994],[75.3235843,55.897643499999994],[75.2624275,55.844121799999996],[75.265147,55.833414499999996],[75.30385609999999,55.8320209],[75.3329152,55.8126132],[75.3433163,55.8099326],[75.34674779999999,55.800067799999994],[75.3673354,55.805322100000005],[75.36937429999999,55.740664599999995],[75.23019340000002,55.73090590000001],[75.1044151,55.7564248],[75.08801,55.72683020000001],[75.1295074,55.7098888],[75.11288749999999,55.699380500000004],[75.1182489,55.6916603],[75.1154612,55.6859772],[75.1906282,55.6582062],[75.19234399999999,55.655311100000006],[75.24542190000001,55.638262600000004],[75.25635940000001,55.625502800000014],[75.2354501,55.62593150000001],[75.2233335,55.61971230000001],[75.19534719999999,55.6190687],[75.1917016,55.6147796],[75.1849463,55.6133857],[75.17014929999999,55.5979449],[75.1512774,55.593548500000004],[75.1407693,55.583898],[75.18537639999998,55.565991600000004],[75.19577779999997,55.552481199999995],[75.22080179999999,55.5406161],[75.2609003,55.5493235],[75.2751938,55.5486221],[75.2847224,55.557629299999995],[75.2892915,55.5556853],[75.29276920000001,55.54817890000001],[75.31243269999999,55.537969499999996],[75.3216485,55.4979835],[75.2364848,55.475591800000004],[75.1622935,55.4471304],[75.1986273,55.425701100000005],[75.09151550000001,55.3766322],[75.1776611,55.35246059999999],[75.17047749999998,55.3262336],[75.19953629999999,55.32108699999999],[75.20200340000001,55.285166200000006],[75.2278452,55.28270020000001],[75.2751334,55.242490700000005],[75.27534819999998,55.22898020000001],[75.28124580000001,55.22501290000002],[75.2699873,55.211395100000004],[75.2677359,55.19563280000001],[75.293471,55.1711854],[75.2519745,55.1501687],[75.26066040000002,55.1306536],[75.2755652,55.1219684],[75.3120223,55.12775890000001],[75.3143827,55.0669616],[75.3684598,55.067782],[75.4054203,54.999517000000004],[75.40960240000001,54.99093890000001],[75.38183049999999,54.990724300000004],[75.33207889999998,54.911162],[75.3449463,54.902905600000004],[75.44713390000003,54.903120900000005],[75.44252290000001,54.915559200000004],[75.51415080000001,54.913308],[75.51393660000001,54.90108409999999],[75.49056150000001,54.8843566],[75.4968883,54.866020999999996],[75.5289507,54.8032939],[75.5499673,54.79954120000001],[75.54546340000002,54.81680449999999],[75.60379499999999,54.8209868],[75.61119400000001,54.805331800000005],[75.63885859999999,54.81005],[75.68597659999999,54.7046941],[75.68422560000002,54.674746],[75.73662290000001,54.6742937],[75.73627920000001,54.70078290000001],[75.78466030000001,54.694126600000004],[75.79865970000002,54.69817560000001],[75.8088164,54.691724900000004],[75.8005129,54.686578000000004],[75.80291509999999,54.6712061],[75.82460090000001,54.6664024],[75.8368855,54.6390899],[75.8377092,54.62852170000001],[75.8518465,54.6075912],[75.84464100000001,54.602169800000006],[75.82707289999999,54.59935600000001],[75.8040329,54.54015230000001],[75.6910584,54.5460335],[75.6911977,54.4551743],[75.68680829999998,54.33919830000001],[75.68877719999998,54.12262520000001]]]]}}