{"type":"Feature","properties":{"regionId":"orlovskaya_oblast","name":"Орловская область","name:en":"Oryol Oblast","timezone":"Europe/Moscow","name_ru":"Орловская область","name_en":"Oryol Oblast","name_zh":"奥廖尔州"},"geometry":{"type":"Polygon","coordinates":[[[37.8664693,53.0122167],[37.856313,53.0114057],[37.845237399999995,53.015455200000005],[37.836054399999995,53.0302497],[37.831532,53.0388945],[37.8331285,53.0454255],[37.8186858,53.07203620000001],[37.8226243,53.076883699999996],[37.8311073,53.0796106],[37.8243407,53.086376800000004],[37.76083230000001,53.09932500000001],[37.7509544,53.1074421],[37.754454499999994,53.1138451],[37.7396164,53.119727],[37.734685999999996,53.1274985],[37.6919417,53.115561],[37.67901530000001,53.1075826],[37.652725000000004,53.10517670000001],[37.648876200000004,53.0962576],[37.609804499999996,53.09854190000001],[37.608523500000004,53.12783],[37.58812270000001,53.1492901],[37.57217730000001,53.180551300000005],[37.578121900000006,53.21468109999999],[37.57519220000001,53.238312700000016],[37.5794337,53.241544499999996],[37.5758987,53.24871470000001],[37.5865017,53.2719426],[37.59094520000001,53.273255600000006],[37.590463,53.278939400000006],[37.550044199999995,53.274062900000004],[37.546812700000004,53.27093210000001],[37.5382285,53.2718409],[37.5346939,53.270528000000006],[37.535098100000006,53.2656805],[37.4949041,53.26567980000001],[37.494500300000006,53.261135300000014],[37.48460299999999,53.2678005],[37.47591810000001,53.26421520000001],[37.4736961,53.268355800000016],[37.468242700000005,53.267042800000006],[37.462183100000004,53.27239520000001],[37.45309399999999,53.27350590000001],[37.4654145,53.2796665],[37.46652520000001,53.2832012],[37.46551510000001,53.287038800000005],[37.4567289,53.2901694],[37.425825700000004,53.29602630000001],[37.364221699999995,53.301175900000004],[37.361798,53.300065],[37.365434,53.29127890000001],[37.29272180000001,53.27855300000001],[37.282320000000006,53.27451330000001],[37.261920700000005,53.2595664],[37.2063764,53.255929900000005],[37.1750246,53.26057000000001],[37.16253420000001,53.260895000000005],[37.15812530000001,53.258045100000004],[37.1390042,53.2672779],[37.127045100000004,53.26290710000001],[37.12030080000001,53.271622300000004],[37.110660499999994,53.2708662],[37.1149796,53.27915630000001],[37.09579800000001,53.286152400000006],[37.086486799999996,53.2807665],[37.08551990000001,53.27653530000001],[37.0715258,53.27911540000001],[37.02977510000001,53.2738518],[37.0205544,53.26935880000001],[37.015908800000005,53.2712775],[37.007767099999995,53.2670314],[37.0090412,53.27814480000001],[37.01398939999999,53.285416100000006],[37.0124741,53.29632300000001],[36.996719600000006,53.299251500000004],[36.99619020000001,53.290203500000004],[36.920473,53.2806682],[36.8987605,53.27299260000001],[36.8966397,53.2740025],[36.899063,53.284404499999994],[36.91077739999999,53.294301700000005],[36.8891657,53.289756800000006],[36.85068859999999,53.290463200000005],[36.8320086,53.28619820000001],[36.835543300000005,53.29289990000001],[36.8232194,53.288947900000004],[36.813423099999994,53.29581510000001],[36.799082600000006,53.294603],[36.792821,53.2988445],[36.784136000000004,53.29581460000001],[36.77555120000001,53.31146799999999],[36.776157000000005,53.3155076],[36.74818320000001,53.305913100000005],[36.755656,53.316315200000005],[36.759392600000005,53.3166182],[36.760457,53.32375510000001],[36.734548600000004,53.3282317],[36.73121530000001,53.3437336],[36.717480699999996,53.343127499999994],[36.7177836,53.345753200000004],[36.7097041,53.35150949999999],[36.696878500000004,53.34868159999999],[36.69283880000001,53.351206299999994],[36.69283850000001,53.35847759999999],[36.6833455,53.3581745],[36.67668,53.36231500000001],[36.6958677,53.3704955],[36.70173890000001,53.3828533],[36.696271,53.3866539],[36.69960330000001,53.395036100000006],[36.66819490000001,53.407760399999994],[36.652556800000006,53.409067699999994],[36.647694699999995,53.4150134],[36.635626200000004,53.420219],[36.62699880000001,53.4145663],[36.62285080000001,53.399125100000006],[36.6075285,53.396623399999996],[36.59893420000001,53.38948549999999],[36.579300100000005,53.38478759999999],[36.5732737,53.37705749999999],[36.5475178,53.3760021],[36.5415691,53.3794788],[36.5377097,53.377038999999996],[36.511077799999995,53.389478399999994],[36.4945912,53.388288499999994],[36.4891785,53.390223399999996],[36.49015190000001,53.3934031],[36.48602399999999,53.39838520000001],[36.487624999999994,53.4073032],[36.4686437,53.4228548],[36.468613000000005,53.428989800000004],[36.4523546,53.4314993],[36.4387576,53.4266304],[36.4368917,53.4206742],[36.42869590000001,53.4209669],[36.424100100000004,53.4234706],[36.42706,53.4322276],[36.41138699999999,53.435671],[36.4088095,53.4417724],[36.4028603,53.440780999999994],[36.4019324,53.444221299999995],[36.390371,53.451048099999994],[36.3823077,53.450049899999996],[36.381662199999994,53.4551299],[36.371734599999996,53.4677628],[36.35642909999999,53.4728947],[36.3179259,53.47446469999999],[36.315512700000006,53.4772858],[36.3169967,53.4843079],[36.3235888,53.4997443],[36.310561199999995,53.50994],[36.2878999,53.5175551],[36.3008121,53.536518400000006],[36.297237700000004,53.5491594],[36.2892267,53.553445499999995],[36.263940600000005,53.55468489999999],[36.243259800000004,53.5447457],[36.23171280000001,53.5445457],[36.228511200000014,53.5480076],[36.2373661,53.561818],[36.226766100000006,53.5613471],[36.207978000000004,53.5498969],[36.1739449,53.5393934],[36.145869399999995,53.547674199999996],[36.1316298,53.5467651],[36.1096135,53.5587826],[36.09497,53.559287299999994],[36.0812349,53.569588100000004],[36.06830820000001,53.5695879],[36.06073380000001,53.5734254],[36.060633,53.5694868],[36.048918500000006,53.5611044],[36.030538400000005,53.5602962],[36.0249837,53.567466399999994],[36.0189243,53.5675673],[36.0230647,53.5704456],[36.0157934,53.5730712],[36.0304366,53.57993880000001],[36.02983030000001,53.587412],[36.021447699999996,53.59730890000001],[36.0308396,53.6018536],[36.0369996,53.610235900000006],[36.023467,53.610235700000004],[36.01508439999999,53.6197286],[35.995189100000005,53.6256867],[35.9606372,53.62515550000001],[35.95853520000001,53.632488900000006],[35.9493936,53.638544200000005],[35.95447659999999,53.647132600000006],[35.92530420000001,53.652393700000005],[35.9309705,53.645813800000006],[35.9278267,53.640376800000006],[35.90911210000001,53.6406502],[35.9060492,53.632266300000005],[35.898226300000005,53.629188600000006],[35.8906384,53.6160032],[35.878003,53.607289599999994],[35.875331200000005,53.596265700000004],[35.8458992,53.5893116],[35.8326808,53.59111550000001],[35.82251810000001,53.587646799999995],[35.823591,53.5734397],[35.8091284,53.5642781],[35.8128408,53.5574313],[35.8091748,53.550661999999996],[35.794394600000004,53.53990230000001],[35.794963800000005,53.5247601],[35.772057100000005,53.5059516],[35.753405900000004,53.52232810000001],[35.7238666,53.52240200000001],[35.7112243,53.5187806],[35.70393080000001,53.5262886],[35.69841680000001,53.5208478],[35.684063599999995,53.5193354],[35.70011840000001,53.53012520000001],[35.685123100000006,53.545413700000005],[35.612016000000004,53.538584900000004],[35.62603260000001,53.5383094],[35.6234077,53.534905200000004],[35.6117767,53.5335656],[35.614041099999994,53.5324207],[35.6116128,53.526219700000006],[35.62545360000001,53.528564100000004],[35.623268200000005,53.5238573],[35.59801930000001,53.519562],[35.59245210000001,53.5148362],[35.5838901,53.5133606],[35.58127459999999,53.5075461],[35.578545600000005,53.507640499999994],[35.5786883,53.503542100000004],[35.5814125,53.503218100000005],[35.5807705,53.498868],[35.5845288,53.5000827],[35.58553870000001,53.498184],[35.5760585,53.49550930000001],[35.5793734,53.493349200000004],[35.5734281,53.49252500000001],[35.5758439,53.490393100000006],[35.5672349,53.489644199999994],[35.5670371,53.4869782],[35.5585682,53.4852549],[35.5597377,53.482681799999995],[35.5556426,53.4829504],[35.55676749999999,53.4764756],[35.5509793,53.47550290000001],[35.5522925,53.4736487],[35.5469256,53.4694572],[35.5545998,53.4673948],[35.5519707,53.465707900000005],[35.555996900000004,53.460940900000004],[35.555764599999996,53.454977899999996],[35.5441401,53.44724059999999],[35.5411567,53.4437988],[35.5434534,53.4424893],[35.539579100000005,53.441007299999995],[35.5434243,53.438149200000005],[35.531137300000005,53.428832400000005],[35.5212114,53.4260461],[35.5168347,53.42841030000001],[35.51261590000001,53.4247279],[35.5020297,53.423703],[35.5038972,53.422160600000005],[35.501566,53.422196500000005],[35.5002135,53.425499300000006],[35.5036366,53.4264991],[35.505039100000005,53.4316032],[35.52207230000001,53.428809],[35.5288261,53.4301854],[35.532565500000004,53.4357096],[35.5372821,53.4356008],[35.53333320000001,53.437879699999996],[35.5439379,53.44796939999999],[35.544012800000004,53.456840299999996],[35.52850210000001,53.4439652],[35.4802719,53.445975000000004],[35.478463399999995,53.4497738],[35.4402809,53.4442322],[35.443080699999996,53.440315700000006],[35.4364612,53.43728399999999],[35.439237,53.43513000000001],[35.465751600000004,53.4329066],[35.4637842,53.41811820000001],[35.45016699999999,53.4140088],[35.42610930000001,53.414184799999994],[35.41428899999999,53.40668459999999],[35.4140562,53.3975829],[35.38416169999999,53.397573],[35.3835638,53.3373935],[35.3788117,53.33427759999999],[35.306211499999996,53.3347658],[35.2668241,53.3191397],[35.23983390000001,53.3274709],[35.249071300000004,53.3157496],[35.2557236,53.289914200000005],[35.24933870000001,53.285652000000006],[35.23838090000001,53.280351200000005],[35.2047215,53.2824893],[35.188576100000006,53.2803665],[35.202445700000006,53.2904876],[35.188605200000005,53.2888174],[35.17853610000001,53.285006],[35.17910290000001,53.2822771],[35.158067499999994,53.2814409],[35.159952800000006,53.276999100000005],[35.1410996,53.27912260000001],[35.130985700000004,53.25671630000001],[35.10801020000001,53.2568599],[35.105670100000005,53.22734530000001],[35.1138483,53.2142237],[35.13535090000001,53.197977800000004],[35.1137698,53.18466419999999],[35.117107399999995,53.179894399999995],[35.129951600000005,53.180396],[35.12873800000001,53.1684975],[35.1218838,53.1542301],[35.127382000000004,53.1391476],[35.1529841,53.1432792],[35.16249570000001,53.1419987],[35.160146600000004,53.138924700000004],[35.1746336,53.118336400000004],[35.2166982,53.12721830000001],[35.22365560000001,53.12081890000001],[35.229257800000006,53.1198518],[35.240672,53.1230994],[35.26992380000001,53.108502400000006],[35.2670945,53.1068099],[35.27827020000001,53.0940004],[35.266385500000005,53.0888693],[35.276879300000004,53.081586699999995],[35.29354060000001,53.083175100000005],[35.3251271,53.0793885],[35.295734900000014,53.06242230000001],[35.298220500000006,53.05831590000001],[35.27671630000001,53.052912500000005],[35.2707637,53.0471556],[35.29265600000001,53.041674199999996],[35.2872531,53.03616290000001],[35.28638230000001,53.0219672],[35.26693810000001,53.0189807],[35.261426900000004,53.0215741],[35.255159400000004,53.018224],[35.2540789,53.0154144],[35.257212800000005,53.0128209],[35.251318100000006,53.0099078],[35.2561693,53.0064112],[35.240067399999994,52.9945637],[35.2194995,53.0015819],[35.22110890000001,53.0056938],[35.2140607,53.004395800000005],[35.1997664,53.0096537],[35.194326700000005,53.0056591],[35.1764849,53.010768999999996],[35.1693044,53.0080648],[35.162280800000005,52.99693430000001],[35.16661630000001,52.98948419999999],[35.1522907,52.98717739999999],[35.1567947,52.9762996],[35.144871599999995,52.9713301],[35.1555826,52.9573833],[35.149639300000004,52.9550058],[35.13915720000001,52.9564105],[35.1309441,52.965379500000004],[35.1107365,52.963650200000004],[35.11203330000001,52.96148899999999],[35.0909617,52.9498179],[35.086639,52.9550049],[35.076481199999996,52.952519300000006],[35.0619464,52.9641898],[35.0525448,52.9666751],[35.0348228,52.9619201],[35.03817320000001,52.9511139],[35.032554000000005,52.95046539999999],[35.031040999999995,52.953491099999994],[35.0146155,52.95424729999999],[35.0099684,52.9650535],[34.98716709999999,52.968295000000005],[34.98295290000001,52.96375630000001],[34.9954887,52.948951900000004],[34.97701,52.951112900000005],[34.9604766,52.9488433],[34.9658624,52.9135469],[34.9610114,52.9139335],[34.9545459,52.92652290000001],[34.9462902,52.92555590000001],[34.932760300000005,52.930023],[34.9256665,52.92530810000001],[34.9157525,52.9306911],[34.9023636,52.929095600000004],[34.9119579,52.9188012],[34.8759695,52.9168124],[34.8527912,52.898069],[34.8680779,52.9001737],[34.8792863,52.8869756],[34.869063,52.8824333],[34.8679124,52.8857736],[34.85064939999999,52.88468369999999],[34.854991999999996,52.8769254],[34.8524599,52.87627139999999],[34.8618781,52.868225100000004],[34.8472308,52.8677947],[34.8426923,52.8635802],[34.830373200000004,52.864012200000005],[34.8201071,52.869091],[34.79319970000001,52.867469699999994],[34.79536110000001,52.8619585],[34.8027092,52.866281099999995],[34.8257265,52.8657412],[34.826159100000005,52.8561236],[34.831292499999996,52.8465061],[34.8611732,52.8089008],[34.8591202,52.8061992],[34.880948999999994,52.8003642],[34.883758900000004,52.793124000000006],[34.904399399999996,52.778643900000006],[34.906992900000006,52.778644],[34.9177983,52.79723090000001],[34.92574080000001,52.800580999999994],[34.9440939,52.79319730000001],[34.9602441,52.78011530000001],[34.9763535,52.77991000000001],[34.974415900000004,52.7674665],[34.9856088,52.762868000000005],[34.98603,52.7572131],[34.9890397,52.7560707],[35.006847099999995,52.76536310000001],[35.024239,52.7567447],[35.041037499999995,52.7562808],[35.0445577,52.7474313],[35.0375954,52.7338248],[35.029051300000006,52.7336174],[35.0166857,52.7197619],[35.014139300000004,52.71229520000001],[35.032306600000005,52.697259700000004],[35.036945300000006,52.695448500000005],[35.056013300000004,52.704598000000004],[35.0908098,52.7151666],[35.109214300000005,52.704269599999996],[35.1117912,52.6976832],[35.09577550000001,52.6936638],[35.0795042,52.6833905],[35.083719200000004,52.67710290000001],[35.071400399999995,52.66860630000001],[35.0598165,52.669285300000006],[35.0395074,52.6593442],[35.02091370000001,52.663311400000005],[35.003767499999995,52.66010080000001],[35.0047405,52.64951070000001],[35.009387399999994,52.645296300000005],[34.9992296,52.643351],[35.00095890000001,52.636327],[35.009171800000004,52.6315724],[35.00776739999999,52.623035400000006],[35.021815700000005,52.616768],[35.02051910000001,52.612661599999996],[35.02532810000001,52.6086634],[35.00706639999999,52.5875909],[35.0022045,52.5668428],[35.0065821,52.5409078],[35.001877799999995,52.52863610000001],[34.99531600000001,52.523994],[34.99155520000001,52.5071596],[34.922606800000004,52.5124144],[34.9216486,52.5059695],[34.9135419,52.506758600000005],[34.9060868,52.476933300000006],[34.886203599999995,52.4717459],[34.862484699999996,52.4522943],[34.856217099999995,52.45380709999999],[34.854596199999996,52.4515378],[34.8670238,52.4397591],[34.869401599999996,52.4292771],[34.8663764,52.417606299999996],[34.8632426,52.417282099999994],[34.858163999999995,52.4080967],[34.859893299999996,52.4016129],[34.85246649999999,52.401915],[34.848438900000005,52.3980467],[34.8533021,52.386376],[34.8622713,52.3858358],[34.863460599999996,52.3709232],[34.869728300000006,52.36811370000001],[34.9009579,52.3784882],[34.92468159999999,52.3692935],[34.966945200000005,52.36699290000001],[34.95748129999999,52.3551461],[34.9630432,52.35286109999999],[34.98128169999999,52.3550088],[34.99873840000001,52.3470353],[35.03331330000001,52.3489924],[35.030364399999996,52.329624499999994],[35.0380635,52.3216361],[35.0660948,52.3212113],[35.063256200000005,52.3275136],[35.0704988,52.3337625],[35.0855407,52.331006499999994],[35.083483599999994,52.3340127],[35.105492000000005,52.334098399999995],[35.0874929,52.335548200000005],[35.0932935,52.3360602],[35.11359590000001,52.3339279],[35.1430256,52.33810820000001],[35.15189719999999,52.336061099999995],[35.1573565,52.340752900000005],[35.1535176,52.345359200000004],[35.1569295,52.351501199999994],[35.169762000000006,52.355413399999996],[35.17503260000001,52.34766869999999],[35.18482399999999,52.349368999999996],[35.19290020000001,52.3450613],[35.1974487,52.35448739999998],[35.1893446,52.3607998],[35.196851200000005,52.3643827],[35.2047839,52.379566999999994],[35.23295320000001,52.373836],[35.23555700000001,52.37456939999999],[35.234044499999996,52.37700649999999],[35.235513800000014,52.380923499999994],[35.2535476,52.3858799],[35.237430800000006,52.381397899999996],[35.23509830000001,52.376631499999995],[35.2577396,52.375769],[35.261876900000004,52.3777178],[35.2562996,52.38086159999999],[35.267890200000004,52.386092],[35.27536550000001,52.38449439999999],[35.282665900000005,52.38946339999999],[35.2745619,52.392704900000005],[35.285054300000006,52.390487099999994],[35.2872721,52.393643399999995],[35.287784099999996,52.38980469999999],[35.3277937,52.370765999999996],[35.34089899999999,52.3712343],[35.338696999999996,52.3741732],[35.345706,52.37487739999999],[35.3636348,52.372574900000004],[35.384909099999994,52.3756027],[35.4020304,52.3742983],[35.402176000000004,52.376914],[35.4151432,52.3787171],[35.4015799,52.378546300000004],[35.417190399999996,52.3811057],[35.417958,52.38434719999999],[35.413180999999994,52.38460309999999],[35.4171902,52.385712100000006],[35.4155693,52.3883565],[35.410706999999995,52.3883564],[35.417616599999995,52.389294899999996],[35.407891899999996,52.3915979],[35.397228999999996,52.387844399999985],[35.39391570000001,52.3915911],[35.3987642,52.3944981],[35.416251499999994,52.3947543],[35.410706399999995,52.4033699],[35.41642139999999,52.4115592],[35.4162506,52.416592200000004],[35.429728600000004,52.4181278],[35.4314343,52.42665830000001],[35.438292700000005,52.426618700000006],[35.440289899999996,52.4311995],[35.455627199999995,52.4316451],[35.455745900000004,52.426488],[35.4765603,52.4197493],[35.4943035,52.4212851],[35.498680900000004,52.42541490000001],[35.5328626,52.4268629],[35.5413217,52.4450602],[35.569751700000005,52.4406439],[35.599051200000005,52.441498499999994],[35.59956390000001,52.437654599999995],[35.606443,52.437364699999996],[35.603672700000004,52.42523580000001],[35.6008298,52.4240766],[35.605126600000006,52.418687299999995],[35.6005734,52.4106683],[35.59540290000001,52.38366309999999],[35.61673270000001,52.3791786],[35.62707230000001,52.3724355],[35.63373550000001,52.3643205],[35.6300624,52.3619287],[35.6298918,52.356974199999996],[35.64468899999999,52.3455665],[35.656971,52.34266649999999],[35.6709607,52.32251820000001],[35.65953520000001,52.3033298],[35.662097900000006,52.3028173],[35.6598772,52.29470220000001],[35.6482601,52.28893610000001],[35.65142109999999,52.27971060000001],[35.642623,52.2710401],[35.6440031,52.2520836],[35.65422469999999,52.247109],[35.66593060000001,52.2516232],[35.690887,52.2498136],[35.69327870000001,52.25357220000001],[35.69797690000001,52.25271800000001],[35.702162400000006,52.256049499999996],[35.716940300000005,52.25613520000001],[35.72385920000001,52.26322530000001],[35.7349638,52.26766739999999],[35.74239550000001,52.26630070000001],[35.756575000000005,52.2770641],[35.76614220000001,52.276850700000004],[35.7662275,52.281719700000004],[35.77340290000001,52.282232400000005],[35.7810087,52.29011420000001],[35.7845977,52.2883415],[35.79224190000001,52.29278320000001],[35.7968916,52.291693],[35.79996270000001,52.29625970000001],[35.808558000000005,52.29519140000001],[35.8119957,52.29777220000001],[35.8099713,52.3008185],[35.8149533,52.3022164],[35.8272908,52.29745510000001],[35.856678599999995,52.296347700000005],[35.8636512,52.301245099999996],[35.884792,52.29453480000001],[35.897007699999996,52.282917600000005],[35.945612700000005,52.2772378],[35.9515068,52.27809210000001],[35.95748599999999,52.2844134],[35.968847,52.28633560000001],[35.97533880000001,52.29231520000002],[35.972776,52.29513410000001],[35.98140349999999,52.2992344],[36.0029071,52.3038387],[36.0011567,52.30718709999999],[36.00351560000001,52.31045949999999],[36.030379100000005,52.3109926],[36.0457285,52.3200946],[36.052201,52.3179139],[36.102859900000006,52.319585],[36.12873450000001,52.311960199999994],[36.136462800000004,52.3193653],[36.1532903,52.325652500000004],[36.1549798,52.330904499999995],[36.17353010000001,52.3350978],[36.1745077,52.3305912],[36.18910520000001,52.328057],[36.19934230000001,52.336987799999996],[36.2133974,52.3433175],[36.221817900000005,52.35696759999999],[36.29936990000001,52.3809652],[36.3063793,52.3750601],[36.322661,52.3819021],[36.3296409,52.37639],[36.331257799999996,52.3680091],[36.35738859999999,52.3732043],[36.4163599,52.345506900000004],[36.4407938,52.3226576],[36.4446221,52.31068009999999],[36.471789699999995,52.2756995],[36.481848299999996,52.27497220000001],[36.4865716,52.267652000000005],[36.491058900000006,52.26737520000001],[36.49595920000001,52.2586566],[36.486124,52.251964699999995],[36.49613300000001,52.23240680000001],[36.5156757,52.2277574],[36.5240417,52.21992],[36.5647413,52.2124767],[36.574982399999996,52.22065190000001],[36.599110900000014,52.21219530000001],[36.6088078,52.216408900000005],[36.610460599999996,52.2124841],[36.618068300000004,52.2141584],[36.6368716,52.208845000000004],[36.645968100000005,52.20521240000001],[36.6406161,52.20325220000001],[36.635236600000006,52.1938735],[36.63880290000001,52.1862649],[36.66055240000001,52.1758115],[36.6871316,52.1807561],[36.7142437,52.17565020000001],[36.717989599999996,52.17853100000001],[36.7347735,52.1716625],[36.7536437,52.1741364],[36.7723475,52.1612465],[36.7709594,52.151493699999996],[36.77817330000001,52.1446857],[36.7775678,52.137335500000006],[36.79217430000001,52.12774280000001],[36.837452,52.11865530000001],[36.835446399999995,52.1179134],[36.848525200000005,52.1116932],[36.8823497,52.1155435],[36.8817539,52.1125805],[36.9111136,52.1065843],[36.918922300000006,52.1106162],[36.9195235,52.10831300000001],[36.9373719,52.1046557],[36.93608,52.102124700000005],[36.940069699999995,52.1013884],[36.9357871,52.0952466],[36.95982159999999,52.08890830000001],[36.957195999999996,52.0918517],[36.9795997,52.0912249],[36.9882658,52.09621500000001],[36.993760300000005,52.1074555],[37.014909599999996,52.1107791],[37.016316,52.107680099999996],[37.033989,52.1101201],[37.03750230000001,52.1004372],[37.0271244,52.088931],[37.035141200000005,52.087223699999996],[37.0443649,52.078093200000005],[37.0675004,52.073916000000004],[37.0772863,52.07572280000001],[37.0818532,52.080690499999996],[37.0803481,52.0837955],[37.09456290000001,52.0947064],[37.11543530000001,52.07932890000001],[37.13985890000001,52.0754281],[37.1526331,52.0751695],[37.1897534,52.0875212],[37.207258100000004,52.0828037],[37.20540090000001,52.0715813],[37.1988695,52.0599762],[37.17771320000001,52.0416957],[37.23852300000001,52.015973300000006],[37.262062500000006,52.015126900000006],[37.27171560000001,52.0096232],[37.2736633,52.005982200000005],[37.2703611,52.004373300000005],[37.274933600000004,52.002341200000004],[37.28255430000001,52.0017486],[37.2935615,52.0130952],[37.300589499999994,52.01487349999999],[37.308210200000005,52.0144502],[37.30846449999999,52.008014900000006],[37.3132909,52.0084384],[37.313714399999995,52.00513610000001],[37.318964099999995,52.009539200000006],[37.3295484,52.0081846],[37.345214399999996,51.9791837],[37.3873408,51.94702159999999],[37.425341,51.9349918],[37.4832008,51.9630407],[37.507934399999996,52.016484899999995],[37.62353930000001,52.0031011],[37.62791810000001,52.0011881],[37.62786,51.99721830000001],[37.63565500000001,51.99512500000001],[37.636836300000006,51.9895698],[37.6436754,51.9848521],[37.7102468,51.970255900000005],[37.72352530000001,51.979709],[37.71845220000001,51.98466649999999],[37.717336100000004,51.996125000000006],[37.7378761,52.0034969],[37.7392668,52.025804900000004],[37.75371380000001,52.022727800000006],[37.758016000000005,52.027018600000005],[37.751519200000004,52.036569300000004],[37.751413,52.042968800000004],[37.7566701,52.045040900000004],[37.7492807,52.05241230000001],[37.75210010000001,52.058678900000004],[37.76470330000001,52.05251260000001],[37.77133920000001,52.0577956],[37.7587649,52.0688017],[37.75910230000001,52.07448109999999],[37.77081020000001,52.083255300000005],[37.770583800000004,52.0947673],[37.76500000000001,52.096334000000006],[37.7712999,52.099617200000004],[37.77599810000001,52.096265100000004],[37.7864431,52.0958364],[37.7869275,52.1049869],[37.7792205,52.1161316],[37.784175100000006,52.1202665],[37.79893900000001,52.122741000000005],[37.78955560000001,52.131173800000006],[37.791602100000006,52.1479622],[37.782452600000006,52.150524399999995],[37.77101880000001,52.1471439],[37.7634475,52.153285],[37.76059680000001,52.1628641],[37.784371900000004,52.168827],[37.787883799999996,52.1752856],[37.8009717,52.169246300000005],[37.8278193,52.1914094],[37.82933870000001,52.200464499999995],[37.8380771,52.200527900000004],[37.8361773,52.2048338],[37.839406499999996,52.208949800000006],[37.8511209,52.21325590000001],[37.86511510000001,52.21262290000001],[37.8830987,52.206670900000006],[37.8867706,52.2278205],[37.9397072,52.2412455],[37.95667709999999,52.2494777],[37.984032,52.25277080000001],[38.012590900000006,52.23675080000001],[38.02810430000001,52.2470725],[38.039122400000004,52.24510970000001],[38.0454657,52.255306600000004],[38.0348809,52.256573700000004],[38.035253700000005,52.2594607],[38.04817070000001,52.2632775],[38.051803199999995,52.27072030000001],[38.023531600000005,52.275869300000004],[38.01261290000001,52.28203280000001],[38.0580293,52.297442100000005],[38.05762729999999,52.3019552],[38.04684459999999,52.311752],[38.0441481,52.322771900000006],[38.0672135,52.3302132],[38.0564053,52.339469599999994],[38.02018520000001,52.3457915],[37.996248900000005,52.3607984],[37.9880795,52.38327759999999],[37.9935877,52.403097499999994],[37.9555838,52.399520900000006],[37.9590003,52.3899565],[37.9336607,52.4000392],[37.8862586,52.4309565],[37.8825298,52.436371300000005],[37.8928855,52.437625399999995],[37.892841,52.442419],[37.895586,52.4435869],[37.9013637,52.443789499999994],[37.9019595,52.4390631],[37.903035700000004,52.444318800000005],[37.9329236,52.446155600000004],[37.9344427,52.46173290000001],[37.9315299,52.4622394],[37.934062499999996,52.4676851],[37.930832900000006,52.4723076],[37.901641299999994,52.4767397],[37.89695570000001,52.472053800000005],[37.89290290000001,52.47749949999999],[37.8952456,52.481678699999996],[37.891826099999996,52.4843382],[37.8702333,52.485731],[37.8505541,52.4928605],[37.836594399999996,52.4946011],[37.83487039999999,52.491088399999995],[37.81189019999999,52.4912336],[37.8132531,52.49670820000001],[37.789985,52.4973055],[37.79234670000001,52.5024468],[37.79941310000001,52.5021448],[37.8021034,52.515356700000005],[37.8247512,52.519233],[37.8201617,52.528973400000005],[37.8268656,52.5307637],[37.837886899999994,52.527995700000005],[37.8602763,52.5360412],[37.84799159999999,52.54308749999999],[37.8455705,52.5537146],[37.82270260000001,52.545695],[37.81605759999999,52.5602219],[37.8211548,52.5618194],[37.810337,52.5750632],[37.786605900000005,52.5704401],[37.77518270000001,52.5895697],[37.72216880000001,52.5948457],[37.726254100000006,52.6085891],[37.730377100000005,52.6099472],[37.7430545,52.601125700000004],[37.770785800000006,52.6130667],[37.7699215,52.61897290000001],[37.7862334,52.6292494],[37.804548399999995,52.62201540000001],[37.8242767,52.63203360000001],[37.8189996,52.64283230000001],[37.8224461,52.6446538],[37.82653010000001,52.65693530000001],[37.79405020000001,52.6566361],[37.79481620000001,52.66319830000001],[37.8054232,52.6639216],[37.8212107,52.6730455],[37.8207841,52.677789],[37.81134349999999,52.6847336],[37.8204039,52.688990200000006],[37.809135100000006,52.70707],[37.8595533,52.733537500000004],[37.891258900000004,52.7404892],[37.8887307,52.7563445],[37.89805510000001,52.7610685],[37.8913467,52.7711491],[37.8975767,52.7749232],[37.9002503,52.78118],[37.893102600000006,52.797767900000004],[37.88484469999999,52.80405],[37.8845921,52.8143328],[37.8763951,52.8129773],[37.8366513,52.823843399999994],[37.838143200000005,52.8284608],[37.801613399999994,52.85320699999999],[37.80348639999999,52.857098099999995],[37.842657599999995,52.868786300000004],[37.8340433,52.8781679],[37.858271499999994,52.8792366],[37.87602939999999,52.8863282],[37.871026699999994,52.892085900000005],[37.8563724,52.8919315],[37.83833490000001,52.906477599999995],[37.84664839999999,52.91186539999999],[37.835368100000004,52.922349800000006],[37.843259399999994,52.9217831],[37.850059699999996,52.93579230000001],[37.831904699999996,52.949627799999995],[37.84609749999999,52.95489249999999],[37.844782599999995,52.960374200000004],[37.85777099999999,52.975478900000006],[37.85444609999999,52.979832800000004],[37.8581535,52.9853571],[37.875151900000006,52.99148439999999],[37.8669194,53.0058436],[37.8664693,53.0122167]]]}}