{"type":"Feature","properties":{"regionId":"penzenskaya_oblast","name":"Пензенская область","name:en":"Penza Oblast","timezone":"Europe/Moscow","name_ru":"Пензенская область","name_en":"Penza Oblast","name_zh":"奔萨州"},"geometry":{"type":"MultiPolygon","coordinates":[[[[44.4713889,53.6932904],[44.4737511,53.676233700000004],[44.4691175,53.674942],[44.4646202,53.679624],[44.463848,53.69095020000001],[44.4713889,53.6932904]]],[[[46.8010702,52.6208276],[46.744176100000004,52.611409699999996],[46.70231950000001,52.63517560000001],[46.680429,52.64265030000001],[46.65833920000001,52.6658284],[46.655075800000006,52.66157830000001],[46.648597200000005,52.660392400000006],[46.60937630000001,52.6615856],[46.6074704,52.673769],[46.59614500000001,52.69281570000001],[46.59249270000001,52.721815400000004],[46.5858038,52.72596070000001],[46.5776258,52.72559080000001],[46.571618900000004,52.702206800000006],[46.555002900000005,52.6942886],[46.5390425,52.6884955],[46.522893800000006,52.69411490000001],[46.5058054,52.6854251],[46.489001699999996,52.681361499999994],[46.4550902,52.67850080000001],[46.435162000000005,52.6857954],[46.43271180000001,52.6849136],[46.43612830000001,52.669456000000004],[46.41789459999999,52.664396800000006],[46.4127091,52.6759611],[46.392798400000004,52.6784416],[46.366962300000004,52.6759872],[46.3258992,52.6808429],[46.289591900000005,52.66834250000001],[46.261471900000004,52.650080599999995],[46.259692300000005,52.6308439],[46.2704891,52.614540399999996],[46.26834190000001,52.6102395],[46.210562200000005,52.6140919],[46.19896630000001,52.6016707],[46.178785100000006,52.599826900000004],[46.166901800000005,52.6079342],[46.151338200000005,52.59815190000001],[46.140672,52.587104599999996],[46.1372296,52.57159],[46.140302000000005,52.549581499999995],[46.125701500000005,52.5467215],[46.12905090000001,52.5352465],[46.1362817,52.526805100000004],[46.1190785,52.523340700000006],[46.1163279,52.52515420000001],[46.123946200000006,52.53263990000001],[46.122477800000006,52.54484909999999],[46.11550810000001,52.5437001],[46.110382800000004,52.5515307],[46.106807499999995,52.5499883],[46.0844326,52.55515820000001],[46.08174439999999,52.5388461],[46.06597560000001,52.5285847],[46.0548193,52.533722000000004],[46.047793,52.527256900000005],[46.0406396,52.527306],[46.02867580000001,52.514732300000006],[46.0200934,52.518114800000006],[46.0081404,52.5100335],[46.0041072,52.5109913],[45.9835346,52.474384799999996],[46.0074209,52.4630506],[46.0127011,52.454175],[45.9969315,52.44736759999999],[45.980404099999994,52.425270100000006],[45.960922700000005,52.418503],[45.961038900000005,52.39679290000001],[45.9142253,52.4054917],[45.9084317,52.4152838],[45.8954777,52.4126426],[45.8501291,52.4129606],[45.84760749999999,52.42200510000001],[45.8353254,52.4313971],[45.82323830000001,52.42053690000001],[45.79633680000001,52.415357],[45.7897214,52.423163200000005],[45.783419300000006,52.4256834],[45.77548,52.4237036],[45.76613950000001,52.427567499999995],[45.7706885,52.45749119999999],[45.7584404,52.45328599999999],[45.7583825,52.4606148],[45.73267620000001,52.4569303],[45.7349035,52.4510159],[45.71251670000001,52.4498049],[45.710162800000006,52.4377366],[45.69853280000002,52.440915200000006],[45.69869800000001,52.456296099999996],[45.7078175,52.46355380000001],[45.709562000000005,52.477778],[45.700307300000006,52.471891199999995],[45.683506,52.4712743],[45.6740281,52.4777427],[45.6678054,52.474003399999994],[45.659173,52.48468189999999],[45.6549737,52.4851445],[45.651969599999994,52.4936686],[45.65891980000001,52.5013367],[45.652083399999995,52.5083271],[45.64055200000001,52.5077263],[45.6214504,52.477666899999996],[45.61429,52.477789099999995],[45.616972200000006,52.475866599999996],[45.6049344,52.4710599],[45.5979177,52.4767605],[45.59901210000001,52.4730395],[45.589871099999996,52.469449499999996],[45.59515380000001,52.459727199999996],[45.5910406,52.456547199999996],[45.600943300000004,52.4525511],[45.5835883,52.4531422],[45.5764365,52.464281899999996],[45.543687799999994,52.4666795],[45.540988399999996,52.4703946],[45.5241656,52.4765298],[45.524667699999995,52.459737499999996],[45.5182282,52.4467237],[45.5136535,52.4255434],[45.4926996,52.426717000000004],[45.489449199999996,52.413239399999995],[45.4743001,52.4179483],[45.46863530000001,52.42679820000001],[45.4487912,52.4249637],[45.4493019,52.4147138],[45.4398526,52.401404899999996],[45.4425014,52.4001836],[45.42931840000001,52.3862901],[45.4155297,52.3914733],[45.41687939999999,52.39410530000001],[45.4099378,52.40241530000001],[45.384038399999994,52.4105785],[45.3773007,52.4096989],[45.359899199999994,52.386716],[45.3529763,52.3964687],[45.317327199999994,52.396867099999994],[45.29977080000001,52.391998300000004],[45.29423270000001,52.3868702],[45.29259870000001,52.382071499999995],[45.29512640000001,52.3760456],[45.2676262,52.390861799999996],[45.243228900000005,52.385015800000005],[45.23353430000001,52.3756768],[45.20733880000001,52.384093799999995],[45.209428700000004,52.393905000000004],[45.2035794,52.39512270000001],[45.2040448,52.399008800000004],[45.198330100000014,52.404832],[45.16930880000001,52.4050714],[45.175237100000004,52.418276999999996],[45.1482937,52.4185085],[45.1232975,52.413488599999994],[45.1219504,52.40837530000001],[45.09391180000001,52.4000017],[45.088551,52.3794919],[45.067577,52.379935700000004],[45.068895000000005,52.376633],[45.063645900000004,52.372550200000006],[45.06212180000001,52.3611419],[45.0715803,52.35684169999999],[45.075697,52.3490918],[45.0912238,52.33513670000001],[45.08048949999999,52.33293090000001],[45.089563399999996,52.312175],[45.07557080000001,52.30709409999999],[45.059969499999994,52.306116],[45.0527007,52.31209],[45.027720900000006,52.316084999999994],[45.0200881,52.3216758],[45.00851730000001,52.323522100000005],[44.986927099999996,52.338930600000005],[44.9838386,52.3379598],[44.978936000000004,52.360877699999996],[44.985185900000005,52.36875590000001],[44.95135,52.3712399],[44.9515221,52.3567219],[44.893357200000004,52.35654469999999],[44.8917004,52.4167334],[44.8885452,52.4208669],[44.8750996,52.424648999999995],[44.853115700000004,52.4477209],[44.79573840000001,52.4388868],[44.782174000000005,52.4414252],[44.784976300000004,52.4509398],[44.6829717,52.463813900000005],[44.6792638,52.4675734],[44.66593250000001,52.4607639],[44.6133241,52.4807267],[44.620977,52.4892487],[44.607713600000004,52.4952816],[44.5911676,52.5099174],[44.5701315,52.5056477],[44.5600912,52.5127279],[44.5611807,52.51544139999999],[44.5504134,52.5195643],[44.53259130000001,52.532595500000006],[44.4854755,52.5142518],[44.499214900000005,52.4976195],[44.5109345,52.494699499999996],[44.506221599999996,52.483119],[44.51126039999999,52.471670499999995],[44.49693130000001,52.4708269],[44.49615610000001,52.463109700000004],[44.5103691,52.4648187],[44.517136300000004,52.4624911],[44.5166488,52.4576559],[44.5092735,52.455348900000004],[44.513771,52.452725300000004],[44.507827799999994,52.4529287],[44.507112400000004,52.4467972],[44.5103272,52.443978900000005],[44.516735000000004,52.4487015],[44.5350634,52.4233884],[44.50494,52.4150472],[44.4977797,52.403733],[44.480178900000006,52.40713280000001],[44.4744337,52.4019342],[44.4781915,52.398921],[44.4705266,52.398638000000005],[44.467829599999995,52.3947049],[44.463019900000006,52.3945797],[44.465926,52.4045398],[44.4614333,52.4078282],[44.445725200000005,52.40813240000001],[44.4320254,52.404403599999995],[44.42983,52.394586],[44.424173800000005,52.3949934],[44.4260968,52.404397599999996],[44.4018429,52.407080799999996],[44.3983848,52.394237],[44.382137900000004,52.3948063],[44.3805803,52.384177699999995],[44.3734552,52.382924599999996],[44.37288749999999,52.35727139999999],[44.35645749999999,52.3454796],[44.3541184,52.3388228],[44.3492702,52.335723],[44.341557699999996,52.33746349999999],[44.31680479999999,52.315631399999994],[44.3143281,52.3115738],[44.330664899999995,52.313524799999996],[44.3467301,52.3079736],[44.34728699999999,52.3030517],[44.3329547,52.3030373],[44.319918300000005,52.2912662],[44.2563606,52.3189518],[44.2420976,52.3175007],[44.21437220000001,52.3245544],[44.1966819,52.3449789],[44.156611,52.3127542],[44.114008,52.33188299999999],[44.0928296,52.327935000000004],[44.0867035,52.336234399999995],[44.063022100000005,52.35167659999999],[44.0434112,52.3410059],[44.03239290000001,52.327972],[44.0145588,52.34172099999999],[44.00135830000001,52.3461638],[43.9987895,52.3427225],[43.97724049999999,52.354105],[43.93923830000001,52.38047149999999],[43.926546,52.384920699999995],[43.900193200000004,52.40184459999999],[43.892360100000005,52.4038062],[43.8911366,52.397036],[43.8655861,52.3797606],[43.856186099999995,52.38478679999999],[43.852551,52.3829379],[43.8430092,52.393798700000005],[43.779521300000006,52.4274779],[43.76001680000001,52.42550880000001],[43.7487654,52.432780900000004],[43.73679430000001,52.421536200000006],[43.696021200000004,52.4158577],[43.701250800000004,52.4083545],[43.68147139999999,52.4011659],[43.671243,52.3914141],[43.658363800000004,52.39521320000001],[43.644178200000006,52.392258500000004],[43.608279200000005,52.3978327],[43.5829305,52.39581820000001],[43.5734019,52.4038355],[43.562092500000006,52.405850300000004],[43.548626999999996,52.401288099999995],[43.54409139999999,52.3964226],[43.52863210000001,52.395864499999995],[43.5246136,52.3971637],[43.5242084,52.4030365],[43.52092210000001,52.40328739999999],[43.51148769999999,52.4004107],[43.4906372,52.3787944],[43.468816000000004,52.37788989999999],[43.4622492,52.3749063],[43.4331064,52.379958],[43.42203920000001,52.3767632],[43.4139938,52.38140369999999],[43.4083467,52.3778588],[43.398904300000005,52.3800709],[43.384096199999995,52.375835200000004],[43.377106399999995,52.37140719999999],[43.3680077,52.3533857],[43.3633912,52.3597155],[43.3361852,52.3751863],[43.3305606,52.3935711],[43.321264199999995,52.4026297],[43.3220711,52.41328759999999],[43.3153924,52.4161436],[43.3224334,52.420992600000005],[43.3016769,52.434022399999996],[43.2884206,52.4361424],[43.283979800000004,52.4397911],[43.2698605,52.4375421],[43.270639100000004,52.4346889],[43.2593477,52.433215700000005],[43.247446,52.426856],[43.2436888,52.427932000000006],[43.24351210000001,52.4355835],[43.2402905,52.4376527],[43.23623820000001,52.435050700000005],[43.229944,52.444433999999994],[43.2172033,52.4450688],[43.2111915,52.44194939999999],[43.20210190000001,52.4439693],[43.20895570000001,52.4579556],[43.2047693,52.459177499999996],[43.19824920000001,52.44428969999999],[43.1788832,52.45209139999999],[43.1730935,52.4504192],[43.1590692,52.4371879],[43.1434003,52.438741900000004],[43.13238030000001,52.4094783],[43.125027800000005,52.4022609],[43.11715290000001,52.3787696],[43.097226,52.3825378],[43.0871739,52.3721748],[43.065903600000006,52.373784799999996],[43.0609831,52.370077099999996],[43.03970590000001,52.370634599999995],[43.043063499999995,52.3763424],[43.03893570000001,52.3879002],[43.072117500000004,52.391566399999995],[43.0668725,52.4024826],[43.0813296,52.404692999999995],[43.0822096,52.4099541],[43.074054399999994,52.4177988],[43.0672806,52.4309504],[43.0489085,52.4403273],[43.0240484,52.4867633],[43.045506200000005,52.4939279],[43.0573758,52.4919096],[43.070909900000004,52.4948161],[43.121771300000006,52.5108933],[43.0858701,52.5171576],[43.06191510000001,52.5175913],[43.0491699,52.5307607],[43.05428459999999,52.55412449999999],[43.060857399999996,52.56083290000001],[43.0710936,52.5612802],[43.0741371,52.565935300000014],[43.083487899999994,52.56651610000001],[43.0880602,52.5745678],[43.092380600000006,52.5760306],[43.106883599999996,52.57513540000001],[43.1122805,52.570038600000004],[43.22034300000001,52.636794200000004],[43.22837850000001,52.633720200000006],[43.246174200000006,52.6340178],[43.2480873,52.63634020000001],[43.206615600000006,52.69839340000001],[43.20907590000001,52.70033190000001],[43.20532240000001,52.7004785],[43.202944200000005,52.708771000000006],[43.1997775,52.70879820000001],[43.118270300000006,52.803298],[43.105690300000006,52.8035787],[43.0918324,52.8100135],[43.0849627,52.8183391],[43.009742100000004,52.870166],[42.988233,52.89517610000001],[42.9805338,52.89313990000001],[42.95422169999999,52.911943799999996],[42.9575548,52.9309463],[42.932650300000006,52.942773100000004],[42.810404999999996,52.9880504],[42.778241200000004,53.003390200000005],[42.754867899999994,53.0182622],[42.70838080000001,53.060523100000005],[42.6748324,53.0844513],[42.6422498,53.1117683],[42.627608300000006,53.128283200000006],[42.5475534,53.12235950000001],[42.5441868,53.13530580000001],[42.5260655,53.144476499999996],[42.5090282,53.1701897],[42.5219964,53.1745828],[42.547574,53.1764907],[42.5545798,53.18261090000001],[42.5713639,53.1798324],[42.557808599999994,53.19559870000001],[42.5040453,53.234618600000005],[42.420968,53.2717014],[42.4321805,53.283097],[42.4190062,53.2879231],[42.4121657,53.3380196],[42.39816280000001,53.3310253],[42.3795921,53.3273665],[42.3788826,53.3311538],[42.368349,53.33335290000001],[42.356523599999996,53.3280905],[42.352726,53.3384219],[42.3051607,53.356969299999996],[42.291963700000004,53.372906],[42.28013030000001,53.3640392],[42.2726617,53.373221799999996],[42.2524238,53.36886739999999],[42.24857300000001,53.3616988],[42.24053630000001,53.3571585],[42.236842200000005,53.359372300000004],[42.246090200000005,53.3936519],[42.26057690000001,53.39951090000001],[42.2569208,53.401263099999994],[42.256319600000005,53.407392800000004],[42.259800999999996,53.4145526],[42.272152200000015,53.412652800000004],[42.27977570000001,53.415046999999994],[42.2815524,53.426442800000004],[42.2850817,53.4285847],[42.301590999999995,53.42580890000001],[42.3204258,53.4297449],[42.29925250000001,53.432534100000005],[42.29590120000001,53.45208339999999],[42.26290670000001,53.463039300000005],[42.256750000000004,53.4701934],[42.2555976,53.484074799999995],[42.2431674,53.48467839999999],[42.23805500000001,53.4821879],[42.2395216,53.4798387],[42.227419100000006,53.4797048],[42.225195700000015,53.489026599999995],[42.20651490000001,53.487736],[42.1975892,53.4960548],[42.1558301,53.49357990000001],[42.14077,53.498696800000005],[42.16721580000001,53.51533270000001],[42.1733448,53.525298500000005],[42.171745900000005,53.53299280000001],[42.13087230000001,53.523676],[42.115659900000004,53.5144709],[42.10953280000001,53.5153395],[42.139872600000004,53.56937130000001],[42.1264806,53.572869],[42.1219275,53.5690924],[42.12731630000001,53.6525012],[42.1318503,53.6526397],[42.1316965,53.660045100000005],[42.1178354,53.671192600000005],[42.120742500000006,53.68213600000001],[42.1290806,53.6828801],[42.125589100000006,53.69292960000001],[42.143951,53.71207880000001],[42.136973700000006,53.7117972],[42.13915490000001,53.7176324],[42.132889,53.717496499999996],[42.1268972,53.7084266],[42.0895208,53.70858690000001],[42.0817395,53.748004900000005],[42.1104037,53.75708039999999],[42.1023465,53.76569260000001],[42.1067175,53.76802070000001],[42.136805900000006,53.76701580000001],[42.15404769999999,53.7708096],[42.13755690000001,53.8224842],[42.20634880000001,53.8185767],[42.19815120000001,53.822265],[42.200144200000004,53.8256019],[42.206862900000004,53.825722000000006],[42.20854280000001,53.8290265],[42.2177078,53.8310829],[42.2167096,53.833255],[42.23521900000001,53.8367597],[42.24255220000001,53.833870399999995],[42.26209240000001,53.838030800000006],[42.2666264,53.8331311],[42.35096939999999,53.853729099999995],[42.3529051,53.8452716],[42.3498125,53.8354979],[42.35745059999999,53.8261807],[42.322875700000004,53.813167099999994],[42.31463709999999,53.802224499999994],[42.308115400000005,53.800096399999994],[42.3039013,53.79453370000001],[42.3103516,53.79300030000001],[42.3082603,53.797300500000006],[42.310251699999995,53.799097],[42.334709399999994,53.79849000000001],[42.342591399999996,53.7902866],[42.3447792,53.79203110000001],[42.342260599999996,53.796850500000005],[42.350343499999994,53.79436210000001],[42.357523099999995,53.79818060000001],[42.359659199999996,53.79461010000001],[42.37183769999999,53.79521490000001],[42.376145300000005,53.8007319],[42.38766239999999,53.8053377],[42.396504300000004,53.800249799999996],[42.4094725,53.79893760000001],[42.4107421,53.79229550000001],[42.41482299999999,53.7906616],[42.4105154,53.7832948],[42.4184504,53.7797047],[42.4166367,53.76879860000001],[42.4082936,53.7676194],[42.4084296,53.764644499999996],[42.432960200000004,53.7658774],[42.4557797,53.77317560000001],[42.46255820000001,53.76916800000001],[42.47182599999999,53.7704377],[42.4855548,53.76334070000001],[42.4858987,53.7607495],[42.474225999999994,53.7543097],[42.480575800000004,53.744667899999996],[42.49859580000001,53.734776200000006],[42.56212630000001,53.73343880000001],[42.5584356,53.7417595],[42.5476251,53.7397844],[42.52214360000001,53.746636200000005],[42.52256990000001,53.757085],[42.505802800000005,53.760496100000005],[42.506401,53.77221520000001],[42.495161800000005,53.7724671],[42.4949947,53.77809570000001],[42.511379999999996,53.81058039999999],[42.5264794,53.810173],[42.5559954,53.8307417],[42.570068,53.8353994],[42.59005690000001,53.836764099999996],[42.588942900000006,53.809467899999994],[42.5688669,53.8098725],[42.569380200000005,53.80551390000001],[42.564578000000004,53.800446799999996],[42.556252,53.8005011],[42.5567681,53.783171100000004],[42.560197300000006,53.783122500000005],[42.558398100000005,53.77972830000001],[42.5485295,53.7794249],[42.534972700000004,53.76501960000001],[42.5426932,53.7639044],[42.54784409999999,53.7492947],[42.570068,53.7493895],[42.5888606,53.77115030000001],[42.6011266,53.770892800000006],[42.629099800000006,53.8090603],[42.64523090000001,53.82212830000001],[42.643847599999994,53.82800280000001],[42.653464799999995,53.827801699999995],[42.6499484,53.8258305],[42.648575400000006,53.817569299999995],[42.66565090000001,53.801307699999995],[42.688129200000006,53.80784349999999],[42.698857600000004,53.8151902],[42.723653500000005,53.8120003],[42.73873010000001,53.8242253],[42.73830170000001,53.81434709999999],[42.727957700000005,53.80130439999999],[42.719381,53.79673690000001],[42.70816930000001,53.780058100000005],[42.70904590000001,53.772381100000004],[42.7040061,53.76379590000001],[42.703200900000006,53.75166769999999],[42.700578500000006,53.750998800000005],[42.727085,53.7394945],[42.7426979,53.7586177],[42.7532542,53.76455310000001],[42.74579290000001,53.784582],[42.7534056,53.79579960000001],[42.755741300000004,53.8060229],[42.755056,53.81037739999999],[42.746563,53.8152959],[42.759603999999996,53.8254748],[42.771361399999996,53.821423499999995],[42.774875300000005,53.8141779],[42.786373700000006,53.816458499999996],[42.7910936,53.81149549999999],[42.79023390000001,53.8074373],[42.8288458,53.8105304],[42.8375979,53.8142323],[42.896283399999994,53.7944678],[42.9319772,53.79553350000001],[42.9609797,53.804246799999994],[42.9615828,53.81048169999999],[42.972734800000005,53.81098649999999],[42.96853310000001,53.8221812],[43.0016501,53.8240539],[43.02353030000001,53.8298299],[43.0270491,53.825167300000004],[43.025075400000006,53.8226886],[43.06205510000001,53.819144699999995],[43.047982499999996,53.8145325],[43.024215700000006,53.81686159999999],[43.023358400000006,53.8141779],[43.056737,53.809467899999994],[43.056136300000006,53.812103300000004],[43.0726937,53.8127005],[43.0793873,53.83463759999999],[43.07835810000001,53.838490300000004],[43.045410600000004,53.839805],[43.046950800000005,53.8563558],[43.07613020000001,53.86713280000001],[43.0889991,53.86510930000001],[43.097416700000004,53.8741225],[43.1077749,53.8679177],[43.1068484,53.85396119999999],[43.123521000000004,53.84426479999999],[43.1388454,53.8249701],[43.1567807,53.820004],[43.180034,53.8345376],[43.17616890000001,53.850634799999995],[43.1666468,53.867891099999994],[43.164757800000004,53.8777572],[43.16930830000001,53.886253399999994],[43.146485999999996,53.8887812],[43.131812700000005,53.896768800000004],[43.1288945,53.893482399999996],[43.1076198,53.8941945],[43.1091576,53.9006115],[43.1018705,53.913352700000004],[43.100063999999996,53.92820330000001],[43.1095911,53.928405700000006],[43.12992620000001,53.9400282],[43.1267514,53.97728409999999],[43.14253860000001,53.9720853],[43.1628048,53.976119100000005],[43.161708100000006,53.971629799999995],[43.1638942,53.971515000000004],[43.159801699999996,53.9682678],[43.182777800000004,53.968601],[43.1836376,53.9819252],[43.1899716,53.9936254],[43.2005672,53.99550630000001],[43.20875110000001,53.9892762],[43.215137000000006,53.9919267],[43.239676300000006,53.989476599999996],[43.23839270000001,53.99573080000001],[43.2616437,53.999013500000004],[43.28571690000001,53.99813360000001],[43.29077170000001,54.0052481],[43.29043180000001,54.0103637],[43.31360779999999,54.024637],[43.324867899999994,54.0148539],[43.3371764,54.0122269],[43.339820499999995,54.0070938],[43.3469453,54.0036622],[43.348336700000004,53.9974149],[43.3980345,53.9974767],[43.4026936,53.9853641],[43.4082471,53.9845505],[43.4589218,53.9789497],[43.470140900000004,53.9912124],[43.4971975,54.0025744],[43.50507,54.0012549],[43.5127717,53.9904941],[43.5169838,53.9946912],[43.515012600000006,53.996559000000005],[43.5363672,54.014555200000004],[43.5468386,54.011075999999996],[43.567593900000006,53.99645030000001],[43.5796058,53.98146719999999],[43.59633500000001,53.9830366],[43.606375400000005,53.9804092],[43.6170139,53.9752621],[43.6137544,53.971021699999994],[43.61581280000001,53.96451020000001],[43.628941000000005,53.966125600000005],[43.63975670000001,53.9592538],[43.65313630000001,53.961531],[43.66231950000001,53.958102800000006],[43.6639495,53.9537569],[43.67613320000001,53.9561337],[43.687546499999996,53.954416499999994],[43.69209230000001,53.9503751],[43.72139810000001,53.9564788],[43.723497200000004,53.953810999999995],[43.7464042,53.959462099999996],[43.74905820000001,53.9675085],[43.76674920000001,53.953105],[43.84686669999999,53.924143],[43.843198,53.921231399999996],[43.8517758,53.915522300000006],[43.8495453,53.911983199999995],[43.855209699999996,53.904660699999994],[43.863102100000006,53.901672999999995],[43.8657636,53.8956571],[43.883341099999996,53.8954042],[43.886343999999994,53.8906548],[43.929635100000006,53.8695104],[43.92861690000001,53.86579270000001],[43.9340382,53.8565756],[43.9315763,53.85249149999999],[43.923752400000005,53.85043449999999],[43.918945,53.8528587],[43.905306,53.846078399999996],[43.918257399999995,53.8397016],[43.902128700000006,53.8343356],[43.9068512,53.8329667],[43.9064339,53.81661],[43.8904701,53.816303999999995],[43.859670599999994,53.805975800000006],[43.8628455,53.801307699999995],[43.8722779,53.803945],[43.8832629,53.80105459999999],[43.8986262,53.805618300000006],[43.8984495,53.800096399999994],[43.892099800000004,53.7977636],[43.897936300000005,53.793502300000014],[43.904629699999994,53.79670070000001],[43.9045451,53.79355660000001],[43.8960472,53.7893994],[43.8958779,53.7864578],[43.9130357,53.791429300000004],[43.91278139999999,53.7865065],[43.916213,53.7868656],[43.927452200000005,53.770688],[43.9584258,53.764349900000006],[43.9729295,53.7492836],[43.977557399999995,53.7494397],[43.982364499999996,53.74015060000001],[43.995839200000006,53.750300200000005],[44.03933790000001,53.744667899999996],[44.036507,53.73619430000001],[44.047319900000005,53.73705520000001],[44.05255090000001,53.731830800000004],[44.0639645,53.734369300000004],[44.0618213,53.737663999999995],[44.075034,53.7390892],[44.074944499999994,53.73593800000001],[44.070311800000006,53.7358892],[44.07297330000001,53.734059900000005],[44.0706556,53.73030520000001],[44.083183399999996,53.733858000000005],[44.08815990000001,53.72538220000001],[44.101716700000004,53.72710590000001],[44.1036057,53.734776200000006],[44.1143314,53.73263890000001],[44.119220999999996,53.72909020000001],[44.114241799999995,53.72264260000001],[44.1174192,53.720050400000005],[44.11535810000001,53.712182500000004],[44.12196230000001,53.7112651],[44.123422600000005,53.7075613],[44.1124424,53.69420230000001],[44.1332065,53.6908972],[44.1441888,53.6917619],[44.1426439,53.6968435],[44.14873690000001,53.7043631],[44.179708100000006,53.704819],[44.1828006,53.707511100000005],[44.1940374,53.7043145],[44.19730200000001,53.69674020000001],[44.20253300000001,53.6938454],[44.21488839999999,53.69856690000001],[44.22252660000001,53.69293190000001],[44.238229100000005,53.69003520000001],[44.311931599999994,53.69221790000001],[44.3178529,53.7068516],[44.355774499999995,53.70552570000001],[44.3522581,53.7110631],[44.37156649999999,53.721573600000006],[44.3947304,53.72202930000001],[44.3948998,53.71867890000001],[44.3742209,53.7169535],[44.381858799999996,53.7044606],[44.36427,53.700397800000005],[44.3719106,53.694049],[44.414120999999994,53.6978572],[44.4298235,53.683381],[44.453338300000006,53.6711334],[44.459767899999996,53.6634654],[44.48140479999999,53.66221780000001],[44.486558,53.6656274],[44.490502400000004,53.66213400000001],[44.503312400000006,53.662817700000005],[44.51253510000001,53.6763696],[44.5404059,53.6771377],[44.542258000000004,53.670388900000006],[44.5276345,53.668027300000006],[44.5267795,53.6639624],[44.515959200000005,53.6643698],[44.513648999999994,53.660353400000005],[44.4943456,53.660402100000006],[44.4913424,53.652880399999994],[44.498549600000004,53.6503873],[44.49897590000001,53.6431667],[44.5042163,53.6445348],[44.505153400000005,53.649065300000004],[44.537161399999995,53.6555715],[44.53253110000001,53.66091310000001],[44.561539200000006,53.6638907],[44.5737947,53.66045230000001],[44.587697999999996,53.6636595],[44.5857241,53.6817516],[44.587956999999996,53.685923700000004],[44.62013430000001,53.683381],[44.62545780000001,53.6888504],[44.634715500000006,53.6886658],[44.6534539,53.6869691],[44.6562361,53.684190900000004],[44.686929,53.6832051],[44.7058085,53.6775049],[44.70530310000001,53.6749365],[44.715654900000004,53.6763847],[44.711984699999995,53.6843984],[44.71811730000001,53.6932848],[44.7315917,53.7007045],[44.731851,53.70572930000001],[44.72712130000001,53.7082679],[44.726330300000015,53.71275290000001],[44.72212860000001,53.711336700000004],[44.70052820000001,53.72309820000001],[44.6897177,53.7507084],[44.663724,53.7510539],[44.6638693,53.7568838],[44.63857570000001,53.755324800000004],[44.6362607,53.77053780000001],[44.6188442,53.769442500000004],[44.63641530000001,53.785837300000004],[44.650518600000005,53.77877410000001],[44.6698961,53.77931060000001],[44.66920580000001,53.782048],[44.654283199999995,53.7884881],[44.654191,53.79958430000001],[44.6038241,53.79897500000001],[44.600399900000006,53.8394492],[44.5915893,53.844978499999996],[44.60233310000001,53.850070699999996],[44.60503020000001,53.85645999999999],[44.6132688,53.857618499999994],[44.6108969,53.866199200000004],[44.602314500000006,53.8718167],[44.6069495,53.8724221],[44.603136500000005,53.8768963],[44.607604499999994,53.881194699999995],[44.6142133,53.879224699999995],[44.61883890000001,53.884332300000004],[44.62691050000001,53.8832188],[44.630773100000006,53.8917141],[44.65127759999999,53.886406199999996],[44.654191,53.89146149999999],[44.6414988,53.8960624],[44.63943570000001,53.9041513],[44.6602018,53.9041999],[44.655740900000005,53.9080946],[44.6602843,53.911125999999996],[44.6696415,53.9070332],[44.685678300000006,53.914914599999996],[44.6936675,53.9074384],[44.69555180000001,53.900308900000006],[44.72309620000001,53.886406199999996],[44.727985700000005,53.889794599999995],[44.7248956,53.89702139999999],[44.73853730000001,53.897829099999996],[44.744032000000004,53.9058192],[44.7213745,53.9162283],[44.725840100000006,53.923658700000004],[44.75081290000001,53.9202746],[44.75552810000001,53.9232565],[44.77852230000001,53.9228017],[44.79215900000001,53.92891480000001],[44.8031486,53.926690300000004],[44.817475599999995,53.933813900000004],[44.8150707,53.9376988],[44.821597399999995,53.952094599999995],[44.832570200000006,53.9640607],[44.856685799999994,53.9596199],[44.8715259,53.96850270000001],[44.88680469999999,53.96451530000001],[44.9012138,53.9656706],[44.903621099999995,53.9599689],[44.932706,53.9604777],[44.9334858,53.9552269],[44.9249054,53.95426789999999],[44.9231837,53.948866699999996],[44.929276800000004,53.9456799],[44.93845520000001,53.9473459],[44.94172449999999,53.955679999999994],[44.9481515,53.9561317],[44.9602457,53.96431290000001],[44.98428129999999,53.9573956],[44.9927695,53.961536200000005],[44.988734900000004,53.968400100000004],[44.99019020000001,53.9707734],[45.007186,53.971125300000004],[45.0072682,53.959112700000006],[45.05145749999999,53.959671199999995],[45.067398100000005,53.956755900000005],[45.0712822,53.9605298],[45.09582090000001,53.952296999999994],[45.1076608,53.956337],[45.1159816,53.9461886],[45.1216436,53.947449999999996],[45.119156600000004,53.953762],[45.1270847,53.958212700000004],[45.133234800000004,53.9674626],[45.144555700000005,53.964110700000006],[45.17803000000001,53.971712600000004],[45.1898928,53.95842439999999],[45.210633800000004,53.9588161],[45.2706862,53.91668759999999],[45.28260590000001,53.9180996],[45.287500200000004,53.9085012],[45.29299010000001,53.9076423],[45.29564920000001,53.9020268],[45.298482500000006,53.8715337],[45.356654899999995,53.8700157],[45.3672085,53.873913800000004],[45.3624038,53.8752772],[45.3646393,53.878056900000004],[45.3621496,53.88164859999999],[45.3661795,53.8849388],[45.4154348,53.89788049999999],[45.4727446,53.9001577],[45.4854371,53.8900957],[45.49573650000001,53.888982399999996],[45.529289399999996,53.8911047],[45.541814499999994,53.8950035],[45.52894560000001,53.907384099999994],[45.5226832,53.9071316],[45.517101,53.917896899999995],[45.5408727,53.9293697],[45.564036300000005,53.9294652],[45.575282900000005,53.924009399999996],[45.5994711,53.92234680000001],[45.6249595,53.92951930000001],[45.62796,53.9257806],[45.618428300000005,53.921687899999995],[45.6337917,53.913755],[45.661675200000005,53.918153700000005],[45.704491399999995,53.895757100000004],[45.71951570000001,53.8976293],[45.737455100000005,53.9064913],[45.72531650000001,53.9173943],[45.72255440000001,53.9261894],[45.7113606,53.9315682],[45.71237820000001,53.942035100000005],[45.7160852,53.94668699999999],[45.7392473,53.94186319999999],[45.7813641,53.96551800000001],[45.813633499999995,53.97571590000001],[45.8172322,53.9671691],[45.8303979,53.9665884],[45.833016300000004,53.975473300000004],[45.850306999999994,53.9792912],[45.851471999999994,53.9877462],[45.857450899999996,53.9946513],[45.866378700000006,53.994928300000005],[45.8718186,53.988948300000004],[45.87269,53.9811938],[45.904709,53.981635399999995],[45.90573260000001,53.98442299999999],[45.8915361,53.997590800000005],[45.889948399999994,54.005031],[45.89273130000001,54.007081299999996],[45.92812690000001,54.0054764],[45.922819200000006,53.9924647],[45.924477399999994,53.9857416],[45.932399100000005,53.9831006],[45.936884799999994,53.985156700000005],[45.926078800000006,53.995678600000005],[45.932641,53.9980235],[45.93748939999999,53.9943712],[45.93297930000001,54.0018451],[45.937046099999996,54.00428409999999],[45.9366116,54.0122049],[45.94713230000001,54.014982999999994],[45.943912600000004,54.020678800000006],[45.9470117,54.0272637],[45.961464899999996,54.03078],[45.9585401,54.024770800000006],[45.976410300000005,54.0198025],[45.97375890000001,54.0034269],[45.9648259,54.003423999999995],[45.95925999999999,53.99598580000001],[45.9675546,53.9904065],[45.98343439999999,53.995543700000006],[45.986336800000004,53.9924496],[45.985606499999996,53.9899699],[45.97466299999999,53.9886591],[45.9756716,53.9855961],[45.9880687,53.984554599999996],[45.9940593,53.987168],[46.001423499999994,53.984854899999995],[46.003857499999995,53.980768399999995],[46.030821399999994,53.98440439999999],[46.03051530000001,53.97682],[46.04572590000001,53.9754911],[46.0488027,53.972726200000004],[46.0610862,53.9791448],[46.063596800000006,53.976939300000005],[46.0613827,53.970821099999995],[46.06913720000001,53.9666005],[46.0780671,53.96613800000001],[46.0738266,53.973318600000006],[46.0830368,53.975646],[46.0888689,53.9712482],[46.0850658,53.9639346],[46.0869658,53.95942099999999],[46.09825210000001,53.9557463],[46.0976584,53.9526913],[46.107735500000004,53.9471408],[46.1042185,53.94315],[46.1077573,53.940986099999996],[46.0994445,53.934815300000004],[46.1004316,53.9326468],[46.121951700000004,53.93468479999999],[46.11507530000001,53.927668399999995],[46.1244263,53.92151810000001],[46.133194800000005,53.925596500000005],[46.12753870000001,53.928840300000005],[46.12490290000001,53.9349779],[46.14823290000001,53.9355424],[46.1501667,53.92603590000001],[46.163785600000004,53.9241434],[46.165980600000005,53.921234],[46.16055300000001,53.91668759999999],[46.1620275,53.913323],[46.172698600000004,53.9175513],[46.185293800000004,53.9119988],[46.177834499999996,53.901473499999994],[46.1871716,53.902645],[46.181624899999996,53.8962217],[46.1868937,53.890782300000005],[46.217747499999994,53.8850961],[46.21810890000001,53.881808199999995],[46.2088618,53.882847899999994],[46.2052807,53.886704099999996],[46.194301,53.8830082],[46.173801399999995,53.857006899999995],[46.1713872,53.83169839999999],[46.173285,53.8188186],[46.1436079,53.79951340000001],[46.1631696,53.80798299999999],[46.16307220000001,53.804184299999996],[46.1676065,53.805665499999996],[46.17272020000001,53.796735300000016],[46.19231530000002,53.79616520000001],[46.2013841,53.8003931],[46.2054614,53.797332900000015],[46.210269,53.79920550000001],[46.21631510000001,53.793677100000004],[46.243086,53.8018532],[46.245836800000006,53.8005541],[46.2247848,53.7904417],[46.22917620000001,53.78867890000001],[46.23811440000001,53.79542250000001],[46.250098900000005,53.7949734],[46.2516783,53.79293850000001],[46.24571420000001,53.788877],[46.247536200000006,53.786794900000004],[46.267663399999996,53.7920645],[46.28517890000001,53.78825330000001],[46.28857670000001,53.7856084],[46.287421599999995,53.7792207],[46.2567206,53.771453],[46.2468734,53.7549091],[46.27615320000001,53.7408585],[46.3035054,53.7590263],[46.3206025,53.752363],[46.319442699999996,53.7478925],[46.325613800000006,53.74816880000001],[46.3303884,53.7442249],[46.3311655,53.741446599999996],[46.323359800000006,53.734717800000006],[46.329968900000004,53.735004100000005],[46.3273706,53.7318179],[46.33198149999999,53.732954400000004],[46.328082900000005,53.72534620000001],[46.33756439999999,53.7194937],[46.337011399999994,53.70883330000001],[46.349156300000004,53.70092820000001],[46.37648109999999,53.670359000000005],[46.3979798,53.665668700000005],[46.434259399999995,53.6513506],[46.43515500000001,53.643738500000005],[46.438391,53.64899260000001],[46.44788539999999,53.6538369],[46.453416999999995,53.6526576],[46.449639399999995,53.6454868],[46.45344839999999,53.643573800000006],[46.4493457,53.64213300000001],[46.479751,53.6179906],[46.4713034,53.6090688],[46.4449549,53.60350520000001],[46.449633,53.5818452],[46.448750600000004,53.542399100000004],[46.45069719999999,53.5395615],[46.4633594,53.5417863],[46.45928369999999,53.5338881],[46.4670438,53.522910300000014],[46.4557966,53.512958000000005],[46.4490505,53.5138287],[46.4625247,53.5060807],[46.465571800000006,53.5092961],[46.50428939999999,53.4811053],[46.49837130000001,53.4790261],[46.521320800000005,53.46439],[46.532285300000005,53.4829697],[46.5448537,53.482952000000004],[46.5559643,53.48676139999999],[46.5489643,53.476975700000004],[46.552762200000004,53.4779973],[46.5586402,53.4668609],[46.568175300000014,53.4624855],[46.5896366,53.467598800000005],[46.607771,53.455752600000004],[46.609521900000004,53.4624808],[46.62005380000001,53.4675987],[46.64111230000001,53.470820599999996],[46.64975280000001,53.468774700000004],[46.66993280000001,53.4823946],[46.68212380000001,53.4750907],[46.6728734,53.453576],[46.6800348,53.4521025],[46.6598423,53.4488856],[46.6595407,53.441856599999994],[46.6693404,53.437921599999996],[46.6750544,53.428839200000006],[46.7035076,53.43563820000001],[46.7119177,53.429014300000006],[46.709724200000004,53.4208009],[46.7200836,53.4151098],[46.74615270000001,53.4159705],[46.7470397,53.4073473],[46.7512881,53.40426699999999],[46.7470491,53.395609900000004],[46.7543017,53.397849099999995],[46.7581872,53.3909481],[46.76253850000001,53.39037820000001],[46.7709496,53.3947531],[46.7896009,53.3823594],[46.791833800000006,53.3726778],[46.817088299999995,53.366981599999995],[46.908163300000005,53.3626054],[46.898875600000004,53.27875720000001],[46.901971599999996,53.2764631],[46.910659599999995,53.281837599999996],[46.9365211,53.281158600000005],[46.929702500000005,53.28619990000001],[46.9340057,53.2875295],[46.9455468,53.2841806],[46.9430419,53.2802371],[46.9552135,53.28555590000001],[46.9588451,53.2818725],[46.9581897,53.275030400000006],[46.936358600000005,53.2690944],[46.9362092,53.2580811],[46.942158600000006,53.250974],[46.933827599999994,53.2471697],[46.9309013,53.252137100000006],[46.922093700000005,53.256128800000006],[46.9038592,53.2558068],[46.8906857,53.2486243],[46.88496759999999,53.24995220000001],[46.8725217,53.238780600000005],[46.874918900000004,53.215520700000006],[46.863375700000006,53.20971480000001],[46.864172700000005,53.17771270000001],[46.8765232,53.1668682],[46.9295285,53.170762],[46.9374328,53.175390500000006],[46.947647999999994,53.1633274],[46.9399858,53.1592039],[46.94813370000001,53.12824220000001],[46.9722264,53.13012890000001],[46.973592700000005,53.119696],[46.9466518,53.112531000000004],[46.946925300000004,53.1078368],[46.9567579,53.0965274],[46.92919230000001,53.09004230000001],[46.9079473,53.09097270000001],[46.90462699999999,53.0867379],[46.9271827,53.082914],[46.93873630000001,53.084016399999996],[46.936182300000006,53.07171520000001],[46.93311620000001,53.0712724],[46.924684799999994,52.9966893],[46.918150100000005,52.9970942],[46.9113452,52.967432200000005],[46.9262317,52.9662346],[46.9179142,52.920403],[46.9245451,52.91987339999999],[46.926556000000005,52.9166103],[46.91813530000001,52.9139316],[46.9075724,52.9013797],[46.884701899999996,52.89031790000001],[46.8938762,52.8904939],[46.8962655,52.8759968],[46.9095585,52.8756795],[46.9180409,52.8623801],[46.927863099999996,52.859152],[46.9259495,52.855516800000004],[46.9335015,52.843007699999994],[46.93733890000001,52.825514500000004],[46.959171,52.8150906],[46.96251850000001,52.818052800000004],[46.9813651,52.820750100000005],[46.98084419999999,52.81722419999999],[46.970915000000005,52.809671599999994],[46.966419900000005,52.7864833],[46.9713693,52.7590938],[46.958045999999996,52.75230260000001],[46.9424933,52.7527414],[46.9332907,52.746667099999996],[46.931133700000004,52.7407515],[46.9371976,52.73848590000001],[46.9401434,52.7219637],[46.8688061,52.71148339999999],[46.8655046,52.7025276],[46.85184609999999,52.696419600000006],[46.847894999999994,52.691056],[46.841662199999995,52.69531960000001],[46.8186499,52.69753980000001],[46.8169481,52.6814253],[46.7996855,52.66976280000001],[46.8063887,52.662659600000005],[46.8011349,52.6583416],[46.8013525,52.649610100000004],[46.79659610000001,52.64146159999999],[46.80418149999999,52.6347832],[46.799463700000004,52.63271390000001],[46.8010702,52.6208276]]]]}}