{"type":"Feature","properties":{"regionId":"permskiy_kray","name":"Пермский край","name:en":"Perm Krai","timezone":"Asia/Yekaterinburg","name_ru":"Пермский край","name_en":"Perm Krai","name_zh":"彼尔姆边疆区"},"geometry":{"type":"Polygon","coordinates":[[[57.4107285,56.346031599999996],[57.395154600000005,56.3402173],[57.4004019,56.3396243],[57.390734,56.33149709999999],[57.37448839999999,56.3356146],[57.3490925,56.3313375],[57.3531765,56.320813900000005],[57.344108399999996,56.315276399999995],[57.324944599999995,56.31488719999999],[57.3146553,56.320999900000004],[57.29881850000001,56.3208356],[57.306644899999995,56.310391599999996],[57.28503830000001,56.3047391],[57.2936412,56.29357960000001],[57.287669699999995,56.288298000000005],[57.29677920000001,56.2826805],[57.29216400000001,56.27951010000001],[57.298041500000004,56.27227810000001],[57.248166000000005,56.2712577],[57.2192942,56.249383],[57.19528570000001,56.250602300000004],[57.196712200000015,56.2405794],[57.2054746,56.237776600000004],[57.20557650000001,56.2274695],[57.2113841,56.225600400000005],[57.22417120000001,56.23151910000001],[57.227788200000006,56.2297634],[57.20674820000001,56.2194825],[57.2064935,56.2148368],[57.21617290000001,56.208547200000005],[57.200482,56.19639010000001],[57.2110785,56.19330060000001],[57.227380700000005,56.199451],[57.2315072,56.193924200000005],[57.235480800000005,56.193584],[57.2040481,56.18819810000001],[57.2004311,56.1810536],[57.2098049,56.1778778],[57.20893880000001,56.1724046],[57.2037934,56.1693415],[57.1856572,56.17175230000001],[57.16010000000001,56.1612],[57.1448391,56.165788600000006],[57.114189499999995,56.159438200000004],[57.105085800000005,56.161853],[57.0645341,56.159072800000004],[57.06259820000001,56.1558384],[57.044665699999996,56.150958],[57.0456628,56.1449343],[57.0401201,56.140101800000004],[57.0467484,56.1306473],[57.0459641,56.126737000000006],[57.0072009,56.1366114],[57.002872200000006,56.132654800000005],[56.990300100000006,56.13010520000001],[56.9860134,56.125286700000004],[56.9700551,56.12502560000001],[56.92133330000001,56.1038833],[56.9104543,56.110592700000005],[56.8840188,56.1104853],[56.8779525,56.115109000000004],[56.86892830000001,56.131773800000005],[56.86575010000001,56.14977820000001],[56.8499581,56.166301700000005],[56.833912100000006,56.1688636],[56.8225445,56.164510500000006],[56.8013763,56.1644663],[56.79561260000001,56.16903920000001],[56.7830045,56.16434590000001],[56.767802700000004,56.1842384],[56.76837910000001,56.19353950000001],[56.7469744,56.209608900000006],[56.7589935,56.2139821],[56.75816030000001,56.2190497],[56.751780499999995,56.2174607],[56.7419638,56.22500990000001],[56.7314202,56.22221800000001],[56.725128800000014,56.2308415],[56.652678900000005,56.23296560000001],[56.656461099999994,56.23547010000001],[56.6482077,56.2418566],[56.6566398,56.2400436],[56.65464849999999,56.241272],[56.65830220000001,56.244936700000004],[56.641181499999995,56.2476278],[56.637678900000004,56.251008999999996],[56.6426795,56.2499826],[56.643042200000004,56.252997300000004],[56.6530406,56.255968300000006],[56.6515566,56.26291940000001],[56.6466662,56.26200830000001],[56.6452851,56.258293900000005],[56.6214047,56.26610260000001],[56.5947476,56.262980600000006],[56.59712510000001,56.2742227],[56.5786813,56.290499800000006],[56.52853710000001,56.3203564],[56.506254,56.344040799999995],[56.53503370000001,56.3501883],[56.535614900000006,56.358868199999996],[56.53221010000001,56.3581372],[56.5326215,56.36148729999999],[56.5722438,56.38902099999999],[56.5326315,56.3970311],[56.508561,56.3766554],[56.506634399999996,56.379355200000006],[56.500573300000006,56.376592300000006],[56.500026399999996,56.3806103],[56.483962399999996,56.388626099999996],[56.4713401,56.3698073],[56.4608273,56.36559290000001],[56.448195000000005,56.3713166],[56.45608719999999,56.3749371],[56.4420891,56.381420799999994],[56.43784139999999,56.379624099999994],[56.435853,56.373571399999996],[56.42572990000001,56.37568749999999],[56.4314785,56.3865939],[56.406423399999994,56.405368900000006],[56.405607399999994,56.4053475],[56.39955270000001,56.400458300000004],[56.362071300000004,56.3886029],[56.37780359999999,56.3616239],[56.36194759999999,56.3655692],[56.34722239999999,56.3628336],[56.32468179999999,56.3652068],[56.3188409,56.34769849999999],[56.321916900000005,56.3413821],[56.301597199999996,56.332745],[56.291251800000005,56.323030800000005],[56.29505860000001,56.3185064],[56.2824807,56.3156187],[56.28012890000001,56.308068999999996],[56.285953400000004,56.30442179999999],[56.267411100000004,56.3057434],[56.242850600000004,56.31478669999999],[56.227944900000004,56.3133988],[56.226264300000004,56.31754359999999],[56.23537310000001,56.3205662],[56.22423510000001,56.3250292],[56.2176628,56.3243095],[56.218416700000006,56.316403099999995],[56.162298400000005,56.31716449999999],[56.16311060000001,56.313320399999995],[56.12262580000001,56.310245099999996],[56.1198099,56.3081242],[56.127068,56.303891099999994],[56.12275320000001,56.3019727],[56.1248585,56.30038],[56.1127898,56.29965570000001],[56.1132927,56.2948335],[56.09207520000001,56.29397510000001],[56.08111290000001,56.29031610000001],[56.075818700000006,56.2908875],[56.079365900000006,56.29509550000001],[56.0774338,56.29691320000001],[56.0511167,56.3142387],[56.05456349999999,56.3199755],[56.04897530000001,56.3292418],[56.040362900000005,56.3328249],[56.04380739999999,56.338045900000004],[56.0420795,56.3399314],[56.017533900000004,56.339722900000005],[55.9781996,56.3608493],[55.9772191,56.365604],[55.95781749999999,56.369250300000004],[55.95253580000001,56.3737547],[55.9502749,56.3832173],[55.9415283,56.3887458],[55.947207199999994,56.39635270000001],[55.9464702,56.406628],[55.9376507,56.411440799999994],[55.9320372,56.419365],[55.91986659999999,56.44954739999999],[55.908537100000004,56.4561419],[55.8792365,56.456682199999996],[55.875154200000004,56.4544989],[55.8762373,56.4485304],[55.867046499999994,56.44297890000001],[55.8775858,56.44084459999999],[55.8747554,56.43273310000001],[55.8368102,56.4206498],[55.827656499999996,56.4230828],[55.825627499999996,56.4272991],[55.7894424,56.4356288],[55.7743094,56.445925],[55.7390464,56.430492900000004],[55.72894870000001,56.435146],[55.707317700000004,56.43571490000001],[55.697941300000004,56.425177000000005],[55.695839500000005,56.4109168],[55.6919546,56.408486399999994],[55.6695714,56.409669199999996],[55.6677176,56.4022299],[55.6493291,56.4019038],[55.6332817,56.39579620000001],[55.627858800000006,56.400694099999996],[55.5736319,56.3917561],[55.5373062,56.3799825],[55.52203270000001,56.3807459],[55.509158000000006,56.3606082],[55.49331060000001,56.3555093],[55.4595571,56.3316083],[55.422059700000005,56.3310125],[55.40483699999999,56.326682399999996],[55.4024408,56.320035000000004],[55.3852403,56.317093799999995],[55.3786334,56.322614800000004],[55.36831060000001,56.32373380000001],[55.351124299999995,56.31787669999999],[55.3327064,56.31699],[55.3266893,56.311540099999995],[55.3127166,56.3203994],[55.2818539,56.3207688],[55.2610467,56.328334700000006],[55.2590565,56.3349067],[55.2419105,56.337012300000005],[55.23850350000001,56.34464369999999],[55.215576000000006,56.3608381],[55.2141916,56.3664763],[55.20531430000001,56.3722263],[55.1879452,56.358086099999994],[55.1886701,56.3497379],[55.19627070000001,56.343835999999996],[55.1949115,56.337377],[55.199528400000005,56.3329095],[55.2012679,56.3245171],[55.195378800000015,56.3114389],[55.19651200000001,56.30745099999999],[55.18575030000001,56.30480969999999],[55.1500024,56.307456099999996],[55.139539000000006,56.31106009999999],[55.144741399999994,56.3185211],[55.13856080000001,56.3309021],[55.1418373,56.3363612],[55.134851499999996,56.3441062],[55.123611200000006,56.346596999999996],[55.1135961,56.353873699999994],[55.09879210000001,56.35168249999999],[55.1016608,56.3455036],[55.090129000000005,56.3489025],[55.0826482,56.345072200000004],[55.0705765,56.3451842],[55.07375220000001,56.340617599999995],[55.0677241,56.339659],[55.0740097,56.3380962],[55.07161,56.3371954],[55.06613880000001,56.3371687],[55.062937500000004,56.342235],[55.0593971,56.3395683],[55.049792700000005,56.34405399999999],[55.0456824,56.3399808],[55.0397632,56.34494639999999],[55.03633000000001,56.3394758],[55.0232249,56.3427591],[55.025066800000005,56.3395642],[55.02041680000001,56.340110300000006],[55.020451300000005,56.332148800000006],[55.0279443,56.3342563],[55.027661099999996,56.3296269],[55.02290530000001,56.3294909],[55.0271065,56.3257216],[55.01168909999999,56.3204017],[55.0116389,56.324132000000006],[55.00404139999999,56.3252839],[55.003270300000004,56.3293462],[54.992057700000004,56.32813920000001],[54.990913600000006,56.3250656],[54.9890073,56.3276289],[54.9832968,56.3263877],[54.974940999999994,56.336408999999996],[54.943592300000006,56.3372135],[54.942623499999996,56.343074699999995],[54.938676900000004,56.3452991],[54.9413463,56.357667599999985],[54.936100800000006,56.3610368],[54.93870020000001,56.367975900000005],[54.9294803,56.3751626],[54.929618600000005,56.38024839999999],[54.8992971,56.3900828],[54.8903856,56.386361599999994],[54.880823799999995,56.38764639999999],[54.8646556,56.395589],[54.8657847,56.3996166],[54.863078800000004,56.4023004],[54.85638719999999,56.401540499999996],[54.838534900000006,56.407059399999994],[54.8481618,56.416192],[54.8480436,56.4201576],[54.8396623,56.41989449999999],[54.83026449999999,56.4141324],[54.808260499999996,56.423011],[54.7884212,56.426412600000006],[54.79610840000001,56.4312309],[54.7916576,56.436128700000005],[54.733820800000004,56.4304092],[54.71243330000001,56.450989799999995],[54.7071917,56.4641249],[54.694341800000004,56.46872880000001],[54.695367000000005,56.472134100000005],[54.6796438,56.4862003],[54.67839210000001,56.4936227],[54.6821844,56.501397],[54.657791399999994,56.498554000000006],[54.646429399999995,56.500862],[54.63219420000001,56.5095244],[54.61472,56.5046469],[54.603273900000005,56.5138347],[54.6119117,56.52857510000001],[54.60915000000001,56.53131520000001],[54.577733,56.534643499999994],[54.5573021,56.52543070000001],[54.5585891,56.521450800000004],[54.5475,56.5179],[54.5398,56.511399999999995],[54.5392,56.49530000000001],[54.530100000000004,56.4863],[54.5272,56.4798],[54.529300000000006,56.4735],[54.5248,56.468],[54.502500000000005,56.4604],[54.5014,56.453199999999995],[54.493700000000004,56.4467],[54.4979,56.432500000000005],[54.4918,56.426],[54.486399999999996,56.4107],[54.48,56.405100000000004],[54.462700000000005,56.4003],[54.460300000000004,56.387699999999995],[54.4466,56.37479999999999],[54.4469,56.3703],[54.457499999999996,56.357099999999996],[54.4490009,56.34541230000001],[54.4382311,56.35048399999999],[54.4334027,56.359021799999994],[54.4186228,56.3620863],[54.4204412,56.3688177],[54.4140381,56.37577580000001],[54.4004702,56.377261299999994],[54.394241199999996,56.3819853],[54.377579,56.3787016],[54.370077499999994,56.3825621],[54.3639888,56.3915141],[54.354164899999994,56.3935204],[54.356477899999994,56.3961899],[54.3467998,56.4015291],[54.3489577,56.4113721],[54.34228439999999,56.4175378],[54.3384556,56.4305651],[54.3436131,56.438741],[54.3399562,56.44724299999999],[54.344629299999994,56.4562459],[54.3295991,56.4640907],[54.3286345,56.4717571],[54.3316161,56.47391530000001],[54.32879500000001,56.482894699999996],[54.2440863,56.458165300000005],[54.218731500000004,56.46935570000001],[54.211918100000005,56.47852880000001],[54.211380999999996,56.488018200000006],[54.2158831,56.4919995],[54.2060904,56.492546100000006],[54.2058978,56.49870560000001],[54.19038890000001,56.506258700000004],[54.191302500000006,56.5344633],[54.14126639999999,56.53214580000001],[54.1396174,56.535810100000006],[54.1238294,56.53617260000001],[54.1079598,56.541972200000004],[54.1097414,56.5616681],[54.1037285,56.56874030000001],[54.10852570000001,56.5726482],[54.1032812,56.5791685],[54.096748600000005,56.576160300000005],[54.0845041,56.58367139999999],[54.0702806,56.5777208],[54.0549928,56.5924094],[54.0416182,56.5790772],[54.0335735,56.5796969],[54.0335735,56.5890727],[54.0509518,56.60357930000001],[54.0640543,56.6245466],[54.0797547,56.62806380000001],[54.0824093,56.6354011],[54.0759905,56.63893330000001],[54.033290900000004,56.6347515],[54.010261099999994,56.619946],[53.9580619,56.600298300000006],[53.91494109999999,56.59877390000001],[53.9008689,56.59339130000001],[53.8979867,56.593702400000005],[53.902225300000005,56.5977472],[53.8917701,56.5945114],[53.87668059999999,56.597965],[53.86488349999999,56.58881290000001],[53.8410198,56.5967205],[53.8388537,56.62568830000001],[53.847556999999995,56.62904580000001],[53.85156949999999,56.621708700000006],[53.8652461,56.62037170000001],[53.86411580000001,56.628766000000006],[53.853014099999996,56.6320574],[53.8452399,56.64337390000001],[53.852982399999995,56.64632580000001],[53.85100439999999,56.6542173],[53.884968199999996,56.66253260000001],[53.9017052,56.6790685],[53.88494909999999,56.67890830000001],[53.885946999999994,56.717607199999996],[53.84960699999999,56.71819180000001],[53.8540539,56.758561],[53.8271597,56.759525000000004],[53.8067852,56.77960890000001],[53.8232031,56.7876972],[53.8230994,56.79317420000001],[53.8318733,56.7974461],[53.794068200000005,56.79911030000002],[53.7974371,56.80897280000001],[53.8058992,56.8195402],[53.8243377,56.820930000000004],[53.8791145,56.808505700000005],[53.9173713,56.7722836],[53.931067299999995,56.77275420000001],[53.9395833,56.76679820000001],[53.936134200000005,56.7648585],[53.9386425,56.762706400000006],[53.95785789999999,56.7550014],[53.990412500000005,56.750668399999995],[54.020411900000006,56.753196200000005],[54.032529800000006,56.7579268],[54.0612749,56.77825070000001],[54.0594305,56.7896742],[54.06254680000001,56.79595680000001],[54.07915800000001,56.81186779999999],[54.0864712,56.81208099999999],[54.0868562,56.8345317],[54.103018000000006,56.8611713],[54.099931500000004,56.8901215],[54.107619,56.88754959999999],[54.1236826,56.892039200000006],[54.147327,56.9165727],[54.149965,56.9248608],[54.1456936,56.9447057],[54.151228999999994,56.9587754],[54.1468973,56.9686975],[54.154217499999994,56.978818200000006],[54.179872100000004,56.98633830000001],[54.22121210000001,56.9918769],[54.2282865,56.9916371],[54.2585217,56.9789298],[54.300287899999994,56.970251499999996],[54.341431299999996,56.9732185],[54.3630098,56.98182359999999],[54.4007221,57.005454300000004],[54.408701,57.0169236],[54.436131,57.0310043],[54.3939869,57.040053300000004],[54.38996169999999,57.052373200000005],[54.393497399999994,57.058145200000006],[54.3695177,57.06935790000001],[54.3449727,57.069855800000006],[54.3456281,57.077829599999994],[54.3138033,57.07991870000001],[54.3116329,57.085368],[54.315459399999995,57.09133270000001],[54.29571050000001,57.10853110000001],[54.297162500000006,57.1130283],[54.3070957,57.11030890000001],[54.3233686,57.111614499999995],[54.316646899999995,57.118540900000006],[54.3211737,57.1178963],[54.3306231,57.1312167],[54.3207241,57.140603],[54.3244752,57.1489941],[54.3386417,57.1510587],[54.34784119999999,57.158411300000004],[54.3057018,57.185247],[54.31128469999999,57.196511400000006],[54.3343517,57.20578810000001],[54.3286608,57.209096],[54.3294602,57.2146161],[54.331969199999996,57.2128861],[54.3307203,57.20930380000001],[54.339702200000005,57.212367],[54.335142100000006,57.214435300000005],[54.34028339999999,57.217143],[54.3407021,57.2232884],[54.321345,57.22267240000001],[54.3167132,57.2268376],[54.3217982,57.2288611],[54.297993500000004,57.240007],[54.299060100000005,57.2474068],[54.3268311,57.26674520000001],[54.3249702,57.2811904],[54.3050909,57.2840454],[54.31116899999999,57.30604339999999],[54.2168343,57.30637],[54.2046682,57.29975170000001],[54.1854698,57.31163139999999],[54.1842082,57.3163982],[54.14227280000001,57.316530900000004],[54.140045900000004,57.3240238],[54.127582000000004,57.3291413],[54.12333810000001,57.3457826],[54.14917890000001,57.37182459999999],[54.1198769,57.377805599999995],[54.1427654,57.3868303],[54.14643890000001,57.3910563],[54.145026,57.39444439999999],[54.1549161,57.401067299999994],[54.20679080000001,57.3996977],[54.2184245,57.4107332],[54.232200000000006,57.4161738],[54.2366947,57.4139373],[54.2811718,57.4263534],[54.29247480000001,57.4325295],[54.2871624,57.4400428],[54.278459100000006,57.4384004],[54.27325270000001,57.4406587],[54.27721580000001,57.4508387],[54.2736554,57.4550345],[54.2738249,57.461266499999994],[54.188590500000004,57.46812280000001],[54.1796385,57.471964199999995],[54.1838432,57.474322300000004],[54.1748913,57.479742800000004],[54.143876,57.48394749999999],[54.1704401,57.501629699999995],[54.16901670000001,57.512820999999995],[54.1730954,57.521943900000004],[54.142203200000004,57.53237550000001],[54.12655990000001,57.5311862],[54.113674499999995,57.5356276],[54.1070284,57.528856100000006],[54.088491499999996,57.5268171],[54.07913270000001,57.5311619],[54.0639415,57.52936580000001],[54.0599177,57.5145078],[54.031841099999994,57.5238797],[54.033107,57.53011820000001],[54.0394367,57.53164739999999],[54.051643899999995,57.52805500000001],[54.0543566,57.5315745],[54.044726499999996,57.544242],[54.058109200000004,57.5448728],[54.0565597,57.56065890000001],[54.0446361,57.5664114],[54.04391270000001,57.5703637],[54.0308549,57.5639691],[54.033703300000006,57.5622716],[54.0244801,57.5565965],[54.0089272,57.5626839],[54.0054911,57.55911890000001],[53.9918371,57.5593371],[53.99531840000001,57.5760435],[54.0020465,57.57691620000001],[54.0000205,57.5813762],[53.98605,57.5869748],[54.0138101,57.59681260000001],[54.02212910000001,57.588065300000004],[54.040194,57.5867154],[54.059279399999994,57.594556000000004],[54.051923599999995,57.6008585],[54.05187839999999,57.6058001],[54.075931100000005,57.6069869],[54.088364399999996,57.612969],[54.103148600000004,57.6067447],[54.126740700000006,57.615644399999994],[54.09826580000001,57.6356291],[54.050386399999994,57.6434213],[54.0507886,57.6466657],[54.0556479,57.6475853],[54.0636795,57.645236800000006],[54.0560548,57.6805838],[54.088111500000004,57.686243],[54.0841375,57.6898688],[54.1113087,57.69570720000001],[54.1043655,57.7003575],[54.110244099999996,57.7044879],[54.12000990000001,57.706049300000004],[54.12923240000001,57.700978600000006],[54.14214690000001,57.700286],[54.153117200000004,57.7019432],[54.155339000000005,57.70543030000001],[54.1483495,57.7071614],[54.1485476,57.7106887],[54.153524499999996,57.711084299999996],[54.155005800000005,57.714359900000005],[54.1327844,57.7180095],[54.1375273,57.72352070000001],[54.1116527,57.7411496],[54.12452210000001,57.744886699999995],[54.124759100000006,57.73933690000001],[54.135364700000004,57.739321100000005],[54.134505600000004,57.747511100000004],[54.1392455,57.752269399999996],[54.138682700000004,57.7566793],[54.155539000000005,57.774661099999996],[54.1499696,57.7806951],[54.15207290000001,57.7809005],[54.150177,57.78993380000001],[54.1431856,57.7909444],[54.119574,57.809494799999996],[54.13714220000001,57.8152373],[54.131513500000004,57.8199708],[54.136520100000006,57.82673870000001],[54.1308618,57.8275905],[54.13157280000001,57.83087139999999],[54.142296800000004,57.8343412],[54.141674699999996,57.839308800000005],[54.1324911,57.8429513],[54.1418525,57.8556733],[54.1290843,57.862891499999996],[54.1382679,57.87382639999999],[54.13059520000001,57.875984599999995],[54.09295260000001,57.9013797],[54.0856622,57.9184088],[54.102383800000005,57.92559920000001],[54.10261530000001,57.92971610000001],[54.11893190000001,57.9471924],[54.1364685,57.9579789],[54.078950400000004,57.9919346],[54.0801654,58.000336700000005],[54.0716021,58.0097484],[53.9899368,58.06971290000001],[53.9764376,58.0761813],[53.958847999999996,58.0774748],[53.947080299999996,58.0848373],[53.9364402,58.1062669],[53.9465658,58.115100600000005],[53.9488802,58.1211515],[53.9372503,58.1349608],[53.944829999999996,58.1379236],[53.945871499999996,58.146596800000005],[53.9254468,58.1560921],[53.9008561,58.15810690000001],[53.8852338,58.164272600000004],[53.908204399999995,58.1796821],[53.881299299999995,58.20011610000001],[53.8263898,58.21014580000001],[53.7998897,58.22757680000001],[53.791500000000006,58.229191400000005],[53.7854626,58.2366074],[53.7894749,58.2438724],[53.80660149999999,58.24758739999999],[53.831076499999995,58.26296080000001],[53.8330437,58.2700212],[53.865734800000006,58.284107399999996],[53.8728951,58.3025665],[53.886680299999995,58.31435999999999],[53.872165900000006,58.3301971],[53.8559081,58.34219230000001],[53.8474199,58.3399595],[53.8460026,58.34564739999999],[53.828706700000005,58.3501319],[53.8453869,58.356515800000004],[53.84028139999999,58.3658719],[53.8203491,58.3686097],[53.8152289,58.372012500000004],[53.8112358,58.37708439999999],[53.817993599999994,58.3839725],[53.8128009,58.3916109],[53.7917314,58.4015978],[53.77257520000001,58.4206437],[53.7863114,58.44528699999999],[53.7837645,58.4839331],[53.7569043,58.5179437],[53.73774590000001,58.566703700000005],[53.724726200000006,58.5745813],[53.7026412,58.6021274],[53.7490206,58.634453900000004],[53.76717000000001,58.6564449],[53.7613454,58.66417500000001],[53.7514239,58.66671210000001],[53.74396,58.6769947],[53.73691120000001,58.67873600000001],[53.73541840000001,58.68213600000001],[53.7390667,58.6912578],[53.7700804,58.7041947],[53.7800312,58.7114922],[53.783182000000004,58.719536000000005],[53.7802794,58.72202370000001],[53.78591830000001,58.72426290000001],[53.799601300000006,58.72185820000001],[53.8311958,58.728741500000005],[53.8436342,58.7396048],[53.91204749999999,58.7546982],[53.926100500000004,58.763417000000004],[53.9236549,58.76576420000001],[53.9312421,58.773890900000005],[53.9169788,58.778037000000005],[53.914946799999996,58.78537570000001],[53.9261412,58.79474630000001],[53.8264224,58.828951200000006],[53.79859970000001,58.858430399999996],[53.79636060000001,58.861913200000004],[53.79901270000001,58.8910196],[53.77351190000001,58.918177],[53.7536491,58.964697199999996],[53.77111270000001,59.003996],[53.790244300000005,59.0171195],[53.841904799999995,59.0243314],[53.8756298,59.044473399999994],[53.8758201,59.067935600000006],[53.90291620000001,59.0868358],[53.87081739999999,59.12035480000001],[53.8169963,59.1114325],[53.804805699999996,59.124036800000006],[53.779429900000004,59.13879690000001],[53.76392220000001,59.1539719],[53.72511200000002,59.181336300000005],[53.682241399999995,59.151151399999996],[53.72378830000001,59.1204699],[53.72212990000001,59.1177749],[53.4913915,59.14837000000001],[53.4151407,59.147001599999996],[53.3941604,59.153635300000005],[53.38402169999999,59.152672100000004],[53.32672,59.2073966],[53.22606270000001,59.33026159999999],[53.22274420000001,59.3584558],[53.29073950000001,59.4186597],[53.357125999999994,59.4615519],[53.38465899999999,59.54048709999999],[53.4497007,59.7028484],[53.5977784,59.68742759999999],[53.6302998,59.742317500000006],[53.686697499999994,60.0098338],[53.62563610000001,60.1142326],[53.577372100000005,60.1445822],[53.563771700000004,60.1583474],[53.4891378,60.186126],[53.4752883,60.20453500000001],[53.460692900000005,60.2144857],[53.4365613,60.223524100000006],[53.4215518,60.22451900000001],[53.3726299,60.155608300000004],[53.07559320000001,60.1507118],[52.877651199999995,60.156182],[52.4422883,60.1867647],[52.317282299999995,60.227188000000005],[52.37189409999999,60.3563687],[52.332942300000006,60.3608143],[52.355027799999995,60.4380924],[52.124069399999996,60.464575800000006],[52.1528144,60.541242399999994],[51.7715414,60.57991200000001],[51.8335047,60.726085700000006],[51.892312300000015,60.881543099999995],[52.3609435,60.829175400000004],[52.4314333,60.976415900000006],[52.8064639,60.9377462],[52.8707305,61.09013110000001],[53.413588399999995,61.033484599999994],[53.398251300000005,61.0003892],[53.355153200000004,60.8826609],[53.66397690000001,60.8471196],[53.81382419999999,60.83160409999999],[53.8758313,60.982651],[54.9768506,60.859908],[55.050050399999996,61.009161],[55.1999605,60.9915626],[55.2758778,61.14871320000001],[55.7314992,61.095603200000006],[55.81308669999999,61.246777900000005],[56.274500700000004,61.19185830000001],[56.3260833,61.291241],[56.311971799999995,61.301254899999996],[56.3228946,61.332511100000005],[56.3782697,61.4431218],[56.5663405,61.4189994],[56.597365200000006,61.4928916],[56.6394705,61.4884921],[56.637194300000004,61.492588700000006],[56.6531242,61.524300100000005],[57.0805507,61.475297399999995],[57.0926875,61.50185],[58.84388179999999,61.4950446],[58.8441082,61.517879799999996],[58.9189484,61.531536300000006],[58.974044199999994,61.52207530000001],[58.9841565,61.532422000000004],[58.997164399999996,61.535161300000006],[59.023314000000006,61.5384061],[59.048309200000006,61.5363941],[59.058334300000006,61.541578],[59.0752919,61.5586908],[59.0824092,61.5603814],[59.090423,61.5743375],[59.118053,61.5946577],[59.123438500000006,61.6103617],[59.1532524,61.630921300000004],[59.16903230000001,61.6318319],[59.18746779999999,61.62819070000001],[59.19721580000001,61.63866],[59.206698900000006,61.63979810000001],[59.22995200000001,61.6319085],[59.23632500000001,61.62637050000001],[59.2436838,61.62705330000001],[59.267125500000006,61.63881260000001],[59.28188109999999,61.6416956],[59.2940346,61.655185700000004],[59.3489689,61.6630673],[59.357757299999996,61.644822399999995],[59.3555609,61.63677070000001],[59.3808155,61.62443280000001],[59.40351570000001,61.620528500000006],[59.413994699999996,61.60215120000001],[59.4011031,61.5916226],[59.4041821,61.58428839999999],[59.4021978,61.575357000000004],[59.41333590000001,61.551429999999996],[59.402861699999995,61.532574800000006],[59.412455300000005,61.523312800000014],[59.4420342,61.5173808],[59.446197,61.5109637],[59.4360619,61.4856324],[59.423031800000004,61.47545],[59.3997213,61.4648502],[59.4031966,61.4582573],[59.4277668,61.4453601],[59.4452098,61.416497799999995],[59.42674590000001,61.3986935],[59.3692386,61.393886099999996],[59.3626231,61.3855932],[59.3343961,61.3709278],[59.3121235,61.35438799999999],[59.31388839999999,61.3431411],[59.320615000000004,61.333548300000004],[59.28835830000001,61.3182339],[59.254015800000005,61.3121045],[59.254788399999995,61.306863699999994],[59.26173550000001,61.29947620000001],[59.261405,61.29319120000001],[59.2582546,61.291031800000006],[59.261736400000004,61.28271610000001],[59.251842599999996,61.260599400000004],[59.257189399999994,61.2514348],[59.26278290000001,61.25015330000001],[59.264274900000004,61.2366261],[59.268244700000004,61.231995000000005],[59.271883599999995,61.22890770000001],[59.284012800000006,61.22813600000001],[59.28930580000001,61.222512600000016],[59.28555850000001,61.19009520000001],[59.293203000000005,61.1772458],[59.2848979,61.171460599999996],[59.287324,61.1660577],[59.29217590000002,61.1612062],[59.3159936,61.15194439999999],[59.325808200000004,61.1320971],[59.3253674,61.12757630000001],[59.337276599999996,61.1163296],[59.3441136,61.1048623],[59.3473124,61.0832507],[59.3400352,61.078068200000004],[59.358670599999996,61.066270200000005],[59.34180049999999,61.0582208],[59.34334449999999,61.0520461],[59.3624208,61.043556],[59.3597749,61.034624599999994],[59.37091230000001,61.022054700000005],[59.374001299999996,60.9910708],[59.3713555,60.980926499999995],[59.3669451,60.978169900000005],[59.3693714,60.968356400000005],[59.383596,60.95909449999999],[59.3873458,60.944870599999994],[59.390874399999994,60.9429961],[59.4370751,60.9464149],[59.47688109999999,60.9378148],[59.4769917,60.9320811],[59.471589099999996,60.9248036],[59.4765516,60.912785],[59.4742368,60.898561],[59.476993900000004,60.8897399],[59.47048899999999,60.875956900000006],[59.4730148,60.8647196],[59.469608300000004,60.84772949999999],[59.477658,60.84122399999999],[59.482730800000006,60.8278822],[59.4645384,60.80428559999999],[59.450635999999996,60.774182100000004],[59.44170439999999,60.7699446],[59.437685599999995,60.761050600000004],[59.4265424,60.7500828],[59.4452237,60.7342054],[59.432042100000004,60.722986500000005],[59.4201677,60.69715620000001],[59.4204402,60.66693060000001],[59.42724739999999,60.659081099999995],[59.429726,60.64221020000001],[59.4265619,60.6316308],[59.4156371,60.62200200000001],[59.4120622,60.612880499999996],[59.413641299999995,60.60399830000001],[59.3839962,60.58724659999999],[59.38724009999999,60.578729700000004],[59.3797409,60.5714413],[59.378355000000006,60.56590320000001],[59.3815919,60.5600648],[59.3638203,60.542506100000004],[59.36511540000001,60.5385064],[59.35964909999999,60.5263405],[59.36185999999999,60.52352320000001],[59.2840507,60.499405],[59.2670978,60.482218100000004],[59.2551624,60.4785649],[59.2448989,60.47048759999999],[59.243125000000006,60.4610006],[59.23532790000001,60.4569599],[59.232130300000016,60.4497941],[59.22035760000001,60.4431517],[59.22643870000001,60.428321000000004],[59.22330280000001,60.418859999999995],[59.2075663,60.4088887],[59.2109807,60.397677699999996],[59.19954020000001,60.3859496],[59.2022467,60.383823199999995],[59.183826999999994,60.3729147],[59.182003,60.3691266],[59.1856449,60.360231399999996],[59.17753930000001,60.3566323],[59.1749055,60.350659699999994],[59.14803630000001,60.341706099999996],[59.142217900000006,60.3349223],[59.13975280000001,60.3295455],[59.16507070000001,60.323128000000004],[59.167413100000005,60.3189055],[59.1806229,60.31654399999999],[59.182528600000005,60.3135347],[59.1790262,60.3061216],[59.1614764,60.294488900000005],[59.1575222,60.287386999999995],[59.16294930000001,60.2808829],[59.15011690000001,60.261687699999996],[59.157394,60.2478657],[59.14893240000001,60.2445891],[59.1491295,60.23871000000001],[59.1535725,60.23475590000001],[59.14870260000001,60.23039080000001],[59.147460599999995,60.21955390000001],[59.13935270000001,60.206734100000006],[59.118475600000004,60.19401590000001],[59.104922200000004,60.1814987],[59.1025274,60.17591720000001],[59.10415630000001,60.168892500000005],[59.089153100000004,60.1515069],[59.087355900000006,60.128422400000005],[59.0662972,60.1173395],[59.0756705,60.10234380000001],[59.0298047,60.015235100000005],[58.9841567,59.98513260000001],[58.971586499999994,59.98425039999999],[58.9634273,59.9779653],[58.980077699999995,59.967711],[58.978314100000006,59.9558025],[58.9887916,59.9076173],[58.839456,59.931981699999994],[58.800246099999995,59.8430025],[58.69344890000001,59.8566101],[58.602324800000005,59.6934811],[58.5058425,59.7101297],[58.4790481,59.7116731],[58.36293530000001,59.46464039999999],[58.416209499999994,59.45938949999999],[58.458440599999996,59.4633595],[58.4591026,59.455641099999994],[58.5249315,59.435022700000005],[58.5403699,59.4071262],[58.59870240000001,59.35276699999999],[58.60917820000001,59.33766109999999],[58.6247274,59.2979664],[58.6812162,59.26849000000001],[58.740540900000006,59.253117700000004],[58.748307200000006,59.2475803],[58.789186900000004,59.239541900000006],[58.9674527,59.23544820000001],[58.9897788,59.22277000000001],[58.9877221,59.213068],[58.994558700000006,59.208547300000006],[59.100083399999995,59.173154000000004],[59.1519083,59.16245910000001],[59.1967866,59.147133000000004],[59.092924200000006,59.00048139999999],[59.20693980000001,58.953951599999996],[59.181690599999996,58.924952000000005],[59.1708849,58.9189976],[59.16890050000001,58.910286799999994],[59.080027599999994,58.9060957],[59.0875284,58.8439072],[59.081684399999986,58.843576399999996],[59.105835400000004,58.77377990000001],[59.145751100000005,58.774993300000006],[59.1535825,58.7175461],[59.22856220000001,58.7198625],[59.23451630000001,58.72350130000001],[59.26759620000001,58.71269590000001],[59.2862311,58.700304100000004],[59.31776729999999,58.69439280000001],[59.3438999,58.696929100000006],[59.35084609999999,58.70685290000001],[59.398590600000006,58.7080664],[59.40223,58.691968],[59.415573300000005,58.66285860000001],[59.396059900000004,58.5853431],[59.4536227,58.4780575],[59.3849301,58.429651],[59.35196119999999,58.4259016],[59.3193229,58.42634230000001],[59.2874568,58.419284999999995],[59.275769600000004,58.3995477],[59.27775530000001,58.3771643],[59.269927,58.36702],[59.26242920000001,58.3631606],[59.25537280000001,58.350590499999996],[59.264635600000005,58.33669739999999],[59.2188764,58.324788399999996],[59.2016751,58.3271038],[59.20035260000001,58.310233399999994],[59.1862402,58.2785876],[59.10552620000001,58.288069300000004],[59.1370631,58.2598423],[58.924692900000004,58.281010300000005],[58.9088165,58.24131520000001],[58.8743036,58.245394600000004],[58.8612939,58.21011010000001],[58.8163058,58.2148509],[58.8055016,58.17614830000001],[58.77804570000001,58.17912510000001],[58.76283080000001,58.1414148],[58.7382417,58.144281299999996],[58.688293200000004,58.115501900000005],[58.6632636,58.1052471],[58.6767175,58.069521900000005],[58.6504754,58.050005],[58.625445000000006,58.058715500000005],[58.586742900000004,58.041513900000005],[58.59313860000001,58.0344571],[58.5974395,58.021005],[58.6169565,58.0153819],[58.62610890000001,58.0055685],[58.63856880000001,58.0047968],[58.6469497,57.9864932],[58.642168000000005,57.9754165],[58.64993580000001,57.9676155],[58.64873250000001,57.962045],[58.66239560000001,57.9469403],[58.6492567,57.9438319],[58.6549558,57.9375241],[58.66855370000001,57.9333064],[58.670885999999996,57.92451230000001],[58.686603,57.9131819],[58.6865454,57.8994225],[58.69711930000001,57.889204799999995],[58.702668200000005,57.8852957],[58.71512210000001,57.8842389],[58.7442463,57.8926972],[58.728266000000005,57.8520528],[58.8637912,57.8380971],[58.8313196,57.740101700000004],[58.8473354,57.72583370000001],[58.8054268,57.729090600000006],[58.7443417,57.69097240000001],[58.6795475,57.65573570000001],[58.59491070000001,57.5979647],[58.537084899999996,57.564072100000004],[58.5170581,57.562257],[58.5106385,57.5742193],[58.4694985,57.5761648],[58.46045230000001,57.5823577],[58.4639734,57.6101437],[58.460069399999995,57.6121795],[58.4648313,57.6161711],[58.4612768,57.6266838],[58.464563,57.63269280000001],[58.459181799999996,57.6342491],[58.4490413,57.650015],[58.428456100000005,57.6606667],[58.4522142,57.6647046],[58.4468712,57.67393070000001],[58.271901,57.678421],[58.2506932,57.673931800000005],[58.24388749999999,57.67505030000001],[58.238149400000005,57.682415400000004],[58.223738300000015,57.68315220000001],[58.2091015,57.679846],[58.164075100000005,57.6794019],[58.1532175,57.685326700000005],[58.1598033,57.690329600000005],[58.1547224,57.69519200000001],[58.13355880000001,57.6890594],[58.12759380000001,57.683954],[58.12721210000001,57.6791855],[58.1128018,57.67989],[58.1120064,57.67188759999999],[58.1066031,57.66757930000001],[58.1072469,57.66219040000001],[58.09802380000001,57.663641399999996],[58.09355360000001,57.661008800000005],[58.1076056,57.651305],[58.1029635,57.6496579],[58.1029817,57.64675290000001],[58.1107667,57.6448743],[58.1090249,57.63059530000001],[58.09276280000001,57.6182455],[58.099422100000005,57.612274],[58.11613690000001,57.610544499999996],[58.1190093,57.602700600000006],[58.11622,57.5976051],[58.0887276,57.588975500000004],[58.0642478,57.59570630000001],[58.06377560000001,57.6117093],[58.030353600000005,57.611407699999994],[58.0288685,57.5669485],[58.0179131,57.56631900000001],[57.9856786,57.5546459],[57.9883616,57.5514757],[57.9793545,57.5462982],[57.9856237,57.53539850000001],[57.96897590000001,57.4890281],[58.0120262,57.4845369],[57.94048649999999,57.3164302],[57.979684999999996,57.3129392],[57.9700308,57.3057266],[57.9535222,57.3052798],[57.9429014,57.30096739999999],[57.940085499999995,57.29646880000001],[57.9557043,57.29032970000001],[57.9837301,57.2934034],[57.987542999999995,57.28784709999999],[58.01766609999999,57.278150900000014],[58.01718139999999,57.276004300000004],[58.0222971,57.276673200000005],[58.025960100000006,57.274177200000004],[58.014498399999994,57.2708679],[58.0108536,57.2656215],[58.0165979,57.2590241],[58.013807799999995,57.2566851],[58.0163938,57.2528404],[58.047488799999996,57.24870130000001],[58.028881399999996,57.2376225],[58.027492300000006,57.2189977],[58.023122400000005,57.213534800000005],[57.9918501,57.221490200000005],[57.98641,57.211750200000004],[57.9888736,57.2058114],[57.9952264,57.20315830000001],[57.994092900000005,57.19557690000001],[57.99871800000001,57.1899996],[58.02535210000001,57.1849501],[58.035169,57.1972247],[58.043162300000006,57.197165700000006],[58.047651599999995,57.193216400000004],[58.03216630000001,57.150673999999995],[58.12439510000001,57.1426055],[58.117442399999995,57.123960000000004],[58.1019962,57.123761800000004],[58.10357320000001,57.12872390000001],[58.06135870000001,57.12568520000001],[58.05884459999999,57.1203615],[58.0434598,57.1183995],[58.039704,57.1142428],[58.076472100000004,57.1006661],[58.079846499999995,57.1033975],[58.09071970000001,57.100278700000004],[58.0693694,57.049412100000005],[58.0573508,57.0454425],[58.059224799999996,57.057240699999994],[58.05183699999999,57.058894599999995],[58.042795600000005,57.05283],[58.037282399999995,57.0529402],[58.03695210000001,57.040370100000004],[58.02890280000001,57.0397084],[58.026036100000006,57.0362902],[58.0066293,57.0426853],[58.005416100000005,57.0501832],[57.995492500000005,57.0453315],[57.9922947,57.049521399999996],[57.981488899999995,57.047646799999995],[57.9845766,57.0395976],[57.965059800000006,57.0400385],[57.962744,57.046544],[57.9706828,57.0522778],[58.0161115,57.05746069999999],[58.0184268,57.062091800000005],[58.0126928,57.06892810000001],[58.026144800000004,57.0758748],[58.0216238,57.078962100000005],[58.0079511,57.0758746],[57.980274699999995,57.07830010000001],[57.965940700000004,57.07091220000001],[57.9597658,57.0725661],[57.9542523,57.0792921],[57.94311590000001,57.0727864],[57.95149639999999,57.0619807],[57.945762900000005,57.0562469],[57.921725300000006,57.05646719999999],[57.9206225,57.060988],[57.909044699999995,57.0614289],[57.8944902,57.052607599999995],[57.8729885,57.0556947],[57.8565599,57.0377216],[57.846636,57.0394857],[57.8433284,57.03220830000001],[57.85038539999999,57.029231200000005],[57.8433287,57.0250411],[57.848842399999995,57.0141251],[57.8421164,57.0112582],[57.843329399999995,57.0075092],[57.8237024,57.007068],[57.8330757,56.985676999999995],[57.83991220000001,56.9849052],[57.8265711,56.96241130000001],[57.8095902,56.966931900000006],[57.8113542,56.9731067],[57.81697749999999,56.9775173],[57.8056199,56.9867793],[57.7809206,56.9901971],[57.787095900000004,56.9779579],[57.77243090000001,56.9745396],[57.771549,56.967593],[57.7748572,56.9628517],[57.7510408,56.944878499999994],[57.7066038,56.95766849999999],[57.6942542,56.9575581],[57.686977,56.9523756],[57.661506300000006,56.9442158],[57.66514550000001,56.9316458],[57.6760621,56.920509300000006],[57.665146400000005,56.910805999999994],[57.658199800000006,56.9086007],[57.640337,56.90871070000001],[57.6366979,56.9173112],[57.59865680000001,56.9162081],[57.57825820000001,56.910474199999996],[57.57252510000001,56.8945961],[57.466781,56.9128986],[57.44042639999999,56.94608759999999],[57.4399851,56.9530342],[57.4308331,56.955129],[57.4172708,56.9498362],[57.42113020000001,56.94719],[57.389153900000004,56.9373761],[57.3794506,56.9405736],[57.37426769999999,56.95182039999999],[57.37084949999999,56.95182039999999],[57.371510900000004,56.9553488],[57.3672106,56.9557898],[57.360595100000005,56.9481816],[57.3654467,56.947409799999996],[57.3599339,56.937375800000005],[57.35100249999999,56.9370449],[57.3416303,56.930539200000005],[57.3326988,56.9327444],[57.315828599999996,56.928443900000005],[57.312851599999995,56.9257975],[57.31384419999999,56.920504900000005],[57.301604999999995,56.917307099999995],[57.297194700000006,56.910360399999995],[57.26808530000001,56.9017595],[57.2622416,56.8947026],[57.265218900000015,56.8897408],[57.24834870000001,56.8847787],[57.2293844,56.8559997],[57.254415,56.8405631],[57.26014870000001,56.8430993],[57.2719472,56.8382478],[57.265993400000006,56.82633930000001],[57.276799600000004,56.81729779999999],[57.2706254,56.8025225],[57.305029,56.775177500000005],[57.3232227,56.772421200000004],[57.34042469999999,56.7527945],[57.34726119999999,56.74893540000001],[57.3405355,56.74011420000001],[57.3296195,56.7370267],[57.306575,56.7180611],[57.31749169999999,56.7056014],[57.3366778,56.70229380000001],[57.329841699999996,56.69501630000001],[57.335024399999995,56.687187699999996],[57.3611572,56.6843211],[57.3679937,56.680462],[57.379240499999995,56.684431599999996],[57.37924039999999,56.6870779],[57.397764699999996,56.6898348],[57.39500830000001,56.683990800000004],[57.4388937,56.6772652],[57.3990898,56.640547],[57.38089639999999,56.63723890000001],[57.3749423,56.6308435],[57.3469356,56.6215811],[57.338556000000004,56.609782800000005],[57.37108409999999,56.6062547],[57.3875138,56.598095400000005],[57.3976578,56.6042703],[57.4181668,56.6092324],[57.4181679,56.5804537],[57.408574900000005,56.58166639999999],[57.3882883,56.5314963],[57.370646199999996,56.527306100000004],[57.35058049999999,56.4677636],[57.3558732,56.466550700000006],[57.35730769999999,56.440859399999994],[57.323348200000005,56.394217499999996],[57.312763,56.390578700000006],[57.3280904,56.374039399999994],[57.371423899999996,56.3799941],[57.388735700000005,56.372496399999996],[57.4107285,56.346031599999996]],[[52.001184499999994,60.6278016],[51.9929434,60.6314442],[51.995831200000005,60.63883880000001],[51.992923000000005,60.640125600000005],[51.9791243,60.6365661],[51.980803599999994,60.62834030000001],[51.9850016,60.6246031],[52.001184499999994,60.6278016]],[[52.060228200000005,60.7212855],[52.054699299999996,60.725315500000015],[52.054915300000005,60.7306618],[52.05147439999999,60.733978400000005],[52.014575900000004,60.7375415],[52.016529399999996,60.7338042],[52.0348308,60.7302004],[52.03279570000001,60.72637410000001],[52.036503700000004,60.722629000000005],[52.0584081,60.716176700000005],[52.0588115,60.7124216],[52.0486862,60.7146688],[52.0541625,60.7048537],[52.0600494,60.705608100000006],[52.0573639,60.7108508],[52.059496499999995,60.7119972],[52.060228200000005,60.7212855]],[[52.379628499999995,60.79582800000001],[52.38078759999999,60.79962230000001],[52.37398939999999,60.8024534],[52.3739285,60.806097199999996],[52.3650071,60.809330800000005],[52.3597332,60.8062062],[52.361574399999995,60.799680300000006],[52.3647776,60.79909850000001],[52.3581861,60.792905200000014],[52.369280999999994,60.793984300000005],[52.369100700000004,60.789204399999996],[52.37469159999999,60.787632],[52.3763373,60.79567600000001],[52.379628499999995,60.79582800000001]],[[54.0956816,56.654967799999994],[54.022272400000006,56.6564155],[54.024615600000004,56.67211970000001],[54.01811230000001,56.669229300000005],[54.0136319,56.6744319],[53.9871858,56.648309600000005],[53.9811166,56.6335685],[53.9624736,56.62879920000001],[53.9459754,56.6463114],[53.9322682,56.6432507],[53.9233077,56.6496095],[53.8893455,56.645707],[53.8811083,56.6364576],[53.88240939999999,56.625907700000006],[53.872582300000005,56.619982300000004],[53.842666599999994,56.6175251],[53.85321739999999,56.599893800000004],[53.95712749999999,56.6027855],[53.9743251,56.6092891],[53.9770708,56.61434739999999],[54.000338400000004,56.619405900000004],[54.0360341,56.6406507],[54.0763771,56.640808],[54.0956816,56.654967799999994]]]}}