{"type":"Feature","properties":{"regionId":"primorskiy_kray","name":"Приморский край","name:en":"Primorsky Krai","timezone":"Asia/Vladivostok","name_ru":"Приморский край","name_en":"Primorsky Krai","name_zh":"滨海边疆区"},"geometry":{"type":"Polygon","coordinates":[[[134.0056443,46.6549283],[134.0208528,46.6349613],[134.06819980000003,46.65762939999999],[134.08966249999997,46.65666459999999],[134.11120569999997,46.659719],[134.14561019999996,46.650153],[134.1722176,46.651036999999995],[134.1780858,46.654332700000005],[134.20861319999997,46.65232280000001],[134.22969279999998,46.656985],[134.23459649999998,46.665907600000004],[134.24866379999997,46.666389800000005],[134.2536478,46.67595550000001],[134.2871255,46.676756000000005],[134.3099171,46.6734632],[134.3387755,46.685520600000004],[134.3575049,46.675472400000004],[134.38772960000003,46.67539180000001],[134.4327455,46.6974972],[134.42277800000002,46.711886099999994],[134.4293696,46.71695020000001],[134.4444819,46.7140563],[134.45203820000003,46.7210497],[134.4534052,46.744602300000004],[134.4503506,46.7495862],[134.4730999,46.7718525],[134.46232860000003,46.78511610000001],[134.4630523,46.79805800000001],[134.45003010000002,46.807945399999994],[134.45236140000003,46.81518],[134.44834230000004,46.82193230000001],[134.4505931,46.8259515],[134.4349987,46.8395366],[134.42631650000004,46.8423643],[134.42237850000004,46.85296099999999],[134.40742710000004,46.8609995],[134.41305429999997,46.8781214],[134.42744330000005,46.8841501],[134.42921180000002,46.8894555],[134.4362053,46.8907416],[134.43387429999999,46.8967704],[134.45284550000002,46.9202426],[134.44167219999997,46.9334257],[134.44882660000002,46.941303399999995],[134.4415118,46.9522357],[134.43234530000004,46.9590341],[134.43210700000003,46.966705000000005],[134.43813600000004,46.970804599999994],[134.45541870000002,46.972171],[134.46466319999996,46.98326399999999],[134.4711743,46.9836658],[134.47487189999998,46.97828],[134.4817046,46.9764311],[134.4858845,46.9673477],[134.49464640000002,46.9691964],[134.5127329,46.964373200000004],[134.53299,46.97],[134.54882569999998,46.9652571],[134.5564625,46.9802086],[134.5687616,46.991542700000004],[134.57704130000002,46.99371300000001],[134.5741476,47.006092300000006],[134.5759162,47.0127642],[134.5655467,47.0210439],[134.56948569999997,47.029403800000004],[134.5665919,47.0314939],[134.56667249999998,47.0408185],[134.5733445,47.0494999],[134.58781390000001,47.0543229],[134.5917528,47.0580206],[134.5912706,47.0628436],[134.62848870000002,47.0615572],[134.64544999999998,47.069274],[134.636608,47.08559210000001],[134.6375728,47.09395210000001],[134.6340359,47.0962833],[134.64384289999998,47.1006239],[134.65156009999998,47.11573620000001],[134.66213000000002,47.1242906],[134.6754346,47.127231],[134.6872511,47.1244174],[134.6954504,47.129160000000006],[134.70919619999998,47.12883840000001],[134.7209325,47.13551020000001],[134.72993559999998,47.135188600000006],[134.73998389999997,47.1430662],[134.75919589999998,47.145799100000005],[134.7604818,47.13599220000001],[134.7679574,47.1254617],[134.77358439999995,47.1239344],[134.80589940000002,47.144030300000004],[134.80734640000006,47.1498179],[134.82012760000003,47.147968999999996],[134.82342340000002,47.1523097],[134.8280857,47.152792000000005],[134.83387369999997,47.164930000000005],[134.8403045,47.168466900000006],[134.85284450000003,47.16605520000001],[134.85983780000004,47.155766],[134.86884100000003,47.159945900000004],[134.87527169999998,47.1575343],[134.87559309999997,47.1490135],[134.88274720000004,47.1429846],[134.89520680000004,47.139045700000004],[134.90011030000002,47.142261],[134.9139365,47.140733600000004],[134.9245471,47.12939930000001],[134.9391772,47.1346242],[134.9535661,47.13406139999999],[134.96361419999997,47.1389647],[134.97575229999998,47.138000000000005],[134.97703840000003,47.1307654],[134.97993219999998,47.129479200000006],[134.99713450000002,47.12923790000001],[135.0094335,47.133498200000005],[135.00967469999995,47.136954700000004],[135.01972289999998,47.144108900000006],[135.0228581,47.1560058],[135.01642750000002,47.1634816],[135.0167492,47.17200230000001],[135.0362024,47.18052290000001],[135.04512509999998,47.1803621],[135.0572634,47.189123900000006],[135.0632119,47.18968649999999],[135.07004469999998,47.1948311],[135.0729387,47.2043164],[135.0887747,47.21428399999999],[135.1046103,47.20560230000001],[135.14070309999997,47.20335130000001],[135.1650594,47.190811100000005],[135.1664259,47.185264499999995],[135.19190780000002,47.1814059],[135.195766,47.16975010000001],[135.2085472,47.1670973],[135.21650509999995,47.1613095],[135.23057249999997,47.164605200000004],[135.23242150000002,47.172080900000005],[135.2301709,47.1805213],[135.2333863,47.182129],[135.23941519999997,47.1820485],[135.24472029999998,47.16958890000001],[135.25517019999998,47.162836500000004],[135.27904449999997,47.1610678],[135.28603800000002,47.1642832],[135.29705069999997,47.1618715],[135.3036421,47.1515019],[135.2906999,47.1371935],[135.2942365,47.12272430000001],[135.31746750000002,47.109782200000005],[135.33860860000001,47.104557],[135.3379654,47.09933200000001],[135.33354419999998,47.09675980000001],[135.34568219999997,47.093222700000005],[135.3505856,47.0842196],[135.36031210000002,47.084541099999996],[135.3631255,47.08044149999999],[135.36031190000003,47.0715992],[135.3693953,47.069107200000005],[135.370601,47.0638822],[135.3857937,47.06211360000001],[135.39909980000002,47.0664477],[135.43048740000003,47.0502967],[135.4275131,47.04579520000001],[135.4308892,47.0427405],[135.4228505,47.031406399999995],[135.4049245,47.0199919],[135.3908571,47.0154905],[135.3919822,47.000539],[135.4035573,46.984944299999995],[135.39961830000001,46.974172800000005],[135.37413630000003,46.974735700000004],[135.3609533,46.97988039999999],[135.3505031,46.9690286],[135.35203010000004,46.9496559],[135.34439319999998,46.929801],[135.361515,46.9207174],[135.38780090000003,46.92859490000001],[135.3986528,46.925379400000004],[135.40677169999998,46.927790800000004],[135.4277521,46.9265849],[135.427672,46.94362639999999],[135.4402122,46.9499767],[135.4621571,46.9437869],[135.47815369999998,46.9454748],[135.50114390000002,46.9561658],[135.51363199999997,46.95724159999999],[135.52324990000002,46.96613330000001],[135.55009840000002,46.96766039999999],[135.5588605,46.971518800000005],[135.56400519999997,46.9777083],[135.57453559999996,46.980039399999995],[135.5837798,46.9771455],[135.5898085,46.9683835],[135.5908534,46.9608273],[135.60443840000002,46.9586569],[135.6078145,46.9535926],[135.60564399999998,46.950216499999996],[135.608779,46.9495734],[135.6334573,46.9584958],[135.65340650000002,46.9531718],[135.66882660000002,46.96291670000001],[135.67662399999998,46.962112800000014],[135.69085209999997,46.966775000000005],[135.70990329999998,46.9632379],[135.7359482,46.9675755],[135.74077099999997,46.9638003],[135.7545168,46.96291600000001],[135.75652630000002,46.9577713],[135.75290880000003,46.94796449999999],[135.7554811,46.945633300000004],[135.75242640000005,46.942176800000006],[135.7373945,46.943543399999996],[135.72397009999997,46.938157800000006],[135.72316619999998,46.9346209],[135.70901849999998,46.931164499999994],[135.7054815,46.9270649],[135.70451669999997,46.9173384],[135.7155293,46.9142033],[135.7400467,46.916695],[135.75073780000002,46.91444409999999],[135.77163769999999,46.90230590000001],[135.7893222,46.8980454],[135.8000936,46.8862287],[135.80708700000002,46.884219099999996],[135.80435359999998,46.866052200000006],[135.81247230000002,46.857290199999994],[135.81126640000002,46.848849799999996],[135.82209200000003,46.84688429999999],[135.82083210000002,46.8427405],[135.8366676,46.82859270000001],[135.85933610000004,46.82867290000001],[135.8977599,46.821438],[135.90299480000002,46.8165202],[135.91150559999997,46.8158109],[135.9140778,46.81098789999999],[135.9335308,46.8070488],[135.94944680000003,46.7972418],[135.96890000000002,46.80230590000001],[135.9868257,46.796437600000004],[135.99148820000002,46.805521],[135.9971955,46.8022252],[136.0025814,46.8113086],[136.0167293,46.8200704],[136.0179351,46.8244112],[136.02725980000002,46.82835000000001],[136.02862650000003,46.837111900000004],[136.0453795,46.843405999999995],[136.05410569999998,46.867437599999995],[136.06326069999997,46.8701554],[136.08700620000002,46.8682241],[136.1001662,46.856851799999994],[136.11654489999998,46.85134449999999],[136.12126519999998,46.841045099999995],[136.128775,46.8362531],[136.127845,46.8271697],[136.13950309999996,46.81744249999999],[136.13971759999998,46.8129366],[136.1469413,46.810504699999996],[136.1470128,46.807000099999996],[136.1773058,46.797214800000006],[136.18828140000002,46.79870320000001],[136.19972479999998,46.7875455],[136.2203234,46.7892619],[136.22597369999997,46.7849705],[136.2279762,46.777889699999996],[136.23419859999998,46.775457900000006],[136.25050589999998,46.779105400000006],[136.26016159999998,46.7873304],[136.2723204,46.7808218],[136.2824052,46.7832535],[136.30708040000002,46.776816200000006],[136.325891,46.7778889],[136.33719150000002,46.77531400000001],[136.3600786,46.7633695],[136.37352509999997,46.77538520000001],[136.3726669,46.78010570000001],[136.38940340000002,46.7874009],[136.38268040000003,46.795626000000006],[136.39119180000003,46.8027067],[136.3836106,46.81364969999999],[136.3977006,46.816152900000006],[136.4024927,46.821445499999996],[136.4137218,46.8209448],[136.41937219999997,46.8247354],[136.43496409999997,46.8229472],[136.4491973,46.82895500000001],[136.4597111,46.8262371],[136.46614790000004,46.8095007],[136.49733190000003,46.81135999999999],[136.5041979,46.8016329],[136.5249397,46.810501499999994],[136.5531912,46.810000599999995],[136.55783990000003,46.79755560000001],[136.5701417,46.786612600000005],[136.58065549999998,46.7868986],[136.6024702,46.79684],[136.6189204,46.794980300000006],[136.6287907,46.8015603],[136.63823190000002,46.814434299999995],[136.63379769999997,46.8249482],[136.64166439999997,46.83448139999999],[136.65325209999997,46.8348181],[136.6734218,46.84604699999999],[136.67778469999996,46.8461185],[136.6857236,46.8389662],[136.70389039999998,46.8430428],[136.71998319999994,46.852126],[136.7246323,46.858133900000006],[136.73815009999998,46.8571325],[136.73972379999998,46.862782700000004],[136.73078359999997,46.876085999999994],[136.73371619999998,46.8850263],[136.74616119999996,46.886099099999996],[136.7621107,46.881235399999994],[136.7665453,46.8881731],[136.7784181,46.891462999999995],[136.78514140000001,46.89925890000001],[136.79472549999997,46.901475999999995],[136.80395209999998,46.9103448],[136.80180650000003,46.914493099999994],[136.8076717,46.9303711],[136.8177566,46.94109939999999],[136.8227635,46.9533297],[136.83299130000003,46.9552607],[136.8442202,46.94817990000001],[136.8719711,46.94968159999999],[136.8855604,46.9443173],[136.8862042,46.9495385],[136.8947155,46.956690699999996],[136.8918549,46.9720681],[136.89872110000002,46.9761448],[136.9010816,46.98787449999999],[136.9377014,46.99073510000001],[136.9460699,47.0071852],[136.9545096,47.00911630000001],[136.97811240000001,47.024922600000004],[136.97882780000003,47.033362200000006],[136.97475119999996,47.042159600000005],[136.94900309999997,47.0494551],[136.9446403,47.05768019999999],[136.92690290000002,47.0676936],[136.92532960000003,47.0794948],[136.9350568,47.0840007],[136.93784630000005,47.091224399999994],[136.94743050000002,47.1000932],[136.94657239999998,47.1093911],[136.9377753,47.116972600000004],[136.95064950000003,47.12355260000001],[136.9545834,47.1294174],[136.95644320000002,47.141933800000004],[136.94986309999996,47.1452955],[136.95222370000002,47.1618172],[136.9487907,47.1678251],[136.9726081,47.182344],[136.9718214,47.185705600000006],[136.98147720000003,47.19514650000001],[136.99084670000002,47.19471730000001],[136.99842820000003,47.19950920000001],[137.0050087,47.22053680000001],[137.0032208,47.22897650000001],[137.0077984,47.237845300000004],[137.0153085,47.248645200000006],[137.0261801,47.257156300000005],[137.02832590000003,47.263164100000004],[137.0368372,47.265595800000014],[137.0429884,47.2788275],[137.0372667,47.2840487],[137.0469939,47.28919820000001],[137.06594760000002,47.2949914],[137.0813252,47.304003099999996],[137.0975609,47.30486119999999],[137.1062866,47.30228639999999],[137.11000569999996,47.294919500000006],[137.152204,47.289626399999996],[137.1654356,47.282760100000004],[137.1641481,47.275607900000004],[137.18617690000002,47.2612316],[137.1943305,47.264092500000004],[137.20935029999998,47.26065930000001],[137.2265158,47.26237560000001],[137.23195159999997,47.2686696],[137.223226,47.27803910000001],[137.2310221,47.2830457],[137.2453267,47.283903800000004],[137.24754399999998,47.2874084],[137.2570564,47.279755400000006],[137.2803728,47.2811856],[137.28623730000004,47.2577977],[137.3016861,47.2535777],[137.3058344,47.2501446],[137.3026158,47.2457817],[137.3055481,47.2422771],[137.319638,47.2366267],[137.3218551,47.23119090000001],[137.33236900000003,47.22925970000001],[137.3355872,47.21230880000001],[137.3928052,47.201723],[137.4131179,47.2098764],[137.4161935,47.2156697],[137.46518650000002,47.2094468],[137.46439990000002,47.2152401],[137.4695496,47.2199606],[137.4690491,47.22518170000001],[137.4775604,47.2316902],[137.4839598,47.2341077],[137.5019497,47.2332635],[137.55299880000004,47.26355080000001],[137.5608853,47.27331570000001],[137.5608854,47.27839380000001],[137.57282990000002,47.2856174],[137.57590549999998,47.29491540000001],[137.58649100000002,47.301066199999994],[137.58656269999997,47.308719100000005],[137.5899243,47.3126529],[137.60294150000001,47.3106501],[137.62804620000003,47.324310700000005],[137.6376303,47.3236669],[137.64742900000002,47.32788669999999],[137.65250730000002,47.33682699999999],[137.6640225,47.3355395],[137.6879827,47.339544499999995],[137.69248880000004,47.34626759999999],[137.70250199999998,47.349986699999995],[137.7054346,47.355350900000005],[137.71752189999998,47.35628059999999],[137.71966759999995,47.35191759999999],[137.72917999999999,47.3482699],[137.73354279999998,47.344121599999994],[137.73876369999996,47.3288872],[137.77330959999998,47.345051],[137.7808194,47.3441927],[137.7879004,47.353418999999995],[137.80327780000002,47.35384799999999],[137.80821300000002,47.3610002],[137.81765399999998,47.3602134],[137.8363932,47.3692251],[137.8455481,47.3694396],[137.85842240000005,47.377306999999995],[137.8592807,47.38102609999999],[137.8747295,47.3753042],[137.87451499999997,47.3788088],[137.88502910000003,47.3904669],[137.8987615,47.39039520000001],[137.9122795,47.399192400000004],[137.9177869,47.4069883],[137.9077738,47.4107791],[137.9051991,47.418288999999994],[137.9124231,47.4261564],[137.9072737,47.43817230000001],[137.9001929,47.440604099999995],[137.91607119999998,47.4489006],[137.9203627,47.4559813],[137.937385,47.447613],[137.95018760000002,47.4503308],[137.96091600000003,47.4482565],[137.96363409999998,47.458555700000005],[137.973218,47.4550511],[137.9853055,47.4611304],[137.9903121,47.4587701],[137.9967492,47.460486599999996],[137.9977505,47.46313290000001],[138.00425909999998,47.46341890000001],[138.00590419999997,47.4680679],[138.01935069999996,47.4780809],[138.02285559999999,47.4907404],[138.0270755,47.4928145],[138.0294359,47.5017548],[138.0350148,47.5066899],[138.0589751,47.512626],[138.0778571,47.5119821],[138.0759978,47.5252854],[138.07964559999996,47.5328667],[138.0709913,47.53501250000001],[138.07070539999998,47.54416739999999],[138.0551851,47.55275030000001],[138.07485409999995,47.563550000000006],[138.08644090000004,47.56633930000001],[138.0677021,47.575065200000004],[138.06505589999998,47.5820745],[138.07006259999997,47.586508800000004],[138.06741630000005,47.591873],[138.06147990000002,47.59258830000001],[138.05118080000003,47.6015287],[138.04531569999997,47.588511700000005],[138.0348733,47.587152800000005],[138.01305919999996,47.6015291],[138.0008286,47.5964511],[137.9911017,47.6041041],[137.98273360000002,47.60617830000001],[137.9723629,47.6161916],[137.97744110000002,47.618194200000005],[137.97980149999998,47.623629900000005],[137.9928902,47.62849330000001],[138.0119871,47.6415818],[138.02142820000003,47.643655900000006],[138.0282752,47.6500726],[138.0307979,47.65831790000001],[138.0539001,47.670262],[138.0493943,47.6796315],[138.05418640000002,47.6832791],[138.0559031,47.69021680000001],[138.06069519999997,47.691432600000006],[138.05633230000004,47.6958671],[138.0488224,47.695223500000004],[138.0360912,47.687141499999996],[138.02500519999998,47.6915045],[137.99346359999998,47.6884293],[137.990603,47.7012319],[137.99067469999997,47.7110305],[137.9946086,47.71818270000001],[137.99217690000003,47.72233100000001],[137.978373,47.72461990000001],[137.9560581,47.7378518],[137.93731920000002,47.739926100000005],[137.89633680000006,47.7518708],[137.8764535,47.751084199999994],[137.8651526,47.73892550000001],[137.84820150000002,47.72919850000001],[137.82245330000003,47.72919880000001],[137.82073660000003,47.7219035],[137.80042410000001,47.72455000000001],[137.79384389999998,47.7165395],[137.7943444,47.70817130000001],[137.7831867,47.70237810000001],[137.77546239999998,47.709530400000006],[137.77911019999996,47.71575290000001],[137.7766069,47.72054490000001],[137.7670944,47.7212602],[137.75264700000002,47.73213180000001],[137.7306181,47.740357100000004],[137.7279004,47.74872530000001],[137.71910329999997,47.75931070000001],[137.7060863,47.7644605],[137.68906379999999,47.7616712],[137.6816256,47.7696818],[137.66932359999998,47.768609100000006],[137.6606694,47.772829],[137.6557345,47.780625],[137.6348499,47.7835577],[137.6226197,47.793427900000005],[137.59880280000002,47.8049433],[137.5833538,47.802869199999996],[137.5575337,47.7876351],[137.54258559999997,47.79235580000002],[137.53929559999997,47.797362400000004],[137.52735130000002,47.79857840000001],[137.5094704,47.788923000000004],[137.4862256,47.7932861],[137.45303880000003,47.7844176],[137.413487,47.8058032],[137.42829240000003,47.8096653],[137.4424542,47.823612100000005],[137.44295499999998,47.83326759999999],[137.45883320000002,47.8394184],[137.46383980000002,47.8385601],[137.46906109999998,47.8471428],[137.4770002,47.84986059999999],[137.48243610000006,47.856941299999995],[137.4908043,47.856941199999994],[137.4948097,47.864665599999995],[137.5001024,47.864665599999995],[137.5119039,47.87424949999999],[137.5215595,47.87446399999999],[137.52685219999998,47.87911290000001],[137.53758069999998,47.88154459999999],[137.5722692,47.8761801],[137.57985069999995,47.8818303],[137.60073549999998,47.8867652],[137.611035,47.8978511],[137.6005498,47.91126799999999],[137.6052422,47.9240284],[137.593441,47.929678800000005],[137.56025459999998,47.9375466],[137.54916869999997,47.946987699999994],[137.5413012,47.94813210000001],[137.5396563,47.95542749999999],[137.5276407,47.9672288],[137.51612559999998,47.9695892],[137.51576809999997,47.9761693],[137.4940253,47.9833932],[137.4746425,47.9798888],[137.4515407,47.98146249999999],[137.4378799,47.9869699],[137.42514890000004,47.9881144],[137.42164440000002,47.9930494],[137.42228840000004,48.0120745],[137.41849790000003,48.021587],[137.40426499999998,48.026236100000006],[137.39009650000003,48.040426999999994],[137.3720739,48.04128849999999],[137.35544290000004,48.04831220000001],[137.35000970000002,48.0563296],[137.33602900000002,48.0563297],[137.3302645,48.0638171],[137.32151830000004,48.06553990000001],[137.32131960000004,48.07203330000001],[137.32741570000002,48.0794543],[137.32244630000008,48.0830324],[137.32125390000002,48.0978082],[137.30826720000002,48.104368],[137.31707980000002,48.1082772],[137.3356324,48.1086746],[137.34391509999998,48.1189448],[137.3517337,48.1189447],[137.35451690000002,48.1308714],[137.3640584,48.1368346],[137.36962459999998,48.1567124],[137.37916579999998,48.1512128],[137.39539950000002,48.1539293],[137.41103700000002,48.1640668],[137.42872870000002,48.1848058],[137.43886640000002,48.1870586],[137.45132360000002,48.202960700000006],[137.4692799,48.202828000000004],[137.4845858,48.19799090000001],[137.49141060000002,48.2049481],[137.5326241,48.2044839],[137.55236960000002,48.2097845],[137.5590618,48.21230230000001],[137.5599234,48.22012090000001],[137.5688685,48.22621670000001],[137.5670135,48.23721570000001],[137.56966919999996,48.240598000000006],[137.59192720000001,48.245299200000005],[137.6112748,48.23529380000001],[137.62055119999997,48.2342998],[137.63506209999997,48.241058200000005],[137.6471879,48.2524547],[137.66381909999998,48.2531834],[137.67819730000002,48.2482801],[137.6864796,48.2415878],[137.6880696,48.231251300000004],[137.69966489999996,48.22296880000001],[137.70450159999996,48.2113071],[137.7150369,48.211505800000005],[137.73233080000003,48.218529100000005],[137.74412519999996,48.230787],[137.7534014,48.22455850000001],[137.78255579999998,48.232443100000005],[137.78968249999997,48.232001200000006],[137.7971989,48.221974],[137.8113121,48.2152817],[137.83211750000004,48.209450700000005],[137.8410626,48.2136249],[137.84821860000002,48.21236590000001],[137.85133290000005,48.2166065],[137.86624140000004,48.220316900000014],[137.88280610000004,48.210841699999996],[137.88804070000003,48.2158773],[137.8896311,48.22343090000001],[137.8953957,48.22654500000001],[137.9062622,48.22376200000001],[137.910768,48.227870100000004],[137.93130850000003,48.22992390000001],[137.936212,48.2441696],[137.95032540000003,48.249934100000004],[137.94661509999997,48.259873],[137.96424030000003,48.270408100000004],[137.9780885,48.26842020000001],[137.99955669999997,48.2733894],[137.9998882,48.2818706],[138.0081046,48.2915444],[138.0083036,48.302941],[138.0123456,48.309699499999994],[138.0244048,48.310891999999996],[138.0300367,48.3023445],[138.05229990000004,48.298567500000004],[138.06541950000002,48.31102419999999],[138.0770149,48.309235],[138.09914600000002,48.3278537],[138.1231982,48.3266608],[138.1354562,48.32851600000001],[138.14446769999998,48.3338829],[138.1763385,48.3352741],[138.18243460000002,48.344351499999995],[138.18932569999998,48.347266899999994],[138.18044710000004,48.3589286],[138.182634,48.37489709999999],[138.1719665,48.3858963],[138.17866099999998,48.3953645],[138.1775989,48.4029911],[138.18965809999997,48.4017984],[138.1930374,48.406833999999996],[138.19317019999997,48.4190258],[138.19820610000002,48.42532030000001],[138.21125919999997,48.4249889],[138.2360407,48.4433425],[138.24366049999995,48.4422823],[138.26188199999999,48.449106900000004],[138.2702969,48.44778159999999],[138.2860007,48.458383],[138.30799900000002,48.4645449],[138.31478819999998,48.4618548],[138.3192245,48.454659899999996],[138.32807540000002,48.455069599999995],[138.33748400000002,48.441420099999995],[138.35802430000004,48.43333630000001],[138.363789,48.4363841],[138.3643192,48.4422812],[138.37783610000002,48.4413535],[138.388504,48.446455300000004],[138.4067914,48.43591990000001],[138.4107668,48.42876390000001],[138.424615,48.42518570000001],[138.42627140000002,48.421673999999996],[138.45192950000003,48.41096699999999],[138.459401,48.4100783],[138.47411069999998,48.414451299999996],[138.47006869999998,48.4067652],[138.4737128,48.400338000000005],[138.469207,48.38920649999999],[138.4758991,48.38463449999999],[138.50034870000002,48.378936],[138.4929935,48.356275399999994],[138.47861509999998,48.3550166],[138.4748382,48.34746299999999],[138.46827840000003,48.3437526],[138.4690733,48.333482399999994],[138.4647001,48.329175600000006],[138.46264580000002,48.318772900000006],[138.48119830000005,48.3123455],[138.4857698,48.29094370000001],[138.50909299999998,48.2810708],[138.5234048,48.270403],[138.5388432,48.26815000000001],[138.54540269999998,48.2572171],[138.54242080000003,48.24833840000001],[138.54765529999997,48.2440315],[138.5403666,48.2378032],[138.52724710000004,48.23336390000001],[138.52903600000002,48.228195700000015],[138.5252592,48.227069300000004],[138.52232820000003,48.213939800000006],[138.5413599,48.210570600000004],[138.5439439,48.202354400000004],[138.5593821,48.1919515],[138.5701824,48.1894336],[138.57733850000002,48.191487599999995],[138.60198680000002,48.1800907],[138.61987689999998,48.183337300000005],[138.63193610000002,48.178699],[138.64328329999998,48.1847749],[138.6478386,48.19201700000001],[138.67924589999998,48.203082],[138.6888538,48.21381590000001],[138.703497,48.21010530000001],[138.71681489999997,48.1936066],[138.71707969999997,48.1840652],[138.7094598,48.1792946],[138.71310379999997,48.1669041],[138.7269518,48.1545134],[138.7272829,48.1473574],[138.72357229999997,48.14093030000001],[138.71409699999998,48.1353646],[138.70554959999998,48.13615980000001],[138.6986585,48.132184300000006],[138.69739950000002,48.12973270000001],[138.704231,48.124488],[138.7015073,48.1179385],[138.68918299999999,48.1146257],[138.6829545,48.108132300000015],[138.67394319999997,48.1106502],[138.6587035,48.10693990000001],[138.6524752,48.115752400000005],[138.64472289999998,48.117077699999996],[138.63955479999996,48.12257720000001],[138.6278929,48.11389739999999],[138.623056,48.1138312],[138.61570089999998,48.1012419],[138.61457409999994,48.085140900000006],[138.59747900000002,48.074407099999995],[138.59416569999996,48.060095100000005],[138.57488389999997,48.0476385],[138.5783954,48.0376333],[138.5769376,48.031736200000005],[138.59800760000002,48.0052986],[138.60695259999997,48.001853],[138.6303422,48.003509300000005],[138.6526713,47.9854202],[138.6624777,47.9820409],[138.6718863,47.9683914],[138.6962697,47.9625604],[138.7162794,47.9308882],[138.7340369,47.9287015],[138.75656479999998,47.91187139999999],[138.7561671,47.9069682],[138.74775199999996,47.8976257],[138.7487458,47.8917949],[138.7624615,47.8911984],[138.77286409999996,47.882783399999994],[138.82282350000003,47.871982599999996],[138.83223230000004,47.867079399999994],[138.831172,47.858399399999996],[138.81480559999997,47.847798],[138.81487169999997,47.8372628],[138.8205572,47.8369679],[138.8038061,47.82533620000001],[138.80579369999998,47.8163912],[138.79751109999998,47.8095666],[138.77875969999997,47.8096992],[138.76650139999998,47.799230400000006],[138.75821890000003,47.79624880000001],[138.76232660000002,47.776304700000004],[138.7753134,47.7718652],[138.7750483,47.76961240000001],[138.76265769999998,47.7633841],[138.7464905,47.76974510000001],[138.73774419999998,47.7698777],[138.71276419999995,47.76318580000001],[138.70574059999998,47.7568912],[138.6908984,47.7548373],[138.6643281,47.7441698],[138.65790080000002,47.73515860000001],[138.6372941,47.738869300000005],[138.6234457,47.72979190000001],[138.5948878,47.730189700000004],[138.58408740000002,47.72535290000002],[138.587599,47.71872690000001],[138.57712990000002,47.7126311],[138.55413790000003,47.717137],[138.54976439999996,47.697325500000005],[138.5276336,47.6908985],[138.5066953,47.6770505],[138.50974309999998,47.67155090000001],[138.51981459999996,47.672279700000004],[138.52842830000006,47.668900400000005],[138.5304822,47.6616781],[138.5451253,47.6484261],[138.5751408,47.648359600000006],[138.58170040000002,47.6437213],[138.58223040000004,47.635637700000004],[138.6002528,47.63033680000001],[138.6150284,47.612579100000005],[138.6314605,47.6026401],[138.62443690000003,47.59813450000001],[138.61701559999997,47.5834913],[138.60985949999997,47.5809735],[138.60594999999998,47.574281299999996],[138.5907764,47.56235480000001],[138.5919687,47.5445972],[138.58414990000003,47.535056000000004],[138.5952151,47.529026300000005],[138.5976003,47.521008900000005],[138.5591694,47.50517320000001],[138.5569827,47.49775220000001],[138.54373069999997,47.491258900000005],[138.5368395,47.481982599999995],[138.54141130000002,47.476284299999996],[138.5967382,47.4840361],[138.6050868,47.482247099999995],[138.5962739,47.4634295],[138.60389359999996,47.4531592],[138.61489259999996,47.4524302],[138.6217172,47.444744099999994],[138.64272169999998,47.4533576],[138.65948519999998,47.4487856],[138.6698218,47.450706999999994],[138.69274740000003,47.4436833],[138.7219019,47.4552784],[138.72150409999998,47.4457371],[138.72534710000002,47.4405688],[138.76417549999996,47.4562057],[138.79578119999996,47.45408509999999],[138.8010822,47.465746700000004],[138.80631670000002,47.4679994],[138.86098090000002,47.470119200000006],[138.8820512,47.4567347],[138.88788190000002,47.449777399999995],[138.9332696,47.4453376],[138.9697118,47.4192973],[138.96533860000002,47.4161832],[138.9699104,47.413532700000005],[138.972892,47.4061779],[138.99588369999998,47.39073930000001],[138.99899810000002,47.3986241],[139.01350899999997,47.4022683],[139.3093931,47.31087899999999],[139.24439439999998,47.21611530000001],[139.20918059999997,47.18321890000001],[139.16496339999998,47.1558525],[139.1013452,47.1317998],[139.0012925,47.084389099999996],[138.95699890000003,47.03575030000001],[138.9314732,47.012361399999996],[138.88897670000003,46.982015600000004],[138.8290237,46.946684899999994],[138.81722620000002,46.9334906],[138.78756289999998,46.8730863],[138.77582159999997,46.826334200000005],[138.75450569999995,46.78345290000001],[138.7274587,46.7473905],[138.6658148,46.6858957],[138.65378199999998,46.6646135],[138.64574349999998,46.5660025],[138.6183096,46.478830200000004],[138.59649710000002,46.44357],[138.58172290000002,46.4267817],[138.5454316,46.3966009],[138.4755066,46.356591599999994],[138.4029906,46.29904520000001],[138.3977812,46.2877341],[138.39697640000003,46.2392424],[138.3933744,46.2147466],[138.3775509,46.174477399999994],[138.36090640000003,46.1496081],[138.28212240000002,46.0668452],[138.21781919999998,46.0141468],[138.1623039,45.9571962],[138.0362685,45.85388719999999],[138.01268569999996,45.8280975],[137.94241790000004,45.720015900000014],[137.92842960000004,45.7029836],[137.9035367,45.6796857],[137.8505005,45.638343500000005],[137.77496669999996,45.59314530000001],[137.6721861,45.5204476],[137.5892936,45.4811425],[137.56976059999997,45.46093200000001],[137.5330868,45.4103002],[137.4154259,45.307808099999995],[137.38256740000003,45.2705945],[137.35202740000005,45.24353330000001],[137.30810790000004,45.214913700000004],[137.18625930000002,45.158210200000006],[137.1231883,45.1118362],[137.0255909,45.0168707],[136.98985219999997,44.9722704],[136.94400489999998,44.9369265],[136.89618850000002,44.90760159999999],[136.74292930000001,44.7600794],[136.70176899999998,44.684267999999996],[136.67069089999998,44.6491676],[136.6301688,44.6193886],[136.5413771,44.578750500000005],[136.4341029,44.435546900000006],[136.40368159999997,44.403235200000005],[136.35613950000004,44.362833],[136.30891450000001,44.3328649],[136.2652134,44.312047899999996],[136.14141630000003,44.26205820000001],[136.06523830000003,44.20860030000001],[136.03194750000003,44.16130510000001],[135.9886826,44.12267860000001],[135.92003440000002,44.0504919],[135.904039,43.995855600000006],[135.89090780000004,43.9648538],[135.8737598,43.938280999999996],[135.77988019999995,43.816562499999996],[135.7493763,43.758813800000006],[135.67377029999997,43.66642220000001],[135.65730140000002,43.648118300000014],[135.61666759999997,43.615943],[135.4453342,43.5079951],[135.42582740000003,43.480797499999994],[135.4110662,43.448041499999995],[135.38111080000004,43.4049107],[135.35258240000002,43.3760161],[135.31335469999996,43.3482506],[135.25321459999998,43.319979499999995],[135.1547353,43.29261710000001],[135.0942882,43.2620664],[135.02724040000004,43.2218967],[134.9819955,43.175352300000014],[134.93975199999997,43.147502300000006],[134.9159089,43.13613080000001],[134.81326539999998,43.0992271],[134.77468049999996,43.07726769999999],[134.63703940000002,43.016066599999995],[134.56641050000002,42.978805300000005],[134.3537922,42.8831619],[134.3020787,42.8422119],[134.2483835,42.815058900000004],[134.13969119999996,42.737378400000004],[134.07953319999996,42.70312530000001],[134.02522680000004,42.681277699999995],[133.8136429,42.61817870000001],[133.7615163,42.6087624],[133.54243390000002,42.59530130000001],[133.4469786,42.5707625],[133.33833800000005,42.5338451],[133.24380119999995,42.4975495],[133.1916196,42.48742649999999],[133.08350409999997,42.4747269],[133.02524970000002,42.472558400000004],[132.9677156,42.479663499999994],[132.9314936,42.489149399999995],[132.7229211,42.5562339],[132.6964753,42.567847799999996],[132.54542930000002,42.58366699999999],[132.4939898,42.557293599999994],[132.4321509,42.53853630000001],[132.36217100000002,42.52911200000001],[132.2849433,42.53276],[132.2122391,42.5523854],[132.1559694,42.5815968],[131.8351509,42.6644996],[131.74086039999997,42.59600330000001],[131.68375439999997,42.5248466],[131.63248740000003,42.484482899999996],[131.59013140000002,42.463733500000004],[131.5281827,42.446267799999994],[131.34083230000002,42.3758501],[131.0709961,42.29157230000001],[130.95030540000002,42.215805700000004],[130.92464700000002,42.1706361],[130.7021,42.29273490000001],[130.6899785,42.296167600000004],[130.6545421,42.324800999999994],[130.6463135,42.3391578],[130.64889369999997,42.3528156],[130.6700985,42.36711210000001],[130.67227359999998,42.3730069],[130.66955959999996,42.3781863],[130.65327559999997,42.39395590000001],[130.64676199999997,42.41122429999999],[130.63700880000002,42.41833230000001],[130.63931309999998,42.4209905],[130.6358361,42.42633180000001],[130.61834180000002,42.435815600000005],[130.6122282,42.43595930000001],[130.60924630000002,42.4409467],[130.59259640000002,42.445876999999996],[130.5906996,42.4649006],[130.5958809,42.469129800000005],[130.5906818,42.47408109999999],[130.5941182,42.477955200000004],[130.59308549999997,42.4837592],[130.5593981,42.5034392],[130.5610723,42.5123819],[130.5529531,42.5189833],[130.55525,42.520794300000006],[130.56265009999998,42.5180687],[130.5593259,42.52134890000001],[130.5597886,42.5264699],[130.5672521,42.5382607],[130.5634567,42.5551144],[130.57599,42.5593796],[130.6033431,42.55491],[130.60406319999996,42.5629994],[130.61615569999995,42.5713487],[130.62193820000002,42.5826155],[130.62030620000002,42.5854486],[130.6256394,42.588219900000006],[130.6271758,42.5975765],[130.6164228,42.612886499999995],[130.618143,42.6182073],[130.61551349999996,42.6290294],[130.6054769,42.6309394],[130.60563519999997,42.6338175],[130.5960997,42.640075200000005],[130.594729,42.651172800000005],[130.58467359999997,42.6698892],[130.5532698,42.69013980000001],[130.54155949999998,42.6915794],[130.53235680000003,42.69836030000001],[130.52141500000002,42.7014344],[130.484162,42.68824],[130.469176,42.689737],[130.459173,42.685219000000004],[130.45049800000004,42.693506000000006],[130.447679,42.70113500000001],[130.43690600000002,42.702547],[130.430741,42.707054],[130.41872600000002,42.704093],[130.40824000000003,42.711819],[130.403241,42.72189],[130.394809,42.72570500000001],[130.40574600000002,42.728885000000005],[130.421564,42.72796],[130.418494,42.737403],[130.41993,42.742604],[130.434031,42.752845],[130.4568044,42.759557300000004],[130.4593221,42.76999680000001],[130.48826900000003,42.77368],[130.504948,42.782534000000005],[130.525909,42.784935000000004],[130.54028,42.79602800000001],[130.54581299999998,42.805643999999994],[130.553725,42.807953],[130.55628600000003,42.813172],[130.571626,42.81628399999999],[130.57952099999997,42.808717],[130.58381,42.815105],[130.602393,42.81801],[130.605109,42.82312],[130.617303,42.829542000000004],[130.62732200000002,42.832784],[130.638525,42.831300999999996],[130.64464299999997,42.838860999999994],[130.658965,42.845129],[130.680032,42.847798999999995],[130.689868,42.843759999999996],[130.70168399999997,42.843928999999996],[130.708334,42.839073],[130.71107399999997,42.829871],[130.71995099999995,42.828189],[130.7267,42.831945],[130.732305,42.840976999999995],[130.746341,42.843012],[130.76130700000002,42.835559],[130.771956,42.836053],[130.77619299999998,42.839435],[130.77374799999998,42.849259999999994],[130.78216700000002,42.859672999999994],[130.776988,42.864348],[130.78164800000002,42.868503000000004],[130.79367999999997,42.876794],[130.826974,42.88066499999999],[130.837679,42.878234],[130.84956099999997,42.867388],[130.85244000000006,42.85963099999999],[130.867678,42.862283999999995],[130.872161,42.855739],[130.883698,42.85034699999999],[130.900608,42.85682799999999],[130.905133,42.868406],[130.912843,42.866383],[130.923589,42.873093999999995],[130.935412,42.87168099999999],[130.94173800000002,42.87469099999999],[130.95197800000003,42.864518000000004],[130.969196,42.86088699999999],[130.974335,42.85454599999999],[130.98824300000004,42.85808299999999],[130.99649300000002,42.85611],[131.010142,42.861681999999995],[131.018825,42.858733],[131.035367,42.860293],[131.03807,42.863765],[131.036537,42.870179],[131.030257,42.875015000000005],[131.03058,42.883365999999995],[131.017394,42.892503000000005],[131.017022,42.903156],[131.010031,42.911590999999994],[131.026361,42.925863],[131.02991600000001,42.92663],[131.03622800000002,42.920403],[131.042714,42.92334],[131.04535499999997,42.919176],[131.054587,42.915828999999995],[131.065111,42.923074],[131.08257700000001,42.913832],[131.09214300000002,42.916095999999996],[131.10747800000001,42.912673999999996],[131.12048900000002,42.928054],[131.132667,42.93455],[131.137532,42.934039],[131.136202,42.937518000000004],[131.13976099999996,42.943087999999996],[131.13420399999998,42.944502],[131.13467399999996,42.950874999999996],[131.14358599999997,42.965296],[131.12231400000002,42.963606],[131.110491,42.96831500000001],[131.10724700000003,42.972428],[131.110222,42.979836999999996],[131.10896,42.983650999999995],[131.10511499999998,42.984352],[131.104967,42.989832],[131.10968199999996,42.994576],[131.11066999999997,43.00464399999999],[131.10638600000001,43.012169],[131.100667,43.01364699999999],[131.10125399999998,43.017538],[131.095107,43.018471],[131.095619,43.021124],[131.105629,43.041472],[131.11761499999997,43.049285999999995],[131.112917,43.058975000000004],[131.11345699999998,43.066334000000005],[131.14925599999998,43.072444],[131.16357799999997,43.067066999999994],[131.16222100000002,43.088415000000005],[131.155076,43.09415800000001],[131.15797700000002,43.09933300000001],[131.161943,43.100683999999994],[131.165424,43.108140000000006],[131.178808,43.115414],[131.18810000000002,43.115230000000004],[131.19489499999997,43.120769],[131.20377299999996,43.13873500000001],[131.210391,43.143803],[131.20786499999997,43.154703999999995],[131.20091,43.164954],[131.21368499999994,43.179254],[131.212421,43.188292000000004],[131.20404,43.19621500000001],[131.194471,43.199360000000006],[131.192971,43.206767],[131.19856399999998,43.233019000000006],[131.207378,43.24053000000001],[131.21510099999998,43.24184699999999],[131.21985799999996,43.246232000000006],[131.22480499999998,43.24526],[131.226815,43.253445],[131.247919,43.26232000000001],[131.24691099999998,43.277828],[131.25016399999998,43.286781],[131.262133,43.29477200000001],[131.257508,43.30993],[131.26377699999998,43.316235],[131.25977699999999,43.319095999999995],[131.25766,43.328754],[131.272877,43.375379],[131.278978,43.37924399999999],[131.291117,43.379698],[131.29393499999998,43.38442599999999],[131.304094,43.387572],[131.311365,43.395416000000004],[131.3058,43.402123],[131.30761900000002,43.413374],[131.29472099999998,43.419855],[131.291028,43.427403999999996],[131.292134,43.432880999999995],[131.28731900000002,43.439468999999995],[131.29475199999996,43.450740999999994],[131.30211030000004,43.4534983],[131.29693600000002,43.468961],[131.28519,43.471889999999995],[131.27788199999998,43.48197699999999],[131.26601499999998,43.483552],[131.25906999999998,43.497936],[131.24636999999998,43.502757],[131.24306599999997,43.50835500000001],[131.23247,43.509072],[131.22612800000002,43.514354],[131.21887399999997,43.514756],[131.20525899999998,43.52216500000001],[131.20406299999996,43.527186],[131.19740700000003,43.526429],[131.19986299999997,43.529610000000005],[131.192494,43.52885200000001],[131.19859399999999,43.548286],[131.18689700000002,43.558276],[131.201899,43.56037200000001],[131.202544,43.571768999999996],[131.195819,43.580484999999996],[131.21097499999996,43.580006999999995],[131.21211499999998,43.58233200000001],[131.20708399999998,43.587913],[131.21169799999998,43.590540000000004],[131.227723,43.5815],[131.228504,43.594548],[131.236837,43.600074],[131.20717399999998,43.609291],[131.212304,43.617613],[131.212476,43.629174000000006],[131.224837,43.634406999999996],[131.22455699999998,43.6456034],[131.22968479999997,43.649939200000006],[131.225521,43.652463999999995],[131.2249315,43.660881499999995],[131.230344,43.659324],[131.23336479999998,43.66355820000001],[131.227576,43.673697],[131.21162099999998,43.682089],[131.209456,43.69721800000001],[131.216976,43.704453],[131.209228,43.710366],[131.21976409999994,43.7128979],[131.22067109999998,43.716492300000006],[131.20949399999998,43.723285000000004],[131.20843100000002,43.72770500000001],[131.210216,43.731839],[131.224229,43.739045000000004],[131.2208065,43.753342800000006],[131.21521969999998,43.7547171],[131.223097,43.76001800000001],[131.2091203,43.7589072],[131.2184504,43.76621620000001],[131.2081115,43.770424399999996],[131.21410229999998,43.777368],[131.20485999999997,43.77995200000001],[131.2034061,43.783492100000004],[131.21265819999996,43.789703900000006],[131.20600319999997,43.79839530000002],[131.21656179999997,43.8036136],[131.21383819999997,43.82189639999999],[131.20496709999998,43.8211968],[131.2046098,43.824695999999996],[131.21867099999997,43.843968],[131.2265196,43.84736439999999],[131.22751209999998,43.8556329],[131.2313817,43.85908169999999],[131.2272047,43.864374],[131.2287205,43.8768952],[131.2342477,43.87984159999999],[131.23340109999998,43.8837482],[131.24869439999998,43.8923995],[131.24837259999998,43.8993267],[131.25184000000002,43.901730900000004],[131.24921899999998,43.903966],[131.2526944,43.907303999999996],[131.25050059999998,43.9105659],[131.25593569999998,43.9136789],[131.25336509999997,43.9159452],[131.2558282,43.9191669],[131.25358539999996,43.9220205],[131.2570049,43.9234016],[131.2560246,43.9325315],[131.26122900000001,43.9366797],[131.25643670000002,43.9458912],[131.2387071,43.952987099999994],[131.2409364,43.959507599999995],[131.23444940000002,43.9667377],[131.24304089999998,43.9757801],[131.2359598,43.98469899999999],[131.24185839999998,43.9884595],[131.2473087,43.9870701],[131.2504887,43.9909705],[131.2472613,44.0077136],[131.24304459999996,44.0104583],[131.24486049999996,44.0139491],[131.25144950000004,44.01524439999999],[131.2557281,44.03053250000001],[131.27159129999998,44.0300466],[131.2831982,44.0403176],[131.2937988,44.044656599999996],[131.3032214,44.043933100000004],[131.1044767,44.707526300000005],[131.09460399999998,44.70291100000001],[131.083004,44.715049],[131.083669,44.72210300000001],[131.08048000000002,44.725844],[131.08434200000002,44.73111200000001],[131.085302,44.742655000000006],[131.071891,44.747341],[131.062168,44.756713000000005],[131.06327399999998,44.771416],[131.059344,44.773858000000004],[131.05719600000003,44.784002],[131.048531,44.783463999999995],[131.039208,44.7770596],[131.030689,44.781046999999994],[131.018817,44.77934200000001],[131.00899700000002,44.785278000000005],[131.016204,44.79457000000001],[131.007811,44.802334],[131.00844700000005,44.81152599999999],[130.999721,44.813128999999996],[130.99793900000003,44.816992],[130.985115,44.823134],[130.965719,44.818552800000006],[130.95912610000002,44.82270390000001],[130.95839790000005,44.826742],[130.962598,44.83057],[130.957082,44.838917],[130.956857,44.84702099999999],[130.960509,44.852819],[130.97031600000003,44.854530999999994],[130.97960299999997,44.865322000000006],[130.989982,44.867475],[130.99610800000002,44.863369],[131.01823800000003,44.869285999999995],[131.021792,44.878085999999996],[131.029807,44.87744899999999],[131.038708,44.868907],[131.05313700000002,44.87196599999999],[131.05911,44.877531],[131.071333,44.879279999999994],[131.075737,44.88880699999999],[131.08893300000003,44.889376999999996],[131.094384,44.894324],[131.08600600000003,44.912865],[131.08106700000002,44.915465999999995],[131.081815,44.92221000000001],[131.09975499999996,44.935554],[131.11251,44.934796],[131.120285,44.930154],[131.128701,44.939674],[131.142807,44.944972],[131.152813,44.944444999999995],[131.164827,44.933088],[131.174231,44.932643999999996],[131.17893700000002,44.938611],[131.183188,44.933153000000004],[131.19181600000002,44.933195000000005],[131.197679,44.926283],[131.19456399999996,44.922679],[131.197909,44.916298999999995],[131.21057199999996,44.91477],[131.23949299999998,44.918793],[131.24461499999995,44.926049],[131.250832,44.928406],[131.26566499999996,44.921337],[131.285996,44.926638000000004],[131.30541800000003,44.947618],[131.30521700000003,44.963455],[131.314831,44.962739000000006],[131.325895,44.96833800000001],[131.33839100000003,44.979177],[131.345528,44.980746999999994],[131.349244,44.98780099999999],[131.37214600000004,44.97551300000001],[131.386851,44.982619],[131.41193900000002,44.981455],[131.42207900000002,44.976737],[131.427153,44.965099],[131.450064,44.961273999999996],[131.48627600000003,44.966268],[131.493451,44.976156],[131.478798,44.98441999999999],[131.476186,44.993497],[131.48756600000002,44.99685],[131.48854800000004,45.001079999999995],[131.50265299999998,45.00446099999999],[131.51324999999997,45.012386],[131.52195,45.010068999999994],[131.538181,45.02351500000001],[131.550693,45.028265000000005],[131.54987899999998,45.032341],[131.556709,45.033288],[131.55817600000003,45.043253],[131.56814600000004,45.04271000000001],[131.579226,45.05138899999999],[131.59731600000003,45.057332],[131.60758299999998,45.065774000000005],[131.624688,45.072531000000005],[131.62832600000004,45.085179000000004],[131.65023200000002,45.092890600000004],[131.680045,45.116035000000004],[131.685796,45.124529],[131.67996899999997,45.13541000000001],[131.68017680000003,45.1490385],[131.66774999999998,45.147515000000006],[131.64704700000001,45.155148000000004],[131.65074800000002,45.172486],[131.661114,45.177933],[131.65921600000001,45.187151],[131.67397799999998,45.219570000000004],[131.723066,45.228041000000005],[131.747357,45.215241],[131.785722,45.210002],[131.77651399999996,45.227497],[131.77948899999998,45.244519000000004],[131.788821,45.252415000000006],[131.80300499999998,45.27653600000001],[131.82121800000004,45.29659900000001],[131.82424500000002,45.308838],[131.851051,45.321731],[131.859527,45.331405],[131.875606,45.341505],[131.892794,45.337225],[131.89808700000003,45.339319],[131.912234,45.336909],[131.92160600000003,45.296269],[131.92573600000003,45.29051300000001],[131.923602,45.28501800000001],[131.92766,45.280063],[131.95604500000002,45.277917],[131.97243400000002,45.27389],[131.97475999999997,45.270053000000004],[131.9815967,45.2702643],[131.98790190000003,45.263181900000006],[131.9875931,45.2553847],[131.9971632,45.251774399999995],[132.85630040000004,45.057707699999995],[132.8632016,45.061194300000004],[132.8695177,45.053479599999996],[132.867871,45.05228399999999],[132.88142810000005,45.0484718],[132.87402930000002,45.0462612],[132.88688710000002,45.0439603],[132.88377409999998,45.0405541],[132.8936769,45.0394488],[132.89284220000002,45.037012600000004],[132.8979854,45.038862300000005],[132.90037650000002,45.034734300000004],[132.90642190000003,45.0378021],[132.9081137,45.0357945],[132.904324,45.0334936],[132.9117906,45.034463599999995],[132.9072791,45.03216270000001],[132.9107981,45.03121530000001],[132.9089709,45.029636200000006],[132.92103920000002,45.032997300000005],[132.92145900000003,45.0304942],[132.93322,45.02854090000001],[132.93741450000002,45.0308643],[132.9380724,45.02755390000001],[132.9330966,45.0276979],[132.9348443,45.024695900000005],[132.9455361,45.0228865],[132.94286319999998,45.0208304],[132.93803130000003,45.022783700000005],[132.93802230000003,45.020305400000005],[132.95013710000003,45.01511030000001],[132.95455819999998,45.019169],[132.9479553,45.0216041],[132.96190740000003,45.029314600000006],[132.9636299,45.0214824],[132.96661559999998,45.0200213],[132.9709218,45.0243638],[132.9727591,45.020670700000004],[132.97281650000002,45.0260276],[132.9683955,45.02817840000001],[132.971094,45.030572500000005],[132.98045290000002,45.0290711],[132.98371469999998,45.03313090000001],[132.97630800000002,45.0311832],[132.97286309999998,45.03321210000001],[132.97848980000003,45.03637690000001],[132.9846334,45.035281399999995],[132.98153290000002,45.04071810000001],[132.9960592,45.0398661],[133.00065249999997,45.0448156],[133.00030800000002,45.040068999999995],[133.0045568,45.040353],[133.0055903,45.046438300000005],[133.01398379999998,45.0465469],[133.01959849999997,45.0517312],[133.02260040000002,45.0495712],[133.0266029,45.054362499999996],[133.02993840000002,45.051691899999994],[133.0377035,45.0569063],[133.0312725,45.0580931],[133.03221760000002,45.06025280000001],[133.0391982,45.0628842],[133.03861419999998,45.06788709999999],[133.03238430000002,45.0680665],[133.03597019999998,45.07095230000001],[133.03921569999997,45.06914930000001],[133.04658259999997,45.0757247],[133.0398664,45.077215300000006],[133.0452477,45.0796779],[133.0514132,45.0773154],[133.0515967,45.080702900000006],[133.0565442,45.080425999999996],[133.05270640000003,45.0836013],[133.06268459999998,45.0835777],[133.05525930000002,45.085928100000004],[133.0625011,45.0914355],[133.0593808,45.092266],[133.06139980000003,45.094498200000004],[133.0717201,45.0948398],[133.07378089999997,45.09873860000001],[133.07854469999998,45.093308500000006],[133.08404280000002,45.096247399999996],[133.07971279999998,45.10008139999999],[133.09001640000002,45.100523],[133.0866709,45.1042212],[133.0953226,45.102431100000004],[133.0921939,45.109320600000004],[133.09623200000001,45.11148149999999],[133.09243590000003,45.112929900000005],[133.10023660000002,45.112111500000005],[133.0961986,45.1159915],[133.1007372,45.12331500000001],[133.1078538,45.1209014],[133.1089718,45.12534590000001],[133.11950899999997,45.1248573],[133.12232900000004,45.1295075],[133.1258664,45.127453200000005],[133.1216866,45.12416270000001],[133.12346359999998,45.12221420000001],[133.1328245,45.12572260000001],[133.1298043,45.1306376],[133.132983,45.13293900000001],[133.12861130000002,45.13371590000001],[133.12720960000001,45.1374649],[133.13476009999997,45.138765500000005],[133.13505209999997,45.1416962],[133.12746830000003,45.141890399999994],[133.1221538,45.133056700000004],[133.11909189999997,45.1344987],[133.12594980000003,45.1439206],[133.124373,45.1458037],[133.12957909999997,45.14991080000001],[133.13357539999996,45.1490518],[133.1216866,45.152193800000006],[133.1315564,45.1599715],[133.1249487,45.16213640000001],[133.12182,45.159495],[133.1227795,45.169336400000006],[133.12822750000004,45.171942],[133.1201014,45.1711656],[133.1252032,45.17603570000001],[133.1310201,45.1746467],[133.1251797,45.187105100000004],[133.13072509999998,45.189973900000005],[133.12370479999998,45.191163],[133.1253802,45.198521400000004],[133.11775819999997,45.19483820000001],[133.12231250000002,45.209386900000005],[133.11786439999997,45.20991890000001],[133.1181358,45.213734200000005],[133.1123779,45.2119554],[133.11989379999997,45.2175242],[133.1133218,45.21653520000001],[133.11896169999997,45.21941090000001],[133.11326279999997,45.22555240000001],[133.1086259,45.2264665],[133.10732050000001,45.22294020000001],[133.1071982,45.232507500000004],[133.10054369999997,45.229167200000006],[133.09947,45.23335510000001],[133.1056408,45.2354904],[133.0961899,45.23677830000001],[133.10391819999998,45.2388886],[133.091789,45.23870580000001],[133.08743520000002,45.2419376],[133.08731720000003,45.244637499999996],[133.099411,45.243025900000006],[133.10039030000002,45.245958400000006],[133.0967445,45.2491898],[133.1021129,45.2517316],[133.08944100000002,45.2468306],[133.08975959999998,45.25295260000001],[133.08614910000003,45.25255390000001],[133.0874942,45.257836399999995],[133.0932874,45.2604691],[133.0901017,45.264563300000006],[133.1051098,45.26475430000001],[133.1020775,45.272701100000006],[133.0966619,45.26930500000001],[133.09476229999999,45.273],[133.0947387,45.2677854],[133.0914586,45.268034500000006],[133.09033770000002,45.2717794],[133.10310399999997,45.27739220000001],[133.08907519999997,45.27911080000001],[133.08856790000002,45.281784099999996],[133.09623710000002,45.28815130000001],[133.1003785,45.2867816],[133.09872670000001,45.290168400000006],[133.0904911,45.288450100000006],[133.09069169999998,45.29179530000001],[133.1004021,45.293463700000004],[133.10228990000002,45.298036900000014],[133.1077174,45.29890000000001],[133.1001425,45.30104119999999],[133.10561719999998,45.304393999999995],[133.09733440000002,45.3031907],[133.11077329999998,45.3057632],[133.11374659999998,45.3094061],[133.1072926,45.312061299999996],[133.1033282,45.3093397],[133.0988565,45.3107171],[133.10079149999999,45.3156789],[133.10803600000003,45.31740469999999],[133.09893910000002,45.3194124],[133.1082955,45.3208643],[133.1071156,45.325750500000005],[133.11452529999997,45.325003900000006],[133.11124519999998,45.3297571],[133.123929,45.334460099999994],[133.1216518,45.343143399999995],[133.11498549999996,45.34184969999999],[133.11609489999998,45.3457049],[133.11156379999997,45.3457639],[133.1120358,45.351618099999996],[133.12191140000002,45.3555731],[133.11833630000004,45.361111300000005],[133.12654830000002,45.360531],[133.1254982,45.3716722],[133.1301234,45.3709345],[133.1352441,45.3652314],[133.12987559999996,45.3639299],[133.133486,45.363474],[133.1372145,45.364949599999996],[133.1372145,45.37207],[133.14135579999999,45.37551800000001],[133.1310791,45.3799686],[133.13916129999998,45.3822393],[133.13666439999997,45.3922984],[133.1425118,45.3956492],[133.1385123,45.4028069],[133.135632,45.399700200000005],[133.1306349,45.400955100000004],[133.14027349999998,45.4057672],[133.1380959,45.41328299999999],[133.1326563,45.413873699999996],[133.1380699,45.418532400000004],[133.1339229,45.427258200000004],[133.15114400000002,45.4263205],[133.1406379,45.435179000000005],[133.15693930000003,45.434558],[133.164331,45.441662099999995],[133.15240200000002,45.4446021],[133.15759,45.45118159999999],[133.1608,45.4463673],[133.16558019999997,45.4475907],[133.1613639,45.45467489999999],[133.16723730000004,45.4549731],[133.16910589999998,45.458525],[133.1599064,45.4602978],[133.1727029,45.4610888],[133.1614854,45.464727599999996],[133.17088969999998,45.473075],[133.1775873,45.4704468],[133.1751061,45.4788117],[133.1802681,45.476773800000004],[133.18575969999998,45.4796451],[133.17797419999997,45.48986539999999],[133.18939680000003,45.49301330000001],[133.1822562,45.4938046],[133.1840229,45.49885290000001],[133.1921451,45.4977435],[133.1985496,45.503565300000005],[133.19800980000002,45.5068501],[133.2046474,45.5061794],[133.2025003,45.5101776],[133.1963436,45.5077073],[133.19356839999998,45.514338900000006],[133.20380079999998,45.513943399999995],[133.2061074,45.5103411],[133.21205799999998,45.5136597],[133.2244008,45.5107708],[133.2234438,45.5183881],[133.22844960000003,45.5214485],[133.23455959999995,45.5184397],[133.2322162,45.516660099999996],[133.23485619999997,45.5146309],[133.2394305,45.52091550000001],[133.23784780000003,45.5142099],[133.24707419999996,45.5164022],[133.24556509999994,45.519823699999996],[133.25086539999998,45.524869699999996],[133.26503419999997,45.531606599999996],[133.27068789999998,45.531623999999994],[133.27388669999996,45.5263605],[133.27583099999998,45.5345261],[133.27291269999998,45.5374119],[133.2801225,45.53933570000001],[133.285444,45.5339248],[133.28733230000003,45.5392154],[133.28458569999995,45.54186049999999],[133.3036401,45.5407785],[133.3029535,45.5464291],[133.308275,45.550155800000006],[133.3111932,45.5495547],[133.31067819999998,45.545587499999996],[133.3115367,45.5517547],[133.3179543,45.5483714],[133.32043110000004,45.5550136],[133.325893,45.5559224],[133.3238272,45.5595499],[133.3325554,45.5537337],[133.33247920000002,45.5507568],[133.33968289999999,45.5580278],[133.3439467,45.5571862],[133.34232190000003,45.5616324],[133.3480558,45.561733700000005],[133.34220290000002,45.5662286],[133.3491304,45.5662618],[133.3515727,45.5617498],[133.35620910000003,45.567500700000004],[133.36690750000002,45.5674797],[133.36443650000004,45.575473200000005],[133.37263800000002,45.5733684],[133.3727021,45.57012230000001],[133.38615740000003,45.5779486],[133.39217090000002,45.5736334],[133.38994920000002,45.5697611],[133.4129426,45.571411399999995],[133.41599559999997,45.580880099999995],[133.40371299999998,45.59615390000001],[133.41041840000003,45.6056277],[133.4046414,45.6170992],[133.41219710000001,45.616979300000004],[133.42137200000002,45.6102031],[133.42431040000002,45.6141609],[133.4246102,45.62603420000001],[133.43108660000001,45.62807310000001],[133.4466179,45.625734400000006],[133.45621250000002,45.616139700000005],[133.46628690000003,45.6163796],[133.4693452,45.6194379],[133.46652680000003,45.62693370000001],[133.4461382,45.6362885],[133.4387623,45.644204099999996],[133.4463181,45.6537987],[133.4802591,45.6573967],[133.48283760000004,45.670289499999996],[133.475102,45.6788047],[133.4769609,45.689598700000005],[133.4676062,45.69241710000001],[133.45375389999998,45.69061810000001],[133.44194050000002,45.70393070000001],[133.4349844,45.70279130000001],[133.4291676,45.691157800000006],[133.4233509,45.691037900000005],[133.4207124,45.69553540000001],[133.4376229,45.71274580000001],[133.4473841,45.73041590000001],[133.46620690000003,45.7371205],[133.479866,45.738161500000004],[133.475077,45.7479061],[133.4641248,45.750488],[133.45733690000006,45.7556934],[133.4650826,45.7656045],[133.46241740000005,45.777348],[133.4758336,45.780491399999995],[133.49121100000002,45.772485100000004],[133.4976924,45.77807680000001],[133.4952777,45.787989499999995],[133.48892350000003,45.791293700000004],[133.4697335,45.79065830000001],[133.46212800000004,45.79639300000001],[133.4638774,45.821621199999996],[133.4597114,45.8287497],[133.46165559999997,45.835693],[133.4815598,45.8336563],[133.4897066,45.83708169999999],[133.4775789,45.8509683],[133.47822700000003,45.8555972],[133.4867441,45.8660585],[133.50368579999997,45.8642069],[133.501111,45.8791987],[133.50487199999998,45.8887458],[133.523191,45.8958491],[133.5404565,45.8956891],[133.5532733,45.88661999999999],[133.55948980000002,45.876002],[133.57329719999998,45.867698399999995],[133.5847201,45.8672222],[133.5911282,45.8727976],[133.58843620000005,45.8891402],[133.6089779,45.8991745],[133.612031,45.90482239999999],[133.61017909999998,45.911890199999995],[133.59643710000003,45.9246197],[133.59773900000002,45.932720200000006],[133.61003449999998,45.94154399999999],[133.6246444,45.944292399999995],[133.65024790000004,45.94458169999999],[133.66260409999998,45.9390479],[133.6684747,45.940994599999996],[133.66955669999996,45.9502032],[133.67671519999996,45.960995200000006],[133.67370749999998,45.971456999999994],[133.67556209999995,45.9884115],[133.694367,46.0028768],[133.69942980000002,46.015027599999996],[133.72011519999998,46.0338324],[133.73559299999997,46.054083799999994],[133.73501439999998,46.0772282],[133.70521589999998,46.099504800000005],[133.69509019999998,46.111076999999995],[133.6817822,46.1376931],[133.68800230000002,46.15563],[133.69942980000002,46.16213940000001],[133.74268099999998,46.166045000000004],[133.77798269999997,46.184045399999995],[133.78741580000002,46.19033400000001],[133.79254600000002,46.1996016],[133.79585579999997,46.221281],[133.8066128,46.2292246],[133.82299650000004,46.22359790000001],[133.82630630000006,46.2166473],[133.82547820000002,46.206965700000005],[133.83143660000005,46.2005945],[133.84649640000004,46.203076900000006],[133.85642590000003,46.2244254],[133.8723131,46.230548600000006],[133.8731405,46.2348514],[133.87016169999998,46.23849220000001],[133.8557639,46.2426295],[133.8536125,46.2485872],[133.89846080000004,46.255372400000006],[133.9107072,46.2634815],[133.9125276,46.2725835],[133.9095488,46.282016600000006],[133.90160519999998,46.29095310000001],[133.8996193,46.3012136],[133.9168304,46.3310022],[133.9078938,46.3329881],[133.89277830000003,46.325107700000004],[133.8627146,46.336794399999995],[133.8615561,46.3435795],[133.87065819999998,46.36128719999999],[133.90623890000003,46.36691390000001],[133.9373514,46.3794913],[133.9414887,46.39273060000001],[133.9401648,46.39951580000001],[133.9300698,46.406301],[133.92742190000004,46.4195403],[133.9189818,46.4278149],[133.89084820000002,46.44684649999999],[133.87595389999998,46.44833590000001],[133.8653624,46.444529599999996],[133.84748930000003,46.444364099999994],[133.84335199999998,46.4494943],[133.8415316,46.47233220000001],[133.8456689,46.4811033],[133.8647005,46.4996384],[133.8654916,46.5123004],[133.88287140000003,46.5212462],[133.88647970000002,46.5262977],[133.8949591,46.545782300000006],[133.8955003,46.557869999999994],[133.9028972,46.5672515],[133.91309559999996,46.596177700000005],[133.95223210000003,46.613972000000004],[133.96731290000002,46.626225100000006],[133.98253870000002,46.632895500000004],[134.0056443,46.6549283]]]}}