{"type":"Feature","properties":{"regionId":"respublika_bashkortostan","name":"Башкортостан","name:en":"Bashkortostan","timezone":"Asia/Yekaterinburg","name_ru":"Республика Башкортостан","name_en":"Bashkortostan","name_zh":"巴什科尔托斯坦共和国"},"geometry":{"type":"Polygon","coordinates":[[[59.0418325,56.1718059],[59.036585800000005,56.1479478],[59.038559500000005,56.1277605],[59.02897680000001,56.122828000000005],[59.014180399999994,56.103908700000005],[59.0047384,56.1022175],[58.984164199999995,56.0801979],[58.960630300000005,56.0652244],[58.900497099999995,56.053224099999994],[58.88904039999999,56.0608549],[58.8803026,56.073573200000006],[58.832811,56.06892220000001],[58.83215520000001,56.08484339999999],[58.7809285,56.0838379],[58.767085800000004,56.088090300000005],[58.73261330000001,56.080870499999996],[58.7118111,56.0936576],[58.713868399999996,56.1162008],[58.68258290000001,56.118737100000004],[58.6435467,56.11732739999999],[58.6397412,56.130010500000004],[58.628467,56.135541700000005],[58.5976043,56.137514200000005],[58.5877392,56.147378800000006],[58.5828061,56.16517040000001],[58.55810590000001,56.1732285],[58.5524949,56.166886999999996],[58.511075,56.1706656],[58.499067499999995,56.1582808],[58.4937246,56.157469899999995],[58.4824687,56.13343030000001],[58.469785800000004,56.1218349],[58.421450300000004,56.121650100000004],[58.410598,56.1010831],[58.395942000000005,56.095727800000006],[58.38452759999999,56.0817762],[58.3491554,56.082198500000004],[58.345632200000004,56.0844532],[58.35098659999999,56.10534530000001],[58.3593008,56.1140827],[58.34908779999999,56.1215635],[58.316177599999996,56.116759800000004],[58.306031499999996,56.1046402],[58.2571304,56.1047805],[58.2428535,56.118187],[58.18539870000001,56.12605920000001],[58.1645412,56.14071510000001],[58.12926,56.1322671],[58.1049735,56.138836100000006],[58.0726893,56.1155696],[58.01105,56.10899810000001],[57.9469148,56.111843799999995],[57.919085499999994,56.10579500000001],[57.8956919,56.12213360000001],[57.9122661,56.1312837],[57.90189649999999,56.134629],[57.893824099999996,56.1416229],[57.8857005,56.14088139999999],[57.869833,56.14805530000001],[57.860711300000006,56.14877270000001],[57.8016132,56.1415498],[57.7742277,56.14535870000001],[57.761309600000004,56.137248],[57.722176200000014,56.1274826],[57.686241599999995,56.1366225],[57.659325700000004,56.1170337],[57.653407599999994,56.096000700000005],[57.645797800000004,56.0930412],[57.611130100000004,56.09529560000001],[57.5976238,56.0853868],[57.577848499999995,56.0910725],[57.5749797,56.095449300000006],[57.5160961,56.0972385],[57.5100956,56.100058600000004],[57.5154095,56.1066653],[57.50413220000001,56.1087544],[57.47833690000001,56.124913600000006],[57.466481599999995,56.12697490000001],[57.4670692,56.1342175],[57.4801749,56.1417669],[57.4765396,56.143422900000004],[57.481009199999995,56.1486624],[57.4765742,56.1506335],[57.476153200000006,56.155350000000006],[57.48702339999999,56.1563972],[57.489709399999995,56.159953900000005],[57.4907984,56.16516270000001],[57.48407439999999,56.1738226],[57.4900885,56.1776225],[57.4867819,56.18089],[57.490200800000004,56.1841827],[57.486831699999996,56.18786099999999],[57.505828,56.19232210000001],[57.5008273,56.19510450000001],[57.505757800000005,56.19958510000001],[57.49837690000001,56.210195000000006],[57.4924011,56.20911030000001],[57.4895257,56.2126979],[57.4696689,56.2168499],[57.4581715,56.216438100000005],[57.454946099999994,56.2190518],[57.4592909,56.22260510000001],[57.4519751,56.22175890000001],[57.4530901,56.23033190000001],[57.4492893,56.233440300000005],[57.45168089999999,56.23582330000001],[57.44215260000001,56.24073310000001],[57.4471771,56.24314590000001],[57.4458567,56.246000200000005],[57.433637499999996,56.24625890000001],[57.4336658,56.2495678],[57.4182231,56.2531944],[57.4175137,56.2586811],[57.4102968,56.261353400000004],[57.413654699999995,56.2644025],[57.406753200000004,56.27207830000001],[57.4128408,56.29392580000001],[57.432503800000006,56.3130922],[57.4062372,56.3426599],[57.395154600000005,56.3402173],[57.4004019,56.3396243],[57.390734,56.33149709999999],[57.37448839999999,56.3356146],[57.3490925,56.3313375],[57.3531765,56.320813900000005],[57.344108399999996,56.315276399999995],[57.324944599999995,56.31488719999999],[57.3146553,56.320999900000004],[57.29881850000001,56.3208356],[57.306644899999995,56.310391599999996],[57.28503830000001,56.3047391],[57.2936412,56.29357960000001],[57.287669699999995,56.288298000000005],[57.29677920000001,56.2826805],[57.29216400000001,56.27951010000001],[57.298041500000004,56.27227810000001],[57.248166000000005,56.2712577],[57.2192942,56.249383],[57.19528570000001,56.250602300000004],[57.196712200000015,56.2405794],[57.2054746,56.237776600000004],[57.20557650000001,56.2274695],[57.2113841,56.225600400000005],[57.22417120000001,56.23151910000001],[57.227788200000006,56.2297634],[57.20674820000001,56.2194825],[57.2064935,56.2148368],[57.21617290000001,56.208547200000005],[57.200482,56.19639010000001],[57.2110785,56.19330060000001],[57.227380700000005,56.199451],[57.2315072,56.193924200000005],[57.235480800000005,56.193584],[57.2040481,56.18819810000001],[57.2004311,56.1810536],[57.2098049,56.1778778],[57.20893880000001,56.1724046],[57.2037934,56.1693415],[57.1856572,56.17175230000001],[57.16010000000001,56.1612],[57.1448391,56.165788600000006],[57.114189499999995,56.159438200000004],[57.105085800000005,56.161853],[57.0645341,56.159072800000004],[57.06259820000001,56.1558384],[57.044665699999996,56.150958],[57.0456628,56.1449343],[57.0401201,56.140101800000004],[57.0467484,56.1306473],[57.0459641,56.126737000000006],[57.0072009,56.1366114],[57.002872200000006,56.132654800000005],[56.990300100000006,56.13010520000001],[56.9860134,56.125286700000004],[56.9700551,56.12502560000001],[56.92133330000001,56.1038833],[56.9104543,56.110592700000005],[56.8840188,56.1104853],[56.8779525,56.115109000000004],[56.86892830000001,56.131773800000005],[56.86575010000001,56.14977820000001],[56.8499581,56.166301700000005],[56.833912100000006,56.1688636],[56.8225445,56.164510500000006],[56.8013763,56.1644663],[56.79561260000001,56.16903920000001],[56.7830045,56.16434590000001],[56.767802700000004,56.1842384],[56.76837910000001,56.19353950000001],[56.7469744,56.209608900000006],[56.7589935,56.2139821],[56.75816030000001,56.2190497],[56.751780499999995,56.2174607],[56.7419638,56.22500990000001],[56.7314202,56.22221800000001],[56.725128800000014,56.2308415],[56.652678900000005,56.23296560000001],[56.656461099999994,56.23547010000001],[56.6482077,56.2418566],[56.6566398,56.2400436],[56.65464849999999,56.241272],[56.65830220000001,56.244936700000004],[56.641181499999995,56.2476278],[56.637678900000004,56.251008999999996],[56.6426795,56.2499826],[56.643042200000004,56.252997300000004],[56.6530406,56.255968300000006],[56.6515566,56.26291940000001],[56.6466662,56.26200830000001],[56.6452851,56.258293900000005],[56.6214047,56.26610260000001],[56.5947476,56.262980600000006],[56.59712510000001,56.2742227],[56.5786813,56.290499800000006],[56.52853710000001,56.3203564],[56.506254,56.344040799999995],[56.53503370000001,56.3501883],[56.535614900000006,56.358868199999996],[56.53221010000001,56.3581372],[56.5326215,56.36148729999999],[56.5722438,56.38902099999999],[56.5326315,56.3970311],[56.508561,56.3766554],[56.506634399999996,56.379355200000006],[56.500573300000006,56.376592300000006],[56.500026399999996,56.3806103],[56.483962399999996,56.388626099999996],[56.4713401,56.3698073],[56.4608273,56.36559290000001],[56.448195000000005,56.3713166],[56.45608719999999,56.3749371],[56.4420891,56.381420799999994],[56.43784139999999,56.379624099999994],[56.435853,56.373571399999996],[56.42572990000001,56.37568749999999],[56.4314785,56.3865939],[56.406423399999994,56.405368900000006],[56.405607399999994,56.4053475],[56.39955270000001,56.400458300000004],[56.362071300000004,56.3886029],[56.37780359999999,56.3616239],[56.36194759999999,56.3655692],[56.34722239999999,56.3628336],[56.32468179999999,56.3652068],[56.3188409,56.34769849999999],[56.321916900000005,56.3413821],[56.301597199999996,56.332745],[56.291251800000005,56.323030800000005],[56.29505860000001,56.3185064],[56.2824807,56.3156187],[56.28012890000001,56.308068999999996],[56.285953400000004,56.30442179999999],[56.267411100000004,56.3057434],[56.242850600000004,56.31478669999999],[56.227944900000004,56.3133988],[56.226264300000004,56.31754359999999],[56.23537310000001,56.3205662],[56.22423510000001,56.3250292],[56.2176628,56.3243095],[56.218416700000006,56.316403099999995],[56.162298400000005,56.31716449999999],[56.16311060000001,56.313320399999995],[56.12262580000001,56.310245099999996],[56.1198099,56.3081242],[56.127068,56.303891099999994],[56.12275320000001,56.3019727],[56.1248585,56.30038],[56.1127898,56.29965570000001],[56.1132927,56.2948335],[56.09207520000001,56.29397510000001],[56.08111290000001,56.29031610000001],[56.075818700000006,56.2908875],[56.079365900000006,56.29509550000001],[56.0774338,56.29691320000001],[56.0511167,56.3142387],[56.05456349999999,56.3199755],[56.04897530000001,56.3292418],[56.040362900000005,56.3328249],[56.04380739999999,56.338045900000004],[56.0420795,56.3399314],[56.017533900000004,56.339722900000005],[55.9781996,56.3608493],[55.9772191,56.365604],[55.95781749999999,56.369250300000004],[55.95253580000001,56.3737547],[55.9502749,56.3832173],[55.9415283,56.3887458],[55.947207199999994,56.39635270000001],[55.9464702,56.406628],[55.9376507,56.411440799999994],[55.9320372,56.419365],[55.91986659999999,56.44954739999999],[55.908537100000004,56.4561419],[55.8792365,56.456682199999996],[55.875154200000004,56.4544989],[55.8762373,56.4485304],[55.867046499999994,56.44297890000001],[55.8775858,56.44084459999999],[55.8747554,56.43273310000001],[55.8368102,56.4206498],[55.827656499999996,56.4230828],[55.825627499999996,56.4272991],[55.7894424,56.4356288],[55.7743094,56.445925],[55.7390464,56.430492900000004],[55.72894870000001,56.435146],[55.707317700000004,56.43571490000001],[55.697941300000004,56.425177000000005],[55.695839500000005,56.4109168],[55.6919546,56.408486399999994],[55.6695714,56.409669199999996],[55.6677176,56.4022299],[55.6493291,56.4019038],[55.6332817,56.39579620000001],[55.627858800000006,56.400694099999996],[55.5736319,56.3917561],[55.5373062,56.3799825],[55.52203270000001,56.3807459],[55.509158000000006,56.3606082],[55.49331060000001,56.3555093],[55.4595571,56.3316083],[55.422059700000005,56.3310125],[55.40483699999999,56.326682399999996],[55.4024408,56.320035000000004],[55.3852403,56.317093799999995],[55.3786334,56.322614800000004],[55.36831060000001,56.32373380000001],[55.351124299999995,56.31787669999999],[55.3327064,56.31699],[55.3266893,56.311540099999995],[55.3127166,56.3203994],[55.2818539,56.3207688],[55.2610467,56.328334700000006],[55.2590565,56.3349067],[55.2419105,56.337012300000005],[55.23850350000001,56.34464369999999],[55.215576000000006,56.3608381],[55.2141916,56.3664763],[55.20531430000001,56.3722263],[55.1879452,56.358086099999994],[55.1886701,56.3497379],[55.19627070000001,56.343835999999996],[55.1949115,56.337377],[55.199528400000005,56.3329095],[55.2012679,56.3245171],[55.195378800000015,56.3114389],[55.19651200000001,56.30745099999999],[55.18575030000001,56.30480969999999],[55.1500024,56.307456099999996],[55.139539000000006,56.31106009999999],[55.144741399999994,56.3185211],[55.13856080000001,56.3309021],[55.1418373,56.3363612],[55.134851499999996,56.3441062],[55.123611200000006,56.346596999999996],[55.1135961,56.353873699999994],[55.09879210000001,56.35168249999999],[55.1016608,56.3455036],[55.090129000000005,56.3489025],[55.0826482,56.345072200000004],[55.0705765,56.3451842],[55.07375220000001,56.340617599999995],[55.0677241,56.339659],[55.0740097,56.3380962],[55.07161,56.3371954],[55.06613880000001,56.3371687],[55.062937500000004,56.342235],[55.0593971,56.3395683],[55.049792700000005,56.34405399999999],[55.0456824,56.3399808],[55.0397632,56.34494639999999],[55.03633000000001,56.3394758],[55.0232249,56.3427591],[55.025066800000005,56.3395642],[55.02041680000001,56.340110300000006],[55.020451300000005,56.332148800000006],[55.0279443,56.3342563],[55.027661099999996,56.3296269],[55.02290530000001,56.3294909],[55.0271065,56.3257216],[55.01168909999999,56.3204017],[55.0116389,56.324132000000006],[55.00404139999999,56.3252839],[55.003270300000004,56.3293462],[54.992057700000004,56.32813920000001],[54.990913600000006,56.3250656],[54.9890073,56.3276289],[54.9832968,56.3263877],[54.974940999999994,56.336408999999996],[54.943592300000006,56.3372135],[54.942623499999996,56.343074699999995],[54.938676900000004,56.3452991],[54.9413463,56.357667599999985],[54.936100800000006,56.3610368],[54.93870020000001,56.367975900000005],[54.9294803,56.3751626],[54.929618600000005,56.38024839999999],[54.8992971,56.3900828],[54.8903856,56.386361599999994],[54.880823799999995,56.38764639999999],[54.8646556,56.395589],[54.8657847,56.3996166],[54.863078800000004,56.4023004],[54.85638719999999,56.401540499999996],[54.838534900000006,56.407059399999994],[54.8481618,56.416192],[54.8480436,56.4201576],[54.8396623,56.41989449999999],[54.83026449999999,56.4141324],[54.808260499999996,56.423011],[54.7884212,56.426412600000006],[54.79610840000001,56.4312309],[54.7916576,56.436128700000005],[54.733820800000004,56.4304092],[54.71243330000001,56.450989799999995],[54.7071917,56.4641249],[54.694341800000004,56.46872880000001],[54.695367000000005,56.472134100000005],[54.6796438,56.4862003],[54.67839210000001,56.4936227],[54.6821844,56.501397],[54.657791399999994,56.498554000000006],[54.646429399999995,56.500862],[54.63219420000001,56.5095244],[54.61472,56.5046469],[54.603273900000005,56.5138347],[54.6119117,56.52857510000001],[54.60915000000001,56.53131520000001],[54.577733,56.534643499999994],[54.5573021,56.52543070000001],[54.5585891,56.521450800000004],[54.5475,56.5179],[54.5398,56.511399999999995],[54.5392,56.49530000000001],[54.530100000000004,56.4863],[54.5272,56.4798],[54.529300000000006,56.4735],[54.5248,56.468],[54.502500000000005,56.4604],[54.5014,56.453199999999995],[54.493700000000004,56.4467],[54.4979,56.432500000000005],[54.4918,56.426],[54.486399999999996,56.4107],[54.48,56.405100000000004],[54.462700000000005,56.4003],[54.460300000000004,56.387699999999995],[54.4466,56.37479999999999],[54.4469,56.3703],[54.457499999999996,56.357099999999996],[54.4490009,56.34541230000001],[54.4382311,56.35048399999999],[54.4334027,56.359021799999994],[54.4186228,56.3620863],[54.4204412,56.3688177],[54.4140381,56.37577580000001],[54.4004702,56.377261299999994],[54.394241199999996,56.3819853],[54.377579,56.3787016],[54.37428189999999,56.375399300000005],[54.376514300000004,56.371010999999996],[54.374586699999995,56.3646187],[54.3711369,56.364923],[54.35896149999999,56.35295],[54.3609911,56.345746],[54.3569328,56.3380346],[54.363908800000004,56.333101],[54.3630973,56.327089199999996],[54.360154800000004,56.3268862],[54.362895,56.3119709],[54.38136159999999,56.31460919999999],[54.4161486,56.3112388],[54.4098739,56.302611399999996],[54.4022641,56.301698099999996],[54.40124949999999,56.298755600000014],[54.40469949999999,56.295508800000015],[54.392625300000006,56.291526100000006],[54.392321,56.28746749999999],[54.396684099999995,56.2861485],[54.3924226,56.28482939999999],[54.3979017,56.285032400000006],[54.4014532,56.281075300000005],[54.390190700000005,56.27800590000001],[54.3918142,56.2764839],[54.38927759999999,56.27516490000001],[54.3955685,56.274860499999996],[54.393539200000006,56.273642900000006],[54.386436599999996,56.2735414],[54.39191580000001,56.2712078],[54.392321900000006,56.2674536],[54.3972936,56.2693815],[54.397801099999995,56.2644097],[54.39232220000001,56.2583217],[54.38430639999999,56.261162600000006],[54.364114900000004,56.256190600000004],[54.367869299999995,56.2517008],[54.340981199999995,56.2466272],[54.3401682,56.2434466],[54.328408800000005,56.2482804],[54.3362184,56.23536930000001],[54.313789199999995,56.22800810000001],[54.29654010000001,56.227602000000005],[54.270565500000004,56.2146902],[54.264376000000006,56.2174297],[54.2468226,56.2139797],[54.249866999999995,56.202387300000005],[54.23332830000001,56.198024100000005],[54.19954020000001,56.2008647],[54.19517730000001,56.198226600000005],[54.19923610000001,56.194168000000005],[54.1838136,56.1887394],[54.178436600000005,56.17291080000001],[54.1477951,56.1448554],[54.118573600000005,56.131969],[54.0879202,56.10832990000001],[54.0817437,56.082758000000005],[54.0680464,56.0692376],[54.0556686,56.0459766],[54.0372025,56.029488300000004],[54.03578230000001,56.0220814],[54.01488099999999,56.0094741],[53.974164599999995,56.0053886],[53.9539938,56.014500399999996],[53.8957818,56.029450600000004],[53.868356500000004,56.0422779],[53.8453601,56.044852],[53.84146349999999,56.017905],[53.807138900000005,56.002245900000005],[53.8155216,55.9956847],[53.8017303,55.9882993],[53.8258438,55.97891250000001],[53.82219590000001,55.9743746],[53.801998,55.967612],[53.79114250000001,55.9725946],[53.708926600000005,55.9690344],[53.70661330000001,55.966365100000004],[53.70572490000001,55.9330428],[53.709996000000004,55.9301066],[53.6974777,55.92559830000001],[53.7148119,55.92825630000001],[53.723180400000004,55.9219205],[53.7109495,55.907983099999996],[53.7140999,55.9066939],[53.710224499999995,55.8930266],[53.7274833,55.88708979999999],[53.7422594,55.903556200000004],[53.74930500000001,55.9080878],[53.76079260000001,55.9085212],[53.7841061,55.895104],[53.8082518,55.8974364],[53.825436700000004,55.891485499999995],[53.838584499999996,55.87848159999999],[53.840980599999995,55.867247299999995],[53.854126599999994,55.8690708],[53.858342,55.8788927],[53.856336399999996,55.8824452],[53.8647406,55.88748669999999],[53.8795252,55.88698169999999],[53.89371930000001,55.874327699999995],[53.89572520000001,55.8655655],[53.8888098,55.859656599999994],[53.8619291,55.8561538],[53.8561331,55.8497989],[53.991750100000004,55.84744939999999],[53.94231210000001,55.81286759999999],[53.95624739999999,55.78051630000001],[53.967863699999995,55.7767915],[53.975730500000004,55.77795020000001],[54.0030019,55.7946631],[54.0400331,55.8084088],[54.05388699999999,55.8074732],[54.05877580000001,55.8050992],[54.06515380000001,55.7895735],[54.062719400000006,55.785811200000005],[54.0439196,55.77923990000001],[54.0465266,55.77672880000001],[54.051640299999995,55.774897599999996],[54.066865,55.780882399999996],[54.112253300000006,55.77500820000001],[54.1299271,55.780450800000004],[54.13521070000001,55.777005700000004],[54.118282,55.766048100000006],[54.1156217,55.76071120000001],[54.119054,55.7544598],[54.1316658,55.7477265],[54.1633616,55.738682600000004],[54.17091530000001,55.730902400000005],[54.17233510000001,55.7161376],[54.208735300000015,55.702744800000005],[54.220947200000005,55.701346900000004],[54.234017900000005,55.70636330000001],[54.2415456,55.71515010000001],[54.237644599999996,55.720863300000005],[54.2414626,55.722247800000005],[54.24512370000001,55.71912530000001],[54.2410905,55.726232300000014],[54.2481044,55.72518260000001],[54.2577577,55.718654900000004],[54.2569342,55.7156025],[54.26234420000001,55.7101945],[54.260873000000004,55.7075213],[54.265697100000004,55.7037564],[54.260999700000006,55.701142100000006],[54.2617034,55.697378500000006],[54.2500433,55.69813180000001],[54.2576762,55.69519720000001],[54.25520590000001,55.691610000000004],[54.258799100000005,55.68561630000001],[54.24825570000001,55.6871316],[54.246923900000006,55.6800904],[54.2414266,55.677134300000006],[54.232463100000004,55.680784499999994],[54.2246918,55.67919990000001],[54.22306890000001,55.6773437],[54.2279805,55.674415700000004],[54.22733190000001,55.671514],[54.19869490000001,55.66093250000001],[54.1974012,55.65489639999999],[54.201554200000004,55.6501232],[54.195726400000005,55.6445807],[54.20543830000001,55.6435742],[54.195224800000005,55.6370663],[54.1879454,55.6398762],[54.1760231,55.63539870000001],[54.1834755,55.62979670000001],[54.185051900000005,55.624542700000006],[54.17184949999999,55.6199696],[54.16512580000001,55.624909],[54.1646443,55.620657800000004],[54.1564586,55.6152196],[54.1642941,55.614947599999994],[54.1644254,55.61225290000001],[54.14231970000001,55.6094344],[54.12877800000001,55.5984774],[54.11998749999999,55.597917800000005],[54.1185636,55.5917265],[54.1107017,55.589977399999995],[54.104170700000005,55.58210530000001],[54.089042,55.580172100000006],[54.0830451,55.5824484],[54.0873786,55.5859616],[54.07875520000001,55.5865306],[54.066182000000005,55.5801633],[54.071196300000004,55.57277920000001],[54.0682868,55.569104200000005],[54.055596200000004,55.564133600000005],[54.0365294,55.56311840000001],[54.0311372,55.559312000000006],[54.04257200000001,55.5460772],[54.02343380000001,55.538431700000004],[54.0045659,55.55082649999999],[53.9933611,55.54728949999999],[53.9837039,55.5303004],[53.9664942,55.5310012],[53.9632238,55.51953580000001],[53.972156700000006,55.5159851],[53.9769692,55.49910500000001],[53.9879187,55.492143000000006],[53.9784485,55.4828008],[53.966816,55.4885919],[53.958814499999995,55.4829913],[53.9786236,55.4658699],[53.964847999999996,55.4600683],[53.9413341,55.4608018],[53.926926,55.4550986],[53.9272907,55.4442162],[53.9020904,55.4284899],[53.9084179,55.4234462],[53.9103324,55.417096199999996],[53.896592500000004,55.41488319999999],[53.895196600000006,55.4094809],[53.9000561,55.40768849999999],[53.8823915,55.39593190000001],[53.8727613,55.3943657],[53.87875830000001,55.389169599999995],[53.887644399999985,55.389169599999995],[53.890664699999995,55.381585599999994],[53.8891402,55.3627972],[53.897218800000005,55.35686799999999],[53.8949771,55.354214199999994],[53.861955800000004,55.3659091],[53.8261632,55.3507207],[53.8247785,55.3459118],[53.8066409,55.35046909999999],[53.78693620000001,55.34146199999999],[53.77323220000001,55.3403597],[53.7724675,55.348197],[53.74239680000001,55.337396],[53.722750900000015,55.3263473],[53.690385400000004,55.32713270000001],[53.685582000000004,55.319290099999996],[53.688802700000004,55.29674320000001],[53.67591390000001,55.29200410000001],[53.6828701,55.2877861],[53.677989399999994,55.2853271],[53.6856286,55.2770416],[53.681698999999995,55.277685999999996],[53.673075600000004,55.288410600000006],[53.6022691,55.26264210000001],[53.6278643,55.22738280000001],[53.616626,55.214322800000005],[53.51635290000001,55.2139794],[53.5080976,55.2194087],[53.482911300000005,55.2165892],[53.4666111,55.22846590000001],[53.42697230000001,55.23003680000001],[53.4199572,55.2242847],[53.4097306,55.224970600000006],[53.386668199999995,55.21090230000001],[53.3732305,55.2082544],[53.3726166,55.20511840000001],[53.36223880000001,55.2020654],[53.364721499999995,55.197706200000006],[53.398238000000006,55.1918831],[53.371332900000006,55.173109800000006],[53.368441499999996,55.179222700000004],[53.3186728,55.16221970000001],[53.29636360000001,55.16519000000001],[53.283467699999996,55.171540900000004],[53.275579400000005,55.171439],[53.2749249,55.174172600000006],[53.2716334,55.171945300000004],[53.25501620000001,55.1753445],[53.2413945,55.1745898],[53.2079893,55.158837],[53.1582942,55.16571650000001],[53.1590621,55.121008700000004],[53.161102500000005,55.114022],[53.1702968,55.105199600000006],[53.252237900000004,55.1047451],[53.2528879,55.1022478],[53.2628817,55.100951900000005],[53.264937100000004,55.0970544],[53.26299490000001,55.088416800000005],[53.26949830000001,55.07805200000001],[53.2918061,55.0738307],[53.294045100000005,55.0706749],[53.269504600000005,55.048659],[53.2763835,55.0409764],[53.298459400000006,55.04631070000001],[53.3179199,55.04444349999999],[53.325754200000006,55.034067199999996],[53.3202964,55.03358],[53.318689199999994,55.02818880000001],[53.314252499999995,55.026217700000004],[53.318392700000004,55.0218952],[53.3722996,55.0249976],[53.3765254,55.023201900000004],[53.37386139999999,55.020958500000006],[53.3807181,55.0200872],[53.3796609,55.0166555],[53.385056999999996,55.018635],[53.3831379,55.012509200000004],[53.394809499999994,55.014981299999995],[53.3992447,55.01315030000001],[53.399210700000005,55.010202],[53.4061848,55.010068999999994],[53.402325700000006,55.0043649],[53.407801799999994,55.002636300000006],[53.4122168,55.0053871],[53.4206779,54.999282],[53.4277966,54.998812400000006],[53.4311941,54.993997],[53.436916700000005,54.9940098],[53.437689199999994,54.9907294],[53.442669599999995,54.9946212],[53.475109700000004,54.978258000000004],[53.47308099999999,54.9757601],[53.484646299999994,54.9669214],[53.4786073,54.9662576],[53.4809587,54.960339600000005],[53.468701200000005,54.9615969],[53.4750384,54.951276899999996],[53.488227599999995,54.94871320000001],[53.4913175,54.940283099999995],[53.5022609,54.9390505],[53.514918800000004,54.9315801],[53.5181695,54.9250234],[53.507889799999994,54.92229330000001],[53.5081447,54.91328539999999],[53.516659999999995,54.907562399999996],[53.5236775,54.908996],[53.542599200000005,54.8986246],[53.540698,54.8964385],[53.5449565,54.891041799999996],[53.541747099999995,54.8867137],[53.5506362,54.885376900000004],[53.553361599999995,54.878503300000006],[53.5884454,54.8858963],[53.594819300000005,54.89275080000001],[53.6147331,54.8984534],[53.617124399999994,54.906188],[53.6376943,54.9107669],[53.6493044,54.9065858],[53.645639300000006,54.900302100000005],[53.636503700000006,54.8994977],[53.63597020000001,54.8909718],[53.6394778,54.887892199999996],[53.637365800000005,54.880268799999996],[53.62277360000001,54.878513000000005],[53.5978099,54.8192229],[53.5889515,54.815839999999994],[53.5920474,54.80931210000001],[53.613362200000005,54.8103796],[53.6195565,54.813663899999995],[53.62255040000001,54.8095148],[53.62877340000001,54.810621899999994],[53.623983200000005,54.8069797],[53.6263444,54.8001172],[53.622838400000006,54.793460700000004],[53.613835,54.79297850000001],[53.612883399999994,54.7895576],[53.6173334,54.7868143],[53.61503330000001,54.7776899],[53.6175336,54.7652014],[53.63915870000001,54.747265999999996],[53.634911,54.7414619],[53.62806880000001,54.741694599999995],[53.6307044,54.73525080000001],[53.62731900000001,54.7331275],[53.6315627,54.728733800000015],[53.625336800000014,54.72816170000001],[53.629202500000005,54.724705400000005],[53.6246619,54.721603200000004],[53.62873720000001,54.718858000000004],[53.624866999999995,54.71557690000001],[53.627079900000005,54.7115432],[53.62459080000001,54.708493700000005],[53.622659600000006,54.7108986],[53.6198701,54.70931190000001],[53.624247499999996,54.70509680000001],[53.617166399999995,54.70430330000001],[53.6187278,54.69800080000001],[53.615102500000006,54.69517850000001],[53.6045775,54.69569380000001],[53.603801,54.69051760000001],[53.59432230000001,54.6811237],[53.5755611,54.67807620000001],[53.609100500000004,54.67239180000001],[53.6032792,54.663813700000006],[53.597825900000004,54.664716000000006],[53.60201240000001,54.669623],[53.584948499999996,54.67255200000001],[53.5816148,54.66790290000001],[53.574327499999995,54.66836980000001],[53.5677347,54.6644889],[53.5694366,54.6610207],[53.562312300000016,54.660803200000004],[53.5597,54.6579758],[53.56272380000001,54.655416900000006],[53.57235250000001,54.654026699999996],[53.5704657,54.6402984],[53.56072890000001,54.6366219],[53.5497485,54.641708900000005],[53.520728000000005,54.617276499999996],[53.5137661,54.61371880000001],[53.5119192,54.617084999999996],[53.50480759999999,54.61482769999999],[53.5067695,54.6100829],[53.4899334,54.6016423],[53.4864519,54.5952174],[53.4889605,54.59211530000002],[53.4644948,54.588248],[53.4640284,54.5853291],[53.4692976,54.5844783],[53.467746399999996,54.580481799999994],[53.4823618,54.578726200000006],[53.4699694,54.5773915],[53.4699694,54.57171520000001],[53.464812800000004,54.566970700000006],[53.4432403,54.5676967],[53.43541220000001,54.57188709999999],[53.4234906,54.56601800000001],[53.424058300000006,54.5627815],[53.43068139999999,54.56091620000001],[53.4340403,54.553783599999996],[53.4310033,54.5484996],[53.4352906,54.5433544],[53.43294290000001,54.5345924],[53.42819490000001,54.532231200000005],[53.430125000000004,54.5304963],[53.423729,54.5316602],[53.4224044,54.5275534],[53.4248999,54.521595600000005],[53.4300594,54.5206775],[53.426591800000004,54.5101945],[53.423168800000006,54.51068709999999],[53.42138739999999,54.5045288],[53.41675,54.50253240000001],[53.42032280000001,54.50108099999999],[53.420767399999995,54.4968514],[53.42372290000001,54.4972861],[53.4216261,54.4937078],[53.4236808,54.492282900000006],[53.4335115,54.4928177],[53.4290994,54.4899057],[53.4345385,54.48644769999999],[53.43464159999999,54.4809171],[53.425485200000004,54.4769144],[53.4229678,54.472250900000006],[53.41444309999999,54.4698825],[53.4150313,54.4643754],[53.420363,54.463215600000005],[53.4234548,54.4551672],[53.414797199999995,54.4573068],[53.40333330000001,54.4507025],[53.4111062,54.4459785],[53.4128053,54.438872],[53.41746419999999,54.4385276],[53.4165603,54.4359899],[53.425233000000006,54.4366438],[53.4295404,54.4304591],[53.423307900000005,54.4228235],[53.38763459999999,54.4193996],[53.38906139999999,54.4135687],[53.403987699999995,54.413836599999996],[53.412552700000006,54.404948],[53.4088098,54.4042452],[53.4120698,54.40275530000001],[53.4082785,54.398200800000005],[53.412576900000005,54.39803210000001],[53.4004393,54.388318700000006],[53.39857290000001,54.3825824],[53.38176469999999,54.37484619999999],[53.3860751,54.37104659999999],[53.3969055,54.3699434],[53.4016993,54.36553010000001],[53.4189806,54.3607543],[53.42019390000001,54.35856439999999],[53.4063747,54.35444309999999],[53.411997099999994,54.353046199999994],[53.40510230000001,54.35128719999999],[53.408712400000006,54.348648399999995],[53.4063747,54.3470789],[53.3999238,54.349458999999996],[53.4031848,54.3443903],[53.412862399999995,54.3439156],[53.422293700000004,54.3387377],[53.421877099999996,54.334994599999995],[53.4282735,54.33531250000001],[53.4320477,54.328759700000006],[53.42809580000001,54.3213866],[53.43011020000001,54.3185057],[53.42486759999999,54.315587099999995],[53.4274889,54.3124422],[53.42298230000001,54.3092292],[53.42579090000001,54.3063626],[53.4198251,54.3075869],[53.4217868,54.30398739999999],[53.4191268,54.301851299999996],[53.4272167,54.295747600000006],[53.427700900000005,54.29861870000001],[53.43851520000001,54.29813700000001],[53.432242200000005,54.293277700000004],[53.4352514,54.2879039],[53.42764639999999,54.28890580000001],[53.4256146,54.284628399999995],[53.4315624,54.279704900000006],[53.42919510000001,54.2764914],[53.438782700000004,54.272517400000005],[53.437746999999995,54.268542900000014],[53.4460985,54.258577800000005],[53.4398286,54.2558428],[53.42993920000001,54.2588546],[53.42295560000001,54.2562791],[53.421723,54.2508193],[53.431857799999996,54.2500043],[53.429017,54.246304300000006],[53.43677,54.24025230000001],[53.4311651,54.23514480000001],[53.42805920000001,54.237070700000004],[53.427680499999994,54.233019500000005],[53.423514000000004,54.2307946],[53.4263015,54.22131410000001],[53.436558500000004,54.222426600000006],[53.4307744,54.213166300000005],[53.431068399999994,54.20529220000001],[53.440015200000005,54.19530460000001],[53.4374107,54.185293200000004],[53.452912500000004,54.1764536],[53.456192,54.16858010000001],[53.45398749999999,54.1665434],[53.45811260000001,54.16397090000001],[53.452474099999996,54.154412],[53.4697432,54.143176100000005],[53.466543300000005,54.1416639],[53.4697535,54.1384614],[53.4626686,54.13819220000001],[53.46819610000001,54.131278800000004],[53.465611,54.12927820000001],[53.468693300000005,54.1290894],[53.4635886,54.1215794],[53.46854270000001,54.12090920000001],[53.46552560000001,54.1175603],[53.4724738,54.1124981],[53.4665942,54.108662700000004],[53.4690086,54.10811730000001],[53.4658825,54.1040961],[53.470682,54.10218630000001],[53.4732473,54.09657210000001],[53.4696041,54.09575060000001],[53.4664668,54.0886749],[53.4886595,54.076962200000004],[53.4868269,54.071087999999996],[53.491649499999994,54.070539000000004],[53.48764299999999,54.067827599999994],[53.495388000000005,54.058006],[53.510490499999996,54.0545396],[53.5165726,54.049555100000006],[53.515753100000005,54.0433524],[53.5094002,54.04188249999999],[53.506159000000004,54.03236520000001],[53.5000902,54.0305695],[53.498709100000006,54.024410100000004],[53.519774,54.0144731],[53.5129506,54.009339100000005],[53.520402700000005,54.00417530000001],[53.52878380000001,54.0067296],[53.5271215,54.002553400000004],[53.53238210000001,54.001429699999996],[53.535810000000005,53.996016700000006],[53.533319000000006,53.988403399999996],[53.5296486,53.9885448],[53.53256830000001,53.987129499999995],[53.52931330000001,53.98349459999999],[53.533173000000005,53.981942999999994],[53.52981320000001,53.9823476],[53.5316,53.9776141],[53.5292571,53.9760653],[53.5468833,53.9714582],[53.549977399999996,53.9683805],[53.5477022,53.96303],[53.5514138,53.962085],[53.5488197,53.95966149999999],[53.55444439999999,53.960871499999996],[53.5527731,53.9577708],[53.558488499999996,53.955595800000005],[53.555808,53.95386479999999],[53.5690887,53.946524499999995],[53.56715380000001,53.9404082],[53.5631834,53.9389881],[53.5676373,53.93906439999999],[53.566597,53.933932500000004],[53.57217240000001,53.9311812],[53.5694888,53.92931520000001],[53.572606900000004,53.9246562],[53.5688764,53.924554],[53.5677681,53.921174900000004],[53.574775800000005,53.9167883],[53.5694516,53.913984899999996],[53.573995000000004,53.907709399999995],[53.5767711,53.9096173],[53.583624799999996,53.905801399999994],[53.5822367,53.902905100000005],[53.5894663,53.8970097],[53.586573200000004,53.895131000000006],[53.5877373,53.8913379],[53.5919015,53.8901054],[53.5880334,53.887465799999994],[53.59719290000001,53.883998999999996],[53.593867499999995,53.8827734],[53.59379260000001,53.878874399999994],[53.5883846,53.880804999999995],[53.58058139999999,53.876876499999995],[53.588168100000004,53.8746356],[53.596058500000005,53.8672058],[53.6000808,53.86833240000001],[53.5982794,53.8636043],[53.600454,53.8597569],[53.596845,53.857382699999995],[53.6008936,53.85474919999999],[53.599806300000004,53.849740999999995],[53.596312900000015,53.8508327],[53.59421090000001,53.8473633],[53.600031200000004,53.8475124],[53.59882,53.83919530000001],[53.60525930000001,53.83011080000001],[53.609371900000006,53.828168000000005],[53.612096900000004,53.8212336],[53.6176301,53.8184068],[53.6209871,53.8211857],[53.62025190000001,53.815387099999995],[53.62735080000001,53.80911090000001],[53.624218500000005,53.8081961],[53.63031840000001,53.8065997],[53.6268515,53.8058462],[53.62748739999999,53.803492],[53.622212300000015,53.803987199999995],[53.6246926,53.8001291],[53.62901830000001,53.800685099999995],[53.62806090000001,53.7873095],[53.63890090000001,53.783167399999996],[53.6343292,53.7796432],[53.634413,53.7734547],[53.63853650000001,53.771570600000004],[53.636148600000006,53.767651],[53.64442939999999,53.76269330000001],[53.642374800000006,53.7554668],[53.6468018,53.755166800000005],[53.644772,53.753118400000005],[53.649610200000005,53.7508008],[53.672094900000005,53.749380200000004],[53.680202,53.74331050000001],[53.8242255,53.68749449999999],[53.8541623,53.6870376],[53.8507622,53.68402639999999],[53.913804899999995,53.6106259],[53.9800597,53.5435413],[54.008928700000006,53.53035210000001],[54.0066356,53.52039890000001],[54.02393240000001,53.49837720000001],[54.0417455,53.5005665],[54.0607641,53.454865299999994],[54.0748136,53.441662799999996],[54.138409700000004,53.4000229],[54.15167099999999,53.387977899999996],[54.169707100000004,53.3856423],[54.216976300000006,53.3696185],[54.253710600000005,53.3618512],[54.27916630000001,53.383240199999996],[54.27838010000001,53.387209899999995],[54.287744599999996,53.403000999999996],[54.29619040000001,53.405897499999995],[54.300755300000006,53.4016798],[54.3168313,53.4036733],[54.343896599999994,53.3884281],[54.4019552,53.369311700000004],[54.42806290000001,53.3704499],[54.4443893,53.364131],[54.4638485,53.3621034],[54.504664299999995,53.3636043],[54.547572100000004,53.355177499999996],[54.551000499999994,53.3459216],[54.5595335,53.3445165],[54.5713166,53.3192708],[54.563264399999994,53.3003237],[54.566943,53.29921360000001],[54.5657434,53.29030040000001],[54.55168159999999,53.26315860000001],[54.62693670000001,53.2588481],[54.6247094,53.250104],[54.6294064,53.2494668],[54.6375647,53.236222700000006],[54.6102397,53.22711050000001],[54.614715600000004,53.22514350000001],[54.6161977,53.2169024],[54.6212547,53.216686599999996],[54.627613700000005,53.22139530000001],[54.6345747,53.216957],[54.6442038,53.2177779],[54.6579489,53.2137694],[54.6663774,53.219852700000004],[54.6767801,53.219920800000004],[54.67973130000001,53.222697700000005],[54.67505690000001,53.22452570000001],[54.678296700000004,53.22674880000001],[54.6838741,53.2276696],[54.690346000000005,53.223840200000005],[54.7038918,53.229313900000015],[54.708407,53.22600270000001],[54.7208075,53.232433500000006],[54.739749700000004,53.2302677],[54.7428842,53.22642530000001],[54.747265399999996,53.2279965],[54.746236700000004,53.23433850000001],[54.755902400000004,53.23331160000001],[54.768244100000004,53.239865],[54.79351540000001,53.242011600000005],[54.7943775,53.247426499999996],[54.80167719999999,53.25030830000001],[54.79717080000001,53.25532280000001],[54.8123375,53.261314600000006],[54.815260599999995,53.26601960000001],[54.831735900000005,53.27513700000001],[54.8366589,53.273742600000006],[54.8408526,53.252208800000005],[54.869815300000006,53.23552830000001],[54.8672739,53.23321980000001],[54.8758179,53.2346511],[54.900168,53.227623900000005],[54.9027316,53.221613500000004],[54.9272619,53.212166800000006],[54.930061599999995,53.196431200000006],[54.9455705,53.1751415],[54.9428341,53.1590341],[54.95096449999999,53.156539300000006],[54.949866799999995,53.14503690000001],[54.943172000000004,53.1446402],[54.943874199999996,53.137503900000006],[54.95434769999999,53.13661890000001],[54.956462499999994,53.119128],[54.94217930000001,53.11144959999999],[54.9413062,53.1013919],[54.9739247,53.0803],[54.96537690000001,53.06855270000001],[54.994847099999994,53.0582349],[55.0040395,53.02831140000001],[55.03832190000001,52.9992585],[55.051237199999996,52.961385],[55.06397990000001,52.947874899999995],[55.122748400000006,52.91444599999999],[55.128484900000004,52.907042999999994],[55.1336924,52.897318500000004],[55.12338570000001,52.8825525],[55.123186700000005,52.870994599999996],[55.1312061,52.863282],[55.14748759999999,52.8607561],[55.1491345,52.8551991],[55.15512210000001,52.852967199999995],[55.1550267,52.8481767],[55.130799700000004,52.852004699999995],[55.1273575,52.849530300000005],[55.1368134,52.8380434],[55.1527635,52.8405889],[55.13817200000001,52.811918399999996],[55.14935820000001,52.8081496],[55.1484084,52.8111269],[55.1575036,52.81163449999999],[55.1648905,52.82041890000001],[55.175020800000006,52.817934199999996],[55.1898949,52.8381667],[55.242201,52.8202863],[55.265712600000015,52.837451599999994],[55.2562175,52.852691799999995],[55.266616000000006,52.857450799999995],[55.2804447,52.848503300000004],[55.29369230000001,52.846029599999994],[55.348389499999996,52.8527467],[55.38458539999999,52.823286599999996],[55.4002079,52.8292636],[55.39991330000001,52.810488299999996],[55.4239891,52.792077000000006],[55.394890499999995,52.7844703],[55.3943397,52.7875962],[55.38704759999999,52.79031110000001],[55.3390693,52.76856580000001],[55.3679033,52.740079800000004],[55.4166251,52.74686739999999],[55.427081699999995,52.733112100000014],[55.4127683,52.721341100000004],[55.39511550000001,52.69985890000001],[55.3736889,52.7078596],[55.36850390000001,52.703962600000004],[55.3603578,52.6896057],[55.3673111,52.683086599999996],[55.3154968,52.6939844],[55.305902800000005,52.7066805],[55.303101399999996,52.7310147],[55.2768821,52.71814260000001],[55.27007290000001,52.725396900000014],[55.272472400000005,52.7320818],[55.2662806,52.73838590000001],[55.23373420000001,52.741337300000005],[55.221648800000004,52.7402042],[55.22329090000001,52.733222100000006],[55.21892290000001,52.7236654],[55.26904530000001,52.700114500000005],[55.264039800000006,52.645092500000004],[55.2806184,52.630418500000005],[55.3029714,52.62961520000001],[55.3528653,52.6383664],[55.363492300000004,52.64612270000001],[55.36815190000001,52.6752618],[55.3721377,52.67530680000001],[55.4036007,52.6677204],[55.4111428,52.663633700000005],[55.414705,52.6575535],[55.42158739999999,52.657923399999994],[55.4277696,52.651437099999995],[55.435311600000006,52.6490375],[55.44466419999999,52.63691240000001],[55.449873499999995,52.63631780000001],[55.45068499999999,52.63231480000001],[55.456249899999996,52.63205230000001],[55.456395300000004,52.62876890000001],[55.463937300000005,52.624612400000004],[55.4707624,52.625477200000006],[55.4555438,52.616190100000004],[55.437027799999996,52.5853601],[55.45197769999999,52.5823011],[55.46928139999999,52.5835572],[55.480772,52.59057060000001],[55.524101800000004,52.604215800000006],[55.5300341,52.575909],[55.50813490000001,52.56766939999999],[55.5100613,52.555206],[55.5348029,52.54577890000001],[55.5489577,52.5444382],[55.544844299999994,52.534839399999996],[55.4793667,52.54148059999999],[55.4745267,52.52315870000001],[55.5100492,52.5202266],[55.52519180000001,52.5139384],[55.5196487,52.496358400000005],[55.501479499999995,52.49875780000001],[55.49577430000001,52.4724966],[55.501881999999995,52.470096999999996],[55.499996800000005,52.462045100000005],[55.5394568,52.45728389999999],[55.5336204,52.456468699999995],[55.533173100000006,52.4513921],[55.5430608,52.4526321],[55.540219,52.45050739999999],[55.542362100000005,52.4437869],[55.528543000000006,52.431070399999996],[55.49619580000001,52.416897999999996],[55.525096600000005,52.387560099999995],[55.540019,52.3966227],[55.5485346,52.3912883],[55.55426949999999,52.392240300000005],[55.569359600000006,52.4062421],[55.579671399999995,52.3997504],[55.59242820000001,52.38384849999999],[55.6140789,52.3823454],[55.6182746,52.3718953],[55.6749837,52.3678737],[55.665640700000004,52.4013305],[55.6732324,52.39831580000001],[55.6779098,52.404397499999995],[55.681771,52.403815300000005],[55.6832145,52.3998493],[55.699394600000005,52.400964599999995],[55.733189900000006,52.35149939999999],[55.743573600000005,52.353749799999996],[55.7510526,52.3490803],[55.770482300000005,52.34718739999999],[55.79819770000001,52.3769247],[55.8234173,52.364961699999995],[55.85777399999999,52.3895304],[55.8820598,52.396154700000004],[55.886649199999994,52.40855830000001],[55.8713781,52.414687499999985],[55.8482364,52.4703085],[55.851835599999994,52.48162139999999],[55.8660712,52.4883174],[55.86324739999999,52.496093300000005],[55.8722313,52.5345005],[55.8664083,52.53486159999999],[55.8675919,52.545781399999996],[55.8852579,52.5444422],[55.90813330000001,52.5599448],[55.92211010000001,52.55284149999999],[55.91199769999999,52.53593580000001],[55.9218059,52.530672900000006],[55.92845320000001,52.52126],[55.91783449999999,52.513438300000004],[55.92033260000001,52.50966639999999],[55.9370239,52.51011870000001],[55.94406239999999,52.5152938],[55.9635881,52.5416149],[55.9609699,52.5441556],[55.96813850000001,52.5468982],[55.966266499999996,52.55778779999999],[55.987339999999996,52.5612911],[56.0064148,52.5489071],[56.0366093,52.5702407],[56.027051900000004,52.5760986],[56.05313830000001,52.5909467],[56.059172800000006,52.612397300000005],[56.0678334,52.6238632],[56.0624041,52.62881270000001],[56.068626300000005,52.6300534],[56.062862700000004,52.6337678],[56.053191,52.6336462],[56.0360318,52.6470308],[56.0704599,52.64486469999999],[56.11489649999999,52.65048039999999],[56.1268807,52.6456695],[56.1212518,52.638638500000006],[56.0979634,52.636395400000005],[56.073965900000005,52.62130380000001],[56.110190700000004,52.6193405],[56.12543490000001,52.633571800000006],[56.1484437,52.6317004],[56.153936900000005,52.6093965],[56.163198400000006,52.5988376],[56.154486199999994,52.591204],[56.156405,52.5893794],[56.1840707,52.59003860000001],[56.18819280000001,52.592049900000006],[56.1890047,52.59809500000001],[56.2097406,52.5858144],[56.221748600000005,52.571324399999995],[56.23283830000001,52.5646738],[56.232600000000005,52.561812700000004],[56.26407280000001,52.5440162],[56.3338238,52.584844999999994],[56.367423699999996,52.59561270000001],[56.421857599999996,52.603370500000004],[56.426509700000004,52.5992654],[56.441586599999994,52.59653810000001],[56.439281199999996,52.5943692],[56.447042599999996,52.5915944],[56.4428206,52.5863427],[56.445289599999995,52.5820036],[56.4306305,52.57814260000001],[56.4346529,52.5768364],[56.407441199999994,52.5588402],[56.42931780000001,52.5437454],[56.37615220000001,52.5273664],[56.3735019,52.52501300000001],[56.374848899999996,52.5164332],[56.38154349999999,52.509094],[56.3510953,52.496940900000006],[56.3826542,52.419861899999994],[56.43239230000001,52.428406700000004],[56.430849099999996,52.445204499999996],[56.4433618,52.445547399999995],[56.443189499999995,52.4723297],[56.456387899999996,52.46873030000001],[56.4656439,52.470273],[56.4702721,52.4620456],[56.4865561,52.45120429999999],[56.4831282,52.443662399999994],[56.490841499999995,52.4436197],[56.492727300000006,52.43539220000001],[56.4867279,52.438134600000005],[56.4831284,52.4367633],[56.4831286,52.432478200000006],[56.4762724,52.42939280000001],[56.4637234,52.431412900000005],[56.459958300000004,52.4250636],[56.461790300000004,52.416074599999995],[56.4557941,52.415576],[56.4571263,52.410323399999996],[56.4407411,52.406894599999994],[56.4330794,52.38152709999999],[56.4327441,52.3751944],[56.442735400000004,52.3733004],[56.44422769999999,52.3600545],[56.4423494,52.35368329999999],[56.4443963,52.35132449999999],[56.44028659999999,52.34452449999999],[56.444494199999994,52.3431973],[56.4340809,52.3311105],[56.45400659999999,52.31782049999999],[56.4550195,52.29811500000002],[56.4206554,52.29352010000001],[56.414905399999995,52.2876736],[56.402770800000006,52.2830803],[56.359206199999996,52.280525000000004],[56.314057999999996,52.2560764],[56.3241085,52.247520800000004],[56.286008100000004,52.23877410000001],[56.27390570000001,52.231241399999995],[56.281521,52.226350300000014],[56.2808912,52.224085800000005],[56.260863,52.20333860000001],[56.237948300000006,52.2186666],[56.200486999999995,52.16532080000001],[56.201351800000005,52.140201399999995],[56.26819410000001,52.12193030000001],[56.293843300000006,52.128955300000015],[56.340796999999995,52.129797800000006],[56.3485409,52.1320843],[56.3497172,52.146463],[56.3467765,52.152056800000004],[56.35166809999999,52.1588693],[56.3815752,52.16071680000001],[56.3857902,52.172200800000006],[56.4105904,52.185003900000005],[56.41666789999999,52.1829605],[56.4265684,52.1910736],[56.42039280000001,52.19419830000001],[56.4277714,52.20073620000001],[56.4498982,52.210298900000005],[56.47234580000001,52.213902700000006],[56.4749925,52.209998600000006],[56.474012200000004,52.1985845],[56.437056999999996,52.1964215],[56.434704399999994,52.19035250000001],[56.4465164,52.19001900000001],[56.448918000000006,52.1841595],[56.39852020000001,52.160876],[56.426670300000005,52.1452594],[56.438571700000004,52.14785749999999],[56.4581116,52.163112900000016],[56.4709086,52.168843800000005],[56.486724599999995,52.16223830000001],[56.497868399999994,52.16595080000001],[56.517932800000004,52.157799999999995],[56.5242748,52.16019980000001],[56.53764459999999,52.1576288],[56.5427868,52.1552292],[56.5443297,52.1485015],[56.6149489,52.1298218],[56.62238970000001,52.124154100000005],[56.6177535,52.09957810000001],[56.585469499999995,52.078825300000005],[56.603124900000005,52.064770200000005],[56.608266900000004,52.06991250000001],[56.605695600000004,52.076425900000004],[56.60895230000001,52.078997],[56.6063811,52.0807111],[56.6168368,52.08533920000001],[56.6276354,52.0856821],[56.62523560000001,52.089795800000005],[56.63312020000001,52.092024200000004],[56.629520500000005,52.0959665],[56.639462200000004,52.0947668],[56.6440289,52.0971842],[56.66671620000001,52.0856397],[56.67391560000001,52.0739842],[56.682829,52.0670852],[56.7045979,52.0600578],[56.68317290000001,52.031904],[56.67871680000001,52.015920300000005],[56.6818022,52.012320800000005],[56.6590637,51.9857451],[56.66258860000001,51.979902300000006],[56.64891090000001,51.960730000000005],[56.6825974,51.95902149999999],[56.6812111,51.9522724],[56.694519400000004,51.9532122],[56.69715330000001,51.943044099999995],[56.72113580000001,51.9461204],[56.726126400000005,51.9264625],[56.73901880000001,51.925265700000004],[56.738048400000004,51.911927199999994],[56.723492500000006,51.897130600000004],[56.702837,51.9032038],[56.70547090000001,51.9065394],[56.6349095,51.898499300000005],[56.633523200000006,51.893280999999995],[56.6401774,51.8801898],[56.628116800000015,51.877708],[56.6229875,51.869491499999995],[56.6124518,51.8345547],[56.6131665,51.831246099999994],[56.6746956,51.816990399999995],[56.6918854,51.8102199],[56.740821,51.77832490000001],[56.76133780000001,51.7802976],[56.7811616,51.7676024],[56.80666359999999,51.742635500000006],[56.77317060000001,51.734000900000005],[56.7458375,51.73592070000001],[56.7512423,51.717438900000005],[56.758750500000005,51.711127],[56.761439100000004,51.69739220000001],[56.7670212,51.69372260000001],[56.76819420000001,51.68480339999999],[56.7591673,51.6764407],[56.7734364,51.67294890000001],[56.752120100000006,51.631806999999995],[56.731073200000004,51.615169],[56.73117510000001,51.586755100000005],[56.774374900000005,51.5850917],[56.814141199999995,51.587491899999996],[56.817912,51.5919485],[56.89230210000001,51.606433200000005],[56.895214800000005,51.6472279],[56.88544449999999,51.65138439999999],[56.8832157,51.669553400000005],[56.886129399999994,51.67713820000001],[56.874302,51.685194200000005],[56.87704449999999,51.6857084],[56.8653884,51.701306200000005],[56.8009177,51.750655200000004],[56.8153375,51.75913210000001],[56.820762900000005,51.7554841],[56.8424808,51.76477270000001],[56.864015900000005,51.7430437],[56.8782428,51.73755880000001],[56.8943549,51.741844199999996],[56.8988117,51.73515940000001],[56.9435489,51.733960100000004],[56.95846099999999,51.7457873],[56.969259900000004,51.736188600000006],[56.9692603,51.7238474],[56.996856900000004,51.72054810000001],[56.9932574,51.718148400000004],[56.995657300000005,51.7128348],[56.9927434,51.7105637],[56.9968573,51.7076498],[56.99771500000001,51.6836101],[56.9932585,51.68241020000001],[57.0026863,51.6669837],[57.03971030000001,51.66321320000001],[57.0477663,51.66681280000001],[57.09556860000001,51.667019800000006],[57.160506600000005,51.575737800000006],[57.19821400000001,51.569554000000004],[57.2109261,51.571272],[57.220460100000004,51.57573850000001],[57.225355600000015,51.5902116],[57.3058371,51.6070905],[57.29355370000001,51.62952990000001],[57.33186139999999,51.649843999999995],[57.3605497,51.6533015],[57.3781574,51.66695870000001],[57.3797033,51.6717687],[57.39911490000001,51.680637399999995],[57.40727449999999,51.69139560000001],[57.400488499999994,51.706190600000006],[57.39593550000001,51.7272772],[57.4813134,51.72590390000001],[57.49393990000001,51.72049280000001],[57.529413500000004,51.73243240000001],[57.5506293,51.72599060000001],[57.5737346,51.725647300000006],[57.589881999999996,51.7440715],[57.6162511,51.74699220000001],[57.63523330000001,51.7545725],[57.640816,51.767220300000005],[57.6109246,51.785107200000006],[57.613844699999994,51.7944695],[57.641587799999996,51.8083416],[57.6452809,51.819765399999994],[57.669760100000005,51.8303734],[57.6586794,51.846692999999995],[57.6390096,51.85386479999999],[57.65532890000001,51.8688104],[57.67104739999999,51.8671786],[57.6772319,51.8598563],[57.684360999999996,51.8630344],[57.71519680000001,51.8600285],[57.72516120000001,51.8343037],[57.7543651,51.825371100000005],[57.843779999999995,51.8262311],[57.8443809,51.8379125],[57.9067394,51.8371402],[57.9419561,51.8216369],[57.9550978,51.8215512],[57.955184499999994,51.79378630000001],[58.07311590000001,51.795935000000014],[58.109534800000006,51.791876900000005],[58.1106516,51.7847478],[58.1143451,51.7816557],[58.126026700000004,51.778628100000006],[58.118210600000005,51.77373210000001],[58.114431599999996,51.7616856],[58.12654260000001,51.7596243],[58.1311811,51.7512713],[58.14277680000001,51.74910260000001],[58.143292300000006,51.745151500000006],[58.140973100000004,51.7460104],[58.145525500000005,51.744120800000005],[58.1444949,51.73999800000001],[58.152569,51.735080700000005],[58.143979800000004,51.730270600000004],[58.144409499999995,51.72451580000001],[58.159355100000006,51.71815990000001],[58.184178,51.72614820000001],[58.18563880000001,51.7349364],[58.257273,51.73349290000001],[58.25873270000001,51.750778800000006],[58.31344659999999,51.7522611],[58.31988779999999,51.778909500000005],[58.321641799999995,51.7820224],[58.3207468,51.7794249],[58.3290784,51.778566000000005],[58.3291646,51.7702344],[58.4034622,51.771351900000006],[58.4032902,51.77856690000001],[58.446752200000006,51.779426300000004],[58.489441199999995,51.779255000000006],[58.4898709,51.7708375],[58.498460200000004,51.770150400000006],[58.5749052,51.771697399999994],[58.5747318,51.8270339],[58.615445300000005,51.826519000000005],[58.619137200000004,51.875113000000006],[58.6136399,51.8803524],[58.614412800000004,51.88475449999999],[58.639321900000006,51.8850124],[58.65564139999999,51.8930007],[58.66019270000001,51.925940700000005],[58.6572712,51.96616],[58.6591861,52.030554800000004],[58.690291300000005,52.02993990000001],[58.7105455,52.033669399999994],[58.71282,52.0379833],[58.7130984,52.07973270000001],[58.652715500000006,52.0787872],[58.6515114,52.130065300000005],[58.6167245,52.13659270000001],[58.66121530000001,52.199466900000004],[58.661386900000004,52.20541500000001],[58.6533985,52.21531410000001],[58.6536561,52.2178909],[58.663963200000005,52.2217776],[58.662417000000005,52.22529920000001],[58.6554597,52.22547090000001],[58.65511600000001,52.227790000000006],[58.659238800000004,52.23053870000001],[58.6615576,52.2422631],[58.66844230000001,52.2986245],[58.69771510000001,52.29711400000001],[58.742554500000004,52.2586696],[58.884708399999994,52.244477399999994],[58.8989667,52.24473520000001],[58.8908925,52.25057580000001],[58.891407799999996,52.25368949999999],[58.89510090000001,52.2641684],[58.904205499999996,52.2649416],[58.9012309,52.2704954],[58.903947599999995,52.273208800000006],[58.9137394,52.2739819],[58.9162302,52.2795865],[58.921126,52.281733900000006],[58.9414829,52.27623690000001],[58.953164199999996,52.283988900000004],[58.94362949999999,52.29936360000001],[58.94551890000001,52.310164699999994],[58.9292847,52.3204717],[58.93211910000001,52.32468049999999],[58.94431590000001,52.3263985],[58.945427599999995,52.3396888],[58.936086599999996,52.3423992],[58.900391,52.342398800000005],[58.88104189999999,52.3460682],[58.8685315,52.351906099999994],[58.8370058,52.3557839],[58.85492669999999,52.4258061],[58.79614790000001,52.431792200000004],[58.7978496,52.468616700000005],[58.77017790000001,52.4711707],[58.781245,52.520394200000005],[58.8382913,52.5208206],[58.8389284,52.56599980000001],[58.8338198,52.565999700000006],[58.82402749999999,52.593298700000005],[58.781235300000006,52.592083800000005],[58.781029399999994,52.61059290000001],[58.7510163,52.611018300000005],[58.7510148,52.6579003],[58.77677070000001,52.66151920000001],[58.78017630000001,52.66519100000001],[58.77613180000001,52.67051240000001],[58.77975030000001,52.67285390000001],[58.779963,52.67838820000001],[58.78571020000001,52.6800912],[58.7854972,52.68328399999999],[58.77655690000001,52.69030820000001],[58.785284,52.69435260000001],[58.8046568,52.69508630000001],[58.77953390000001,52.787318400000004],[58.76271730000001,52.810626199999994],[58.7608004,52.8496324],[58.802945,52.896993900000005],[58.8110328,52.92450590000001],[58.815076999999995,52.9274859],[58.8108198,52.930891599999995],[58.8123095,52.940310600000004],[58.8610541,52.9444087],[58.8391271,53.0240174],[58.98913220000001,53.019652],[58.98451,53.021305100000006],[58.9879156,53.02577520000001],[58.9845098,53.026200900000006],[58.985573900000006,53.03216090000001],[58.99238530000001,53.036418100000006],[58.9891924,53.0376952],[58.9917465,53.0419524],[58.98706369999999,53.041313800000005],[58.9759948,53.04855090000001],[58.9134139,53.056053399999996],[58.911068199999995,53.19121830000001],[58.9072367,53.19334690000001],[58.908300700000005,53.20313840000001],[58.9042563,53.2042026],[58.9065975,53.2114398],[58.8722749,53.201817399999996],[58.876158100000005,53.22852130000001],[58.87402949999999,53.231075600000004],[58.87530520000001,53.2766805],[58.9002097,53.276521100000004],[58.8972227,53.49353000000001],[58.9070142,53.493796200000006],[58.906373900000006,53.5477025],[58.81314149999999,53.5496704],[58.813353,53.5916035],[58.8258419,53.60234630000001],[58.822128600000006,53.60829280000001],[58.827857699999996,53.6118427],[58.83978739999999,53.6114181],[58.906865499999995,53.642514000000006],[58.905945,53.645830200000006],[58.9019007,53.6454044],[58.906370700000004,53.6471073],[58.903603399999994,53.64923590000001],[58.9059448,53.65136449999999],[58.901900499999996,53.6515773],[58.90488039999999,53.655621599999996],[58.90764759999999,53.654557399999995],[58.91020159999999,53.6615817],[58.902964399999995,53.66371020000001],[58.9084986,53.66583890000001],[58.9059443,53.666903100000006],[58.9059441,53.6739274],[58.9125426,53.6781847],[58.9072208,53.68675220000001],[58.9091364,53.69143510000001],[58.9044503,53.69332570000001],[58.901462099999996,53.69808390000001],[58.90273260000001,53.703055500000005],[58.891255300000005,53.7196386],[58.893170700000006,53.72964290000001],[58.889338800000004,53.741350100000005],[58.8857202,53.741562900000005],[58.8831657,53.746458600000004],[58.9040258,53.7519932],[58.9212667,53.772693800000006],[58.91871230000001,53.77503520000001],[58.925523500000004,53.7848268],[58.907743999999994,53.8626625],[58.9365886,53.8940231],[58.964898399999996,53.9078593],[58.9612797,53.9104135],[58.9627695,53.915096399999996],[58.95446779999999,53.9236639],[58.945314700000004,53.92579230000001],[58.9421217,53.9315395],[58.929137000000004,53.93813790000001],[58.934033,53.9315394],[58.9106186,53.92877190000001],[58.928072400000005,53.94835510000001],[58.922963700000004,53.9496322],[58.929136400000004,53.9564969],[58.9482934,53.9669272],[59.0002316,53.951601999999994],[59.00789449999999,53.951814999999996],[59.024922800000006,53.9639481],[59.0513172,53.9707598],[59.0904834,53.9673546],[59.094953700000005,53.9601174],[59.104745300000005,53.9560732],[59.1398668,53.96501370000001],[59.14050520000001,53.9696966],[59.145188100000006,53.9696966],[59.14093090000001,53.9726766],[59.1805219,53.9961447],[59.1881846,54.0035948],[59.1886098,54.017696699999995],[59.19222820000001,54.02450820000001],[59.224794300000006,54.065217700000005],[59.2365015,54.0696878],[59.2848178,54.1498827],[59.3092963,54.1624416],[59.325654300000004,54.1877931],[59.3491004,54.1773954],[59.378900900000005,54.17292570000001],[59.39912220000001,54.1835688],[59.5268377,54.187401699999995],[59.558979900000004,54.17250200000001],[59.6004879,54.159731],[59.6558317,54.150365900000004],[59.661792000000005,54.142490200000005],[59.7079825,54.1416393],[59.705426900000006,54.179953700000006],[59.7107481,54.19001130000001],[59.715217900000006,54.19512000000001],[59.7763075,54.2264641],[59.789291399999996,54.2443443],[59.75501870000001,54.31426779999999],[59.6717898,54.3396502],[59.725854600000005,54.38488319999999],[59.736071300000006,54.400687999999995],[59.73990090000001,54.4556587],[59.6702954,54.469334],[59.670508100000006,54.4746555],[59.6464888,54.48402699999999],[59.666888900000004,54.490673],[59.6700817,54.4957817],[59.6766802,54.49833610000001],[59.6802986,54.5042961],[59.6730613,54.5077018],[59.672209800000005,54.51068179999999],[59.6768925,54.5153647],[59.6754024,54.5185576],[59.682213700000005,54.52244230000001],[59.689025300000004,54.5218038],[59.7109494,54.53351130000001],[59.7098849,54.538619800000006],[59.717122100000005,54.54122739999999],[59.7179734,54.54505890000001],[59.72691320000001,54.55165759999999],[59.7373434,54.54931630000001],[59.7577777,54.5563408],[59.7922604,54.57230560000001],[59.8537755,54.6090243],[59.897196300000004,54.6846427],[59.8976213,54.7049175],[59.946916900000005,54.76987280000001],[59.92896030000001,54.787629499999994],[59.9382736,54.81789239999999],[59.9836117,54.8462563],[60.0018089,54.8641348],[59.915282999999995,54.869936],[59.90953590000001,54.865253],[59.9054916,54.8658916],[59.901234699999996,54.857802899999996],[59.897190300000005,54.857589999999995],[59.896339100000006,54.85248139999999],[59.8852705,54.8497141],[59.886760699999996,54.8441798],[59.8754793,54.8384325],[59.866752000000005,54.842051],[59.868667599999995,54.8454567],[59.85908859999999,54.854183799999994],[59.8454658,54.8471593],[59.8486588,54.844817899999995],[59.843124499999995,54.8450307],[59.842485999999994,54.841837899999994],[59.830139900000006,54.8495006],[59.8120468,54.848861799999995],[59.8045967,54.852054599999995],[59.8020422,54.855034599999996],[59.804596399999994,54.85822749999999],[59.797785000000005,54.85652459999999],[59.77671180000001,54.860409],[59.76393980000001,54.8731803],[59.73690620000001,54.8857386],[59.710298800000004,54.88467399999999],[59.688374100000004,54.888505200000004],[59.659424699999995,54.9028196],[59.660276,54.9079282],[59.617975900000005,54.9061115],[59.613447699999995,54.88706759999999],[59.600889599999995,54.8670056],[59.5368198,54.841408599999994],[59.5361817,54.82943530000001],[59.52532620000001,54.818792300000005],[59.5200055,54.79559070000001],[59.52277320000001,54.779786],[59.486587699999994,54.76254410000001],[59.445719600000004,54.7369474],[59.44146299999999,54.72071690000001],[59.38101149999999,54.702623300000006],[59.2888449,54.6582413],[59.29161290000001,54.636689399999995],[59.26330320000001,54.6168933],[59.2662835,54.611518700000005],[59.23520560000001,54.62301260000001],[59.196039400000004,54.62450220000001],[59.1634717,54.6304619],[59.150061699999995,54.62812030000001],[59.06534290000001,54.6496712],[59.001486199999995,54.6183271],[59.002337700000005,54.6153471],[58.97168649999999,54.599808],[58.953696799999996,54.5843707],[58.91974939999999,54.583151300000004],[58.9084682,54.57186969999999],[58.8390763,54.566973100000006],[58.8058708,54.5505827],[58.7745804,54.552498],[58.739246300000005,54.53690580000001],[58.7149824,54.477890499999994],[58.60855330000001,54.459317399999996],[58.58726719999999,54.4640001],[58.49871610000001,54.513701399999995],[58.4361344,54.5439265],[58.436772600000005,54.553079399999994],[58.421872300000004,54.558826399999994],[58.387601999999994,54.556910300000006],[58.385260499999994,54.560103100000006],[58.3499261,54.5511627],[58.3145921,54.5342933],[58.2571207,54.514496799999996],[58.163462800000005,54.5102385],[58.16921030000001,54.50257570000001],[58.118338400000006,54.460109900000006],[58.012123800000005,54.3967833],[57.9836007,54.396357300000005],[57.91144069999999,54.41726969999999],[57.910163399999995,54.4206755],[57.901312000000004,54.420698300000005],[57.896965900000005,54.42961530000001],[57.856521599999994,54.45696709999999],[57.8265075,54.485489799999996],[57.753360900000004,54.50166839999999],[57.7511542,54.516619399999996],[57.7555544,54.5200242],[57.7478057,54.52561810000001],[57.757866899999996,54.5313795],[57.7525854,54.5337944],[57.7539001,54.5374603],[57.74912580000001,54.538741900000005],[57.747330100000006,54.5440362],[57.76338570000001,54.562928500000005],[57.7498124,54.56610690000001],[57.747138400000004,54.573120800000005],[57.739637300000005,54.573625],[57.746043300000004,54.581860299999995],[57.627053700000005,54.6176723],[57.603151600000004,54.67859010000001],[57.59235550000001,54.6793475],[57.520622900000006,54.6537505],[57.50657390000001,54.661838900000006],[57.484862099999994,54.6652444],[57.486777599999996,54.670353000000006],[57.5042319,54.6754618],[57.51189459999999,54.6816348],[57.5161514,54.692277700000005],[57.47613330000001,54.7099977],[57.454208599999994,54.71617030000001],[57.39581290000001,54.7198699],[57.3846029,54.735167100000005],[57.244965900000004,54.772468800000006],[57.216442,54.795297500000004],[57.21771890000001,54.80189609999999],[57.2060115,54.806578800000004],[57.201328600000004,54.8044502],[57.162799500000006,54.848777399999996],[57.14108769999999,54.85244899999999],[57.1413004,54.856919],[57.1555618,54.863517800000004],[57.1566258,54.8703292],[57.188766900000005,54.887624399999986],[57.25113280000001,54.94067999999999],[57.2524097,54.94749149999999],[57.259433900000005,54.9502587],[57.260710900000014,54.954515900000004],[57.259646399999994,54.9605291],[57.2140941,54.97223580000001],[57.20451510000001,54.9826657],[57.19131810000001,54.9730869],[57.18769939999999,54.9771312],[57.193278500000005,54.986290999999994],[57.1894018,54.9899027],[57.192381700000006,54.9926699],[57.18876290000001,54.999055600000005],[57.189826999999994,55.0045899],[57.20557850000001,55.0056544],[57.1776937,55.0137426],[57.18237630000001,55.020607399999996],[57.17833200000001,55.0208202],[57.179183300000005,55.0231616],[57.1828019,55.0233745],[57.1785445,55.030185900000006],[57.1847173,55.0318889],[57.1838658,55.0348689],[57.177479999999996,55.0347092],[57.1744998,55.0400306],[57.168965500000006,55.0404562],[57.1713068,55.043223399999995],[57.1642819,55.0581766],[57.131287699999994,55.0850495],[57.1564036,55.127249],[57.16981380000001,55.1249077],[57.1715165,55.1302292],[57.210682399999996,55.13512540000001],[57.2415464,55.1496001],[57.2562331,55.1662564],[57.26410880000001,55.170088],[57.254742900000004,55.1717907],[57.2598513,55.179028],[57.233031000000004,55.1797194],[57.227709100000006,55.18887230000001],[57.21259570000001,55.200845300000005],[57.211956,55.230219700000006],[57.22047020000001,55.236605600000004],[57.2398412,55.2148943],[57.26325550000001,55.219151700000005],[57.23260280000001,55.246397200000004],[57.246225,55.266033500000006],[57.2773024,55.26837540000001],[57.29241550000001,55.26645980000001],[57.303910200000004,55.257519900000005],[57.315617499999995,55.2566686],[57.326047499999994,55.2596488],[57.339882599999996,55.27971080000001],[57.3624455,55.2856711],[57.3807511,55.2946114],[57.3856462,55.312331900000004],[57.393947499999996,55.31722769999999],[57.40778339999999,55.314886399999985],[57.4575921,55.326381399999995],[57.507614,55.3274463],[57.53010080000001,55.3370193],[57.568066300000005,55.3193584],[57.578070700000005,55.319571399999994],[57.6412906,55.301479199999996],[57.72132560000001,55.30424729999999],[57.780500700000005,55.29807510000001],[57.79220780000001,55.302332400000004],[57.79816800000001,55.29999110000001],[57.8828859,55.3023335],[57.9386554,55.29318130000001],[57.9407839,55.295735600000015],[57.9552585,55.2916915],[57.95398149999999,55.2857314],[57.9631345,55.28551870000001],[57.96973330000001,55.280410200000006],[58.008686499999996,55.282698800000006],[58.023161200000004,55.276526100000005],[58.043918600000005,55.23885550000001],[58.078719500000005,55.22155620000001],[58.126613000000006,55.217725300000005],[58.1366176,55.2111268],[58.13193530000001,55.1940449],[58.1176738,55.19170330000001],[58.080424199999996,55.1707895],[58.0412587,55.153973300000004],[58.02039830000001,55.157378800000004],[58.0058221,55.16342230000001],[57.9874952,55.1572198],[57.98726359999999,55.1536225],[57.9937236,55.150018700000004],[57.99321530000001,55.145563100000004],[58.006126900000005,55.1412906],[57.99276090000001,55.1274852],[57.9948566,55.1191704],[57.989751399999996,55.11275620000001],[58.00233480000001,55.1112341],[58.0071699,55.1022887],[57.99518320000001,55.101254499999996],[57.9917897,55.091640999999996],[58.0017567,55.087439999999994],[58.00538890000001,55.0824855],[58.0126056,55.0825401],[58.0192768,55.07402939999999],[58.03215620000001,55.0712138],[58.030449,55.0686276],[58.0404104,55.0681914],[58.0401977,55.0626571],[58.029440900000004,55.059835],[58.023382700000006,55.038976500000004],[58.03274890000001,55.027908000000004],[58.00877930000001,54.9988497],[58.027003,54.9912963],[58.024661699999996,54.9881034],[58.0042273,54.98426409999999],[57.99933180000001,54.9778859],[57.983014,54.9844327],[57.9797486,54.9810253],[57.958888599999995,54.975916500000004],[57.9529291,54.960111700000006],[57.932920700000004,54.9486171],[57.9637863,54.921105600000004],[57.982943399999996,54.927917300000004],[57.998482700000004,54.9125384],[58.0016756,54.912538500000004],[58.0010372,54.9076427],[58.005081499999996,54.90615280000001],[58.0587216,54.919989199999996],[58.0800072,54.929993800000005],[58.082773800000005,54.9465115],[58.096586200000004,54.9455813],[58.0987014,54.9478489],[58.117318600000004,54.9386276],[58.1215144,54.94026469999999],[58.1134256,54.942393200000005],[58.112999800000004,54.94494749999999],[58.128964100000005,54.9483534],[58.131944,54.9522381],[58.12385520000001,54.9571337],[58.123216500000005,54.9609651],[58.13215620000001,54.9707567],[58.1434376,54.976344399999995],[58.1410959,54.981665799999995],[58.1270472,54.9833685],[58.130453200000005,54.9761314],[58.125557400000005,54.975492700000004],[58.101504,54.984219599999996],[58.1010782,54.9871997],[58.1034195,54.99039260000001],[58.120022500000005,54.9916699],[58.133524900000005,54.9979366],[58.0874543,55.01295530000001],[58.12832310000001,55.017213],[58.13739090000001,55.021500800000005],[58.1490231,55.01854290000001],[58.14552520000001,55.0228413],[58.1519459,55.028141000000005],[58.180709,55.031215200000005],[58.1826256,55.0342955],[58.17830240000001,55.040237399999995],[58.1528682,55.036832700000005],[58.151839499999994,55.042790200000006],[58.166890900000006,55.051655499999995],[58.16355730000001,55.0552936],[58.1492531,55.05608539999999],[58.16659190000001,55.067658200000004],[58.183415200000006,55.0658517],[58.19110530000001,55.06833550000001],[58.195371400000006,55.0841576],[58.201596900000006,55.09213790000001],[58.1854545,55.098657200000005],[58.16391920000001,55.0938412],[58.1550485,55.083666599999994],[58.1398002,55.0862313],[58.137463399999994,55.08841880000001],[58.139741300000004,55.0979766],[58.1566304,55.1014519],[58.1589717,55.105496200000005],[58.14430230000001,55.1166627],[58.1304254,55.1190776],[58.12863480000001,55.126078400000004],[58.1438083,55.132036600000006],[58.16911690000001,55.131165200000005],[58.1946215,55.1491015],[58.209205100000005,55.1422092],[58.219336500000004,55.14478439999999],[58.224292000000005,55.150788999999996],[58.2345893,55.1536554],[58.23807280000001,55.158345800000006],[58.23536240000001,55.1624811],[58.24870090000001,55.1707911],[58.2535494,55.16891850000001],[58.2715286,55.1715411],[58.2722847,55.167271],[58.318366,55.15882],[58.3616458,55.142295600000004],[58.3725836,55.121166200000005],[58.362039100000004,55.1168333],[58.346926499999995,55.1038488],[58.361401199999996,55.09655860000001],[58.373321399999995,55.09592020000001],[58.400355100000006,55.0795304],[58.3807724,55.07053690000001],[58.3792851,55.06577910000001],[58.42973020000001,55.0662803],[58.43952230000001,55.04813430000001],[58.438884099999996,55.0387685],[58.422069,55.0179082],[58.426965,55.0106179],[58.4452711,55.0040195],[58.4532786,54.99672],[58.4637899,55.0046583],[58.47528439999999,55.001678399999996],[58.5101925,55.024028900000005],[58.5310526,55.0274349],[58.5425471,55.0240293],[58.5484648,55.02673500000001],[58.546379800000004,55.0185434],[58.52557820000001,54.99521360000001],[58.492619100000006,54.9833267],[58.504528,54.9762667],[58.566836300000006,54.970946399999995],[58.5976801,54.95628789999999],[58.621954,54.9647078],[58.641316,54.9645899],[58.652717200000005,54.958663599999994],[58.6949564,54.9679962],[58.7270877,54.967863799999996],[58.7268594,54.98106639999999],[58.7309471,54.99617590000001],[58.8064926,55.028715300000016],[58.829204,55.0499254],[58.82373330000001,55.05388599999999],[58.79840300000001,55.0555886],[58.771551900000006,55.077121],[58.773799600000004,55.0828702],[58.76212950000001,55.088138400000005],[58.76115120000001,55.0948072],[58.7314425,55.101889699999994],[58.7385874,55.11337880000001],[58.733478600000005,55.12019020000001],[58.6413095,55.1470625],[58.6306667,55.1419538],[58.6242808,55.1442951],[58.6240681,55.1404637],[58.614915,55.1451465],[58.599029,55.1429594],[58.58850830000001,55.1466561],[58.6002734,55.1562991],[58.59233310000001,55.1604594],[58.57525690000001,55.1609642],[58.5767049,55.16706],[58.5829402,55.17011840000001],[58.5812348,55.178566200000006],[58.5896587,55.182975600000006],[58.608912900000014,55.1815807],[58.6143265,55.1857276],[58.615427,55.1940516],[58.62230390000001,55.19501710000001],[58.6335477,55.190894300000004],[58.6437047,55.19435810000001],[58.652376600000004,55.19229500000001],[58.652376800000006,55.185909200000005],[58.6449057,55.172940700000005],[58.6540803,55.16755020000001],[58.657486299999995,55.1611645],[58.6647235,55.1626546],[58.6791975,55.1732977],[58.69239490000001,55.1718079],[58.6938851,55.1658479],[58.6904796,55.1592492],[58.69303420000001,55.1507349],[58.711203,55.1439917],[58.7141077,55.139453700000004],[58.723899200000005,55.1386024],[58.72836910000001,55.1428596],[58.72664830000001,55.15211590000001],[58.73539310000001,55.153289699999995],[58.7330516,55.1549925],[58.7554015,55.163720000000005],[58.7560397,55.1744161],[58.7594453,55.1795248],[58.756890999999996,55.180163300000004],[58.7594451,55.1861234],[58.76561790000001,55.1891034],[58.7730671,55.212571100000005],[58.69303130000001,55.231940300000005],[58.709419700000005,55.279673900000006],[58.72538380000001,55.2896785],[58.854377099999994,55.27563130000001],[58.9318581,55.27201370000001],[58.938882,55.283720900000006],[58.933335500000005,55.2944879],[58.865658200000006,55.29037190000001],[58.8377735,55.29335160000001],[58.8469252,55.3268236],[58.91142159999999,55.326398700000006],[58.930579300000005,55.317033099999996],[58.965275500000004,55.3159693],[58.9663936,55.26251490000001],[58.973578800000006,55.265043000000006],[58.98464759999999,55.261850300000006],[58.985499499999996,55.248014500000004],[58.99039520000001,55.250356000000004],[58.9889048,55.2614246],[58.997844699999995,55.266320500000006],[59.0069977,55.26525630000001],[59.0159377,55.26930070000001],[59.0148729,55.283349300000005],[59.0182786,55.285265100000004],[59.0342433,55.277176700000005],[59.04211900000001,55.28015680000001],[59.0419059,55.288298600000005],[59.048717100000005,55.29532300000001],[59.05638,55.2974517],[59.074686099999994,55.291917600000005],[59.0774527,55.306604799999995],[59.0932042,55.31048969999999],[59.0802195,55.317726699999994],[59.080645,55.32283530000001],[59.086392100000005,55.3258154],[59.1044853,55.3224098],[59.101292,55.3328399],[59.124706200000006,55.3426316],[59.13577510000001,55.3388003],[59.1500366,55.3388005],[59.16259560000001,55.3332663],[59.17813420000001,55.334543599999996],[59.160040900000006,55.3424192],[59.176856,55.3635455],[59.184305300000005,55.386959999999995],[59.177068,55.3885031],[59.144286799999996,55.412555700000006],[59.1500335,55.42575300000001],[59.17025520000001,55.4238375],[59.1730218,55.4398551],[59.1830261,55.441983799999996],[59.186644099999995,55.4590657],[59.1798324,55.463961399999995],[59.183238,55.4684315],[59.19473240000001,55.468644499999996],[59.2006926,55.4654516],[59.25986759999999,55.465665200000004],[59.26561490000001,55.4624724],[59.281366399999996,55.4639626],[59.347139399999996,55.4797681],[59.349693599999995,55.4840253],[59.3616137,55.48402539999999],[59.3728955,55.4780655],[59.372469499999994,55.4850898],[59.3860925,55.485941399999994],[59.3735337,55.4882827],[59.3752365,55.4910499],[59.3720435,55.493391300000006],[59.3803449,55.498074300000006],[59.433692900000004,55.493993800000005],[59.4359015,55.4899863],[59.431431599999996,55.486580499999995],[59.434198800000004,55.484452],[59.4310062,55.4770019],[59.4640736,55.4736187],[59.46421230000001,55.4772151],[59.47315220000001,55.482536700000004],[59.4742162,55.489986699999996],[59.48102769999999,55.49083830000001],[59.483794499999995,55.4995655],[59.49209590000001,55.503397],[59.49805610000001,55.5006299],[59.5170003,55.509357300000005],[59.555314900000006,55.51106059999999],[59.578942100000006,55.516595200000005],[59.587242599999996,55.5443201],[59.5938411,55.54921590000001],[59.600652700000005,55.54708739999999],[59.6168298,55.553899099999995],[59.616829599999996,55.55794339999999],[59.642798500000005,55.5575712],[59.654930300000004,55.5918947],[59.6476928,55.5993446],[59.62810970000001,55.598280100000004],[59.624278100000005,55.6016858],[59.601502,55.60572990000001],[59.5644649,55.594022200000005],[59.549351900000005,55.59274490000001],[59.53870890000001,55.592744800000006],[59.530833,55.596789],[59.5274273,55.594447499999994],[59.4684945,55.5948279],[59.461653399999996,55.60232250000001],[59.46612330000001,55.6070054],[59.4637816,55.6146683],[59.4671873,55.615785800000005],[59.47144409999999,55.627067399999994],[59.463568,55.634943],[59.4644191,55.643457399999996],[59.3909825,55.6447337],[59.382894699999994,55.6206806],[59.335427499999994,55.60955820000001],[59.2758279,55.5797574],[59.267526200000006,55.582737300000005],[59.2496461,55.5814599],[59.2504966,55.607002900000005],[59.2764655,55.60593840000001],[59.2944417,55.62257710000001],[59.3365851,55.632794600000004],[59.3275505,55.64175290000001],[59.326774300000004,55.6498612],[59.32231800000001,55.6522247],[59.3221374,55.66613020000001],[59.31444459999999,55.6735472],[59.3173333,55.6766784],[59.288808700000004,55.6779915],[59.29136260000001,55.6906034],[59.29861130000001,55.7014535],[59.27561030000001,55.70912190000001],[59.3186061,55.758399100000005],[59.318392900000006,55.76712620000001],[59.29884830000001,55.7696515],[59.289812100000006,55.783553500000004],[59.26285870000001,55.79141320000001],[59.19977960000001,55.78863930000001],[59.17891570000001,55.79378500000001],[59.1676972,55.79011220000002],[59.1546038,55.7918716],[59.1377677,55.78871320000001],[59.133416000000004,55.820019300000006],[59.1598107,55.81789109999999],[59.193901700000005,55.8201635],[59.19237780000001,55.8283215],[59.22511930000002,55.8497628],[59.216708600000004,55.8523],[59.212791900000006,55.858295999999996],[59.2144703,55.8619939],[59.207502700000006,55.8650797],[59.2072756,55.874896299999996],[59.20431490000001,55.8766962],[59.2074767,55.881183699999994],[59.204339600000004,55.8854653],[59.209723600000004,55.8932047],[59.226674100000004,55.8976731],[59.234442900000005,55.9033942],[59.2377046,55.9153249],[59.242997200000005,55.9182655],[59.2447736,55.923757800000004],[59.248549000000004,55.92415530000001],[59.245323600000006,55.93271060000001],[59.2495575,55.9359815],[59.24937930000001,55.942062],[59.245875500000004,55.95082539999999],[59.2162135,55.9518327],[59.22195930000001,55.9887104],[59.19258330000001,56.02516210000001],[59.2475797,56.0312178],[59.2413278,56.033464099999996],[59.2415406,56.0360184],[59.2470749,56.0364442],[59.2521837,56.03261280000001],[59.259208,56.03538],[59.27836530000001,56.0351674],[59.2800681,56.03836030000001],[59.2770879,56.041765999999996],[59.281770800000004,56.0434689],[59.28411230000001,56.0426175],[59.283474,56.03559320000001],[59.286454,56.0347418],[59.308165300000006,56.046289599999994],[59.3079521,56.0537396],[59.30028909999999,56.0558681],[59.3000761,56.058635300000006],[59.3122092,56.05778399999999],[59.31646609999999,56.0641698],[59.315827299999995,56.06991690000001],[59.3211488,56.070129900000005],[59.3271985,56.082824599999995],[59.3344356,56.08452749999999],[59.3354998,56.0879331],[59.326772500000004,56.0894229],[59.3167683,56.08516590000001],[59.31442669999999,56.0875072],[59.3231534,56.102459800000005],[59.33486059999999,56.1041627],[59.326984599999996,56.108845300000006],[59.328048800000005,56.11331500000001],[59.342097499999994,56.112304200000004],[59.3245484,56.11823030000001],[59.3190137,56.129085100000005],[59.3258249,56.13610880000001],[59.3158203,56.141003999999995],[59.3141172,56.1473891],[59.3200771,56.1514331],[59.3260375,56.1433454],[59.3324232,56.1446225],[59.3311459,56.149304900000004],[59.33561580000001,56.153136100000005],[59.33263530000001,56.1646826],[59.3288791,56.16252490000001],[59.329868399999995,56.1597872],[59.3141168,56.1574458],[59.3004938,56.1591484],[59.2889994,56.15680699999999],[59.27955610000001,56.1594682],[59.28261390000001,56.1502089],[59.2649467,56.1452602],[59.26707580000001,56.1324898],[59.2585615,56.130999900000006],[59.188956000000005,56.1420667],[59.1862377,56.1453691],[59.17533310000001,56.13951240000001],[59.175971700000005,56.1373841],[59.162774600000006,56.133765600000004],[59.1536213,56.141215],[59.152556700000005,56.14909],[59.0967874,56.1524948],[59.061452100000004,56.16893610000001],[59.0442104,56.168935900000015],[59.0418325,56.1718059]]]}}