{"type":"Feature","properties":{"regionId":"respublika_tyva","name":"Тыва","name:en":"Tuva","timezone":"Asia/Krasnoyarsk","name_ru":"Республика Тыва","name_en":"Tuva","name_zh":"图瓦共和国"},"geometry":{"type":"Polygon","coordinates":[[[98.96921690000002,52.1434],[98.91110000000002,52.1496],[98.8834,52.136100000000006],[98.8615,52.136100000000006],[98.8542,52.129000000000005],[98.8572,52.1136],[98.8397,52.09830000000001],[98.8413,52.0588],[98.82679999999999,52.039],[98.8065,52.02550000000001],[98.81960000000001,52.0147],[98.8167,52.005900000000004],[98.8071,52.0],[98.8059,51.986799999999995],[98.8103,51.9743],[98.809,51.9581],[98.7988,51.949999999999996],[98.7799,51.94179999999999],[98.78,51.932],[98.7745415,51.9154487],[98.7699,51.910399999999996],[98.76720000000002,51.8735],[98.7643,51.8699],[98.7513,51.8654],[98.7368,51.853699999999996],[98.71220000000001,51.8437],[98.6805,51.8203],[98.6645,51.8258],[98.64999999999999,51.8157],[98.63839999999999,51.815799999999996],[98.6124,51.8063],[98.61110000000001,51.796600000000005],[98.60379999999999,51.79370000000001],[98.55460000000001,51.790200000000006],[98.5458,51.79810000000001],[98.5328,51.79810000000001],[98.5214,51.778400000000005],[98.5156,51.773900000000005],[98.4523,51.7366],[98.37849999999999,51.7398],[98.3655,51.73800000000001],[98.354,51.731500000000004],[98.35269999999998,51.718900000000005],[98.35589999999999,51.701100000000004],[98.32839999999999,51.697300000000006],[98.29180000000001,51.637],[98.2748,51.6161],[98.24770000000001,51.597100000000005],[98.226,51.5978],[98.2232,51.59510000000001],[98.2204,51.586999999999996],[98.245,51.58],[98.23410000000001,51.547599999999996],[98.2544,51.53510000000001],[98.2574,51.5296],[98.2563,51.5117],[98.24490000000002,51.5],[98.24090000000001,51.4829],[98.2241,51.4567],[98.21110000000002,51.4602],[98.19669999999999,51.4583],[98.1866,51.4618],[98.1809,51.45459999999999],[98.1651,51.45719999999999],[98.12599999999999,51.4713],[98.103,51.4675],[98.0873,51.4593],[98.073,51.4585],[98.0501,51.450199999999995],[98.049,51.4365],[98.0307,51.41479999999999],[98.0211,51.3941],[98.0169,51.3895],[98.00410000000001,51.384899999999995],[97.9873,51.365],[97.97720000000001,51.3649],[97.96760000000002,51.3451],[97.9535,51.334199999999996],[97.96110000000002,51.314499999999995],[97.9599,51.3053],[97.96450000000002,51.29200000000001],[97.962,51.275800000000004],[97.94080000000001,51.263200000000005],[97.93960000000001,51.254],[97.9458,51.232400000000005],[97.9347,51.2179],[97.9393,51.202000000000005],[97.91860000000001,51.1702],[97.9203,51.1604],[97.91750000000002,51.155],[97.8991,51.1494],[97.9008,51.138600000000004],[97.8939,51.12670000000001],[97.90110080000001,51.1173632],[97.8943716,51.1152344],[97.89620000000001,51.1112481],[97.889697,51.1004637],[97.8821186,51.1005406],[97.88457009999999,51.097219],[97.8792776,51.0936207],[97.88204869999998,51.0912555],[97.87649219999999,51.0894257],[97.87816629999999,51.084624299999994],[97.8716008,51.080705200000004],[97.87884059999999,51.0772922],[97.8756049,51.073396800000005],[97.87753079999999,51.068304100000006],[97.8674069,51.0648368],[97.8670351,51.0595067],[97.87008879999998,51.0575869],[97.8664651,51.0550858],[97.871231,51.05144419999999],[97.8651203,51.0456105],[97.8563664,51.045271],[97.85758849999999,51.0414022],[97.8445861,51.0343416],[97.8493041,51.0314998],[97.8343116,51.027599300000006],[97.8307277,51.0240884],[97.83327179999999,51.022151400000006],[97.8271895,51.017671699999994],[97.828114,51.01186419999999],[97.8245769,51.009828399999996],[97.8294032,51.0069691],[97.828169,51.0037642],[97.8497024,50.996140700000005],[97.8551937,50.98198169999999],[97.8607098,50.9788455],[97.8617919,50.974248499999995],[97.85514909999999,50.967491599999995],[97.8580162,50.9662848],[97.857521,50.9601294],[97.86723320000002,50.955592100000004],[97.8689593,50.9480821],[97.87934489999999,50.94611520000001],[97.87767819999999,50.9415973],[97.883953,50.941036999999994],[97.8870438,50.930118400000005],[97.90025970000002,50.927203],[97.89473219999999,50.9248387],[97.90098970000001,50.92272090000001],[97.91095860000001,50.926191300000006],[97.91537829999999,50.92285580000001],[97.91441230000001,50.92010320000001],[97.91877889999999,50.920829399999995],[97.9354275,50.911328499999996],[97.94227740000001,50.915023399999995],[97.94448050000001,50.912874699999996],[97.94221140000002,50.90873510000001],[97.94481800000001,50.9109591],[97.94404680000001,50.907834799999996],[97.9507302,50.90762649999999],[97.94636980000001,50.9070956],[97.950908,50.904952],[97.94735340000003,50.901069299999996],[97.95426260000002,50.897680599999994],[97.9598364,50.9005524],[97.95629900000002,50.896370000000005],[97.96622580000002,50.8940493],[97.96453600000001,50.88942739999999],[97.9851484,50.890465999999996],[97.99179290000001,50.8875727],[97.99102450000002,50.8828493],[97.9965468,50.883376999999996],[97.99316070000002,50.881185699999996],[97.99912460000003,50.8802793],[97.99868000000001,50.8757493],[98.00362270000001,50.874961299999995],[98.0030486,50.8775198],[98.0096843,50.872583399999996],[98.0158055,50.8745425],[98.03334279999999,50.8647062],[98.0268,50.85459999999999],[98.01140000000001,50.8427],[98.00869999999999,50.8365],[97.9889,50.8327],[97.9847,50.8293],[97.98490000000001,50.8212],[97.9497,50.8081],[97.9786,50.7841],[97.9719,50.76500000000001],[97.9708,50.749900000000004],[97.98100000000001,50.73810000000001],[97.99100000000001,50.733000000000004],[97.99740000000001,50.69890000000001],[98.0245,50.691900000000004],[98.0245,50.688500000000005],[98.01060000000001,50.6801],[98.008,50.669200000000004],[98.0236,50.663900000000005],[98.0252,50.655100000000004],[98.05669999999999,50.6364],[98.077,50.6122],[98.0869,50.6096],[98.087,50.6043],[98.0913,50.599900000000005],[98.1041,50.597300000000004],[98.1196,50.600100000000005],[98.12669999999999,50.596500000000006],[98.14529999999999,50.5832],[98.15269999999998,50.568000000000005],[98.16829999999999,50.5636],[98.1811,50.553799999999995],[98.2123,50.5459],[98.2234,50.5559],[98.2773,50.5427],[98.2647,50.5311],[98.2776,50.5194],[98.29060000000001,50.4988],[98.3315,50.49810000000001],[98.3344,50.492700000000006],[98.3318,50.478500000000004],[98.3249,50.4656],[98.29,50.4421],[98.2776,50.426500000000004],[98.26650000000001,50.4185],[98.26520000000001,50.4123],[98.2654,50.4005],[98.2795,50.396100000000004],[98.281,50.3889],[98.28960000000001,50.380799999999994],[98.30539999999999,50.3559],[98.2997,50.343999999999994],[98.28750000000001,50.3305],[98.30579999999999,50.3297],[98.30720000000001,50.326100000000004],[98.2544,50.288900000000005],[98.2532,50.2808],[98.24770000000001,50.2734],[98.23790000000001,50.2708],[98.2214,50.2501],[98.2107,50.2212],[98.17739999999999,50.200500000000005],[98.1692,50.1895],[98.1849,50.17250000000001],[98.18229999999998,50.158100000000005],[98.17679999999999,50.1519],[98.1491,50.1343],[98.1296,50.13250000000001],[98.11269999999999,50.13870000000001],[98.11,50.1313],[98.1202,50.1136],[98.12039999999999,50.1002],[98.1039,50.0865],[98.10269999999998,50.0775],[98.0637,50.07],[98.0624,50.0619],[98.0699,50.035900000000005],[98.0306,50.0346],[97.989,50.022600000000004],[97.9821,50.0189],[97.97829999999999,50.001799999999996],[97.93420000000002,49.978100000000005],[97.8978,49.983999999999995],[97.8674,49.972],[97.8678,49.9539],[97.8949,49.929],[97.8866,49.923500000000004],[97.87829999999998,49.9234],[97.8617,49.916799999999995],[97.8296,49.923],[97.82229999999998,49.935500000000005],[97.81660000000001,49.939],[97.815,49.9507],[97.7925,49.9587],[97.7809,49.975500000000004],[97.7804,49.9936],[97.7621,50.0005],[97.7513,49.987199999999994],[97.739,49.9788],[97.721,49.9741],[97.7098,49.9747],[97.7004,49.9611],[97.67809999999999,49.9618],[97.6174,49.9413],[97.6005,49.9456],[97.5839,49.943599999999996],[97.57969999999999,49.9426],[97.5731,49.931799999999996],[97.55069999999999,49.926100000000005],[97.5792,49.9139],[97.5683,49.9049],[97.58420000000001,49.8861],[97.5821,49.862500000000004],[97.56420000000001,49.854299999999995],[97.563,49.848],[97.5589,49.8453],[97.5423,49.844199999999994],[97.5354,49.840599999999995],[97.5002,49.810399999999994],[97.4629,49.803599999999996],[97.4603,49.79730000000001],[97.41770000000001,49.7841],[97.39529999999999,49.7892],[97.3845,49.7818],[97.3761,49.7837],[97.3581,49.7806],[97.34320000000001,49.7714],[97.3366,49.7596],[97.32289999999999,49.7538],[97.2647,49.7522],[97.22869999999999,49.7445],[97.17469999999999,49.77870000000001],[97.12969999999999,49.79240000000001],[97.12529999999998,49.79950000000001],[97.1295252,49.813426699999994],[97.117439,49.8197902],[97.1051,49.8181],[97.08,49.8213],[97.0589,49.8263],[97.0489,49.834199999999996],[97.009675,49.833553900000005],[97.0009,49.851499999999994],[96.9982585,49.866493999999996],[96.99960000000002,49.882799999999996],[96.99380000000001,49.888999999999996],[96.9796,49.895100000000006],[96.9547,49.8919],[96.89460000000001,49.896300000000004],[96.85849999999999,49.8947],[96.8174,49.910999999999994],[96.7517,49.917899999999996],[96.7347,49.922000000000004],[96.7289,49.9273],[96.7069,49.9224],[96.68939999999999,49.9087],[96.67679999999999,49.9101],[96.6468,49.8978],[96.6473,49.88699999999999],[96.6119,49.8719],[96.589,49.88399999999999],[96.5871,49.895700000000005],[96.563,49.9311],[96.55269999999999,49.940799999999996],[96.5219,49.944599999999994],[96.5124,49.9399],[96.502,49.9262],[96.4706,49.9131],[96.46130000000001,49.904799999999994],[96.4538,49.889199999999995],[96.4351,49.874399999999994],[96.4184,49.8731],[96.3968,49.887899999999995],[96.34960000000001,49.9103],[96.3452,49.914699999999996],[96.3488,49.9246],[96.34700000000001,49.931799999999996],[96.3352,49.9441],[96.3239,49.9465],[96.3242,49.9411],[96.3199,49.9392],[96.3103,49.940799999999996],[96.29560000000001,49.955],[96.2743,49.9581],[96.2639,49.9732],[96.26480000000001,49.9769],[96.20490000000001,49.9807],[96.1991,49.984199999999994],[96.1417,49.98459999999999],[96.1077,49.9936],[96.07509999999999,50.0099],[96.0667,50.0097],[96.0334,50.0062],[96.02369999999999,50.002300000000005],[96.0,49.9871],[95.98910000000001,49.9699],[95.98060000000001,49.968300000000006],[95.9264,49.993100000000005],[95.9097,49.9944],[95.90740000000001,50.025000000000006],[95.85279999999999,50.0461],[95.8244,50.0378],[95.7824,50.0362],[95.77369999999999,50.030100000000004],[95.7623203,50.0046108],[95.7644973,49.99651020000001],[95.77795300000001,49.984589099999994],[95.7781642,49.9736988],[95.74982060000002,49.972967499999996],[95.7273122,49.9893859],[95.71815690000001,49.980819399999994],[95.72039099999999,49.97405139999999],[95.6571305,49.965320500000004],[95.6524298,49.956630399999995],[95.62908229999998,49.9564137],[95.592991,49.9489662],[95.566274,49.9485748],[95.5564354,49.9430701],[95.55766790000001,49.9409228],[95.5517271,49.9344354],[95.5425703,49.9305912],[95.5388138,49.9200724],[95.52259199999999,49.9163239],[95.52151740000001,49.9040283],[95.5061517,49.9084345],[95.4683,49.92830000000001],[95.4364,49.95779999999999],[95.318,49.959199999999996],[95.1998,49.966],[95.0826,49.9635],[95.0344,49.9762],[95.01110000000001,49.9854],[95.0028,50.0217],[94.99520000000001,50.0407],[94.9858,50.048],[94.9775,50.05],[94.9564,50.047599999999996],[94.90360000000001,50.0539],[94.7809,50.0577],[94.7627,50.056999999999995],[94.6896,50.0428],[94.62229999999998,50.035700000000006],[94.607,50.037],[94.5954,50.0668],[94.5726,50.093],[94.5397,50.1152],[94.5067,50.1748],[94.4655,50.2014],[94.41510000000001,50.2049],[94.3988,50.220200000000006],[94.3882641,50.2197911],[94.38376709999999,50.23954890000001],[94.382595,50.2811485],[94.3765756,50.3003643],[94.34986350000001,50.46037880000001],[94.34150900000002,50.50122449999999],[94.3320492,50.518558600000006],[94.3362876,50.53301330000001],[94.32997979999999,50.542411900000005],[94.29050000000001,50.56850000000001],[94.25403460000001,50.5833377],[94.2193912,50.5896509],[94.0310165,50.59673430000001],[93.99770000000001,50.6046],[93.9521,50.5861],[93.94080000000001,50.584399999999995],[93.8874,50.596500000000006],[93.8591,50.5968],[93.76450000000001,50.5947],[93.6965,50.585100000000004],[93.67539999999998,50.589],[93.6347,50.6045],[93.5683,50.6048],[93.5399,50.5942],[93.52720000000001,50.5942],[93.5173,50.5979],[93.5218,50.6133],[93.5147,50.6177],[93.4865,50.6194],[93.44990000000001,50.63230000000001],[93.42020000000001,50.633300000000006],[93.4103,50.637],[93.41730000000001,50.624300000000005],[93.3961,50.621700000000004],[93.3635,50.6119],[93.35079999999999,50.6111],[93.3424,50.621900000000004],[93.32969999999999,50.621],[93.31410000000001,50.6119],[93.2717,50.6102],[93.2533,50.605000000000004],[93.24900000000001,50.594100000000005],[93.225,50.5898],[93.20660000000001,50.5908],[93.20100000000001,50.597100000000005],[93.1911,50.59890000000001],[93.1812,50.59890000000001],[93.1685,50.594100000000005],[93.1629,50.6024],[93.14450000000001,50.6034],[93.136,50.6007],[93.136,50.5856],[93.1275,50.584599999999995],[93.057,50.6188],[93.04710000000001,50.6188],[93.0188,50.6062],[93.0103,50.6062],[92.99050000000001,50.62610000000001],[92.98060000000001,50.6422],[92.9594,50.6619],[92.96158240000001,50.6714517],[93.02029999999999,50.7132],[93.0259,50.72670000000001],[93.0274,50.759],[93.0231,50.7779],[93.0089,50.793200000000006],[92.9593,50.796800000000005],[92.91960000000002,50.79050000000001],[92.8997,50.8021],[92.8742,50.803],[92.85569999999998,50.8084],[92.81320000000001,50.8092],[92.7877,50.8056],[92.76790000000001,50.79280000000001],[92.7566,50.77590000000001],[92.7567,50.76330000000001],[92.7624,50.7444],[92.76110000000001,50.7336],[92.754,50.727500000000006],[92.72720000000001,50.7165],[92.6465,50.70550000000001],[92.6139,50.7108],[92.59400000000001,50.7197],[92.58829999999999,50.72590000000001],[92.5925,50.740300000000005],[92.6066,50.7458],[92.6135,50.76200000000001],[92.6021,50.76820000000001],[92.59920000000001,50.7745],[92.57929999999999,50.790600000000005],[92.565,50.79610000000001],[92.5423,50.79590000000001],[92.49700000000001,50.7867],[92.4587,50.790000000000006],[92.4273,50.8062],[92.42160000000001,50.81139999999999],[92.4201,50.8205],[92.4029,50.831199999999995],[92.4013,50.842],[92.40400000000001,50.856199999999994],[92.3996,50.8643],[92.38669999999999,50.8743],[92.3581,50.8851],[92.30569999999999,50.8756],[92.30579999999999,50.8692],[92.3232,50.843399999999995],[92.32339999999999,50.8335],[92.2955,50.7974],[92.2957,50.7884],[92.3059,50.7678],[92.306,50.7616],[92.2907,50.7533],[92.27016900000001,50.72935770000001],[92.2408879,50.7246275],[92.17214189999999,50.7062578],[92.07170179999999,50.6958247],[91.97397249999999,50.718096800000005],[91.85589999999999,50.735400000000006],[91.8403,50.73530000000001],[91.7925,50.724000000000004],[91.73910000000001,50.699200000000005],[91.7224,50.6972],[91.6489,50.6424],[91.6465,50.62800000000001],[91.6491,50.5885],[91.63369999999999,50.582],[91.604,50.584399999999995],[91.5292,50.5834],[91.5239,50.5735],[91.51400000000001,50.5734],[91.5017,50.5597],[91.4582,50.552],[91.4528,50.5456],[91.4539,50.5106],[91.44136620000002,50.494418100000004],[91.40565090000001,50.48414739999999],[91.3974168,50.4750697],[91.4094,50.450599999999994],[91.32,50.4709],[91.2933,50.4696],[91.16,50.420100000000005],[91.12029999999999,50.4274],[91.09320000000001,50.436],[91.0765,50.4311],[91.0568,50.4309],[91.03829999999999,50.435100000000006],[91.0048,50.429100000000005],[90.96960000000001,50.4294],[90.9208,50.4185],[90.90690000000001,50.4139],[90.903,50.4084],[90.9023,50.3922],[90.91160000000002,50.3726],[90.91100000000002,50.352799999999995],[90.9056,50.3482],[90.8986,50.3483],[90.87849999999999,50.356899999999996],[90.8594,50.3456],[90.8481,50.3454],[90.8382,50.347699999999996],[90.82929999999999,50.356899999999996],[90.81960000000001,50.354699999999994],[90.81569999999999,50.3475],[90.8061,50.3421],[90.8051,50.3347],[90.79560000000001,50.3264],[90.7844,50.3271],[90.7826,50.3343],[90.7726,50.3377],[90.7437,50.3245],[90.7064,50.3129],[90.7308,50.2434],[90.67329999999998,50.2143],[90.6691,50.2132],[90.6489,50.22550000000001],[90.642,50.22270000000001],[90.6182,50.224000000000004],[90.5981,50.232600000000005],[90.5978,50.23870000000001],[90.5807,50.243900000000004],[90.557,50.240700000000004],[90.5443,50.2432],[90.5292,50.2374],[90.50410000000001,50.23510000000001],[90.4834,50.22820000000001],[90.4795,50.2218],[90.48150000000001,50.210300000000004],[90.4528,50.197100000000006],[90.4389,50.19500000000001],[90.41210000000001,50.19910000000001],[90.38888769999998,50.192640700000005],[90.35867529999999,50.16339860000001],[90.3437407,50.1547105],[90.32897789999998,50.1521807],[90.28520420000001,50.11091590000001],[90.247782,50.10431020000001],[90.20881490000001,50.102658600000005],[90.1652129,50.108163600000005],[90.0669493,50.083146],[90.020559,50.0604596],[90.0077,50.0579],[90.00229999999999,50.054199999999994],[90.0051,50.0318],[90.0307213,50.007837699999996],[90.03155620000001,49.99863800000001],[90.02200479999999,50.00122139999999],[90.01729920000002,49.9904665],[89.9748302,49.971259399999994],[89.9587,49.9717],[89.91122670000003,49.96211550000001],[89.88275819999998,49.9529969],[89.8708676,49.95893890000001],[89.86142470000001,49.95944399999999],[89.8225734,49.95182869999999],[89.79935,49.9533752],[89.7059568,49.9439408],[89.6292854,49.9187749],[89.59172050000001,49.91262699999999],[89.5965628,49.92210490000001],[89.6147145,49.939182300000006],[89.60478649999999,49.9482211],[89.60871309999999,49.9637426],[89.62479029999999,49.9708552],[89.6058235,49.9780046],[89.5987109,49.98452439999999],[89.60145209999999,49.99393370000001],[89.59404310000001,50.0036763],[89.59574709999998,50.013011399999996],[89.5929317,50.0155304],[89.56788960000002,50.0199201],[89.5439589,50.015030100000004],[89.5388466,50.02903280000001],[89.5246955,50.0393496],[89.5255105,50.0437579],[89.536031,50.053908],[89.53395640000001,50.065854800000004],[89.55536809999998,50.068299800000005],[89.5621842,50.0760235],[89.57922470000001,50.07670890000001],[89.59204199999999,50.0841919],[89.58455900000001,50.088044499999995],[89.5852258,50.09473090000001],[89.5807804,50.103047399999994],[89.58241029999999,50.106974],[89.56581440000001,50.10593680000001],[89.55796090000001,50.108603900000006],[89.55677539999999,50.1150496],[89.548922,50.113012100000006],[89.51150700000001,50.1193095],[89.51002510000001,50.12857060000001],[89.5229166,50.134942200000005],[89.524991,50.14216590000001],[89.5324739,50.1478707],[89.52669490000001,50.1632996],[89.52854699999999,50.173394200000004],[89.52017479999999,50.191731000000004],[89.47786990000002,50.201918000000006],[89.44060310000002,50.203696],[89.4169688,50.192212200000014],[89.4034847,50.1779316],[89.3934086,50.1854886],[89.36725520000002,50.1819508],[89.35125190000001,50.19323070000001],[89.30842829999999,50.2079371],[89.3330258,50.2166796],[89.336656,50.23294210000001],[89.33154370000001,50.2443517],[89.3451019,50.2580766],[89.3437683,50.2642445],[89.390296,50.28636],[89.39437079999999,50.29310210000001],[89.3914072,50.3004739],[89.3933335,50.304770999999995],[89.4017055,50.3062528],[89.4065953,50.3140321],[89.37947869999998,50.31492109999999],[89.37666320000001,50.32822],[89.38147889999999,50.3388887],[89.41363360000003,50.3372033],[89.4968353,50.363912500000005],[89.49246390000002,50.374988699999996],[89.5015768,50.3857316],[89.49157470000002,50.3908436],[89.49261190000001,50.3963632],[89.48135040000001,50.3999194],[89.48912950000002,50.4279619],[89.49364890000001,50.434555800000005],[89.49150020000002,50.4452801],[89.49927950000001,50.4495032],[89.51061510000001,50.4499478],[89.5029098,50.45980149999999],[89.5453629,50.4453544],[89.54810420000001,50.4408165],[89.56929380000001,50.4315555],[89.5898905,50.428129000000006],[89.59722540000003,50.419386599999996],[89.6004114,50.399642],[89.60856129999999,50.3906773],[89.61322900000002,50.374266799999994],[89.63278849999998,50.378267599999994],[89.6433833,50.371358900000004],[89.6551635,50.369729],[89.66294279999998,50.374544799999995],[89.66146090000001,50.38262039999999],[89.6647208,50.3850098],[89.707322,50.3841209],[89.7188057,50.3922892],[89.72310279999999,50.4031061],[89.73577199999998,50.409273999999996],[89.754146,50.410755800000004],[89.786671,50.4197947],[89.79445040000002,50.41446039999999],[89.8188998,50.411200599999994],[89.82927209999998,50.43516820000001],[89.83742190000001,50.4357054],[89.8479425,50.4415584],[89.85927799999999,50.4551907],[89.85557349999999,50.46285890000001],[89.8656495,50.472045900000005],[89.86164860000001,50.4825294],[89.84216300000001,50.49988449999999],[89.84342240000001,50.51464669999999],[89.8513499,50.52488939999999],[89.82793769999999,50.5319463],[89.80697049999999,50.533372400000005],[89.7978575,50.5377621],[89.7967461,50.5444301],[89.78955940000002,50.550653499999996],[89.77333399999999,50.546134],[89.7485882,50.552060999999995],[89.7458468,50.5591364],[89.7291026,50.56863820000001],[89.70361600000001,50.568341800000006],[89.69576249999999,50.5756024],[89.6865754,50.576121],[89.664497,50.57011980000001],[89.6494568,50.57693590000001],[89.6440483,50.5813071],[89.6429369,50.591605300000005],[89.6482712,50.599773600000006],[89.6437517,50.6129984],[89.63197149999999,50.6171473],[89.63249009999998,50.6224817],[89.645826,50.63252070000001],[89.6398247,50.6428931],[89.6252291,50.6474309],[89.58277609999998,50.6458008],[89.56692090000001,50.6618965],[89.57069940000001,50.66619360000001],[89.56847669999999,50.671046399999994],[89.5706253,50.6748249],[89.55966000000001,50.6849009],[89.5482503,50.6876422],[89.5378777,50.70257090000001],[89.538174,50.710572500000005],[89.52839409999999,50.72407510000001],[89.5025369,50.735132700000015],[89.49910580000001,50.73345810000001],[89.49631340000002,50.7366885],[89.48579279999998,50.7376516],[89.48445910000001,50.74261560000001],[89.4779393,50.7454494],[89.4658625,50.770139400000005],[89.46652920000002,50.7804747],[89.4583794,50.784493999999995],[89.45341540000001,50.79256960000001],[89.44015340000003,50.79903380000001],[89.4308922,50.80888749999999],[89.4141481,50.801478599999996],[89.40384970000001,50.8073315],[89.3902173,50.809924599999995],[89.3907359,50.812888099999995],[89.37591799999998,50.8264092],[89.37947409999998,50.835022],[89.39866310000001,50.8505251],[89.38243749999998,50.8557853],[89.37917759999999,50.8606937],[89.3600626,50.86271250000001],[89.34857879999998,50.85967479999999],[89.3429479,50.8725662],[89.3469486,50.881253099999995],[89.3219066,50.87964159999999],[89.29760530000001,50.885198100000004],[89.28241709999999,50.876381499999994],[89.2677475,50.8804563],[89.269896,50.8846053],[89.2673769,50.8922364],[89.26997,50.894385],[89.2680435,50.9159818],[89.25270709999998,50.9147222],[89.24196410000002,50.921556800000005],[89.24351990000002,50.926520700000005],[89.23877819999998,50.933429499999995],[89.228628,50.935133500000006],[89.2255903,50.938615600000006],[89.2274425,50.941671799999995],[89.22151530000001,50.948413800000004],[89.2095869,50.9526553],[89.20469700000001,50.9626572],[89.1984734,50.9663246],[89.19921430000001,50.9714367],[89.19247209999997,50.9829574],[89.17409799999999,50.986735900000006],[89.16705940000001,50.9970341],[89.15357519999999,50.998089900000004],[89.15453829999998,51.0002384],[89.14586990000001,51.0030538],[89.1231986,51.0074249],[89.1194941,51.0115738],[89.1177158,51.02581730000001],[89.10134209999998,51.032003700000004],[89.1009716,51.0374862],[89.0878578,51.0380974],[89.05422130000001,51.047136],[89.05422130000001,51.0509886],[89.0615561,51.0582493],[89.05192440000002,51.0647135],[89.0541469,51.0823095],[89.0334018,51.09907200000001],[89.0222884,51.102517000000006],[89.02888229999998,51.1124449],[89.03947699999999,51.112519000000006],[89.04866400000002,51.119576],[89.04495950000002,51.1276516],[89.0391805,51.1308374],[89.0376987,51.1339862],[89.04103260000001,51.140728200000005],[89.03651320000002,51.1443585],[89.0383653,51.1503597],[89.04651510000001,51.1529899],[89.04984900000001,51.159805999999996],[89.0365129,51.1677334],[89.0393283,51.170252500000004],[89.0313265,51.186792700000005],[89.01561970000002,51.1839773],[88.98961430000001,51.1984614],[88.98220540000001,51.197646399999996],[88.96731340000002,51.20292520000001],[88.96316440000003,51.2084818],[88.96753560000002,51.214112500000006],[88.96108980000001,51.222669700000004],[88.96071930000001,51.22830050000001],[88.9765001,51.23993240000001],[88.9603487,51.243525600000005],[88.96012640000002,51.2483414],[88.97457360000001,51.2584175],[88.96701650000001,51.26504830000001],[88.9779815,51.2815701],[88.98146350000002,51.3039819],[88.99124320000003,51.308390200000005],[88.9897613,51.3185403],[88.9976888,51.3215039],[88.99302120000002,51.3275976],[88.99754050000001,51.33537690000001],[88.98620480000001,51.3469902],[88.990576,51.35402869999999],[88.98664920000002,51.3583258],[88.986501,51.3646233],[89.0030969,51.3684019],[89.00843119999999,51.3793299],[89.0062825,51.3884428],[89.0088756,51.3942587],[88.98212920000002,51.4157813],[88.9708676,51.42911720000001],[88.9575315,51.4328401],[88.9320447,51.4471576],[88.92700660000001,51.458437499999995],[88.91989400000001,51.4639201],[88.89129550000001,51.472329],[88.87988579999998,51.4669205],[88.8638826,51.46788359999999],[88.85469540000001,51.4802563],[88.8630674,51.485813],[88.8631415,51.4898508],[88.85388019999999,51.5075764],[88.84610070000001,51.51631880000001],[88.8245408,51.5167818],[88.8145388,51.5206344],[88.8069816,51.5268948],[88.8049071,51.5340073],[88.79409000000001,51.538082100000004],[88.79964660000002,51.5470468],[88.79153120000001,51.5537609],[88.80610209999999,51.5536518],[88.8287896,51.5587495],[88.8327607,51.5610252],[88.8319893,51.568626800000004],[88.8525859,51.570949],[88.87195179999999,51.562409300000006],[88.8942128,51.567922100000004],[88.91392310000002,51.5668484],[88.925857,51.5715031],[88.95302550000001,51.56299810000001],[88.963374,51.56811730000001],[88.9709831,51.567743300000004],[88.97950920000001,51.573712400000005],[89.00264209999999,51.5712262],[89.01377149999999,51.578731600000005],[89.0170307,51.5849517],[89.03441160000001,51.58813120000001],[89.0713664,51.5877579],[89.08543109999998,51.60205130000001],[89.0818794,51.6119022],[89.0898749,51.6194115],[89.0873187,51.62536230000001],[89.09421670000002,51.62616070000001],[89.1225164,51.641807299999996],[89.1338107,51.63577660000001],[89.16492070000001,51.63569090000001],[89.18859579999999,51.6497418],[89.20136260000001,51.6511428],[89.20731,51.658724],[89.2221619,51.653349],[89.2527112,51.65306749999999],[89.26382430000001,51.6412419],[89.25337429999999,51.62771130000001],[89.2536801,51.6187545],[89.24269590000002,51.6150454],[89.24306910000001,51.594725100000005],[89.2328587,51.5838303],[89.23772260000001,51.567238200000006],[89.23647340000001,51.5541193],[89.24937,51.5432255],[89.27848309999999,51.5472289],[89.2966375,51.571694099999995],[89.318874,51.5804522],[89.3221644,51.586390800000004],[89.3350555,51.594171900000006],[89.34620440000002,51.59351010000001],[89.37481809999998,51.60610590000001],[89.39412950000002,51.604390800000004],[89.40986330000001,51.608468300000006],[89.4334517,51.60845890000001],[89.46480480000001,51.5898547],[89.48462820000002,51.59057000000001],[89.49456400000003,51.5857637],[89.50817219999999,51.586279],[89.5417762,51.566234200000004],[89.5735474,51.5598428],[89.5802513,51.5488568],[89.5884749,51.546150600000004],[89.60586249999999,51.53216580000001],[89.63281649999999,51.5475796],[89.64621390000002,51.5469418],[89.65967529999999,51.5391677],[89.66373609999998,51.54744899999999],[89.695579,51.5554027],[89.699019,51.564638200000005],[89.7113001,51.562489],[89.73702950000002,51.5831699],[89.75469540000002,51.5870505],[89.76002330000001,51.59503280000001],[89.78967420000001,51.60913270000001],[89.7969065,51.6183635],[89.8069979,51.620814300000006],[89.8056075,51.629071200000006],[89.81029950000001,51.648529100000005],[89.8207949,51.6541535],[89.82539449999999,51.6535424],[89.83568149999999,51.66502380000001],[89.85308889999999,51.67275660000001],[89.85685279999998,51.6839576],[89.87116400000001,51.6873745],[89.8859109,51.7017676],[89.89444,51.7035648],[89.9035878,51.72998530000001],[89.9234358,51.7405216],[89.92692600000001,51.7571936],[89.9388977,51.7585642],[89.94982350000002,51.75486179999999],[89.96548560000001,51.7618883],[89.9817668,51.7573606],[90.010591,51.76272220000001],[90.0210457,51.75805090000001],[90.0342801,51.757125],[90.0292185,51.752026900000004],[90.03088279999999,51.746819200000004],[90.05925060000001,51.74205890000001],[90.06373179999999,51.739771700000006],[90.06426730000001,51.735294100000004],[90.0796333,51.7308617],[90.09491570000002,51.73561370000001],[90.09584749999999,51.739766100000004],[90.09167330000001,51.7442943],[90.0935738,51.7466081],[90.10966420000001,51.74851060000001],[90.119191,51.75541090000001],[90.12667629999999,51.754935800000005],[90.134557,51.759839],[90.1356819,51.76522860000001],[90.1279141,51.7674411],[90.1182786,51.7772773],[90.1215661,51.784684899999995],[90.10876869999998,51.791009200000005],[90.10332109999999,51.796866900000005],[90.1021069,51.80348949999999],[90.0813513,51.819486899999994],[90.08333429999999,51.832297499999996],[90.0731269,51.846889899999994],[90.073104,51.854299899999994],[90.0670465,51.861113],[90.06301640000001,51.8724566],[90.06450310000001,51.877423699999994],[90.0607398,51.8827868],[90.06779660000001,51.8992104],[90.05780320000001,51.9079571],[90.0627112,51.9235813],[90.0609641,51.93635210000001],[90.0286291,51.937232900000005],[90.01264990000001,51.9565457],[90.01234869999999,51.9664213],[90.02879549999999,51.9736368],[90.047077,51.97449449999999],[90.07149709999999,51.992169700000005],[90.07581669999999,52.0082886],[90.0832986,52.015482999999996],[90.10232709999998,52.0197578],[90.11164140000001,52.033574900000005],[90.13199809999999,52.03424739999999],[90.1379465,52.046987699999995],[90.1499526,52.058506300000005],[90.1584652,52.0607664],[90.15894719999999,52.0737616],[90.1518248,52.08424699999999],[90.15451320000001,52.0895431],[90.1479023,52.09830420000001],[90.1486333,52.1046371],[90.13849689999999,52.114186399999994],[90.14716020000002,52.1347608],[90.13893019999999,52.139768800000006],[90.14613879999999,52.150579900000004],[90.16270679999998,52.153466099999996],[90.1832502,52.147387699999996],[90.1935495,52.1552269],[90.20695320000002,52.158326100000004],[90.22099560000001,52.15634],[90.2394522,52.15893500000001],[90.2539189,52.17573420000001],[90.26147300000001,52.171297599999995],[90.2840525,52.1775591],[90.29710450000002,52.170093],[90.3190402,52.1773237],[90.3335277,52.1893425],[90.34652240000001,52.195447200000004],[90.3483154,52.2008901],[90.360444,52.20335980000001],[90.3745002,52.2014765],[90.38028879999999,52.1933834],[90.3884997,52.1916144],[90.3963617,52.1853834],[90.4256165,52.1842973],[90.43471980000001,52.1792174],[90.48710270000001,52.195806700000006],[90.51651040000002,52.17493830000001],[90.51710450000002,52.1691677],[90.5251666,52.162209000000004],[90.5313618,52.14591540000001],[90.55834849999998,52.12907020000001],[90.5677683,52.129749200000006],[90.5915301,52.1209235],[90.6330286,52.09372520000001],[90.666295,52.096992500000006],[90.6935362,52.090543100000005],[90.71441260000002,52.0902885],[90.7225595,52.084263299999996],[90.73087609999999,52.08273580000001],[90.7360529,52.0743344],[90.7517526,52.0703035],[90.7554019,52.0535856],[90.76584009999999,52.04798469999999],[90.76711310000002,52.0404319],[90.76592520000001,52.02303510000001],[90.76006970000002,52.013615300000005],[90.77209099999999,52.0068058],[90.78926290000001,51.9881566],[90.7993617,51.9849319],[90.8039444,51.9722025],[90.8182015,51.9680443],[90.82278419999999,51.9610007],[90.8202384,51.9517083],[90.82677289999998,51.9485684],[90.8307616,51.931511],[90.83644749999999,51.9269284],[90.8350897,51.9215821],[90.8434064,51.9161085],[90.84535829999999,51.9107621],[90.8384844,51.9083011],[90.8373812,51.9039731],[90.84934279999999,51.900384499999994],[90.8563057,51.9063493],[90.8748907,51.9101682],[90.9130791,51.9274803],[90.93022150000002,51.92535880000001],[90.94023540000002,51.93108699999999],[90.9477882,51.9302384],[90.9697678,51.937706399999996],[90.98105460000002,51.9387672],[90.995736,51.93537280000001],[91.0273899,51.946235300000005],[91.04665390000002,51.94742339999999],[91.0591288,51.9447927],[91.07236379999999,51.95189039999999],[91.1052945,51.9398708],[91.12854719999999,51.924213800000004],[91.154855,51.914794099999995],[91.16486900000001,51.8992643],[91.17445849999999,51.89782159999999],[91.17921079999999,51.9024042],[91.2326748,51.894469699999995],[91.2375121,51.8864927],[91.25244809999998,51.8830133],[91.2597464,51.8765638],[91.26144350000001,51.8911602],[91.27536109999998,51.8958277],[91.35530239999999,51.891457499999994],[91.3822041,51.8988406],[91.41351870000001,51.8954462],[91.4285395,51.898671],[91.4454273,51.8952766],[91.45306500000001,51.896973900000006],[91.46324860000001,51.8914578],[91.46630370000001,51.8940037],[91.4856525,51.8944281],[91.5079715,51.903593300000004],[91.5094991,51.906987799999996],[91.5333456,51.9093216],[91.58528209999999,51.901514399999996],[91.59275009999999,51.8915855],[91.63509709999998,51.8794503],[91.6946712,51.8765651],[91.701036,51.87147339999999],[91.72963490000001,51.8724918],[91.73922450000002,51.86570290000001],[91.76578669999999,51.8707098],[91.7816561,51.8761411],[91.7934521,51.8847122],[91.80439940000001,51.8865792],[91.8231876,51.86610580000001],[91.8393127,51.8591797],[91.8505677,51.862751],[91.86084879999999,51.8614524],[91.8778396,51.86751280000001],[91.89710320000002,51.8593963],[91.90381300000001,51.85366059999999],[91.90749260000001,51.84348789999999],[91.9183148,51.835154900000006],[91.91474360000002,51.826876],[91.9282714,51.8222225],[91.9300029,51.8169197],[91.94006760000002,51.8090196],[91.95695020000001,51.81194159999999],[91.97545629999999,51.801336],[91.9883347,51.8002538],[91.99558560000001,51.794842800000005],[92.0266453,51.79430180000001],[92.07827799999998,51.772621],[92.0920114,51.779042800000006],[92.1134393,51.7818566],[92.1216641,51.790406100000006],[92.1919,51.79841470000001],[92.20715930000001,51.807180599999995],[92.2301023,51.809778],[92.23756950000002,51.817136999999995],[92.24828350000001,51.818111],[92.25520970000001,51.822656300000006],[92.2683045,51.8191933],[92.2843215,51.8091288],[92.3074809,51.81464809999999],[92.3641891,51.8183278],[92.3954654,51.805882499999996],[92.4088849,51.8065318],[92.4383213,51.79690030000001],[92.46158900000002,51.8029607],[92.47251940000001,51.8002552],[92.4799867,51.79495240000001],[92.4809608,51.79073180000001],[92.49394740000001,51.79051540000001],[92.51212860000001,51.799064900000005],[92.5295524,51.791056600000005],[92.55649960000001,51.79819920000001],[92.56883679999999,51.8079392],[92.58994009999999,51.8073981],[92.59329490000002,51.813458499999996],[92.6256533,51.80815580000001],[92.6447003,51.81216],[92.64837979999999,51.817895699999994],[92.64654,51.820493],[92.65065249999999,51.8207094],[92.662665,51.8330467],[92.69637549999999,51.8513392],[92.7193732,51.8461957],[92.73755450000002,51.8489012],[92.74913420000001,51.8464122],[92.7630948,51.8485766],[92.76428520000002,51.85398769999999],[92.769047,51.855502800000004],[92.781709,51.85344659999999],[92.7950203,51.8466287],[92.81753040000001,51.848684999999996],[92.82564709999998,51.840676699999996],[92.84328740000001,51.8350492],[92.8736977,51.8360233],[92.89061160000001,51.84355],[92.89837209999997,51.868922500000004],[92.90432420000002,51.8728185],[92.9044324,51.879744599999995],[92.94793750000001,51.9046356],[92.9576773,51.915782300000004],[93.0116801,51.9141592],[93.0759638,51.9358576],[93.0778035,51.94408239999999],[93.08299809999998,51.950034599999995],[93.1073479,51.9638869],[93.1190359,51.9664843],[93.1192522,51.977630999999995],[93.12249889999998,51.982501],[93.13050729999999,51.985747599999996],[93.13721690000001,52.003171200000004],[93.1466322,52.009772700000006],[93.14652390000002,52.0156166],[93.1678435,52.02795390000001],[93.1885139,52.0354212],[93.20420610000001,52.032282800000004],[93.24251660000002,52.0409406],[93.24717000000001,52.0632341],[93.25712630000001,52.069619100000004],[93.25485360000002,52.0740562],[93.2586414,52.078817900000004],[93.2663251,52.08422899999999],[93.27498279999999,52.0850948],[93.29684360000002,52.101328],[93.3091808,52.1046829],[93.3309333,52.12611060000001],[93.3469501,52.127734000000004],[93.36372460000001,52.12448739999999],[93.3947842,52.127193000000005],[93.40019530000001,52.13390270000001],[93.4202163,52.13541790000001],[93.42768360000002,52.1411536],[93.431796,52.149486599999996],[93.4721626,52.1710227],[93.51415320000002,52.1708067],[93.54640360000002,52.1764884],[93.56068900000001,52.1692376],[93.5762731,52.166856700000004],[93.5821172,52.17031980000001],[93.5839569,52.18254890000001],[93.5934804,52.189637499999996],[93.60527669999999,52.187905900000004],[93.62291699999999,52.19623910000001],[93.64207249999998,52.19299250000001],[93.6481329,52.19905290000001],[93.6620937,52.2012174],[93.66847879999997,52.209225800000006],[93.67681189999999,52.212364300000004],[93.65581649999999,52.240934800000005],[93.6665305,52.2575469],[93.6813569,52.26739510000001],[93.6775691,52.2772433],[93.6847116,52.29710200000001],[93.67800179999998,52.307274799999995],[93.6870924,52.316365499999996],[93.7160961,52.326538400000004],[93.7248621,52.338875800000004],[93.7254032,52.3443951],[93.7367665,52.348399300000004],[93.7364418,52.35402679999999],[93.7407707,52.35824749999999],[93.752567,52.36203530000001],[93.7568958,52.3717753],[93.7544067,52.3764288],[93.7654454,52.3811365],[93.76360550000001,52.3992095],[93.7536488,52.424641699999995],[93.7540817,52.427726],[93.76587789999999,52.4342193],[93.76751520000002,52.4513828],[93.77843169999998,52.45326639999999],[93.8079766,52.45088559999999],[93.8156603,52.465495600000004],[93.83243479999999,52.4784822],[93.82907979999999,52.4847591],[93.8294044,52.4956895],[93.83373329999999,52.504239],[93.8434733,52.5035897],[93.8602478,52.5121934],[93.85970669999999,52.519877199999996],[93.898234,52.5310782],[93.91262750000001,52.5432532],[93.91944550000001,52.5584043],[93.94336270000001,52.56619630000001],[93.95245340000001,52.57831720000001],[93.96035360000002,52.5810228],[93.9582973,52.5866503],[93.96522350000002,52.6017473],[93.9485571,52.6067254],[93.94152260000003,52.613326900000004],[93.97312360000002,52.625447900000005],[93.98156500000002,52.634755000000006],[93.98145670000001,52.6384886],[93.99920520000002,52.64931090000001],[94.02214839999999,52.6541809],[94.03416120000001,52.6600249],[94.05807839999999,52.6608907],[94.06316490000002,52.66630180000001],[94.0956317,52.67842280000001],[94.1035319,52.68816280000001],[94.09682190000001,52.7079673],[94.09151900000002,52.7108893],[94.0957396,52.721170400000005],[94.0935751,52.73854000000001],[94.1301543,52.754232300000005],[94.13956970000001,52.7544487],[94.13751340000002,52.7708985],[94.1400025,52.775389700000005],[94.1318857,52.7822076],[94.13827079999999,52.7919476],[94.15179859999999,52.79995610000001],[94.15937409999998,52.8131591],[94.14746960000002,52.820626399999995],[94.1418419,52.831178],[94.1576425,52.8307452],[94.1671661,52.8337754],[94.1745252,52.841459199999996],[94.1910833,52.8457881],[94.20926460000003,52.859532300000005],[94.2231172,52.8567186],[94.24422060000003,52.864402399999996],[94.26175260000001,52.8837742],[94.27993409999999,52.886263299999996],[94.29021520000002,52.8949211],[94.3034184,52.900007499999994],[94.3206258,52.898276],[94.3314482,52.8932978],[94.35428320000001,52.895678800000006],[94.378525,52.911966199999995],[94.3903213,52.911533399999996],[94.39919560000001,52.914888299999994],[94.43425990000003,52.9026593],[94.4510345,52.902226399999996],[94.44789600000001,52.89681530000001],[94.4499523,52.893027499999995],[94.49323150000001,52.891666699999995],[94.50568709999999,52.8987634],[94.51402020000002,52.90947739999999],[94.5259247,52.9100186],[94.52127109999999,52.9159707],[94.51759140000001,52.9315006],[94.51282960000002,52.935071900000004],[94.5147776,52.9388597],[94.52538329999999,52.9581232],[94.53815360000002,52.966239800000004],[94.5423742,52.975222300000006],[94.55557739999999,52.9772785],[94.56639960000001,52.9879925],[94.5832824,52.996542100000006],[94.5781959,53.00373880000001],[94.5789534,53.0121801],[94.57018729999999,53.0207296],[94.571053,53.02581610000001],[94.58122590000002,53.031660099999996],[94.5790614,53.0370711],[94.58122590000002,53.0402096],[94.59031660000001,53.039560300000005],[94.6004895,53.0465947],[94.57570629999998,53.07457],[94.57949409999999,53.0799811],[94.57808709999998,53.0849593],[94.5858792,53.090911500000004],[94.5879353,53.10211250000001],[94.5850133,53.1073072],[94.59193950000001,53.1122854],[94.59020790000001,53.1199691],[94.60492620000001,53.12538020000001],[94.6209432,53.12635430000001],[94.6062248,53.13836690000001],[94.60817269999998,53.148648],[94.6166141,53.1595784],[94.60243679999998,53.1678032],[94.62537999999998,53.183711900000006],[94.6570893,53.187175],[94.6567646,53.193993000000006],[94.6626086,53.20091920000001],[94.65254379999999,53.2075207],[94.6534096,53.21428459999999],[94.6786255,53.2115791],[94.69832209999998,53.21515050000001],[94.69897139999999,53.22359180000001],[94.7077374,53.2262974],[94.7160705,53.23711960000001],[94.71650340000002,53.240799100000004],[94.708062,53.2509719],[94.6868502,53.2575734],[94.68165540000001,53.26801680000001],[94.68187179999998,53.279921200000004],[94.67700169999999,53.2872803],[94.6485391,53.289120000000004],[94.63576879999998,53.285765100000006],[94.62364779999999,53.29150090000001],[94.60384289999999,53.293502900000014],[94.6008126,53.305732000000006],[94.60947039999999,53.31482259999999],[94.6104444,53.3241838],[94.6183446,53.33111],[94.6352273,53.3370623],[94.6574131,53.3385774],[94.6591446,53.343880299999995],[94.66899289999999,53.3472352],[94.6772177,53.3575163],[94.69853769999999,53.3589232],[94.72029040000001,53.3762929],[94.74442410000002,53.377808099999996],[94.75059279999999,53.38462599999999],[94.7570862,53.38289449999999],[94.771588,53.38722339999999],[94.78273499999999,53.38186649999999],[94.7959382,53.3891173],[94.812821,53.39279690000001],[94.8266735,53.391444199999995],[94.8393356,53.3941498],[94.85546079999999,53.3907949],[94.87136960000001,53.3954485],[94.884681,53.39317590000001],[94.8939882,53.3972883],[94.9057845,53.3960979],[94.9256975,53.4004268],[94.93976660000001,53.388306],[94.95459300000002,53.40486399999999],[94.96887849999999,53.404755800000004],[94.97872679999999,53.3995611],[94.99106420000003,53.40031870000001],[94.989441,53.387873199999994],[94.9951768,53.376834599999995],[95.0175791,53.3674193],[95.03586879999999,53.3661207],[95.06151740000001,53.394529],[95.09463370000002,53.401563499999995],[95.11508779999998,53.398858000000004],[95.1172523,53.402754],[95.1461477,53.418500300000005],[95.1529657,53.4341925],[95.18564889999999,53.454971199999996],[95.2180017,53.46936590000001],[95.2253667,53.462655000000005],[95.25869940000001,53.456053499999996],[95.2603228,53.45129179999999],[95.26724910000002,53.4480451],[95.3045861,53.4449068],[95.31151240000001,53.434301],[95.3096727,53.4217473],[95.299608,53.4134142],[95.2841321,53.4100593],[95.2897597,53.4036201],[95.29646960000002,53.4017803],[95.29711890000002,53.3977761],[95.30436990000001,53.395503500000004],[95.30253009999998,53.3912828],[95.30718370000001,53.388144399999995],[95.336404,53.376456499999996],[95.35501829999998,53.3812183],[95.37547249999997,53.381434799999994],[95.3870524,53.370504399999994],[95.40512570000001,53.3656345],[95.4283936,53.3753745],[95.4257962,53.3803527],[95.4291511,53.388902200000004],[95.42341520000001,53.3930146],[95.43055790000001,53.3973435],[95.46356590000002,53.4012396],[95.4952753,53.39501690000001],[95.49949590000001,53.40573080000001],[95.490838,53.415687199999994],[95.49927940000002,53.42293810000001],[95.5125908,53.424886099999995],[95.51572920000001,53.432137000000004],[95.5269844,53.437493999999994],[95.53131330000001,53.438468],[95.53921360000002,53.43186649999999],[95.54906190000001,53.4308925],[95.5570704,53.4355461],[95.57730809999998,53.4381434],[95.59462380000002,53.4473423],[95.61345460000001,53.4475588],[95.6291469,53.454972],[95.65209009999998,53.45562139999999],[95.6497092,53.4587598],[95.6536052,53.468499800000004],[95.66063960000001,53.4752096],[95.6549038,53.480620699999996],[95.65685179999998,53.4863564],[95.67005499999999,53.4907936],[95.68520609999999,53.5063775],[95.70511920000001,53.50605290000001],[95.724491,53.5150354],[95.7217854,53.521961499999996],[95.73222440000002,53.5252204],[95.74516160000002,53.518769],[95.74375470000001,53.514007299999996],[95.75706620000001,53.5050249],[95.7606375,53.509570200000006],[95.766698,53.5087045],[95.7735161,53.5056743],[95.77762860000001,53.4992892],[95.79472790000001,53.49809880000001],[95.8074982,53.4912808],[95.81366690000002,53.496259],[95.83531149999999,53.4914973],[95.837476,53.4955015],[95.846242,53.4968002],[95.8604193,53.493228900000005],[95.86604679999999,53.49874820000001],[95.87849249999998,53.497341399999996],[95.8857434,53.5014538],[95.93163000000001,53.488467299999996],[95.9537075,53.4942031],[95.96712720000002,53.491281099999995],[95.96766830000001,53.483922],[95.976218,53.4793226],[95.99353370000001,53.480080199999996],[96.0069533,53.4761842],[96.00532999999999,53.4716389],[96.0279487,53.46233190000001],[96.03325160000001,53.45702899999999],[96.0755669,53.4510769],[96.1105229,53.4517263],[96.1156093,53.4612498],[96.11128040000001,53.4680678],[96.1127954,53.4858162],[96.10630199999999,53.4912813],[96.10348809999998,53.50448439999999],[96.11284029999999,53.512599200000004],[96.1162584,53.5064324],[96.1197216,53.506216],[96.13573859999998,53.51184359999999],[96.1462362,53.50978739999999],[96.1872527,53.515090300000004],[96.18790209999999,53.511519],[96.19309679999999,53.5096792],[96.22285809999998,53.515415000000004],[96.22491430000001,53.5187699],[96.232057,53.5171466],[96.2390915,53.528077],[96.23919970000001,53.5307826],[96.2324899,53.5334881],[96.239849,53.5409013],[96.2375763,53.544148],[96.24071470000001,53.5579463],[96.22902660000001,53.5616258],[96.2222085,53.5688766],[96.22859360000001,53.5792659],[96.2294593,53.5891141],[96.225455,53.597771900000005],[96.2411328,53.619464099999995],[96.25478340000001,53.613896999999994],[96.26571390000001,53.6123819],[96.27339779999998,53.6163861],[96.27935,53.6137888],[96.2819474,53.6108668],[96.2770774,53.608161300000006],[96.27717249999999,53.5985615],[96.27253209999998,53.590845800000004],[96.27675279999998,53.589330700000005],[96.2854106,53.5918198],[96.2908218,53.5886813],[96.3100855,53.5878156],[96.33335340000001,53.5978803],[96.33973859999999,53.59614870000001],[96.36116670000001,53.59907080000001],[96.37469460000001,53.5937679],[96.37004109999998,53.5830539],[96.35651320000001,53.5771017],[96.3519679,53.570392000000005],[96.36701090000001,53.56563020000001],[96.3696083,53.5706084],[96.3845431,53.5677947],[96.3872486,53.56671250000001],[96.3845431,53.55794649999999],[96.39060360000002,53.5565396],[96.3968806,53.54885590000001],[96.4080275,53.54885590000001],[96.4233953,53.5394406],[96.4338929,53.54106399999999],[96.4402781,53.5357611],[96.43865480000001,53.5311076],[96.4415768,53.52677870000001],[96.4378973,53.516389399999994],[96.43973709999999,53.51346739999999],[96.44796200000002,53.512385200000004],[96.4608405,53.5168223],[96.4677668,53.527644499999994],[96.4835673,53.5309994],[96.4852989,53.534679],[96.48226860000001,53.5417134],[96.49482240000002,53.546583399999996],[96.50802560000001,53.5469081],[96.51332860000001,53.55188629999999],[96.517441,53.55242739999999],[96.5278305,53.545934100000004],[96.55272179999999,53.544310800000005],[96.5561849,53.5450684],[96.5593233,53.5517781],[96.57804589999999,53.5552413],[96.5894093,53.55242749999999],[96.59622740000002,53.558704399999996],[96.60347829999998,53.559191399999996],[96.616465,53.566550500000005],[96.62620509999999,53.5636285],[96.6277203,53.556918800000005],[96.63637809999997,53.5559448],[96.6433044,53.56341210000001],[96.65867199999998,53.5641697],[96.6591049,53.5734768],[96.68637699999998,53.59073820000001],[96.674256,53.5992877],[96.67414779999999,53.6041577],[96.69460190000001,53.612869599999996],[96.70596520000001,53.623475400000004],[96.70304320000001,53.62715490000001],[96.6961169,53.6270467],[96.68789199999999,53.632349500000004],[96.6939524,53.639384],[96.6883296,53.646336600000005],[96.6973864,53.6544482],[96.69658,53.65897830000001],[96.70169140000002,53.6636346],[96.6998295,53.6674957],[96.71127460000002,53.6738543],[96.7056303,53.6799854],[96.708186,53.684434499999995],[96.7058626,53.6884246],[96.71445890000001,53.695211400000005],[96.705568,53.7011776],[96.7073115,53.709793000000005],[96.73065950000002,53.72347530000001],[96.7423335,53.72679420000001],[96.76182790000001,53.7191654],[96.7823906,53.722087800000004],[96.7974311,53.72825050000001],[96.8168568,53.72377670000001],[96.82817079999998,53.72691120000001],[96.83966440000002,53.72117330000001],[96.86794940000001,53.72892990000001],[96.88177769999999,53.726220600000005],[96.8939927,53.728157900000014],[96.89821300000001,53.716947399999995],[96.91275960000002,53.714131],[96.91671050000001,53.70227880000001],[96.92982040000001,53.7017473],[96.93305300000002,53.696431200000006],[96.94212220000001,53.6938261],[96.9566487,53.695496600000006],[96.96221590000002,53.6913495],[96.9728116,53.690817800000005],[96.97766040000002,53.681192800000005],[96.9732485,53.67654890000001],[96.9768279,53.6719447],[96.99028860000001,53.6634431],[96.9998127,53.663593600000006],[97.0099082,53.6530114],[97.03033819999999,53.6478373],[97.0364441,53.6502856],[97.05700460000001,53.6466881],[97.0765202,53.659055900000006],[97.0813619,53.650587599999994],[97.08980249999999,53.646170000000005],[97.086121,53.6442005],[97.08567199999999,53.6372269],[97.0996798,53.63371300000001],[97.10957889999999,53.62331120000001],[97.1245745,53.6219266],[97.1263292,53.6148199],[97.13940889999999,53.610827199999996],[97.14436140000001,53.6131626],[97.1658204,53.6109438],[97.17638869999998,53.6139178],[97.17693069999999,53.619463499999995],[97.18293649999998,53.62357830000001],[97.1920643,53.6193869],[97.20308360000001,53.6190316],[97.2036312,53.6111836],[97.21288729999999,53.5966673],[97.22009340000001,53.59255430000001],[97.23050980000001,53.5949791],[97.24394090000001,53.59230990000001],[97.2540998,53.584833399999994],[97.27608629999999,53.5863066],[97.29667470000001,53.57986],[97.31191790000001,53.5888097],[97.3290677,53.588835800000005],[97.33236279999998,53.5692613],[97.3424892,53.559454499999994],[97.3603007,53.55488839999999],[97.3719067,53.5555924],[97.3739209,53.5440518],[97.3901451,53.543676999999995],[97.38482940000002,53.535838700000006],[97.382258,53.5240243],[97.3935608,53.524311100000006],[97.4031853,53.518281699999996],[97.4053168,53.512451],[97.4265961,53.5079209],[97.4237541,53.495620800000005],[97.44091380000002,53.48141739999999],[97.433874,53.476303800000004],[97.43431720000001,53.4717019],[97.44668910000001,53.4672662],[97.454332,53.456299099999995],[97.48082920000002,53.456188399999995],[97.4846881,53.451729799999995],[97.50182490000002,53.4529683],[97.50760020000001,53.448131800000006],[97.51406640000002,53.4474148],[97.54111120000002,53.451521299999996],[97.5588966,53.4434028],[97.5841423,53.43830230000001],[97.5920557,53.4276285],[97.60275889999998,53.4258947],[97.6036422,53.4085234],[97.59557249999999,53.3980517],[97.6071719,53.3941896],[97.60416370000002,53.38672939999999],[97.5894127,53.3774701],[97.5998617,53.3704369],[97.6183119,53.368106600000004],[97.64538279999998,53.3585508],[97.6571843,53.3652712],[97.67949349999999,53.365528700000006],[97.69063009999999,53.3721611],[97.71465030000002,53.368025300000006],[97.727208,53.376508900000005],[97.73537229999998,53.36873250000001],[97.78574309999999,53.36230880000001],[97.796632,53.3654376],[97.7984376,53.3735627],[97.8128204,53.3735366],[97.8245991,53.363078],[97.8415763,53.3589161],[97.8446921,53.35466609999999],[97.85880109999998,53.35180789999999],[97.86606590000001,53.3467041],[97.88356440000001,53.3513353],[97.90091970000002,53.34479749999999],[97.90948809999999,53.3486563],[97.9390489,53.3496081],[97.96013920000001,53.3419556],[97.98192680000001,53.3483175],[97.9905083,53.3410137],[97.9865451,53.336007699999996],[97.9891525,53.32859630000001],[97.9797074,53.3238184],[97.97246229999999,53.31170409999999],[97.9604,53.308210300000006],[97.9584054,53.3032955],[98.00216340000001,53.27607510000001],[98.004761,53.26654200000001],[98.0003676,53.257921599999996],[98.0046013,53.248362500000006],[98.01808460000001,53.2509437],[98.02603699999999,53.247176200000006],[98.0573709,53.2468373],[98.0799179,53.250810200000004],[98.09122410000002,53.2419779],[98.10679329999999,53.2415347],[98.12387469999999,53.235104400000004],[98.1423152,53.236769800000005],[98.1502676,53.2443572],[98.18885309999999,53.2474143],[98.22805149999999,53.2275824],[98.2334161,53.2121275],[98.2396738,53.20802090000001],[98.29707460000002,53.2272826],[98.32037779999997,53.210951],[98.3051574,53.2044685],[98.31451790000001,53.197529800000005],[98.3109458,53.191360200000005],[98.3155608,53.186771300000004],[98.29811120000001,53.1747548],[98.3179988,53.1594433],[98.290739,53.1464718],[98.2984926,53.13371880000001],[98.29712710000001,53.11805530000001],[98.31115470000002,53.104647099999994],[98.30207129999998,53.0970696],[98.30887649999998,53.0946578],[98.33173649999999,53.0992076],[98.3564509,53.085933100000005],[98.37973779999997,53.099901900000006],[98.38771960000001,53.0964211],[98.3991561,53.100218000000005],[98.40221970000002,53.1024994],[98.4004727,53.107010100000004],[98.4026303,53.1090536],[98.41206890000001,53.1061856],[98.4178768,53.099048],[98.45124440000002,53.095740000000006],[98.4740522,53.09650920000001],[98.5068462,53.107271],[98.5309055,53.102656],[98.5430981,53.10571960000001],[98.5596581,53.0999314],[98.58324809999999,53.103138400000006],[98.63710300000001,53.1012221],[98.6377906,53.10839550000001],[98.64382660000001,53.1151615],[98.6562409,53.115503700000005],[98.6580269,53.12099220000001],[98.6519257,53.12413720000001],[98.6595522,53.130121100000004],[98.65817029999998,53.1358735],[98.6677686,53.1415607],[98.66467879999999,53.152971],[98.680626,53.1575925],[98.6886502,53.1543366],[98.72633289999999,53.15326759999999],[98.73598340000001,53.147059],[98.75097889999999,53.14917090000001],[98.7535472,53.147358800000006],[98.75275189999999,53.13892090000001],[98.76862100000001,53.1319007],[98.8000624,53.1342082],[98.82351879999999,53.123814700000004],[98.839479,53.1246491],[98.8511372,53.121403],[98.863043,53.126617700000004],[98.87994189999999,53.12574420000001],[98.8905831,53.1173291],[98.8999468,53.1212499],[98.89468640000001,53.131890999999996],[98.88616040000001,53.136978500000005],[98.89099370000001,53.147241599999994],[98.90666720000002,53.1479912],[98.91740940000003,53.1552266],[98.9369581,53.148975500000006],[98.94506040000002,53.1390905],[98.95772240000001,53.1377934],[98.96268620000001,53.12596590000001],[98.9848911,53.1145296],[98.9951151,53.1126979],[99.0097066,53.103005200000005],[99.058539,53.1076072],[99.06272709999999,53.1022394],[99.0638222,53.09218490000001],[99.0505051,53.084503],[99.04451800000001,53.08514830000001],[99.02682390000001,53.0785844],[99.02279549999999,53.0738912],[99.02303669999999,53.065740000000005],[99.0009623,53.0577453],[98.9939681,53.045745100000005],[98.99682970000002,53.029413500000004],[99.0520306,53.011814099999995],[99.06491420000002,53.002382100000005],[99.07891889999999,53.00333380000001],[99.0898503,52.99839620000001],[99.0976723,53.000012700000006],[99.11484829999999,52.9950816],[99.1286444,52.984975],[99.1667574,52.9879572],[99.17157119999999,52.984988099999995],[99.17176679999999,52.9800081],[99.1809284,52.976116700000006],[99.2053267,52.9763937],[99.23056720000001,52.9631856],[99.233458,52.9580733],[99.2552303,52.9504531],[99.26415700000001,52.93997530000001],[99.2721039,52.937580399999995],[99.2738457,52.93148419999999],[99.25882279999999,52.933770300000006],[99.242548,52.921333000000004],[99.23002900000002,52.92013550000001],[99.2251302,52.9163254],[99.22322520000002,52.911943699999995],[99.22926700000001,52.895914100000006],[99.224586,52.889708999999996],[99.227743,52.88470139999999],[99.2328595,52.883721699999995],[99.22992020000001,52.8666306],[99.22273539999999,52.866304],[99.21729230000001,52.868372400000005],[99.21533279999998,52.8727268],[99.20401120000001,52.8743597],[99.17717689999999,52.8691072],[99.16835909999999,52.8643173],[99.12007899999999,52.873488699999996],[99.1030966,52.8825241],[99.0942788,52.8821975],[99.0808344,52.888674699999996],[99.05786460000002,52.8915051],[99.0051756,52.91308659999999],[98.9734969,52.934314300000004],[98.96271960000001,52.9301776],[98.94111060000003,52.9340966],[98.93751820000001,52.9374712],[98.9248903,52.932245900000005],[98.92450930000001,52.9189378],[98.91612700000002,52.9141207],[98.90981300000001,52.9009486],[98.89321170000001,52.8963492],[98.89255849999999,52.884809999999995],[98.90061430000002,52.880129],[98.9017029,52.872508800000006],[98.8852104,52.87196449999999],[98.87236479999999,52.8647797],[98.86539769999999,52.85492779999999],[98.8714939,52.852641799999994],[98.86463570000001,52.849158200000005],[98.8609344,52.8398779],[98.85157229999999,52.83585],[98.8522255,52.826379200000005],[98.85788629999999,52.8213716],[98.86948009999999,52.81946659999999],[98.86948009999999,52.8138058],[98.8508648,52.801178],[98.8492319,52.797041300000004],[98.85173569999999,52.79268690000001],[98.8698067,52.79845650000001],[98.87802579999999,52.79562620000001],[98.8945727,52.799980600000005],[98.9264691,52.8016952],[98.93136790000001,52.794074900000005],[98.94116540000003,52.793966100000006],[98.9507452,52.786999],[98.94726170000003,52.779814300000005],[98.93115020000002,52.76832950000001],[98.93713760000001,52.765716800000014],[98.93920600000001,52.76070930000001],[98.9357224,52.7578789],[98.93604900000001,52.745904200000005],[98.94824150000001,52.73801190000001],[98.9498745,52.73311320000001],[98.95662390000003,52.7306094],[98.95782140000001,52.7194784],[98.96174040000001,52.715559400000004],[98.9561885,52.7097898],[98.9481327,52.712837900000004],[98.9325111,52.703993000000004],[98.93218460000001,52.691991200000004],[98.9419821,52.6833912],[98.9365391,52.678819100000005],[98.94132900000002,52.6717431],[98.92799350000001,52.666599500000004],[98.93125940000003,52.6574552],[98.9085618,52.649698900000004],[98.8704602,52.6579722],[98.8661058,52.655903900000006],[98.86773879999998,52.633124900000006],[98.86349320000001,52.6271375],[98.85630829999998,52.62310970000001],[98.8349171,52.6194901],[98.83121580000001,52.6154622],[98.81978529999999,52.6207964],[98.80715740000001,52.618836900000005],[98.80547009999998,52.6106451],[98.7856573,52.604331200000004],[98.78554849999999,52.5946154],[98.79496500000002,52.5827225],[98.7938764,52.5739048],[98.79986380000001,52.573033900000006],[98.78266370000001,52.566583900000005],[98.7849498,52.56005230000001],[98.81837029999998,52.5484859],[98.81749940000002,52.54489349999999],[98.82903879999998,52.54217200000001],[98.8302362,52.534660599999995],[98.8186425,52.52733980000001],[98.8111311,52.533871399999995],[98.80579689999999,52.53278280000001],[98.808083,52.52559800000001],[98.8051437,52.52211450000001],[98.8085184,52.5167803],[98.7983944,52.5064386],[98.78641960000002,52.5106569],[98.77019920000001,52.50913280000001],[98.7593131,52.4969405],[98.74940670000001,52.4966955],[98.74461680000002,52.500396800000004],[98.74015350000002,52.498001800000004],[98.7351459,52.4943006],[98.73623450000001,52.4870069],[98.7243687,52.477617699999996],[98.7129382,52.477399999999996],[98.7058622,52.4699975],[98.7057534,52.464772200000006],[98.7125572,52.458621599999994],[98.6991673,52.4533963],[98.69884069999999,52.4462115],[98.6702102,52.4274603],[98.63589119999999,52.42471590000001],[98.63053029999999,52.415022900000004],[98.63499360000002,52.403483699999995],[98.6330576,52.3943622],[98.6374975,52.3915635],[98.65458869999999,52.3913458],[98.6542621,52.384596499999994],[98.6639508,52.3788269],[98.66721670000001,52.36707],[98.6769054,52.365926900000005],[98.67668769999999,52.3607016],[98.68550549999999,52.3559118],[98.66863199999999,52.3406713],[98.66623709999999,52.328098000000004],[98.65524209999998,52.308367],[98.6619915,52.3045569],[98.65774599999999,52.288636100000005],[98.64871049999999,52.278185500000006],[98.6578549,52.26915010000001],[98.6573106,52.26294500000001],[98.67745,52.26501340000001],[98.6901867,52.2830842],[98.71462610000002,52.291031100000005],[98.75234649999999,52.288200700000004],[98.7568643,52.2832748],[98.7588238,52.2732596],[98.78511390000001,52.2686875],[98.8120026,52.276961],[98.82201789999999,52.27293310000001],[98.8328959,52.27391290000001],[98.831496,52.262987],[98.82738379999999,52.26105200000001],[98.82539259999999,52.2530661],[98.8320332,52.2504535],[98.8334484,52.24250670000001],[98.84041560000001,52.23521300000001],[98.8392181,52.229116900000015],[98.8278965,52.22242190000001],[98.83214209999998,52.214583999999995],[98.8300738,52.2048954],[98.8211472,52.196186600000004],[98.8231067,52.19259420000001],[98.8335574,52.186498],[98.8450967,52.186824599999994],[98.8535879,52.188675200000006],[98.86382090000001,52.1979284],[98.8878792,52.20032330000001],[98.89500960000001,52.2072904],[98.91585660000001,52.1875595],[98.92630729999999,52.189301300000004],[98.95961900000002,52.1722646],[98.9746418,52.170849499999996],[98.98824950000001,52.16507990000001],[98.98781410000001,52.159963399999995],[98.97322670000001,52.15604449999999],[98.9680013,52.15071030000001],[98.96921690000002,52.1434]]]}}