{"type":"Feature","properties":{"regionId":"respublika_kareliya","name":"Республика Карелия","name:en":"Republic of Karelia","timezone":"Europe/Moscow","name_ru":"Республика Карелия","name_en":"Republic of Karelia","name_zh":"卡累利阿共和国"},"geometry":{"type":"Polygon","coordinates":[[[35.04824,66.09830269999999],[34.842512000000006,66.15339289999999],[34.0003247,66.41016860000002],[33.507383999999995,66.51164440000002],[33.3977273,66.5291035],[33.233307800000006,66.54937960000001],[33.0552724,66.56172590000001],[33.0003314,66.57317279999998],[32.8655774,66.58326260000001],[32.587113900000006,66.5822128],[32.557278999999994,66.5761015],[32.5481494,66.4794872],[32.3603888,66.4751709],[32.3538333,66.466637],[32.34266139999999,66.34539279999998],[31.9369838,66.3510469],[31.853876900000003,66.36348029999999],[31.8300299,66.37137519999999],[31.803098300000002,66.4520529],[31.7919379,66.49523310000001],[31.621161500000003,66.50237809999997],[31.6060076,66.5622486],[31.5758572,66.6540029],[31.4974761,66.65870909999998],[31.093639499999995,66.65879999999999],[31.0864244,66.6673243],[30.1595152,66.65283839999998],[30.1695055,66.6606567],[29.3225257,66.66286129999999],[29.357648100000002,66.64108320000001],[29.3550097,66.638089],[29.3601956,66.6256032],[29.386821100000002,66.60808259999999],[29.3764003,66.60375609999998],[29.3828052,66.5984607],[29.4014549,66.59722520000003],[29.410347899999998,66.592245],[29.416594,66.5924999],[29.4110078,66.5833539],[29.421129299999997,66.5796476],[29.4726751,66.5434478],[29.524285600000002,66.49069770000001],[29.631093400000005,66.36657809999998],[29.663318,66.3177074],[29.696818100000005,66.2772089],[29.7069397,66.27419460000002],[29.6946477,66.27110960000002],[29.696644499999998,66.2684902],[29.709493199999997,66.2682003],[29.9239353,66.1262486],[29.9712605,66.04587109999999],[29.980926199999995,66.0439561],[29.973718199999997,66.0408084],[29.9771267,66.0355427],[29.984496499999995,66.02443199999999],[29.992336599999994,66.02263629999999],[29.993137199999996,66.0206545],[29.9892589,66.01991320000002],[29.997268000000002,65.97889249999999],[30.02417,65.96685160000001],[30.02428,65.95887619999999],[30.068195199999998,65.89517579999999],[30.0873505,65.85057479999999],[30.134050300000006,65.6997648],[30.138463,65.66868749999999],[30.0401371,65.68712500000001],[30.017091600000004,65.6965272],[29.722432799999993,65.637045],[29.7544919,65.6092927],[29.8637508,65.5604702],[29.797965900000005,65.5259627],[29.754812400000002,65.49758350000002],[29.7491347,65.4826767],[29.7331208,65.47263699999999],[29.7277585,65.39971440000001],[29.731935900000003,65.3737104],[29.746763599999998,65.347391],[29.646825800000002,65.28902260000001],[29.604970800000004,65.2736519],[29.601847100000004,65.2599435],[29.634791400000005,65.2313019],[29.700812,65.2306927],[29.7445213,65.2257279],[29.764075700000003,65.2289189],[29.859988000000005,65.2149078],[29.885764499999997,65.2063057],[29.893525,65.19295509999999],[29.8193446,65.1444587],[29.850377700000003,65.12858209999997],[29.8643384,65.1317492],[29.852948700000002,65.1273033],[29.896916,65.1051579],[29.871745100000002,65.1037645],[29.830901300000004,65.0919453],[29.732805400000004,65.09129760000002],[29.6255535,65.06020520000001],[29.614483500000002,65.0129112],[29.5993537,64.99509809999999],[29.6190497,64.959577],[29.6109408,64.9274315],[29.6155336,64.91739120000001],[29.647035300000002,64.8674467],[29.6984952,64.8370282],[29.687672799999998,64.81875629999999],[29.739663,64.7897553],[29.869988700000004,64.7899567],[29.8983744,64.79340540000001],[29.995597999999998,64.7947915],[30.0069386,64.791587],[30.0430007,64.7928625],[30.0868958,64.774192],[30.0912013,64.76498300000002],[30.041623199999997,64.74110840000002],[30.054709499999998,64.7123553],[30.1365729,64.6488835],[30.1304535,64.6342427],[30.118087900000003,64.6260646],[30.0516267,64.614975],[29.990298799999998,64.587304],[29.998389799999995,64.5769836],[29.9869086,64.5344326],[30.014468600000004,64.504418],[30.0300869,64.5006575],[30.024542199999996,64.48283799999999],[30.046329699999998,64.4721991],[30.059068500000002,64.45103900000001],[30.0500826,64.44211520000002],[30.056895300000004,64.43409020000001],[30.045382999999998,64.4017754],[30.1096346,64.3652685],[30.139253600000004,64.3576342],[30.207032299999998,64.35105829999999],[30.2868679,64.32934779999998],[30.3027286,64.31961620000001],[30.3675284,64.3000275],[30.360239299999996,64.28160300000002],[30.3882953,64.26904760000001],[30.4819569,64.26231990000001],[30.5092933,64.2220433],[30.4670957,64.2040968],[30.516474100000003,64.1543142],[30.553903700000003,64.1324657],[30.552915400000003,64.10073019999999],[30.528247399999998,64.04911010000001],[30.447022499999996,63.982189],[30.354195900000004,63.9315473],[30.3259009,63.911884399999984],[30.307060800000002,63.88931590000001],[30.261902799999998,63.8215915],[30.1276304,63.79526010000001],[29.9718828,63.757158100000005],[30.0651284,63.70812490000001],[30.062038499999996,63.7038665],[30.0793763,63.692457000000005],[30.111991900000007,63.67830290000001],[30.124351500000003,63.667873],[30.245716099999996,63.606968300000005],[30.2585907,63.58368479999999],[30.385620199999995,63.545779800000005],[30.484197799999997,63.4670887],[30.645172199999998,63.4322034],[30.789710999999997,63.4050884],[30.843855600000005,63.3771282],[30.8461441,63.3704728],[30.849989400000002,63.3685655],[30.9330443,63.3559208],[30.9450558,63.3363488],[30.9798739,63.307817699999994],[30.993616199999995,63.3039273],[31.0185204,63.30402419999999],[31.0869101,63.2815915],[31.1028805,63.27075890000001],[31.1263994,63.26885620000001],[31.1330372,63.262783000000006],[31.1387885,63.2649837],[31.153844900000003,63.257269199999996],[31.165326299999997,63.2442311],[31.2398275,63.2189294],[31.2390375,63.195214500000006],[31.2462031,63.18186099999999],[31.2547294,63.17913630000001],[31.255958400000004,63.142008800000006],[31.265854700000002,63.1154671],[31.273223799999997,63.1075584],[31.294229299999998,63.0938612],[31.3641042,63.0708533],[31.380797899999997,63.0600226],[31.381813100000002,63.0541002],[31.3905253,63.0480913],[31.4104592,63.0419555],[31.425429199999993,63.0431492],[31.46252279999999,63.024219300000006],[31.448790899999995,63.006126],[31.5020252,62.9962486],[31.5640596,62.9272849],[31.5867044,62.9087204],[31.454699199999997,62.796270400000004],[31.467492199999995,62.783278700000004],[31.4390606,62.78537500000001],[31.380135,62.6898547],[31.3857017,62.68215180000001],[31.386229899999996,62.6752074],[31.376366,62.6712409],[31.3787566,62.670575500000005],[31.3772239,62.6600072],[31.3730252,62.6497073],[31.3616981,62.6447056],[31.345958200000002,62.643518400000005],[31.3496046,62.64057030000001],[31.3454013,62.640326200000004],[31.245163199999997,62.5252094],[31.2459901,62.52277030000001],[31.2218346,62.498295500000005],[31.1858334,62.493574100000004],[31.186970900000002,62.487317499999996],[31.1734019,62.48188649999999],[31.1628535,62.45475139999999],[31.1634149,62.4454901],[31.138311,62.4420838],[30.94244249999999,62.332998800000006],[30.962249999999997,62.32725],[30.9551691,62.3122652],[30.943272199999996,62.3059688],[30.9043505,62.31026099999999],[30.834490400000004,62.27533780000001],[30.810958500000005,62.2706919],[30.8086553,62.2610043],[30.765266599999997,62.23507980000001],[30.7446718,62.2267014],[30.720411999999996,62.20890580000001],[30.6564061,62.2085877],[30.6291165,62.18911000000001],[30.6355765,62.1736293],[30.602068000000003,62.141348900000004],[30.443244299999996,62.0366304],[30.4472812,62.03447739999999],[30.444681499999998,62.032287],[30.438667499999998,62.033221399999995],[30.4231749,62.022371400000004],[30.3764994,61.999088],[30.351857400000007,61.9801524],[30.3052344,61.9638965],[30.312729599999997,61.9450092],[30.3007176,61.9349732],[30.2741766,61.9336385],[30.2114279,61.89270590000001],[30.194093300000002,61.89128349999999],[30.1962134,61.882207699999995],[30.1556605,61.857988799999994],[30.0713878,61.81868419999999],[30.0472791,61.7726254],[30.0387281,61.765001100000006],[29.867901600000003,61.6817141],[29.861065900000003,61.6766731],[29.8611632,61.67010580000001],[29.845116499999996,61.67011680000001],[29.8185491,61.654927799999996],[29.8103246,61.6349911],[29.804000000000002,61.63425],[29.7546112,61.603139500000005],[29.748767499999996,61.582699399999996],[29.740299199999995,61.5737044],[29.688347499999995,61.55182069999999],[29.642950100000004,61.52579310000001],[29.645422099999998,61.519899699999996],[29.6073427,61.500243499999996],[29.5914273,61.495399000000006],[29.4964601,61.4915692],[29.502771999999997,61.461092900000004],[29.328123799999997,61.35198609999999],[29.3059283,61.3292931],[29.325229699999998,61.3126366],[29.3350259,61.308868999999994],[29.3671406,61.27788749999999],[29.3880661,61.27319280000001],[29.424469,61.256427099999996],[29.5010112,61.2543417],[29.515299799999998,61.2493715],[29.517735000000002,61.24061890000001],[29.521213,61.23893800000001],[29.551238400000003,61.240634],[29.5506593,61.23385210000001],[29.5650643,61.22291160000001],[29.551443199999998,61.21595560000001],[29.558804900000002,61.2119272],[29.5567186,61.2064785],[29.5611824,61.200102400000006],[29.5705729,61.195697300000006],[29.5621684,61.1918715],[29.5641977,61.18366949999999],[29.5829207,61.1779893],[29.6188296,61.17817830000001],[29.618365600000004,61.1824097],[29.6240461,61.1826996],[29.650014700000003,61.175744300000005],[29.6592308,61.1791644],[29.676248400000002,61.1748238],[29.707641799999998,61.1774808],[29.7205484,61.17291390000001],[29.795129199999995,61.1710697],[29.812495700000003,61.16233120000001],[29.8336177,61.16693690000001],[29.843008100000002,61.1647924],[29.854803300000004,61.17232800000001],[29.9968471,61.1471448],[30.045711299999997,61.1445373],[30.9940171,61.0261897],[31.968352799999995,60.8313693],[32.4184401,60.761363700000004],[32.91469659999999,60.6795685],[32.9230995,60.7170899],[33.026625200000005,60.727046900000005],[33.06730890000001,60.724065],[33.15768409999999,60.745470000000005],[33.1542029,60.760560700000006],[33.1652435,60.78313380000001],[33.1730971,60.7922616],[33.259121900000004,60.79858050000001],[33.244681899999996,60.806702],[33.211091399999994,60.8061797],[33.184775,60.8136422],[33.179557700000004,60.82088769999999],[33.20911910000001,60.8284091],[33.2095246,60.830843599999994],[33.1976996,60.833843099999996],[33.20590010000001,60.854681499999984],[33.2114068,60.85398609999999],[33.21213170000001,60.849696699999996],[33.22018920000001,60.8433787],[33.236361200000005,60.8454657],[33.2401866,60.849697199999994],[33.238505300000014,60.85416039999999],[33.259666499999994,60.8685005],[33.2510154,60.874307599999995],[33.29400390000001,60.888027199999996],[33.30209,60.8873317],[33.330694699999995,60.8994179],[33.3504028,60.8979111],[33.3632997,60.900519700000004],[33.3856154,60.9097945],[33.42621930000001,60.913896099999995],[33.4441297,60.923866399999994],[33.466503700000004,60.927591],[33.4663861,60.95141439999999],[33.4216931,60.9831348],[33.4490509,61.003278],[33.507884999999995,61.00281530000001],[33.523013500000005,61.0072208],[33.5424318,61.004322900000005],[33.5454764,60.9840933],[33.5879652,60.9738053],[33.6078772,60.9585755],[33.6910275,60.956490099999996],[33.7195473,60.93975330000001],[33.7436025,60.94102899999999],[33.7854243,60.9370301],[33.7838585,60.94688409999999],[33.8128408,60.9470585],[33.81208649999999,60.95789779999999],[33.8197948,60.97144719999999],[33.83011210000001,60.9780409],[33.8385449,60.991416300000004],[33.852224299999996,60.99553210000001],[33.861583399999994,61.0032009],[33.8592083,61.006415000000004],[33.865526,61.0124869],[33.8634969,61.0160227],[33.8787772,61.041291599999994],[33.8857013,61.047416399999996],[33.905033100000004,61.055544],[33.908302500000005,61.063114500000005],[33.9195625,61.0732165],[33.92015690000001,61.088958100000006],[33.9122551,61.094571800000004],[33.8886823,61.095886300000004],[33.88105409999999,61.101564399999994],[33.8435429,61.096410600000006],[33.835000900000004,61.10516210000001],[33.73803870000001,61.131022800000004],[33.73819100000001,61.1249775],[33.72818510000001,61.126986900000006],[33.72536840000001,61.113362200000005],[33.6854496,61.11375520000001],[33.660911000000006,61.09621020000001],[33.662360500000005,61.074518100000006],[33.634303100000004,61.067125600000004],[33.5912347,61.063794900000005],[33.547550900000005,61.079684699999994],[33.5449705,61.095462100000006],[33.5236433,61.109605],[33.49011120000001,61.114969499999994],[33.4499037,61.154603699999996],[33.4576329,61.16015890000001],[33.484635399999995,61.1650675],[33.503133000000005,61.18517610000001],[33.5140257,61.187748],[33.551778999999996,61.2136908],[33.57575670000001,61.218895800000006],[33.6012785,61.2149838],[33.60915130000001,61.22017690000001],[33.670011300000006,61.215382700000006],[33.669454800000004,61.233206900000006],[34.1889094,61.235406600000005],[34.1875088,61.243813900000006],[34.237982800000005,61.243951900000006],[34.244505200000006,61.237268],[34.254120300000004,61.23832650000001],[34.257442399999995,61.23503860000001],[34.307240199999995,61.22266590000001],[34.3366883,61.22017700000001],[34.35977739999999,61.1947816],[34.374752300000004,61.193977200000006],[34.38160639999999,61.187222399999996],[34.4084071,61.15948899999999],[34.409106900000005,61.1479262],[34.425071700000004,61.143260999999995],[34.4443457,61.1437416],[34.4512351,61.156862399999994],[34.4689564,61.1612831],[34.4730267,61.184472],[34.4912305,61.19959190000001],[34.4829712,61.20751290000001],[34.464717,61.208063800000005],[34.4782647,61.218892700000005],[34.4730912,61.223122900000014],[34.474435,61.2336631],[34.5137392,61.2445825],[34.533266499999996,61.26032920000001],[34.5410156,61.2614212],[34.5457242,61.275634800000006],[34.6562952,61.2746567],[34.728915100000016,61.29580190000001],[34.74890130000001,61.29715500000001],[34.7362605,61.3049104],[34.736453700000006,61.3125821],[34.76895970000001,61.3122791],[34.7804489,61.29902390000001],[34.78930890000001,61.29640220000001],[34.793510200000014,61.28933730000001],[34.873807799999994,61.287756800000004],[34.90426419999999,61.28233520000001],[34.9415493,61.26643210000001],[35.0777318,61.263051000000004],[35.07890020000001,61.258060900000004],[35.0897699,61.25184159999999],[35.08104039999999,61.2461867],[35.08746699999999,61.24193290000001],[35.1016072,61.24812030000001],[35.09953680000001,61.254133100000004],[35.1058803,61.256126300000005],[35.141705900000005,61.250672900000005],[35.1517118,61.243306200000006],[35.16997880000001,61.2382441],[35.17853620000001,61.24095290000001],[35.2006201,61.259487899999996],[35.2167266,61.255970100000006],[35.22651680000001,61.24801610000001],[35.29826010000001,61.252068900000005],[35.3336767,61.270650100000005],[35.3311599,61.277742100000005],[35.3535146,61.2856797],[35.369809499999995,61.2777617],[35.393571,61.282442700000004],[35.395124,61.2775964],[35.381966199999994,61.26912060000001],[35.3775132,61.261285900000004],[35.378587599999996,61.2539377],[35.3672657,61.2413994],[35.3707317,61.23201420000001],[35.35977,61.225755200000016],[35.3521438,61.1764619],[35.4032862,61.175547200000004],[35.4052833,61.1712346],[35.390632700000005,61.1649775],[35.39841810000001,61.165711400000006],[35.3966247,61.140264099999996],[35.4019136,61.13873430000001],[35.4209748,61.14253300000001],[35.452496,61.16032020000001],[35.46433880000001,61.15686699999999],[35.50014230000001,61.1664164],[35.499659,61.16915030000001],[35.525499,61.1809573],[35.5662979,61.17635680000001],[35.58788599999999,61.184705],[35.602303000000006,61.178746000000004],[35.829805300000004,61.243137700000005],[36.4994406,61.416318100000005],[36.5168382,61.427001],[36.4954895,61.4409797],[36.5765043,61.5153892],[36.584329,61.5394596],[36.695912600000014,61.5600663],[36.721623300000005,61.5503633],[36.87393290000001,61.539283999999995],[36.8837833,61.56252030000001],[37.02997210000001,61.6142319],[37.032279300000006,61.5993635],[37.057142,61.599670700000004],[37.170794900000004,61.557221199999994],[37.29236040000001,61.5505562],[37.291399000000006,61.52853490000001],[37.304610499999995,61.51011890000001],[37.4671476,61.5110152],[37.52285030000001,61.5299691],[37.569782000000004,61.5242265],[37.7056442,61.539714200000006],[37.7586226,61.5313917],[37.8167399,61.5298114],[37.78593920000001,61.5373885],[37.7715869,61.548003900000005],[37.77591360000001,61.553926],[37.7636856,61.564233],[37.775057100000005,61.5740184],[37.7598428,61.615428800000004],[37.784646099999996,61.6311545],[37.77558810000001,61.643666499999995],[37.7856643,61.656103900000005],[37.780762,61.6594919],[37.8004058,61.6814196],[37.8066457,61.6834967],[37.8277683,61.680921],[37.8410313,61.684955300000006],[37.845719700000004,61.69412560000001],[37.85698939999999,61.7016659],[37.8693225,61.703208100000005],[37.880047899999994,61.7135594],[37.8783414,61.7196425],[37.88450939999999,61.722297700000006],[37.88356759999999,61.732246800000006],[37.876698499999996,61.74527390000001],[37.8600238,61.750559700000004],[37.85945039999999,61.75557880000001],[37.8767116,61.7715314],[37.8689687,61.7815784],[37.87456459999999,61.7842586],[37.8787888,61.79618080000001],[37.895455500000004,61.8043432],[37.9006429,61.81498549999999],[37.9030036,61.832345800000006],[37.895127900000006,61.8404938],[37.903020399999996,61.8481861],[37.9008201,61.85169109999999],[37.9119508,61.85965339999999],[37.913229799999996,61.8729917],[37.92835710000001,61.8857942],[37.9218136,61.8909511],[37.934746499999996,61.909281699999994],[37.924367,61.92572870000001],[37.9363808,61.946395300000006],[37.9349482,61.95392139999999],[37.9466381,61.9583007],[37.941440699999994,61.9618147],[37.943999,61.97252590000001],[37.8885062,61.982170100000005],[37.8367832,61.982540300000004],[37.81184979999999,62.0073893],[37.8210354,62.0159236],[37.8149318,62.0219996],[37.823978800000006,62.037639999999996],[37.8022485,62.036105600000006],[37.79247410000001,62.0522587],[37.798370700000014,62.058314900000006],[37.7768856,62.0811969],[37.7844428,62.093181300000005],[37.772493700000005,62.1187495],[37.76041260000001,62.1166203],[37.7550972,62.12021820000001],[37.761672700000005,62.129039500000005],[37.7736796,62.133129800000006],[37.7730862,62.1380868],[37.7372134,62.166380700000005],[37.758347300000004,62.173495200000005],[37.716298200000004,62.1899018],[37.7195876,62.19893900000001],[37.701812200000006,62.2126839],[37.6366421,62.20991380000001],[37.5882054,62.219968200000004],[37.55503530000001,62.2135605],[37.535149700000005,62.2169672],[37.4908596,62.206825300000006],[37.473522900000006,62.19802590000001],[37.4523745,62.19855750000001],[37.4482178,62.206692600000004],[37.4515423,62.2141748],[37.4599022,62.217546],[37.47211270000001,62.22659730000001],[37.47285230000001,62.23273340000001],[37.480964199999995,62.235977600000005],[37.4747238,62.239892600000005],[37.4558043,62.24121530000001],[37.470421599999995,62.25351080000001],[37.464738200000006,62.25801270000001],[37.4790657,62.26714810000001],[37.4760956,62.26867810000001],[37.4780365,62.27059920000001],[37.4930271,62.27851360000001],[37.5171951,62.2845651],[37.5330145,62.2974475],[37.539604399999995,62.31219290000001],[37.5470552,62.3174181],[37.5430638,62.3209611],[37.54811480000001,62.322760200000005],[37.5455696,62.3250012],[37.56051980000001,62.3264125],[37.5655834,62.33213270000001],[37.562219000000006,62.3363567],[37.5665847,62.3415188],[37.5614266,62.341893799999994],[37.5611014,62.3445558],[37.5720395,62.346016999999996],[37.584097299999996,62.3517163],[37.586827899999996,62.3567384],[37.597557,62.3585626],[37.584821899999994,62.3699226],[37.59415520000001,62.380525999999996],[37.5849124,62.4016032],[37.588896999999996,62.40813830000001],[37.60245080000001,62.4142337],[37.5992376,62.415840599999996],[37.61113290000001,62.427893],[37.60039390000001,62.438478],[37.6066055,62.4449432],[37.6045673,62.4468222],[37.6101492,62.44908439999999],[37.606448900000004,62.451866399999986],[37.612149200000005,62.463013600000004],[37.629829,62.4699891],[37.6293616,62.4743961],[37.6353815,62.4773963],[37.61051890000001,62.4924091],[37.59063530000001,62.4940628],[37.5770107,62.499194700000004],[37.577849699999994,62.511488899999996],[37.5732365,62.5137088],[37.5707749,62.5208219],[37.573413900000006,62.521094],[37.570325200000006,62.528814100000005],[37.57332290000001,62.5340832],[37.5665795,62.537752100000006],[37.572504300000006,62.541489299999995],[37.566255000000005,62.54311020000001],[37.5719428,62.547672399999996],[37.56593720000001,62.55386039999999],[37.56393230000001,62.5513893],[37.5599161,62.553461299999995],[37.5645408,62.5580435],[37.557914499999995,62.5605484],[37.564136500000004,62.5622975],[37.547012200000005,62.574437399999994],[37.55147169999999,62.5824486],[37.54214820000001,62.5855995],[37.543345,62.588308600000005],[37.5401838,62.590419600000004],[37.5535886,62.5962879],[37.544139900000005,62.6032979],[37.54728789999999,62.604188900000004],[37.545235600000005,62.606709900000006],[37.5485564,62.61088109999999],[37.54541510000001,62.61391210000001],[37.5475164,62.62263430000001],[37.5344578,62.6270631],[37.534520300000004,62.6338962],[37.5217467,62.6378061],[37.524732500000006,62.6420042],[37.518320300000006,62.6424271],[37.5198538,62.6490602],[37.513465499999995,62.65162719999999],[37.477834699999995,62.65233260000001],[37.3689406,62.677886199999996],[37.32391870000001,62.6777994],[37.27506330000001,62.6719985],[37.2515771,62.677458900000005],[37.180938000000005,62.652792600000005],[37.0706412,62.6486827],[36.989723399999995,62.6772068],[36.8217117,62.69601030000001],[36.5284674,62.79311400000001],[36.487950999999995,62.838889099999996],[36.25813860000001,63.0115301],[36.24695810000001,63.05140349999999],[36.273841499999996,63.077363399999996],[36.274818100000005,63.0821015],[36.313263299999996,63.113117700000004],[36.307067999999994,63.1507602],[36.32408749999999,63.1616867],[36.3556009,63.16290520000001],[36.40503220000001,63.195384600000004],[36.3911144,63.22594590000001],[36.381607399999986,63.22327270000001],[36.3194392,63.224075600000006],[36.2457648,63.211511200000004],[36.261894399999996,63.2804006],[36.19207180000001,63.425608800000006],[36.12917570000001,63.448328100000005],[36.086364499999995,63.453163499999995],[36.0298884,63.4654277],[35.89277330000001,63.5762262],[35.9353496,63.6053994],[36.455215700000004,63.6264846],[36.4930818,63.66895000000001],[36.5153841,63.6835949],[36.590394800000006,63.74820090000001],[36.58188689999999,63.791050500000004],[36.5586272,63.79479520000001],[36.548059,63.8406428],[36.562557600000005,63.8673457],[36.548577200000004,63.929546200000004],[36.552942,63.9321944],[36.5525292,63.953420699999995],[36.8475102,64.23176440000002],[35.9916052,64.6284296],[35.7640975,64.71740940000002],[35.594345000000004,64.91154490000002],[35.56075030000001,64.9567542],[35.4674113,65.00008629999999],[35.4073947,65.1584209],[35.3327691,65.33597889999999],[35.04824,66.09830269999999]]]}}