{"type":"Feature","properties":{"regionId":"respublika_krym","name":"Республика Крым","name:en":"Republic of Crimea","timezone":"Europe/Simferopol","name_ru":"Республика Крым","name_en":"Republic of Crimea","name_zh":"克里米亚共和国"},"geometry":{"type":"Polygon","coordinates":[[[36.609722500000004,44.94066719999999],[36.5867072,44.9193218],[36.5582548,44.899605900000005],[36.526276800000005,44.8828121],[36.491368800000004,44.869256],[36.43494739999999,44.855532200000006],[36.3630225,44.850329599999995],[36.3134527,44.832833300000004],[36.2558416,44.82186399999999],[36.1764365,44.8205545],[36.10281990000001,44.8336163],[36.05160299999999,44.815421799999996],[36.013533,44.807172800000004],[35.9742343,44.8026778],[35.9241291,44.8026019],[35.8596751,44.79300030000001],[35.819879799999995,44.79234370000001],[35.7803291,44.795538700000016],[35.72306890000001,44.80740169999999],[35.670408,44.8272773],[35.632249300000005,44.8491155],[35.5952241,44.8120281],[35.55118759999999,44.783475700000004],[35.4998857,44.7618689],[35.4626979,44.751786499999994],[35.41162759999999,44.744289499999994],[35.3975542,44.737326800000005],[35.380577499999994,44.712730500000006],[35.358384199999996,44.6892424],[35.3171962,44.658558500000005],[35.2306662,44.6164595],[35.1774068,44.59733370000001],[35.119795700000005,44.5863196],[35.060242800000005,44.5838827],[35.001239399999996,44.590126000000005],[34.929191100000004,44.610869799999996],[34.87228339999999,44.60299380000001],[34.80853820000001,44.6038903],[34.73575500000001,44.584801299999995],[34.7006849,44.5628297],[34.666135900000015,44.547163],[34.64501220000001,44.520611300000006],[34.62208580000001,44.4994412],[34.607569,44.46575580000001],[34.590082,44.4402299],[34.5678887,44.416631499999994],[34.541402399999996,44.39540290000001],[34.494722700000004,44.3688605],[34.4579166,44.354611799999994],[34.41701439999999,44.32818290000001],[34.3551268,44.3032135],[34.3328536,44.282804],[34.304401199999994,44.26287090000001],[34.272423200000006,44.24589220000001],[34.23751520000001,44.23218680000001],[34.16155270000001,44.2155606],[34.09273350000001,44.21363530000001],[34.0298524,44.19366230000001],[33.9713201,44.1854172],[33.911672499999995,44.185883499999996],[33.8567133,44.194349100000004],[33.79538980000001,44.1854172],[33.7160438,44.1879821],[33.696591000000005,44.191039700000005],[33.762308300000015,44.3900862],[33.7873171,44.3978598],[33.790873100000006,44.404454599999994],[33.811630099999995,44.4038328],[33.85732469999999,44.419680699999994],[33.89805690000001,44.4214726],[33.9094099,44.41888459999999],[33.9262025,44.421325100000004],[33.8934902,44.4732254],[33.8971535,44.4787873],[33.8869091,44.482210300000006],[33.873629199999996,44.492693800000005],[33.86724939999999,44.50035220000001],[33.8707581,44.505411300000006],[33.868911000000004,44.5073968],[33.8603572,44.506756800000005],[33.8456566,44.519124],[33.857270199999995,44.52587570000001],[33.84949759999999,44.5306195],[33.8401482,44.5304315],[33.839464899999996,44.5384748],[33.8337314,44.5416787],[33.8372152,44.548782],[33.831082099999996,44.55484109999999],[33.8272108,44.571263599999995],[33.8173303,44.577273999999996],[33.811445799999994,44.5738111],[33.809384699999995,44.5769972],[33.8056839,44.57531860000001],[33.8004378,44.5814222],[33.795198700000014,44.5802969],[33.7876721,44.585415700000006],[33.781845,44.5971035],[33.782830600000004,44.6059825],[33.779579600000005,44.6131096],[33.749619700000004,44.607910000000004],[33.735653000000006,44.6009246],[33.72869260000001,44.604681199999995],[33.716270300000005,44.62043830000001],[33.721875700000005,44.631584],[33.71686749999999,44.63321560000001],[33.71768169999999,44.6375914],[33.72547620000001,44.6401041],[33.73003230000001,44.6470751],[33.75186659999999,44.66374390000001],[33.754625,44.67533990000001],[33.776971100000004,44.690265000000004],[33.76151320000001,44.70099020000001],[33.7518027,44.69878630000001],[33.7462868,44.701030700000004],[33.72659210000001,44.716636],[33.715643,44.715848],[33.7145084,44.705868],[33.70509330000001,44.70491580000001],[33.707243399999996,44.7105734],[33.7006932,44.7148119],[33.670801399999995,44.70974390000001],[33.6589663,44.7142533],[33.616120300000006,44.711976],[33.6136625,44.74975510000001],[33.635548500000006,44.7529449],[33.6823606,44.7699841],[33.6772085,44.786154200000006],[33.6642612,44.79470920000001],[33.620752300000014,44.8065488],[33.6028486,44.8103113],[33.586652300000004,44.80784799999999],[33.573666599999996,44.823818300000006],[33.56715260000001,44.838601],[33.56217870000001,44.841097899999994],[33.5542562,44.8402319],[33.29518710000001,44.9405202],[33.2511697,44.9416162],[33.19290200000001,44.9506562],[33.134211900000004,44.9689946],[33.087964299999996,44.989073],[33.0279839,45.007440599999995],[32.9796287,45.03213050000001],[32.9451894,45.0580954],[32.8902144,45.0890467],[32.853075999999994,45.1219934],[32.8314558,45.150786399999994],[32.729727000000004,45.1208441],[32.6711947,45.1127297],[32.6313994,45.112076800000004],[32.553279499999995,45.122201600000004],[32.48780479999999,45.1442331],[32.41689949999999,45.1539484],[32.3624492,45.1711247],[32.329404,45.1867687],[32.299688700000004,45.20543310000001],[32.2738567,45.2267674],[32.2434204,45.262888100000005],[32.224058500000005,45.3025866],[32.2172905,45.3355145],[32.209056700000005,45.3553206],[32.20272130000001,45.382929399999995],[32.2017961,45.4108733],[32.2105624,45.4522796],[32.23115000000001,45.4915401],[32.264304900000006,45.528372200000014],[32.27751920000001,45.550783599999995],[32.297405700000006,45.5749258],[32.335553000000004,45.6070167],[32.3822327,45.632991800000006],[32.435492100000005,45.6517736],[32.477932900000006,45.660501000000004],[32.5336146,45.69303890000001],[32.58906149999999,45.7123247],[32.63392520000001,45.74599690000001],[32.66590330000001,45.762536800000014],[32.702639500000004,45.77641830000001],[32.7396744,45.807320399999995],[32.77270180000001,45.8266419],[33.54071890000001,46.0120312],[33.591187399999995,46.0612472],[33.572132900000014,46.102564300000004],[33.6147942,46.1346903],[33.641274599999996,46.142442900000006],[33.63557060000001,46.146336500000004],[33.6152408,46.22621790000001],[33.64591250000001,46.2300624],[33.665450500000006,46.22132280000001],[33.6855494,46.2064204],[33.7399776,46.185247399999994],[33.77260270000001,46.1976249],[33.796893600000004,46.20301560000001],[33.8486859,46.1996667],[33.86133,46.194511600000006],[33.9185407,46.158295300000006],[33.98470139999999,46.1347466],[33.998233600000006,46.1264504],[34.052638900000005,46.109129300000006],[34.06950520000001,46.116699399999995],[34.0809285,46.117556],[34.1218931,46.105719400000005],[34.145009300000005,46.086686199999995],[34.1843736,46.0668628],[34.247787499999994,46.0532232],[34.3295267,46.060616100000004],[34.3396228,46.057879799999995],[34.34716949999999,46.0549489],[34.40498749999999,46.00928639999999],[34.4131796,45.98973590000001],[34.4369402,45.9666649],[34.457209999999996,45.952405399999996],[34.4762212,45.9441393],[34.498434,45.9428504],[34.510902200000004,45.9480281],[34.526999800000006,45.9590021],[34.554217599999994,45.9904652],[34.5611691,45.9943843],[34.601139200000006,45.9941699],[34.628541000000006,45.98640339999999],[34.66991080000001,45.967643699999996],[34.7540112,45.908836300000004],[34.802168900000005,45.900647899999996],[34.7990874,45.81046429999999],[34.876163,45.790430400000005],[34.959774599999996,45.756568200000004],[34.9750832,45.76201720000001],[35.2334204,45.79172990000001],[35.26635570000001,45.77243680000001],[35.299254000000005,45.744576200000004],[35.3237297,45.71275610000001],[35.337301399999994,45.682771300000006],[35.38698339999999,45.65572230000001],[35.41988169999999,45.6278035],[35.444357399999994,45.59591690000001],[35.459694999999996,45.56033810000001],[35.4968497,45.5460096],[35.5242787,45.531325200000005],[35.548736500000004,45.5142538],[35.574750900000005,45.489533300000005],[35.587111,45.5212652],[35.6002625,45.5436256],[35.61746779999999,45.5645842],[35.6502154,45.5926212],[35.7047977,45.62203560000001],[35.735732100000014,45.632754600000005],[35.78521500000001,45.643321],[35.836695399999996,45.646934200000004],[35.8881949,45.6434567],[35.9377344,45.633020900000005],[35.981773399999994,45.61673290000001],[36.028427,45.6242237],[36.072379500000004,45.625643100000005],[36.13535420000001,45.6476547],[36.3387005,45.671500200000004],[36.583205,45.63515800000001],[36.668449900000006,45.6266206],[36.6815681,45.456611499999994],[36.66350190000001,45.3599397],[36.6030245,45.309387599999994],[36.594174200000005,45.252542000000005],[36.530485999999996,45.199202400000004],[36.5428648,45.1340402],[36.5679872,45.0506562],[36.609722500000004,44.94066719999999]]]}}