{"type":"Feature","properties":{"regionId":"respublika_mordoviya","name":"Мордовия","name:en":"Republic of Mordovia","timezone":"Europe/Moscow","name_ru":"Республика Мордовия","name_en":"Republic of Mordovia","name_zh":"莫尔多瓦共和国"},"geometry":{"type":"Polygon","coordinates":[[[45.813633499999995,53.97571590000001],[45.7813641,53.96551800000001],[45.7392473,53.94186319999999],[45.728281,53.942731],[45.7208649,53.9470702],[45.7139773,53.945306],[45.7113606,53.9315682],[45.72255440000001,53.9261894],[45.72531650000001,53.9173943],[45.737455100000005,53.9064913],[45.71951570000001,53.8976293],[45.704491399999995,53.895757100000004],[45.661675200000005,53.918153700000005],[45.6337917,53.913755],[45.618428300000005,53.921687899999995],[45.62796,53.9257806],[45.6249595,53.92951930000001],[45.5994711,53.92234680000001],[45.575282900000005,53.924009399999996],[45.564036300000005,53.9294652],[45.5408727,53.9293697],[45.517101,53.917896899999995],[45.5226832,53.9071316],[45.52894560000001,53.907384099999994],[45.541814499999994,53.8950035],[45.5298079,53.891210300000004],[45.4854371,53.8900957],[45.4714563,53.9002619],[45.4154348,53.89788049999999],[45.3661795,53.8849388],[45.3621496,53.88164859999999],[45.3646393,53.878056900000004],[45.3624038,53.8752772],[45.3669496,53.8735082],[45.3412138,53.869260399999995],[45.298482500000006,53.8715337],[45.29564920000001,53.9020268],[45.29299010000001,53.9076423],[45.287500200000004,53.9085012],[45.28260590000001,53.9180996],[45.2706862,53.91668759999999],[45.210633800000004,53.9588161],[45.1898928,53.95842439999999],[45.17803000000001,53.971712600000004],[45.144555700000005,53.964110700000006],[45.133234800000004,53.9674626],[45.1270847,53.958212700000004],[45.119156600000004,53.953762],[45.1216436,53.947449999999996],[45.1159816,53.9461886],[45.1076608,53.956337],[45.09582090000001,53.952296999999994],[45.0712822,53.9605298],[45.067398100000005,53.956755900000005],[45.05145749999999,53.959671199999995],[45.0072682,53.959112700000006],[45.007186,53.971125300000004],[44.99019020000001,53.9707734],[44.988734900000004,53.968400100000004],[44.9927695,53.961536200000005],[44.98428129999999,53.9573956],[44.9602457,53.96431290000001],[44.9481515,53.9561317],[44.94172449999999,53.955679999999994],[44.93845520000001,53.9473459],[44.929276800000004,53.9456799],[44.9231837,53.948866699999996],[44.9249054,53.95426789999999],[44.9334858,53.9552269],[44.932706,53.9604777],[44.903621099999995,53.9599689],[44.9012138,53.9656706],[44.88680469999999,53.96451530000001],[44.8715259,53.96850270000001],[44.856685799999994,53.9596199],[44.832570200000006,53.9640607],[44.821597399999995,53.952094599999995],[44.8150707,53.9376988],[44.817475599999995,53.933813900000004],[44.8031486,53.926690300000004],[44.79215900000001,53.92891480000001],[44.77852230000001,53.9228017],[44.75552810000001,53.9232565],[44.75081290000001,53.9202746],[44.725840100000006,53.923658700000004],[44.7213745,53.9162283],[44.744032000000004,53.9058192],[44.73853730000001,53.897829099999996],[44.7248956,53.89702139999999],[44.727985700000005,53.889794599999995],[44.72309620000001,53.886406199999996],[44.69555180000001,53.900308900000006],[44.6936675,53.9074384],[44.685678300000006,53.914914599999996],[44.6696415,53.9070332],[44.6602843,53.911125999999996],[44.655740900000005,53.9080946],[44.6602018,53.9041999],[44.63943570000001,53.9041513],[44.6414988,53.8960624],[44.654191,53.89146149999999],[44.65127759999999,53.886406199999996],[44.630773100000006,53.8917141],[44.62691050000001,53.8832188],[44.61883890000001,53.884332300000004],[44.6142133,53.879224699999995],[44.607604499999994,53.881194699999995],[44.603136500000005,53.8768963],[44.6069495,53.8724221],[44.602314500000006,53.8718167],[44.6108969,53.866199200000004],[44.6132688,53.857618499999994],[44.60503020000001,53.85645999999999],[44.60233310000001,53.850070699999996],[44.5915893,53.844978499999996],[44.600399900000006,53.8394492],[44.6038241,53.79897500000001],[44.654191,53.79958430000001],[44.654283199999995,53.7884881],[44.66920580000001,53.782048],[44.6698961,53.77931060000001],[44.650518600000005,53.77877410000001],[44.63641530000001,53.785837300000004],[44.6188442,53.769442500000004],[44.6362607,53.77053780000001],[44.63857570000001,53.755324800000004],[44.6638693,53.7568838],[44.663724,53.7510539],[44.6897177,53.7507084],[44.70052820000001,53.72309820000001],[44.72212860000001,53.711336700000004],[44.726330300000015,53.71275290000001],[44.72712130000001,53.7082679],[44.731851,53.70572930000001],[44.7315917,53.7007045],[44.71811730000001,53.6932848],[44.711984699999995,53.6843984],[44.715654900000004,53.6763847],[44.70530310000001,53.6749365],[44.7058085,53.6775049],[44.686929,53.6832051],[44.6562361,53.684190900000004],[44.6534539,53.6869691],[44.634715500000006,53.6886658],[44.62545780000001,53.6888504],[44.62013430000001,53.683381],[44.587956999999996,53.685923700000004],[44.5857241,53.6817516],[44.587697999999996,53.6636595],[44.5737947,53.66045230000001],[44.561539200000006,53.6638907],[44.53253110000001,53.66091310000001],[44.537161399999995,53.6555715],[44.505153400000005,53.649065300000004],[44.5042163,53.6445348],[44.49897590000001,53.6431667],[44.498549600000004,53.6503873],[44.4913424,53.652880399999994],[44.4943456,53.660402100000006],[44.513648999999994,53.660353400000005],[44.515959200000005,53.6643698],[44.5267795,53.6639624],[44.5276345,53.668027300000006],[44.542258000000004,53.670388900000006],[44.5404059,53.6771377],[44.51253510000001,53.6763696],[44.503312400000006,53.662817700000005],[44.490502400000004,53.66213400000001],[44.486558,53.6656274],[44.48140479999999,53.66221780000001],[44.459767899999996,53.6634654],[44.453338300000006,53.6711334],[44.4298235,53.683381],[44.414120999999994,53.6978572],[44.3719106,53.694049],[44.36427,53.700397800000005],[44.381858799999996,53.7044606],[44.3742209,53.7169535],[44.3948998,53.71867890000001],[44.3947304,53.72202930000001],[44.37156649999999,53.721573600000006],[44.3522581,53.7110631],[44.355774499999995,53.70552570000001],[44.3178529,53.7068516],[44.311931599999994,53.69221790000001],[44.238229100000005,53.69003520000001],[44.22252660000001,53.69293190000001],[44.21488839999999,53.69856690000001],[44.20253300000001,53.6938454],[44.19730200000001,53.69674020000001],[44.1940374,53.7043145],[44.1828006,53.707511100000005],[44.179708100000006,53.704819],[44.14873690000001,53.7043631],[44.1426439,53.6968435],[44.1441888,53.6917619],[44.1332065,53.6908972],[44.1124424,53.69420230000001],[44.123422600000005,53.7075613],[44.12196230000001,53.7112651],[44.11535810000001,53.712182500000004],[44.1174192,53.720050400000005],[44.114241799999995,53.72264260000001],[44.119220999999996,53.72909020000001],[44.1143314,53.73263890000001],[44.1036057,53.734776200000006],[44.101716700000004,53.72710590000001],[44.08815990000001,53.72538220000001],[44.083183399999996,53.733858000000005],[44.0706556,53.73030520000001],[44.07297330000001,53.734059900000005],[44.070311800000006,53.7358892],[44.074944499999994,53.73593800000001],[44.075034,53.7390892],[44.0618213,53.737663999999995],[44.0639645,53.734369300000004],[44.05255090000001,53.731830800000004],[44.047319900000005,53.73705520000001],[44.036507,53.73619430000001],[44.03933790000001,53.744667899999996],[43.995839200000006,53.750300200000005],[43.982364499999996,53.74015060000001],[43.977557399999995,53.7494397],[43.9729295,53.7492836],[43.9584258,53.764349900000006],[43.927452200000005,53.770688],[43.916213,53.7868656],[43.91278139999999,53.7865065],[43.9130357,53.791429300000004],[43.8958779,53.7864578],[43.8960472,53.7893994],[43.9045451,53.79355660000001],[43.904629699999994,53.79670070000001],[43.897936300000005,53.793502300000014],[43.892099800000004,53.7977636],[43.8984495,53.800096399999994],[43.8986262,53.805618300000006],[43.8832629,53.80105459999999],[43.8722779,53.803945],[43.8628455,53.801307699999995],[43.859670599999994,53.805975800000006],[43.8904701,53.816303999999995],[43.9064339,53.81661],[43.9068512,53.8329667],[43.902128700000006,53.8343356],[43.918257399999995,53.8397016],[43.905306,53.846078399999996],[43.918945,53.8528587],[43.923752400000005,53.85043449999999],[43.9309617,53.8520543],[43.9340382,53.8565756],[43.92861690000001,53.86579270000001],[43.929635100000006,53.8695104],[43.924781499999995,53.873656399999994],[43.886343999999994,53.8906548],[43.883341099999996,53.8954042],[43.8657636,53.8956571],[43.863102100000006,53.901672999999995],[43.855209699999996,53.904660699999994],[43.8495453,53.911983199999995],[43.8517758,53.915522300000006],[43.843198,53.921231399999996],[43.84686669999999,53.924143],[43.76674920000001,53.953105],[43.74905820000001,53.9675085],[43.7464042,53.959462099999996],[43.69230980000001,53.950377499999995],[43.687546499999996,53.954416499999994],[43.67613320000001,53.9561337],[43.662232300000014,53.95421139999999],[43.66231950000001,53.958102800000006],[43.6498768,53.962088],[43.63975670000001,53.9592538],[43.628941000000005,53.966125600000005],[43.616326300000004,53.964309300000004],[43.6137544,53.966481699999996],[43.61624139999999,53.9760668],[43.59633500000001,53.9830366],[43.5796058,53.98146719999999],[43.567593900000006,53.99645030000001],[43.5468386,54.011075999999996],[43.5363672,54.014555200000004],[43.515012600000006,53.996559000000005],[43.5169838,53.9946912],[43.5127717,53.9904941],[43.50507,54.0012549],[43.494832300000006,54.002190500000005],[43.470140900000004,53.9912124],[43.4589218,53.9789497],[43.4026936,53.9853641],[43.3980345,53.9974767],[43.348336700000004,53.9974149],[43.3469453,54.0036622],[43.339820499999995,54.0070938],[43.3371764,54.0122269],[43.324867899999994,54.0148539],[43.313526499999995,54.024637],[43.29043180000001,54.0103637],[43.29077170000001,54.0052481],[43.28571690000001,53.99813360000001],[43.2616437,53.999013500000004],[43.23839270000001,53.99573080000001],[43.239676300000006,53.989476599999996],[43.215137000000006,53.9919267],[43.20875110000001,53.9892762],[43.2005672,53.99550630000001],[43.1899716,53.9936254],[43.1836376,53.9819252],[43.182777800000004,53.968601],[43.159801699999996,53.9682678],[43.1638942,53.971515000000004],[43.161708100000006,53.971629799999995],[43.1628048,53.976119100000005],[43.14253860000001,53.9720853],[43.1267514,53.97728409999999],[43.12992620000001,53.9400282],[43.1095911,53.928405700000006],[43.100063999999996,53.92820330000001],[43.1018705,53.913352700000004],[43.1091576,53.9006115],[43.1076198,53.8941945],[43.1288945,53.893482399999996],[43.131812700000005,53.896768800000004],[43.146485999999996,53.8887812],[43.16930830000001,53.886253399999994],[43.164757800000004,53.8777572],[43.1666468,53.867891099999994],[43.17616890000001,53.850634799999995],[43.180034,53.8345376],[43.1567807,53.820004],[43.1388454,53.8249701],[43.123521000000004,53.84426479999999],[43.1068484,53.85396119999999],[43.1077749,53.8679177],[43.097416700000004,53.8741225],[43.0889991,53.86510930000001],[43.07613020000001,53.86713280000001],[43.046950800000005,53.8563558],[43.045410600000004,53.839805],[43.07835810000001,53.838490300000004],[43.0793873,53.83463759999999],[43.0726937,53.8127005],[43.056136300000006,53.812103300000004],[43.056737,53.809467899999994],[43.023358400000006,53.8141779],[43.024215700000006,53.81686159999999],[43.047982499999996,53.8145325],[43.06205510000001,53.819144699999995],[43.025075400000006,53.8226886],[43.0270491,53.825167300000004],[43.02353030000001,53.8298299],[43.0016501,53.8240539],[42.96853310000001,53.8221812],[42.972734800000005,53.81098649999999],[42.9615828,53.81048169999999],[42.9609797,53.804246799999994],[42.9319772,53.79553350000001],[42.896283399999994,53.7944678],[42.8375979,53.8142323],[42.8288458,53.8105304],[42.79023390000001,53.8074373],[42.7910936,53.81149549999999],[42.786373700000006,53.816458499999996],[42.774875300000005,53.8141779],[42.771361399999996,53.821423499999995],[42.759603999999996,53.8254748],[42.746563,53.8152959],[42.755056,53.81037739999999],[42.755741300000004,53.8060229],[42.7534056,53.79579960000001],[42.74579290000001,53.784582],[42.7532542,53.76455310000001],[42.7426979,53.7586177],[42.727085,53.7394945],[42.700578500000006,53.750998800000005],[42.703200900000006,53.75166769999999],[42.7040061,53.76379590000001],[42.70904590000001,53.772381100000004],[42.70816930000001,53.780058100000005],[42.719381,53.79673690000001],[42.727957700000005,53.80130439999999],[42.73830170000001,53.81434709999999],[42.73873010000001,53.8242253],[42.723653500000005,53.8120003],[42.698857600000004,53.8151902],[42.688129200000006,53.80784349999999],[42.66565090000001,53.801307699999995],[42.648575400000006,53.817569299999995],[42.6499484,53.8258305],[42.653464799999995,53.827801699999995],[42.643847599999994,53.82800280000001],[42.64523090000001,53.82212830000001],[42.629099800000006,53.8090603],[42.6011266,53.770892800000006],[42.5888606,53.77115030000001],[42.570068,53.7493895],[42.54784409999999,53.7492947],[42.5426932,53.7639044],[42.534972700000004,53.76501960000001],[42.5485295,53.7794249],[42.558398100000005,53.77972830000001],[42.560197300000006,53.783122500000005],[42.5567681,53.783171100000004],[42.556252,53.8005011],[42.564578000000004,53.800446799999996],[42.569380200000005,53.80551390000001],[42.5688669,53.8098725],[42.588942900000006,53.809467899999994],[42.59005690000001,53.836764099999996],[42.570068,53.8353994],[42.5559954,53.8307417],[42.5264794,53.810173],[42.511379999999996,53.81058039999999],[42.4949947,53.77809570000001],[42.495161800000005,53.7724671],[42.506401,53.77221520000001],[42.505802800000005,53.760496100000005],[42.52256990000001,53.757085],[42.52214360000001,53.746636200000005],[42.5476251,53.7397844],[42.5584356,53.7417595],[42.56212630000001,53.73343880000001],[42.49859580000001,53.734776200000006],[42.480575800000004,53.744667899999996],[42.474225999999994,53.7543097],[42.4858987,53.7607495],[42.4855548,53.76334070000001],[42.47182599999999,53.7704377],[42.46255820000001,53.76916800000001],[42.4557797,53.77317560000001],[42.432960200000004,53.7658774],[42.4084296,53.764644499999996],[42.4082936,53.7676194],[42.4166367,53.76879860000001],[42.4184504,53.7797047],[42.4105154,53.7832948],[42.41482299999999,53.7906616],[42.4107421,53.79229550000001],[42.4094725,53.79893760000001],[42.396504300000004,53.800249799999996],[42.38766239999999,53.8053377],[42.376145300000005,53.8007319],[42.37183769999999,53.79521490000001],[42.359659199999996,53.79461010000001],[42.357523099999995,53.79818060000001],[42.350343499999994,53.79436210000001],[42.342260599999996,53.796850500000005],[42.3447792,53.79203110000001],[42.342591399999996,53.7902866],[42.3370339,53.7932476],[42.3355643,53.79839400000001],[42.310251699999995,53.799097],[42.3082603,53.797300500000006],[42.3103516,53.79300030000001],[42.3036739,53.79472280000001],[42.31463709999999,53.802224499999994],[42.322875700000004,53.813167099999994],[42.35745059999999,53.8261807],[42.3498125,53.8354979],[42.3529051,53.8452716],[42.348408,53.8602536],[42.35052749999999,53.8716539],[42.35742719999999,53.8883016],[42.3706385,53.9073196],[42.377956399999995,53.912184399999994],[42.383272,53.9235291],[42.393151200000005,53.926537700000004],[42.404975300000004,53.938383],[42.4390307,53.9398143],[42.44489469999999,53.9424863],[42.439605900000004,53.958280699999996],[42.44042149999999,53.98189109999999],[42.4379201,53.985907499999996],[42.44466919999999,53.99607530000001],[42.434245,54.0041585],[42.4172429,54.0100426],[42.364858399999996,54.0188226],[42.356217599999994,54.016038800000004],[42.351539599999995,54.02873160000001],[42.34406109999999,54.0322974],[42.3259915,54.0515468],[42.292302200000016,54.0628424],[42.261957300000006,54.0876559],[42.289706200000005,54.0964401],[42.283734200000005,54.1049537],[42.3261612,54.12274910000001],[42.335122600000005,54.12195200000001],[42.325446,54.111248599999996],[42.326841099999996,54.1066057],[42.3032736,54.099907],[42.308121,54.092712700000014],[42.3007325,54.09039890000001],[42.30682639999999,54.0844337],[42.312542900000004,54.082722200000006],[42.329633900000005,54.0875018],[42.3322235,54.085165800000006],[42.3446789,54.0858035],[42.35568649999999,54.09041220000001],[42.36184149999999,54.08645],[42.3719225,54.0876125],[42.3795724,54.091138400000006],[42.370980599999996,54.0962225],[42.37624099999999,54.09865090000001],[42.417403099999994,54.1030404],[42.4337819,54.1168312],[42.4339967,54.12041880000001],[42.45182799999999,54.122406500000004],[42.4538355,54.1114348],[42.45006709999999,54.1036486],[42.459688899999996,54.085039200000004],[42.4747097,54.07733890000001],[42.485247099999995,54.07833280000001],[42.49811610000001,54.070114700000005],[42.57214290000001,54.083318000000006],[42.551566699999995,54.12123570000001],[42.53611520000001,54.116775200000006],[42.5267679,54.12450090000001],[42.520951600000004,54.1347212],[42.52545270000001,54.1475901],[42.53377590000001,54.1484601],[42.54631830000001,54.143319500000004],[42.560911700000005,54.148872600000004],[42.5554858,54.1535669],[42.579342000000004,54.1654296],[42.596317500000005,54.157631099999996],[42.596278100000006,54.1536707],[42.653763399999995,54.145316400000006],[42.65521890000001,54.141198200000005],[42.6673974,54.1424704],[42.6672647,54.13648739999999],[42.6752914,54.1276241],[42.6880973,54.12811220000002],[42.687979,54.131213900000006],[42.668429800000006,54.1566513],[42.6540111,54.1614632],[42.6503857,54.166465200000005],[42.632862200000005,54.164872],[42.62473560000001,54.171281699999994],[42.60812310000001,54.1748008],[42.5994884,54.184884999999994],[42.58550530000001,54.178230400000004],[42.572213600000005,54.17883830000001],[42.5702892,54.183396900000005],[42.544442399999994,54.19336890000001],[42.5141956,54.2124669],[42.489690499999995,54.2150477],[42.4822118,54.218894399999996],[42.4669858,54.22873720000001],[42.4599919,54.2396546],[42.434501499999996,54.2571117],[42.39593080000001,54.254559300000004],[42.391729,54.241036],[42.36554520000001,54.2186206],[42.3928318,54.2095841],[42.391277599999995,54.205406700000005],[42.387229299999994,54.2067892],[42.339547599999996,54.19145890000001],[42.353812399999995,54.175762600000006],[42.3499596,54.163033500000004],[42.3443233,54.1591858],[42.3236681,54.1579306],[42.3128135,54.1496939],[42.312082999999994,54.1526576],[42.288780900000006,54.153744399999994],[42.26316510000001,54.16237190000001],[42.260422000000005,54.158520700000004],[42.24210690000001,54.16279300000001],[42.255514600000005,54.17630810000001],[42.2539603,54.1833896],[42.256478300000005,54.1856842],[42.2536739,54.18876890000001],[42.23673250000001,54.18905590000001],[42.23881550000001,54.1820854],[42.2549306,54.17650830000001],[42.245937100000006,54.167273900000005],[42.223020600000005,54.1747819],[42.2368838,54.18230200000001],[42.233726600000004,54.18402639999999],[42.202561800000005,54.1885745],[42.2174037,54.206729200000005],[42.2171236,54.2119808],[42.2077954,54.21835610000001],[42.2262217,54.22401370000001],[42.196699800000005,54.231292800000006],[42.164255100000005,54.258241399999996],[42.1918768,54.2532746],[42.20719020000001,54.254411],[42.24010270000001,54.2394804],[42.260524200000006,54.23857600000001],[42.3012319,54.226274700000005],[42.3223277,54.234661599999995],[42.327581599999995,54.249228900000006],[42.334506999999995,54.2536231],[42.38736439999999,54.253939900000006],[42.398669399999996,54.262941500000004],[42.399291399999996,54.272138100000014],[42.4054716,54.2847249],[42.4420239,54.28975590000001],[42.4774518,54.29883000000001],[42.4902691,54.3053826],[42.4934335,54.3083176],[42.493424499999996,54.3165223],[42.487848699999994,54.32873290000001],[42.496360900000006,54.341516],[42.5294824,54.3704169],[42.5436422,54.3728194],[42.5762482,54.3651714],[42.6108256,54.37511870000001],[42.62917130000001,54.3759237],[42.620873700000004,54.401895499999995],[42.6048171,54.4080064],[42.583645999999995,54.42570220000001],[42.5834195,54.4448122],[42.5674364,54.4427095],[42.552132400000005,54.42851110000001],[42.53577190000001,54.4367618],[42.5454977,54.443668699999996],[42.546239,54.4528423],[42.563048800000004,54.4737076],[42.5596322,54.4747828],[42.559512500000004,54.4790457],[42.562248600000004,54.4797195],[42.555335500000005,54.48121999999999],[42.5579955,54.4842128],[42.549925800000004,54.485274],[42.5615955,54.4952935],[42.566036600000004,54.50223590000001],[42.5636416,54.50571030000001],[42.59206330000001,54.5020067],[42.605800900000006,54.510068],[42.6113857,54.4892962],[42.6314144,54.49310930000001],[42.617425,54.5317174],[42.59832680000001,54.54626759999999],[42.61533290000001,54.5478281],[42.629413500000005,54.55484949999999],[42.6115486,54.557455499999996],[42.60673560000001,54.5610431],[42.618617,54.566655700000005],[42.634187499999996,54.569684099999996],[42.6512086,54.5684836],[42.657690599999995,54.5724888],[42.66591480000001,54.569017800000005],[42.672450700000006,54.57119230000001],[42.677089599999995,54.5684715],[42.69209370000001,54.5696544],[42.69175210000001,54.5718439],[42.685157200000006,54.571545],[42.684721499999995,54.57466449999999],[42.691248,54.5805068],[42.648202700000006,54.5892548],[42.63537300000001,54.600424399999994],[42.63235720000001,54.5994797],[42.6210344,54.61169949999999],[42.622046600000004,54.6198105],[42.628984200000005,54.621733500000005],[42.6278297,54.6274254],[42.6313295,54.629659700000005],[42.618448300000004,54.6326206],[42.608720100000006,54.62753330000001],[42.5975215,54.63557070000001],[42.5988417,54.642209],[42.6041091,54.6416008],[42.620712800000014,54.663259100000005],[42.632581,54.664179000000004],[42.642816800000006,54.6714533],[42.6336656,54.678534500000005],[42.623520000000006,54.6806761],[42.6271897,54.683784499999994],[42.6199086,54.6853314],[42.60371210000001,54.699547100000004],[42.5954248,54.698135100000016],[42.5904625,54.69286530000001],[42.5888756,54.704495800000004],[42.57531850000001,54.69557260000001],[42.5734111,54.6839651],[42.569950500000004,54.6802632],[42.5419361,54.67501130000001],[42.5392524,54.678406200000005],[42.5407555,54.684936300000004],[42.502632000000006,54.703926100000004],[42.492599500000004,54.70252070000001],[42.4958867,54.700523800000006],[42.494069599999996,54.6974204],[42.490433200000005,54.700619800000005],[42.4833312,54.70012020000001],[42.4834192,54.69216300000001],[42.4784005,54.69056520000001],[42.4398066,54.70971560000001],[42.441540599999996,54.7143642],[42.4301212,54.70971840000001],[42.4283872,54.706169800000005],[42.420503100000005,54.70679270000001],[42.414622599999994,54.7034749],[42.4150626,54.712365000000005],[42.4199078,54.713416],[42.42855830000001,54.72255750000001],[42.4299477,54.7364977],[42.42890980000001,54.73914690000001],[42.394125900000006,54.75013680000001],[42.4082371,54.7534757],[42.4156763,54.7604714],[42.388067199999995,54.780685999999996],[42.3891026,54.7896666],[42.404156300000004,54.7917604],[42.4218061,54.79894780000001],[42.41644049999999,54.803280799999996],[42.4268297,54.8148528],[42.39368439999999,54.8122633],[42.3891004,54.830206999999994],[42.396195000000006,54.830854099999996],[42.407355800000005,54.842368900000004],[42.442326,54.82539860000001],[42.42552810000001,54.8055821],[42.42613630000001,54.7974498],[42.433575100000006,54.793561200000006],[42.45486609999999,54.750434399999996],[42.4770117,54.7500904],[42.4938091,54.7537819],[42.507043499999995,54.748991100000005],[42.509725,54.7507417],[42.5036683,54.7706626],[42.4810022,54.787030800000004],[42.4797054,54.7907695],[42.466730000000005,54.7911215],[42.4579039,54.80189449999999],[42.4443206,54.79835400000001],[42.45167649999999,54.80648049999999],[42.4483869,54.8105186],[42.47503880000001,54.8195966],[42.50168539999999,54.838140300000006],[42.53413220000001,54.81750699999999],[42.52591420000001,54.8145124],[42.5434761,54.803493499999995],[42.5711631,54.796266],[42.579815700000005,54.7874319],[42.6019688,54.79257010000001],[42.615549900000005,54.78209030000001],[42.624205,54.7800975],[42.6419428,54.781992],[42.6377,54.7863014],[42.668225500000005,54.8068183],[42.6896508,54.8105468],[42.7054814,54.807602499999994],[42.709456,54.8089178],[42.696411600000005,54.8127757],[42.722393300000014,54.818750900000005],[42.72894540000001,54.81764429999999],[42.7409994,54.811939599999995],[42.7349449,54.81009149999999],[42.73641510000001,54.8086939],[42.73131590000001,54.804851199999995],[42.7347716,54.8028524],[42.7305344,54.80155439999999],[42.73910660000001,54.795528900000015],[42.7354775,54.79312970000001],[42.735859000000005,54.788338300000014],[42.76303680000001,54.7926847],[42.77091930000001,54.790274100000005],[42.7783214,54.7811273],[42.7860792,54.7770493],[42.7978445,54.7796692],[42.8035066,54.7758964],[42.809342,54.7700747],[42.798886200000005,54.764422700000004],[42.792886200000005,54.7548553],[42.801184299999996,54.756552000000006],[42.8169293,54.753609399999995],[42.8159768,54.763591000000005],[42.833269599999994,54.765490400000004],[42.833264899999996,54.77118230000001],[42.847448799999995,54.7711836],[42.8549757,54.7647406],[42.8858548,54.7670879],[42.9010943,54.75964],[42.90550230000001,54.76867610000001],[42.916833999999994,54.769674800000004],[42.921330000000005,54.7731714],[42.9186757,54.77610790000001],[42.9246839,54.7804638],[42.9377373,54.780169],[42.9393854,54.787109300000004],[42.9445653,54.7819688],[42.9513106,54.7816703],[42.9591954,54.79238220000001],[42.9666903,54.79267210000001],[42.9695475,54.79771410000001],[42.9871346,54.793677900000006],[42.9868199,54.7868412],[42.9942567,54.791492000000005],[43.000710500000004,54.7845236],[43.006883499999994,54.78368149999999],[43.020442700000004,54.7849202],[43.02576080000001,54.7872927],[43.0234456,54.7908576],[43.0275649,54.79437180000001],[43.03313970000001,54.79411770000001],[43.046950800000005,54.788528500000005],[43.0362299,54.7816048],[43.04691290000001,54.772469300000004],[43.062879200000005,54.774452000000004],[43.067565200000004,54.779194000000004],[43.0860259,54.774787399999994],[43.0871292,54.778130900000015],[43.1032691,54.783688399999996],[43.1150966,54.79350120000001],[43.12334630000001,54.810645699999995],[43.1369275,54.8257867],[43.13814810000001,54.829512400000006],[43.131582,54.8331085],[43.14091200000001,54.8364377],[43.1373484,54.8381345],[43.1404631,54.8406391],[43.133363800000005,54.84446049999999],[43.1312172,54.8497112],[43.141245,54.855141599999996],[43.13932570000001,54.85745459999999],[43.147653999999996,54.863553100000004],[43.151256999999994,54.8628813],[43.14803560000001,54.86575580000001],[43.14892230000001,54.8699607],[43.153759900000004,54.8700963],[43.151144699999996,54.8731899],[43.1535018,54.874429899999996],[43.1486642,54.8768193],[43.161055600000005,54.8802223],[43.157048599999996,54.8803386],[43.162301500000005,54.883050399999995],[43.1589679,54.8854781],[43.1649279,54.8909591],[43.160225000000004,54.893450800000004],[43.168665600000004,54.8947611],[43.169226800000004,54.8977689],[43.189317900000006,54.891766],[43.200070600000004,54.89448349999999],[43.211878399999996,54.891701399999995],[43.211148900000005,54.89871120000001],[43.21388749999999,54.90160899999999],[43.231244499999995,54.9030761],[43.23275020000001,54.9058147],[43.223367,54.9105318],[43.23267830000001,54.91396159999999],[43.233474300000005,54.9193512],[43.245042500000004,54.921753900000006],[43.24298590000001,54.9195652],[43.2510429,54.9141256],[43.26773680000001,54.91122729999999],[43.2873496,54.929483499999996],[43.2986844,54.91994139999999],[43.291608800000006,54.9171136],[43.29319810000001,54.91465649999999],[43.29972000000001,54.9154283],[43.3115853,54.9232241],[43.3321647,54.922137500000005],[43.333964599999995,54.91614],[43.323617399999996,54.9144137],[43.3135113,54.9185465],[43.3004358,54.9109629],[43.3105628,54.9089646],[43.31703439999999,54.915126300000004],[43.3200621,54.91452139999999],[43.3203872,54.908671],[43.332487199999996,54.9086093],[43.34108929999999,54.8960249],[43.346460199999996,54.8972225],[43.34104549999999,54.9068021],[43.3554702,54.905894599999996],[43.364480199999996,54.9237498],[43.359262699999995,54.9274912],[43.362573000000005,54.932239900000006],[43.340036999999995,54.940904499999995],[43.338525600000004,54.9485784],[43.335830900000005,54.949514],[43.3680273,54.9537791],[43.3801238,54.9591967],[43.3869355,54.956906599999996],[43.385317900000004,54.9424995],[43.392100600000006,54.9413542],[43.3894189,54.9349819],[43.4083841,54.92950520000001],[43.4174222,54.9300004],[43.4220212,54.9352771],[43.42875570000001,54.9368407],[43.4547708,54.934408399999995],[43.4619757,54.929580200000004],[43.4656686,54.9094113],[43.520327,54.8996426],[43.535424,54.902353700000006],[43.5542166,54.900383399999996],[43.568802500000004,54.903690399999995],[43.5907677,54.9026531],[43.614364699999996,54.883406799999996],[43.616905700000004,54.876686799999995],[43.613933800000005,54.8711779],[43.620113900000014,54.8654391],[43.62509060000001,54.866475900000005],[43.631620999999996,54.8624681],[43.6145904,54.8589262],[43.6182225,54.85442319999999],[43.675535900000014,54.840986099999995],[43.6812827,54.8379724],[43.682225200000005,54.8340182],[43.6854034,54.835555600000006],[43.690637,54.831749099999996],[43.7105462,54.830761599999995],[43.7100279,54.8279967],[43.727613500000004,54.8256195],[43.73370620000001,54.820181399999996],[43.737656300000005,54.823100000000004],[43.739977200000006,54.8203821],[43.748211700000006,54.821863699999994],[43.74993550000001,54.8264578],[43.763840300000005,54.8296704],[43.780059800000004,54.8296688],[43.7735405,54.8194357],[43.8611437,54.80495],[43.9577556,54.806086199999996],[43.9150267,54.753784399999994],[43.9216308,54.746255100000006],[43.9185431,54.74571270000001],[43.921016800000004,54.7394942],[43.9461505,54.733187900000004],[43.963503,54.73517060000001],[43.9736588,54.7276613],[43.9833397,54.73031920000001],[43.9875043,54.726585400000005],[43.99697820000001,54.72633480000001],[44.0028891,54.727920000000005],[44.009239,54.73470330000001],[44.03128639999999,54.74148949999999],[44.040467199999995,54.73985530000001],[44.068096700000005,54.7434257],[44.0898026,54.737577900000005],[44.0959805,54.73411310000001],[44.09563910000001,54.72206980000001],[44.0783896,54.704030200000005],[44.0826785,54.6899973],[44.0799345,54.676357200000005],[44.06895430000001,54.66231480000001],[44.0684405,54.6485673],[44.1016493,54.6452912],[44.120093100000005,54.6339194],[44.17200510000001,54.635361700000004],[44.1946579,54.6137006],[44.1884801,54.603762100000004],[44.20057890000001,54.59645890000001],[44.23575920000001,54.603166],[44.24811260000001,54.597502600000006],[44.259439,54.601326900000004],[44.27059090000001,54.6003842],[44.271861799999996,54.6062104],[44.29391180000001,54.599200800000006],[44.3085826,54.59045290000001],[44.3562903,54.59045290000001],[44.3711331,54.583641199999995],[44.3728525,54.571256999999996],[44.381515,54.5521054],[44.4051995,54.547974499999995],[44.4122347,54.541802],[44.405037300000004,54.5346452],[44.4207876,54.53249230000001],[44.424492,54.5361794],[44.432174,54.53355620000001],[44.429034300000005,54.5320805],[44.4309458,54.5288437],[44.4474126,54.528909000000006],[44.46851780000001,54.52213480000001],[44.5260243,54.5254617],[44.5367375,54.5179039],[44.5593832,54.52791260000001],[44.558443399999994,54.532142500000006],[44.57577590000001,54.5615566],[44.5838304,54.568473000000004],[44.5802318,54.5728011],[44.59859570000001,54.570261599999995],[44.62845070000001,54.55484119999999],[44.659105100000005,54.5139124],[44.6561706,54.509419],[44.62381880000001,54.495766],[44.6179293,54.500492900000005],[44.616444599999994,54.5068249],[44.6238831,54.5234236],[44.61057520000001,54.52155880000001],[44.609146200000005,54.5165421],[44.60231930000001,54.517172],[44.6026277,54.4873639],[44.5827262,54.4871107],[44.57525270000001,54.4801355],[44.585547399999996,54.4749504],[44.5861504,54.4715083],[44.6139567,54.475047499999995],[44.651452,54.4855661],[44.6876593,54.484423699999994],[44.6891146,54.4893065],[44.7417968,54.50560230000001],[44.76977250000001,54.520890900000005],[44.785383100000004,54.50948449999999],[44.8065826,54.5014119],[44.808382,54.495584],[44.8041756,54.4888579],[44.845356300000006,54.4798258],[44.8439558,54.482847799999995],[44.851375399999995,54.4892402],[44.908191800000004,54.463399],[44.919522900000004,54.46210260000001],[44.9252671,54.46833780000001],[44.9483746,54.4775385],[44.9588182,54.4784898],[44.957417899999996,54.4836228],[44.9675514,54.488057399999995],[44.9838519,54.488759300000005],[45.005425100000004,54.485015800000006],[45.0197961,54.4768549],[45.0149178,54.4843731],[45.02677210000001,54.4949627],[45.0419362,54.4890982],[45.0390564,54.478968200000004],[45.0465868,54.4757205],[45.05704469999999,54.474572900000005],[45.056447999999996,54.4776901],[45.0644226,54.478438700000005],[45.066210700000006,54.473052900000006],[45.0840793,54.47511240000001],[45.08758649999999,54.4734053],[45.0871763,54.46871540000001],[45.100053100000004,54.4682979],[45.098691800000005,54.47186179999999],[45.111001599999994,54.4806701],[45.14033880000001,54.4893887],[45.126884399999994,54.5164603],[45.1344304,54.5246732],[45.1453234,54.526219100000006],[45.143700700000004,54.528209100000005],[45.1164055,54.5320455],[45.1096296,54.5238271],[45.088180300000005,54.5302524],[45.1016547,54.5433979],[45.0775466,54.550712100000005],[45.082688,54.5554395],[45.0766795,54.5551376],[45.0705915,54.55966659999999],[45.0608972,54.5598659],[45.05326169999999,54.5539958],[45.049139800000006,54.556133300000006],[45.03549580000001,54.5465305],[45.030180200000004,54.548969],[45.0258914,54.5460318],[45.0219416,54.5493651],[45.016882599999995,54.54747439999999],[45.009501,54.556828499999995],[45.0113829,54.571059],[45.0165385,54.5699654],[45.030180200000004,54.582247599999995],[45.04768449999999,54.58164969999999],[45.04253570000001,54.593783800000004],[45.0457035,54.597463999999995],[45.0294078,54.6082484],[45.032836700000004,54.6128682],[45.0526586,54.62191130000001],[45.036103600000004,54.6298577],[45.0416713,54.634526900000004],[45.070765900000005,54.6432177],[45.0874102,54.65235220000001],[45.0760791,54.661379600000004],[45.071196900000004,54.6716542],[45.064241599999995,54.673838700000005],[45.062611800000006,54.6773617],[45.0463911,54.6810287],[45.05420109999999,54.688276200000004],[45.034551300000004,54.691147],[45.0182531,54.7052831],[45.0274268,54.72193190000001],[45.02639980000001,54.73595370000001],[45.073589399999996,54.7635875],[45.0777136,54.7731434],[45.091272800000006,54.7808618],[45.093585700000006,54.7878387],[45.111952,54.8000552],[45.133563300000006,54.786354300000006],[45.1583691,54.78655270000001],[45.16515010000001,54.7812556],[45.15871530000001,54.772200500000004],[45.1784476,54.762847],[45.194399600000004,54.74957390000001],[45.19937610000001,54.7558658],[45.19997910000001,54.7638376],[45.21619510000001,54.779329700000005],[45.22065810000001,54.7798213],[45.2210045,54.783384],[45.2166285,54.7847219],[45.21516570000001,54.79619660000001],[45.20821780000001,54.8000552],[45.2096731,54.8029237],[45.226577000000006,54.80282749999999],[45.2246055,54.81785949999999],[45.219888,54.818352100000006],[45.22606590000001,54.827398300000006],[45.222285500000005,54.830559300000004],[45.22632510000001,54.8352068],[45.22571700000001,54.8425174],[45.234813300000006,54.847906699999996],[45.22614830000001,54.8466183],[45.224174500000004,54.85629959999999],[45.227356500000006,54.85704249999999],[45.22237770000001,54.8600576],[45.230701200000006,54.877285099999995],[45.242623200000004,54.8803461],[45.25901090000001,54.8784235],[45.2833807,54.868448],[45.29238470000001,54.86933990000001],[45.29814370000001,54.8780765],[45.343269799999995,54.8783218],[45.371238399999996,54.8821725],[45.3914937,54.8739299],[45.4119137,54.877434199999996],[45.4268458,54.8855284],[45.4250416,54.89219190000001],[45.42108939999999,54.8943619],[45.4271899,54.896042800000004],[45.4234071,54.90082759999999],[45.42547290000001,54.905067499999994],[45.4380802,54.91078949999999],[45.4391096,54.9157744],[45.4346487,54.920061399999994],[45.4167134,54.92193890000001],[45.432503000000004,54.9336195],[45.4256376,54.9363827],[45.42323270000001,54.9386016],[45.4251264,54.9398341],[45.4152557,54.947077099999994],[45.427010700000004,54.953678999999994],[45.433188300000005,54.950527699999995],[45.4458057,54.95752399999999],[45.4477754,54.98181449999999],[45.437395900000006,54.982897099999995],[45.42581520000001,54.996679900000004],[45.41182969999999,54.9972217],[45.4194621,55.004741599999996],[45.4249544,55.000854],[45.4360195,55.003069399999994],[45.43654,55.00818590000001],[45.4275216,55.0126117],[45.4307885,55.0161566],[45.421346,55.024961399999995],[45.4228804,55.03817620000001],[45.4352494,55.045168100000005],[45.457470799999996,55.06561430000001],[45.46313280000001,55.0722966],[45.46176,55.081775300000004],[45.4832939,55.0846723],[45.4793464,55.10519810000001],[45.4864021,55.1122678],[45.4949825,55.111679099999996],[45.495927,55.10858590000001],[45.5096532,55.1102067],[45.5278451,55.098275400000006],[45.53917390000001,55.09719590000001],[45.5464633,55.0988656],[45.54449439999999,55.0999478],[45.5486065,55.102743800000006],[45.5705764,55.1011241],[45.5656687,55.1163365],[45.545675,55.133459900000005],[45.547646199999996,55.13541880000001],[45.5517681,55.13816800000001],[45.5615469,55.13311520000001],[45.592266300000006,55.13007210000001],[45.5960395,55.1412091],[45.58428919999999,55.142435500000005],[45.59312620000001,55.16577020000001],[45.614749599999996,55.162241300000005],[45.612170400000004,55.1691495],[45.628301500000006,55.171552000000005],[45.631907399999996,55.1837518],[45.6397174,55.1839965],[45.6402286,55.1779206],[45.6664873,55.1774795],[45.665625000000006,55.1833619],[45.673524900000004,55.184685099999996],[45.67935630000001,55.180762300000005],[45.690343600000006,55.18091030000001],[45.703120600000005,55.1902678],[45.71341290000001,55.1842398],[45.72766,55.1846325],[45.7318688,55.1747855],[45.743873300000004,55.175470100000005],[45.7452465,55.1698396],[45.749373000000006,55.169054],[45.73597850000001,55.1666043],[45.730839700000004,55.1594951],[45.73589630000001,55.1479272],[45.761816,55.1557705],[45.7677296,55.15469399999999],[45.7814558,55.1388048],[45.7805985,55.13203670000001],[45.78531900000001,55.126149500000004],[45.78232080000001,55.12639320000001],[45.783599,55.1163836],[45.75589,55.1144723],[45.754693599999996,55.1046093],[45.758982700000004,55.1018093],[45.748946700000005,55.0908595],[45.73057810000001,55.0924296],[45.7192517,55.0811376],[45.75211190000001,55.0679218],[45.74808230000001,55.066496300000004],[45.74979930000001,55.0639447],[45.74328,55.057062599999995],[45.7340147,55.0575037],[45.7189974,55.050626099999995],[45.715977900000006,55.047412900000005],[45.717777,55.0455454],[45.7279047,55.0409748],[45.734169800000004,55.041710200000004],[45.69832090000001,55.0117757],[45.704578600000005,55.010299499999995],[45.701842,55.00213180000001],[45.723440200000006,54.9913734],[45.7433645,54.99603570000001],[45.7499984,55.002338400000006],[45.7593485,54.9994466],[45.774689599999995,55.000362300000006],[45.8067656,55.00592220000001],[45.80488369999999,55.0018388],[45.8090058,54.9977536],[45.8298099,55.009316600000005],[45.8493331,55.011089999999996],[45.864663199999995,55.0071601],[45.905111500000004,55.004878999999995],[45.89915590000001,54.99849580000001],[45.9243877,54.9937212],[45.928068700000004,55.003122600000005],[45.944544099999995,55.004802999999995],[45.947463799999994,55.0045807],[45.944974099999996,54.997562300000006],[45.960197,54.996871399999996],[45.975554900000006,55.0021897],[45.978465,55.0099602],[45.9945917,55.016117],[45.9997449,55.0252204],[46.0216238,55.021353700000006],[46.019130600000004,55.0264415],[46.0212809,55.0298413],[46.034894599999994,55.027393200000006],[46.062037200000006,55.0477131],[46.12332890000001,55.028661],[46.1429044,55.0197732],[46.13975310000001,55.019298],[46.1375949,55.0131801],[46.144464799999994,55.0056899],[46.130150400000005,54.9964851],[46.1413001,54.98343739999999],[46.1574708,54.9741556],[46.17713570000001,55.005808200000004],[46.1798243,55.01210520000001],[46.177575100000006,55.016458],[46.1840219,55.019352700000006],[46.1799004,55.026286999999996],[46.20829090000001,55.03277270000001],[46.2018002,55.0412959],[46.203434800000004,55.048861499999994],[46.180847199999995,55.0684004],[46.20530360000001,55.07519550000001],[46.2156006,55.0836422],[46.21911910000001,55.081285599999994],[46.228044000000004,55.0829964],[46.2370135,55.0704396],[46.256126200000004,55.058300900000006],[46.2581897,55.0524377],[46.27029,55.048459900000005],[46.2797977,55.034398100000004],[46.29386220000001,55.02854520000001],[46.29033600000001,55.015663599999996],[46.276622800000005,55.0007041],[46.289567,54.9926692],[46.2447012,54.9782257],[46.2591734,54.9716739],[46.268829200000006,54.97705439999999],[46.2740936,54.9752036],[46.27694090000001,54.9676759],[46.2712942,54.961465399999994],[46.27834230000001,54.95454959999999],[46.2769236,54.9502526],[46.281268,54.9461085],[46.27903290000001,54.94203520000001],[46.2818693,54.938839300000005],[46.29717830000001,54.9430771],[46.3118327,54.929127],[46.327621199999996,54.9367839],[46.326325800000006,54.9215067],[46.3294483,54.9190556],[46.336755700000005,54.9188135],[46.3392822,54.912559900000005],[46.361407699999994,54.9123285],[46.37026139999999,54.90649],[46.3639943,54.9033836],[46.37403,54.899192400000004],[46.373772800000005,54.8945443],[46.3893118,54.8852256],[46.395830800000006,54.884782599999994],[46.4105911,54.87407159999999],[46.407842499999994,54.867307499999995],[46.390420999999996,54.865328500000004],[46.3938662,54.858718700000004],[46.4010933,54.8600239],[46.3971421,54.850058499999996],[46.3820177,54.830456999999996],[46.396608300000004,54.8208659],[46.39995290000001,54.806872],[46.4027838,54.8070702],[46.4099934,54.798119800000016],[46.4247496,54.791138900000014],[46.436502700000005,54.79105870000001],[46.4495663,54.7863035],[46.4064285,54.77809070000001],[46.4430232,54.7616591],[46.409432800000005,54.73996030000001],[46.412262999999996,54.73585010000001],[46.409773300000005,54.7319825],[46.42010260000001,54.7308639],[46.4204887,54.72755170000001],[46.4314457,54.72849660000001],[46.4332657,54.72552400000001],[46.456222,54.7198091],[46.4337293,54.7073954],[46.4405948,54.69891700000001],[46.4217256,54.688301200000005],[46.524953700000005,54.655202300000006],[46.5199697,54.653026],[46.5348422,54.63211540000001],[46.5246454,54.63278570000001],[46.52657680000001,54.62894180000001],[46.5011824,54.6264605],[46.4643872,54.605245100000005],[46.4506538,54.6017184],[46.440189499999995,54.594111700000006],[46.4050911,54.5796433],[46.408180900000005,54.57686139999999],[46.4035479,54.5742717],[46.4195918,54.5705432],[46.4198532,54.5679095],[46.4132396,54.5659677],[46.41967399999999,54.5612948],[46.437943399999995,54.5678097],[46.4562168,54.5796967],[46.46297820000001,54.5767116],[46.4912186,54.578507],[46.518329,54.5883478],[46.53856330000001,54.5726536],[46.504586499999995,54.5658375],[46.496098700000005,54.5606621],[46.509573100000004,54.552450900000004],[46.53819370000001,54.5591964],[46.5466091,54.5550284],[46.5352898,54.5438786],[46.53253880000001,54.53292690000001],[46.5339116,54.521772600000006],[46.483741499999994,54.5036254],[46.47877210000001,54.499042300000006],[46.489745,54.5001364],[46.4859746,54.4906667],[46.473618900000005,54.4882769],[46.468818600000006,54.4909677],[46.4713036,54.487527099999994],[46.4599796,54.479652800000004],[46.493348600000004,54.4745211],[46.5146332,54.485881199999994],[46.5295642,54.482412100000005],[46.5581473,54.4886556],[46.564050900000005,54.4971494],[46.5729467,54.50283830000001],[46.5837096,54.49579810000001],[46.5705747,54.4916563],[46.595021900000006,54.486425],[46.535994800000005,54.477949699999996],[46.54517560000001,54.468328500000005],[46.5273272,54.4641891],[46.5066462,54.470621099999995],[46.500807099999996,54.46977530000001],[46.4932564,54.462440900000004],[46.50535790000001,54.460599800000004],[46.507333800000005,54.4575548],[46.4971213,54.448528800000005],[46.5004754,54.44533380000001],[46.4916364,54.44368759999999],[46.4976422,54.4421413],[46.495057900000006,54.4405442],[46.4999575,54.4341063],[46.498042500000004,54.4325832],[46.5216655,54.4203295],[46.529037100000004,54.4131386],[46.5358833,54.399142700000006],[46.5624647,54.4049379],[46.5778959,54.398450600000004],[46.6109405,54.40668149999999],[46.625526400000005,54.4059852],[46.630607,54.4034962],[46.630087399999994,54.400894799999996],[46.6656205,54.3998219],[46.669563700000005,54.3805765],[46.676167,54.379071599999996],[46.67259580000001,54.3978512],[46.6878321,54.401059499999995],[46.7082872,54.3984504],[46.709321300000006,54.3936061],[46.6896125,54.3809199],[46.6919412,54.37998639999999],[46.7044779,54.386935900000005],[46.7035217,54.38944139999999],[46.709127300000006,54.3909036],[46.7179013,54.400849799999996],[46.72956830000001,54.40217380000001],[46.72379390000001,54.3974853],[46.7269814,54.396663],[46.72508820000001,54.38732749999999],[46.711210300000005,54.3786154],[46.712239600000004,54.374567199999994],[46.723994700000006,54.3734683],[46.72270400000001,54.3670168],[46.712239600000004,54.358920499999996],[46.70314810000001,54.35746979999999],[46.7064904,54.35366919999999],[46.70263020000001,54.3493179],[46.708115100000015,54.3470199],[46.7066577,54.34466959999999],[46.70254270000001,54.3480688],[46.693878100000006,54.3469719],[46.692589700000006,54.3445186],[46.69876290000001,54.33871490000001],[46.68555220000001,54.33351330000001],[46.685123600000004,54.3308657],[46.70519970000001,54.32535810000001],[46.684518100000005,54.3043363],[46.6558619,54.30088399999999],[46.663933500000006,54.295173200000015],[46.66273680000001,54.29011450000001],[46.65449139999999,54.2878147],[46.64591370000001,54.29167220000001],[46.623260900000005,54.290268600000005],[46.616823499999995,54.297127800000005],[46.5774439,54.285410000000006],[46.56019920000001,54.28435830000001],[46.55728559999999,54.287260499999995],[46.540123,54.2835044],[46.5547988,54.267023900000005],[46.546493999999996,54.261615600000006],[46.550557399999995,54.26952130000001],[46.5474305,54.27239390000001],[46.5120093,54.263894],[46.5035672,54.26972520000001],[46.48366789999999,54.26847500000001],[46.481345499999996,54.2709315],[46.4741409,54.26953840000001],[46.4863031,54.2586696],[46.4798507,54.2538739],[46.470895999999996,54.2526878],[46.4630506,54.2566832],[46.4522057,54.2501492],[46.4457858,54.250714900000006],[46.44440099999999,54.2472145],[46.4367961,54.2524215],[46.44084159999999,54.254505900000005],[46.4378179,54.26308890000001],[46.43521510000001,54.2589994],[46.4236889,54.2575498],[46.4172521,54.2509317],[46.4206812,54.2484796],[46.40626739999999,54.24261290000001],[46.4105563,54.240154800000006],[46.39931910000001,54.2428633],[46.3955417,54.236548500000005],[46.394427199999996,54.2409047],[46.38584949999999,54.23358330000001],[46.3879951,54.2234544],[46.39657580000001,54.22320380000001],[46.404398900000004,54.2176957],[46.396792000000005,54.208609300000006],[46.380001099999994,54.2098571],[46.375873,54.20671030000001],[46.3679073,54.20719580000001],[46.3614037,54.19930540000001],[46.3536089,54.201013100000004],[46.342755100000005,54.191543],[46.3291648,54.1890191],[46.311353499999996,54.1955864],[46.328144300000005,54.20491990000001],[46.324201699999996,54.2086635],[46.3190068,54.208202400000005],[46.31014749999999,54.20242390000001],[46.304720599999996,54.19314010000001],[46.3013351,54.194456900000006],[46.3014149,54.19862210000001],[46.283536000000005,54.1936847],[46.284010900000006,54.1836104],[46.26611840000001,54.183332400000005],[46.254364599999995,54.172504100000005],[46.2475899,54.1734278],[46.24126139999999,54.1845507],[46.236364,54.1866828],[46.202486900000004,54.1850613],[46.2043577,54.180463399999994],[46.19213060000001,54.1794148],[46.1855485,54.16618230000001],[46.1566522,54.154744099999995],[46.1433249,54.16263550000001],[46.128485000000005,54.1642226],[46.1284434,54.17335690000001],[46.1240394,54.176965700000004],[46.119987699999996,54.17693990000001],[46.103692800000005,54.163869399999996],[46.0868326,54.165879100000005],[46.0835755,54.176427499999996],[46.07713630000001,54.176377800000004],[46.073869099999996,54.1748173],[46.0762737,54.171806399999994],[46.0743048,54.170500800000006],[46.0607976,54.16949],[46.03532800000001,54.1349595],[46.0158455,54.12168139999999],[46.012764499999996,54.123444],[46.027258800000006,54.13133570000001],[46.017397499999994,54.129326400000004],[46.0039255,54.13561090000001],[45.997914900000005,54.13003020000001],[45.9889086,54.1343012],[46.0116388,54.140688499999996],[46.0065796,54.14555970000001],[45.9956044,54.1432489],[46.0059818,54.1494319],[45.988823399999994,54.1522941],[45.9792968,54.1476718],[45.970546999999996,54.137973],[45.965914100000006,54.1411863],[45.9658195,54.145712900000014],[45.9626498,54.145762600000005],[45.9700285,54.148678800000006],[45.968141300000006,54.1543662],[45.9643055,54.1528839],[45.9559826,54.1461424],[45.963931800000005,54.1402249],[45.9705354,54.128839400000004],[45.96234230000001,54.12219330000001],[45.9653216,54.110848999999995],[45.962399600000005,54.0982442],[45.943607099999994,54.092801300000005],[45.9284813,54.0754411],[45.8945057,54.0616331],[45.89313070000001,54.056648499999994],[45.907167799999996,54.048684599999994],[45.9088293,54.044788499999996],[45.8935979,54.017784799999994],[45.882897199999995,54.0123601],[45.873757,54.0019567],[45.84158049999999,53.99251920000001],[45.81906449999999,53.991478900000004],[45.808512400000005,53.99801820000001],[45.8045739,53.9968293],[45.79671950000001,53.9864987],[45.8063822,53.981346099999996],[45.805762900000005,53.9782516],[45.807468699999994,53.980015900000005],[45.813633499999995,53.97571590000001]],[[42.658586,54.5541117],[42.648012400000006,54.5606917],[42.637134700000004,54.557833599999995],[42.641682499999995,54.5555746],[42.6405468,54.5537901],[42.650065399999995,54.55198159999999],[42.658586,54.5541117]],[[44.4737511,53.676233700000004],[44.4713889,53.6932904],[44.463848,53.69095020000001],[44.4646202,53.679624],[44.4691175,53.674942],[44.4737511,53.676233700000004]]]}}