{"type":"Feature","properties":{"regionId":"respublika_severnaya_osetiya_alaniya","name":"Северная Осетия - Алания","name:en":"North Ossetia–Alania","timezone":"Europe/Moscow","name_ru":"Республика Северная Осетия - Алания","name_en":"North Ossetia–Alania","name_zh":"北奥塞梯—阿兰共和国"},"geometry":{"type":"Polygon","coordinates":[[[44.8479393,43.56553380000001],[44.8444393,43.574477699999996],[44.847463299999994,43.578174800000006],[44.833204599999995,43.6817992],[44.8248786,43.68594830000001],[44.83648759999999,43.6908994],[44.83859330000001,43.697641],[44.8485231,43.7076304],[44.84481399999999,43.713384399999995],[44.8394457,43.714439399999996],[44.826273,43.706756600000006],[44.802939900000005,43.7194098],[44.8033927,43.807048599999995],[44.796335100000015,43.8088257],[44.79372790000001,43.81699699999999],[44.702296600000004,43.81742499999999],[44.703064499999996,43.83460399999999],[44.66635910000001,43.83511580000001],[44.6664447,43.8265796],[44.616471,43.8272859],[44.61599880000001,43.8249886],[44.603541,43.824915100000005],[44.603449399999995,43.8275701],[44.596925000000006,43.8286943],[44.581695999999994,43.821507],[44.5536307,43.819741799999996],[44.5535237,43.8141513],[44.5046155,43.814516399999995],[44.504538600000004,43.8072987],[44.4728011,43.80738749999999],[44.472547,43.80118449999999],[44.3796052,43.8014629],[44.3797325,43.813442699999996],[44.359428799999996,43.811858699999995],[44.35147679999999,43.80788699999999],[44.314622199999995,43.8065916],[44.26803250000001,43.81089749999999],[44.267435500000005,43.74532320000001],[44.27253650000001,43.7416091],[44.274326,43.7260405],[44.2816173,43.7110734],[44.28935690000001,43.70971630000001],[44.29717820000001,43.6894595],[44.3103712,43.685709200000005],[44.3189973,43.679137100000005],[44.3264734,43.6812225],[44.3332713,43.676672700000005],[44.338545800000006,43.683496399999996],[44.3622812,43.68180759999999],[44.374193,43.693001],[44.4017141,43.6909475],[44.410751,43.6839647],[44.4268856,43.6858411],[44.430210800000005,43.683810900000005],[44.43082739999999,43.6629647],[44.426411900000005,43.6573167],[44.4312385,43.651565999999995],[44.4288766,43.650128300000006],[44.4347301,43.645610000000005],[44.4360656,43.62301810000001],[44.4400706,43.6179093],[44.439659999999996,43.61041290000001],[44.43503580000001,43.606878800000004],[44.461569399999995,43.593901900000006],[44.4753684,43.582942800000005],[44.444515300000006,43.5427231],[44.4457852,43.5352575],[44.440586599999996,43.5077993],[44.44798049999999,43.497633],[44.434322900000005,43.488288],[44.41387939999999,43.4527146],[44.4185748,43.44666649999999],[44.42671280000001,43.444392],[44.4331662,43.434321499999996],[44.4422421,43.427733],[44.384057999999996,43.4029771],[44.381490899999996,43.3965076],[44.3552536,43.392399700000006],[44.3530853,43.394028399999996],[44.3557667,43.408522100000006],[44.3440598,43.41786679999999],[44.33830880000001,43.4309084],[44.3389248,43.437480599999994],[44.3334821,43.4440528],[44.320371900000005,43.449643599999995],[44.282959000000005,43.4204076],[44.1749304,43.3485999],[44.1747249,43.3567125],[44.171233300000004,43.36164159999999],[44.17030820000001,43.4011518],[44.165584200000005,43.411523499999994],[44.1563419,43.4163498],[44.1463461,43.437675999999996],[44.1056827,43.43106469999999],[44.108334000000006,43.4269264],[44.10381590000001,43.4161438],[44.084869899999994,43.3978903],[44.07778439999999,43.395220300000005],[44.037769,43.3522063],[44.0876963,43.292119000000014],[44.09823190000001,43.26719010000001],[44.0829734,43.2549963],[44.0727044,43.256331100000004],[44.05185839999999,43.24955330000001],[44.02885630000001,43.226550300000014],[44.0030517,43.21239390000001],[43.9734032,43.2422613],[43.974178300000005,43.246342600000006],[43.9849043,43.249244399999995],[43.987984899999994,43.2569463],[44.0020679,43.27269220000001],[43.9402362,43.2865376],[43.920928100000005,43.256586],[43.9197987,43.24970570000001],[43.92575490000001,43.2438525],[43.9195935,43.24200390000001],[43.91086449999999,43.2534025],[43.897617499999996,43.2542239],[43.8617982,43.2641816],[43.859672399999994,43.29881680000001],[43.829874499999995,43.3232655],[43.80658149999999,43.3004335],[43.781731300000004,43.26531300000001],[43.76971700000001,43.2412063],[43.7642745,43.2403847],[43.76304230000001,43.234017800000004],[43.7502063,43.2216948],[43.7510281,43.21235000000001],[43.744353700000005,43.190014700000006],[43.7264861,43.1694764],[43.726280800000005,43.16619020000001],[43.750679999999996,43.1568097],[43.744252,43.1478088],[43.7449711,43.13571700000001],[43.7033816,43.131198100000006],[43.69701500000001,43.1230855],[43.6498807,43.09915800000001],[43.6438738,43.0782347],[43.647570900000005,43.0694034],[43.63935590000001,43.0604692],[43.63514580000001,43.049378600000004],[43.61861280000001,43.04568149999999],[43.609987,43.037671499999995],[43.60988439999999,43.030791300000004],[43.6177917,43.025143400000005],[43.617381099999996,43.0189049],[43.622823800000006,43.014386599999995],[43.62261850000001,43.01068969999999],[43.610398800000006,42.989227199999995],[43.602389,42.9871733],[43.6014973,42.9795004],[43.593972400000006,42.977485099999996],[43.59357610000001,42.967897199999996],[43.5782463,42.9612025],[43.5775455,42.95128269999999],[43.5715292,42.942937300000004],[43.5325975,42.9447091],[43.5121249,42.9608578],[43.499853300000005,42.963733000000005],[43.490611300000005,42.9605494],[43.4689436,42.9606519],[43.4569287,42.9678401],[43.442962800000004,42.969380300000005],[43.433412700000005,42.9633214],[43.43395290000001,42.9584751],[43.424881299999996,42.947526599999996],[43.4255064,42.927430900000004],[43.41164339999999,42.920037],[43.3984872,42.8969234],[43.413658,42.891608999999995],[43.44707,42.893389],[43.460511000000004,42.887035],[43.478122000000006,42.889692999999994],[43.478205,42.886317],[43.489895999999995,42.875786999999995],[43.507661999999996,42.867795],[43.548055000000005,42.865230000000004],[43.560660999999996,42.868327],[43.587312000000004,42.85103399999999],[43.590054,42.84455],[43.610651,42.833934],[43.60891000000001,42.81368099999999],[43.621537000000004,42.81104299999999],[43.631468999999996,42.812925],[43.644276,42.801987999999994],[43.644369,42.79773000000001],[43.650895999999996,42.795677000000005],[43.684867999999994,42.80187399999999],[43.691473,42.79607500000001],[43.689310000000006,42.787495],[43.706962000000004,42.777708000000004],[43.723243000000004,42.77135500000001],[43.740336000000006,42.76897400000001],[43.743342000000005,42.76573900000001],[43.759595000000004,42.76540200000001],[43.76278500000001,42.760369000000004],[43.77646,42.759268],[43.781065,42.753148],[43.804176999999996,42.74313800000001],[43.807970999999995,42.737523],[43.804922,42.725080000000005],[43.80788699999999,42.72107200000001],[43.786968,42.698261],[43.77875000000001,42.678143000000006],[43.77205500000001,42.6744],[43.757439999999995,42.653679],[43.736447,42.648786],[43.715011000000004,42.636577],[43.71530500000001,42.631954],[43.730001,42.628226000000005],[43.743225,42.618485],[43.754203,42.616475],[43.752034,42.600588],[43.770458000000005,42.58878],[43.78572200000001,42.590926],[43.788006,42.596164],[43.79860690000001,42.599299300000006],[43.809162,42.59961800000001],[43.816328999999996,42.593817],[43.825977,42.593475000000005],[43.838703,42.59867200000001],[43.867605,42.589046999999994],[43.874627999999994,42.579862999999996],[43.881350999999995,42.581765],[43.885309,42.577177],[43.909639,42.57518],[43.912435,42.568671],[43.94607,42.559658],[43.947877999999996,42.555525],[43.94295,42.553202999999996],[43.94488599999999,42.550357],[43.95338399999999,42.553005],[43.964510000000004,42.546937],[43.973561,42.552233],[43.975605,42.560843999999996],[43.991396,42.5673],[43.989962999999996,42.569931000000004],[43.999791,42.576626999999995],[44.003282999999996,42.58514],[44.01034,42.591370000000005],[44.021778000000005,42.597196000000004],[44.038848,42.598957000000006],[44.047582,42.603161],[44.06532200000001,42.600149],[44.089904,42.604973],[44.09124,42.608876],[44.105160000000005,42.615678],[44.115379000000004,42.6173],[44.148659,42.60492],[44.162211000000006,42.606269],[44.182608,42.620250000000006],[44.185390000000005,42.627981],[44.1914,42.632357000000006],[44.22484,42.630605],[44.23185,42.626686],[44.232088000000005,42.642507],[44.238044,42.646755000000006],[44.241199,42.66611000000001],[44.248892000000005,42.679922000000005],[44.274986999999996,42.69595600000001],[44.28851900000001,42.699112000000014],[44.302919,42.707503],[44.31402099999999,42.721673],[44.335028,42.718953000000006],[44.350627399999986,42.71137830000001],[44.364366,42.715822],[44.38426899999999,42.715134000000006],[44.39255530000001,42.7043646],[44.398369,42.70838500000001],[44.409622999999996,42.708785000000006],[44.416456999999994,42.719994],[44.517973999999995,42.697038000000006],[44.521128000000004,42.699878000000005],[44.519144,42.705231000000005],[44.50849,42.726454000000004],[44.499928000000004,42.73619800000001],[44.507136,42.741687999999996],[44.508771,42.749585],[44.514598,42.754273],[44.534358000000005,42.753559],[44.545387399999996,42.758389],[44.5471225,42.764630200000006],[44.553093,42.76637200000001],[44.56297200000001,42.755492000000004],[44.580175000000004,42.744751],[44.597123,42.748679],[44.63788099999999,42.74551700000001],[44.670568,42.750506],[44.680169,42.756601499999995],[44.678349100000005,42.765261200000005],[44.6666994,42.7732314],[44.66800080000001,42.79757530000001],[44.658576700000005,42.811262899999996],[44.6662145,42.8317991],[44.6465076,42.8447951],[44.6478922,42.858971399999994],[44.633696900000004,42.8772538],[44.631861199999996,42.8919938],[44.647010200000004,42.8811403],[44.6638663,42.8786412],[44.674539700000004,42.87022939999999],[44.693849300000004,42.8660673],[44.7016858,42.8679345],[44.704157,42.864470999999995],[44.70051270000001,42.85964759999999],[44.70279690000001,42.856580799999996],[44.7338897,42.8520369],[44.750835900000006,42.842615],[44.753472200000004,42.8433205],[44.7543906,42.8498989],[44.766696200000005,42.8507438],[44.7770436,42.8597981],[44.79579850000001,42.8603862],[44.8100336,42.854929799999994],[44.8301341,42.840044199999994],[44.85365139999999,42.835576200000006],[44.8595638,42.8447038],[44.857528699999996,42.852214399999994],[44.859630599999996,42.856113],[44.85656409999999,42.85668599999999],[44.860673999999996,42.8603254],[44.8688141,42.8586383],[44.8700554,42.8611071],[44.864931,42.8639004],[44.8599306,42.8835093],[44.878849699999996,42.8825262],[44.8817182,42.915109300000005],[44.905317700000005,42.9242657],[44.90532830000001,42.936993900000004],[44.9258471,42.9307633],[44.9428969,42.9396412],[44.941015300000004,42.948813],[44.95385939999999,42.946579],[44.946217499999996,42.97913810000001],[44.92549330000001,42.979502800000006],[44.9438366,42.98479439999999],[44.93466449999999,42.999610200000006],[44.93525220000001,43.0109867],[44.9322431,43.0161657],[44.9341937,43.02251020000001],[44.9375879,43.02655890000001],[44.9564133,43.03214500000001],[44.9600242,43.041069099999994],[44.953887399999985,43.052554300000004],[44.9324004,43.0632305],[44.9311954,43.071260499999994],[44.9145124,43.0788836],[44.901747699999994,43.096071900000005],[44.870542300000004,43.09823560000001],[44.8662198,43.10510820000001],[44.85164629999999,43.10893520000001],[44.8341258,43.1186946],[44.846707499999994,43.1196355],[44.842121399999996,43.130100600000006],[44.843649899999996,43.133863399999996],[44.8314209,43.1398601],[44.79825060000001,43.146350600000005],[44.801123499999996,43.1521824],[44.797917500000004,43.152225300000005],[44.800212200000004,43.1547535],[44.797186200000006,43.1589436],[44.79910990000001,43.16673510000001],[44.7734072,43.1577287],[44.751316800000005,43.1906794],[44.7476057,43.190180100000006],[44.7374377,43.2016421],[44.69356810000001,43.26945090000001],[44.682270200000005,43.2773115],[44.669618500000006,43.278164000000004],[44.66872080000001,43.23441630000001],[44.681986699999996,43.233699200000004],[44.6812008,43.2108851],[44.677734300000004,43.2097046],[44.6662696,43.215819],[44.6630948,43.2137024],[44.65368779999999,43.219463999999995],[44.643928200000005,43.2169946],[44.644516,43.22099250000001],[44.635932300000015,43.218523100000006],[44.6324047,43.22193310000001],[44.620763700000005,43.220757000000006],[44.60937690000001,43.22657810000001],[44.570720800000004,43.2360974],[44.5777037,43.413603099999996],[44.5624977,43.4191543],[44.5560281,43.4160379],[44.534559900000005,43.4163185],[44.5169087,43.4102566],[44.5124704,43.4057541],[44.489596399999996,43.4344709],[44.49331380000001,43.4428782],[44.4901495,43.444826799999994],[44.4916091,43.4482981],[44.486261999999996,43.4482472],[44.48168129999999,43.4526985],[44.482216,43.4603294],[44.4848152,43.4613639],[44.478436,43.4676932],[44.4824118,43.475518400000006],[44.494609,43.47326939999999],[44.4970598,43.47579220000001],[44.4916337,43.4773662],[44.493923,43.479831499999996],[44.488072800000005,43.4849531],[44.4921944,43.489415900000004],[44.49051630000001,43.498003600000004],[44.4834953,43.5017224],[44.4850043,43.5045418],[44.4807386,43.5158439],[44.5002312,43.528800800000006],[44.5074918,43.5426105],[44.49997530000001,43.561696],[44.503345700000004,43.5879191],[44.63106739999999,43.614089299999996],[44.621897,43.5467642],[44.6563854,43.5424224],[44.671637,43.5507538],[44.692660100000005,43.547207099999994],[44.7079005,43.550916900000004],[44.69550160000001,43.5949647],[44.79521480000001,43.59674230000001],[44.79895680000001,43.592714400000006],[44.79819490000001,43.58706469999999],[44.802416,43.587056999999994],[44.8024608,43.5819219],[44.7976114,43.581293099999996],[44.79894540000001,43.569757],[44.78931570000001,43.5571222],[44.811991799999994,43.558285399999995],[44.815626599999995,43.5547903],[44.827732100000006,43.5531756],[44.8479393,43.56553380000001]]]}}