{"type":"Feature","properties":{"regionId":"respublika_komi","name":"Республика Коми","name:en":"Komi Republic","timezone":"Europe/Moscow","name_ru":"Республика Коми","name_en":"Komi Republic","name_zh":"科米共和国"},"geometry":{"type":"Polygon","coordinates":[[[62.02600880000001,65.7258432],[61.961463499999994,65.70519960000001],[61.954129099999996,65.6996578],[61.95511690000001,65.6950099],[61.883414699999996,65.6868605],[61.858602,65.6869439],[61.8636739,65.67507599999998],[61.8781413,65.66798209999999],[61.855128,65.66079699999999],[61.8311746,65.6636452],[61.8214522,65.66194990000001],[61.81489069999999,65.65263809999998],[61.8303701,65.6440974],[61.8220418,65.6376971],[61.81099939999999,65.6361935],[61.7854504,65.6248265],[61.7764201,65.6262147],[61.74857320000001,65.6216966],[61.70293160000001,65.60273819999998],[61.7102285,65.59664470000001],[61.7428863,65.5899029],[61.736205000000005,65.58468040000001],[61.7190394,65.57769590000001],[61.688430200000006,65.57457819999999],[61.66924530000001,65.55847199999998],[61.62874420000001,65.56193360000002],[61.62012360000001,65.5600717],[61.605629300000004,65.5507208],[61.5954745,65.5377466],[61.571081899999996,65.5282006],[61.56307880000001,65.5135358],[61.54516830000001,65.50914660000001],[61.524416800000004,65.49494100000001],[61.5209879,65.48729690000002],[61.5113663,65.4793669],[61.5077176,65.46905290000001],[61.493378400000005,65.4561029],[61.47539030000001,65.45412690000002],[61.462569900000005,65.44498590000002],[61.4555238,65.4281907],[61.43469759999999,65.41165610000002],[61.4272375,65.39580049999999],[61.419064999999996,65.3909364],[61.41767049999999,65.38671229999999],[61.4041136,65.38162920000002],[61.3890105,65.3706022],[61.3740228,65.36722280000001],[61.3659744,65.36165090000001],[61.347973499999995,65.3585074],[61.3346552,65.34479470000001],[61.29903040000001,65.32781440000001],[61.284586399999995,65.31026070000001],[61.2878067,65.3025641],[61.284792200000005,65.29656870000001],[61.29793050000001,65.28852370000001],[61.29514410000001,65.2770678],[61.315513900000006,65.2761915],[61.358588,65.2828844],[61.3597354,65.2670468],[61.352071699999996,65.26191840000001],[61.35102319999999,65.25662080000001],[61.3649792,65.25037119999999],[61.3233861,65.21991420000002],[61.2978986,65.22069370000001],[61.28140439999999,65.21196940000003],[61.29830380000001,65.20476640000001],[61.2944878,65.19864869999999],[61.29947680000001,65.1945172],[61.295941000000006,65.1832279],[61.2862699,65.17249379999998],[61.272059600000006,65.1684105],[61.2593246,65.17188019999999],[61.2379404,65.17050829999998],[61.19336560000001,65.17676679999998],[61.16616280000001,65.16768450000001],[61.137373600000004,65.1744949],[61.12597660000001,65.16660350000001],[61.107645999999995,65.1622952],[61.10235970000001,65.1540516],[61.0918643,65.1510895],[61.0969642,65.13749490000001],[61.08189839999999,65.12784729999998],[61.091846499999996,65.1072873],[61.083390800000004,65.101921],[61.081603199999996,65.087528],[61.076999,65.08236109999999],[61.0595091,65.0804058],[61.04128459999999,65.07171360000001],[60.99515480000001,65.0663607],[60.9883344,65.0548572],[60.9873256,65.04515300000001],[60.9690071,65.0321438],[60.95704729999999,65.0293105],[60.9452441,65.0126978],[60.890110400000005,65.0225809],[60.8646729,65.0221929],[60.849877799999994,65.02773179999998],[60.8239699,65.0235155],[60.80760339999999,65.0249671],[60.8062721,65.0187734],[60.79541790000001,65.0110465],[60.794562600000006,65.0045111],[60.76825570000001,64.99108910000001],[60.773757,64.9825171],[60.7520013,64.97937669999999],[60.76562130000001,64.967302],[60.7527685,64.95907009999999],[60.7570005,64.952543],[60.75559220000001,64.9430718],[60.7532317,64.9388829],[60.729440200000006,64.9255054],[60.713973200000005,64.9221153],[60.69069330000001,64.9269993],[60.6461675,64.9259719],[60.6348132,64.9204312],[60.615005200000006,64.91894090000001],[60.5909471,64.9306388],[60.59636030000001,64.93638209999999],[60.5942038,64.94165480000002],[60.5541785,64.95194400000001],[60.5446968,64.96022350000003],[60.5149766,64.96302450000002],[60.492730400000006,64.98252020000001],[60.4899803,64.98878649999999],[60.4663841,64.99237360000001],[60.4344539,65.00674049999999],[60.4284048,65.02347509999998],[60.44891260000001,65.0383076],[60.4395888,65.0431884],[60.4392331,65.0493858],[60.4439058,65.0561993],[60.4262742,65.0573793],[60.42010320000001,65.0656791],[60.3966242,65.0650807],[60.3756563,65.07247999999998],[60.3613742,65.0613814],[60.3555597,65.06016900000002],[60.336043599999996,65.06637029999999],[60.3135104,65.06762640000002],[60.2887666,65.0765031],[60.2178509,65.07934089999999],[60.20355910000001,65.0769432],[60.1738972,65.05166000000001],[60.124019200000006,65.0544901],[60.100455000000004,65.0378415],[60.076784399999994,65.03504769999999],[60.05447939999999,65.0279551],[60.0341857,65.02854879999998],[60.0400621,65.01795720000001],[60.0379165,65.00849799999999],[60.0424006,65.0026519],[60.05746309999999,64.99665850000001],[60.0497745,64.98942860000001],[60.052911900000005,64.9840489],[60.0499096,64.97984779999999],[60.02887820000001,64.9758631],[60.034988399999996,64.9697182],[60.036293300000004,64.959895],[60.02556290000001,64.95583529999999],[60.0099512,64.95530099999999],[60.006433300000005,64.9523572],[60.0094171,64.94477590000001],[60.00426349999999,64.9407765],[59.97330830000001,64.93935940000001],[59.94688299999999,64.94425680000002],[59.937318600000005,64.94227760000001],[59.927969,64.93490420000002],[59.8922899,64.9322398],[59.8802028,64.92062380000002],[59.8797375,64.9155428],[59.88383939999999,64.91236690000001],[59.882491599999994,64.9069763],[59.888641299999996,64.9025179],[59.86521290000001,64.8953134],[59.82571060000001,64.909075],[59.81109969999999,64.91109590000002],[59.788340700000006,64.8982985],[59.76451520000001,64.87961779999999],[59.7402471,64.87563469999999],[59.749699,64.8684606],[59.7374114,64.8643041],[59.72897010000001,64.85487749999999],[59.7276479,64.8521543],[59.735128300000014,64.8492008],[59.736829,64.845162],[59.7073846,64.8374026],[59.724129600000005,64.82594789999999],[59.70560280000001,64.82249979999999],[59.70332930000001,64.81736380000001],[59.692710200000015,64.81578179999998],[59.689003,64.8103862],[59.67907030000001,64.80693889999999],[59.6758855,64.80133719999999],[59.66175230000001,64.79945920000002],[59.64388449999999,64.80557449999999],[59.62463210000001,64.8032661],[59.6328048,64.79646330000001],[59.6244571,64.78494440000001],[59.6452462,64.7788837],[59.6505935,64.7689843],[59.629363100000006,64.76423140000001],[59.631105500000004,64.7582512],[59.627711700000006,64.7555269],[59.63377630000001,64.75241799999999],[59.6400857,64.74288279999999],[59.63601570000001,64.7418918],[59.6368036,64.7342801],[59.62809610000001,64.7294774],[59.62583490000001,64.7244306],[59.638966,64.7228633],[59.639690800000004,64.71774140000001],[59.6614856,64.71131690000001],[59.659484899999995,64.70300360000002],[59.671465399999995,64.69824779999999],[59.6912699,64.69873659999999],[59.70459530000001,64.6940363],[59.724389800000004,64.69299869999999],[59.7449833,64.6813969],[59.75158759999999,64.6678747],[59.7464827,64.66493009999999],[59.746366300000005,64.65810779999998],[59.73535340000001,64.65261629999999],[59.69369030000001,64.65711940000001],[59.67335580000001,64.65080809999998],[59.6603465,64.6519457],[59.656330200000006,64.6571001],[59.61833490000001,64.6499174],[59.615421399999995,64.6451033],[59.63141,64.63848249999998],[59.628332000000015,64.6318525],[59.617294099999995,64.62348219999998],[59.618408,64.6177774],[59.6101446,64.6102706],[59.5978117,64.60237839999998],[59.5722279,64.59326730000001],[59.570745900000006,64.5897295],[59.575070100000005,64.58606540000001],[59.5712223,64.58276719999999],[59.5732071,64.5760991],[59.5587737,64.5669017],[59.5523634,64.55721240000001],[59.558311200000006,64.548422],[59.5567487,64.54400700000001],[59.53632290000001,64.540316],[59.5388315,64.5347218],[59.5272993,64.5226152],[59.49619510000001,64.5197326],[59.48561,64.5094366],[59.466194900000005,64.5058416],[59.4677919,64.4993065],[59.4642822,64.4957976],[59.5071628,64.49043900000001],[59.52731570000001,64.4961523],[59.538853700000004,64.49153670000001],[59.563848300000004,64.49921190000002],[59.598434600000004,64.49746700000001],[59.5971977,64.4925384],[59.6015217,64.488403],[59.5908419,64.48002220000001],[59.5902414,64.47597829999998],[59.6003294,64.4659223],[59.6292471,64.46152600000002],[59.6312256,64.4554902],[59.64535920000001,64.44718300000002],[59.651175300000006,64.4331481],[59.616165900000006,64.40862670000001],[59.62857110000001,64.40216060000002],[59.622630400000006,64.3873756],[59.653528200000004,64.37571969999999],[59.6445036,64.3611311],[59.62586520000001,64.34604960000001],[59.62599900000001,64.34082790000001],[59.6000773,64.3337286],[59.60372,64.32538539999999],[59.6013706,64.31154940000002],[59.58462039999999,64.30018009999999],[59.5779593,64.27692990000001],[59.5712301,64.27378379999999],[59.5738571,64.25240529999999],[59.5598305,64.2477368],[59.5587433,64.24312560000003],[59.56891510000001,64.23613879999999],[59.5826992,64.23429720000001],[59.582874499999996,64.22508079999999],[59.6083611,64.2218414],[59.620648,64.21553279999999],[59.633635700000006,64.21442120000002],[59.62876000000001,64.2093075],[59.6297871,64.2035303],[59.62101880000001,64.196979],[59.6334828,64.1936282],[59.6366785,64.187197],[59.66395320000001,64.17615579999999],[59.66521850000001,64.16899719999999],[59.6777956,64.1643284],[59.67793520000001,64.152629],[59.6817135,64.14769270000001],[59.70507330000001,64.1422345],[59.73261310000001,64.14091940000002],[59.74411280000001,64.13643259999999],[59.76818290000001,64.1426668],[59.82835890000001,64.1344072],[59.815257599999995,64.1136851],[59.8244167,64.1060869],[59.822796800000006,64.09415760000002],[59.8369472,64.08714420000001],[59.8243747,64.08442950000001],[59.8097968,64.0752342],[59.8131856,64.0662583],[59.8113021,64.0632841],[59.768227,64.0406787],[59.7595406,64.0277548],[59.756648,64.01392500000001],[59.7574199,64.007112],[59.76915100000001,64.00056070000001],[59.7538213,63.9838753],[59.7240867,63.97511370000001],[59.7245404,63.96533630000001],[59.72093110000001,63.9608178],[59.6880647,63.9459499],[59.6609485,63.941037099999996],[59.63821870000001,63.9319731],[59.59301790000001,63.9243477],[59.584607299999995,63.9175253],[59.561302000000005,63.90855930000001],[59.560039800000006,63.8973767],[59.562744200000004,63.89311510000001],[59.5599637,63.884864399999984],[59.5767764,63.8737077],[59.5800602,63.8625216],[59.5753994,63.855831599999995],[59.5756372,63.849306399999996],[59.570336100000006,63.844924199999994],[59.5709998,63.8410782],[59.55981739999999,63.835803999999996],[59.555747,63.82931590000001],[59.5416007,63.820747],[59.533329900000005,63.806853],[59.53635270000001,63.8009507],[59.5333971,63.785843],[59.5405366,63.777134700000005],[59.52556820000001,63.76919240000001],[59.53250860000001,63.758777],[59.533813200000004,63.745988800000006],[59.526210600000006,63.73896810000001],[59.521964499999996,63.724037800000005],[59.533146200000004,63.712847399999994],[59.5153602,63.70290880000001],[59.500314100000004,63.6877821],[59.5038669,63.66691500000001],[59.4997891,63.663943700000004],[59.4976662,63.65469939999999],[59.4877456,63.653125300000006],[59.483226599999995,63.647763999999995],[59.48368149999999,63.642070700000005],[59.473758100000005,63.63890730000001],[59.4787884,63.630181300000004],[59.48785149999999,63.6270825],[59.478206300000004,63.6235415],[59.47992,63.614183999999995],[59.47595270000001,63.609258600000004],[59.4777619,63.6044852],[59.4749191,63.59510990000001],[59.47803590000001,63.5899067],[59.475745800000006,63.5788505],[59.4786452,63.5722255],[59.4712987,63.5528003],[59.4651574,63.5462078],[59.4395943,63.5364243],[59.437530800000005,63.52933670000001],[59.450336300000004,63.5152411],[59.4437255,63.507513100000004],[59.4437166,63.5019699],[59.426158400000006,63.488723900000004],[59.4043938,63.4790456],[59.405095900000006,63.4642081],[59.3980646,63.4532507],[59.3906291,63.4482486],[59.389882199999995,63.4392443],[59.38008769999999,63.431274099999996],[59.377966199999996,63.422054700000004],[59.353450699999996,63.41404409999999],[59.310829899999995,63.3874928],[59.319987999999995,63.3827764],[59.3404913,63.38086249999999],[59.3739056,63.36946759999999],[59.3654007,63.359409899999996],[59.3425384,63.356652999999994],[59.3271195,63.34951],[59.335345600000004,63.3414089],[59.3257464,63.334721599999995],[59.3217656,63.321087999999996],[59.32203020000001,63.314057999999996],[59.3349699,63.3081975],[59.3302037,63.304977099999995],[59.331811699999996,63.29993770000001],[59.3427855,63.29337090000001],[59.339437,63.2812078],[59.351674399999986,63.2749054],[59.353514399999995,63.269883],[59.366261599999994,63.266174500000005],[59.3580593,63.2570367],[59.365877,63.251827299999995],[59.334079599999995,63.24823620000001],[59.3315619,63.22937460000001],[59.31760639999999,63.22219300000001],[59.3205584,63.21366749999999],[59.309443699999996,63.20906],[59.304599399999994,63.203292000000005],[59.320320300000006,63.19692800000001],[59.2870228,63.183193100000004],[59.291923100000005,63.176341900000004],[59.2854869,63.17031970000001],[59.2878042,63.1647076],[59.3079969,63.1456293],[59.3058629,63.14019280000001],[59.3093087,63.1317824],[59.322729,63.1238031],[59.2894105,63.1049932],[59.275223700000005,63.1077741],[59.256881299999996,63.104890499999996],[59.23970130000001,63.098666900000005],[59.2378134,63.094317800000006],[59.225311800000014,63.089302800000006],[59.2377612,63.084784299999995],[59.24243020000001,63.0798255],[59.231030700000005,63.0654601],[59.233202000000006,63.0552741],[59.20379390000001,63.027596700000004],[59.2080818,63.0236839],[59.20579550000001,63.01384649999999],[59.2107771,63.0060069],[59.2193887,63.0002439],[59.217390300000005,62.994773900000006],[59.224430100000006,62.982778100000004],[59.273633200000006,62.9822147],[59.28290280000001,62.976190800000005],[59.294268900000006,62.9744725],[59.295147500000006,62.963801399999994],[59.3252041,62.9420256],[59.37720099999999,62.9417113],[59.4148521,62.933238300000006],[59.425696200000004,62.9279262],[59.4340593,62.9182499],[59.4487848,62.917722],[59.46215730000001,62.898071800000004],[59.464500900000004,62.8901776],[59.461375600000004,62.88520139999999],[59.44251080000001,62.8755949],[59.447385499999996,62.8611263],[59.4401257,62.854799899999996],[59.4432693,62.8480933],[59.4398155,62.8394198],[59.4443178,62.829926300000004],[59.44196709999999,62.81268299999999],[59.4356441,62.8041852],[59.4333244,62.7782615],[59.4179429,62.7700249],[59.41443699999999,62.7598429],[59.387238499999995,62.757946399999994],[59.358958300000005,62.7505493],[59.389112000000004,62.741089599999995],[59.3917891,62.73696210000001],[59.3861743,62.729577600000006],[59.3702748,62.725215100000014],[59.39553210000001,62.72152270000001],[59.4003942,62.712119400000006],[59.4106053,62.70524890000001],[59.4077175,62.699644],[59.41168649999999,62.694642900000005],[59.4025744,62.6758547],[59.40404449999999,62.671573900000006],[59.425944900000005,62.66081690000001],[59.4426519,62.659514],[59.429222200000005,62.649506800000005],[59.4260749,62.63281690000001],[59.4372166,62.621090800000005],[59.4600546,62.6145749],[59.471717,62.6046229],[59.469098900000006,62.5925415],[59.45688379999999,62.5868548],[59.458122900000006,62.580896599999996],[59.4429534,62.56547330000001],[59.4644439,62.5602771],[59.508500000000005,62.5628207],[59.52637280000001,62.557736399999996],[59.5338079,62.549483699999996],[59.55106129999999,62.54556590000001],[59.6145292,62.5438481],[59.635446800000004,62.5484543],[59.6298448,62.522175900000015],[59.6191882,62.5141273],[59.62376220000001,62.5045148],[59.62022830000001,62.49071130000001],[59.6096565,62.4800057],[59.6105447,62.46073620000001],[59.6057684,62.4434556],[59.5824325,62.419286799999995],[59.591329,62.4137693],[59.6196659,62.4065546],[59.617597599999996,62.389871899999996],[59.61217290000001,62.385350700000004],[59.6132219,62.36695530000001],[59.57871920000001,62.3587067],[59.5767785,62.335528800000006],[59.5502459,62.3258992],[59.5277594,62.32810880000001],[59.5143112,62.3215385],[59.51446639999999,62.311574699999994],[59.494087799999996,62.29909820000001],[59.5002948,62.28550560000001],[59.5118989,62.27857120000001],[59.501465499999995,62.25845230000001],[59.489865099999996,62.2459604],[59.46899630000001,62.2447485],[59.45464549999999,62.23621520000001],[59.45776599999999,62.226984200000004],[59.4492059,62.217826099999996],[59.4567582,62.2068491],[59.43505510000001,62.19289220000001],[59.4349593,62.1898022],[59.442173100000005,62.1845135],[59.4327649,62.174576300000005],[59.4095833,62.1644946],[59.3995448,62.1556258],[59.4049554,62.13690290000001],[59.3990291,62.1277978],[59.4013692,62.104504],[59.4088485,62.098066800000005],[59.431452300000004,62.0946998],[59.433944,62.0826016],[59.429432000000006,62.072893],[59.43679890000001,62.06633090000001],[59.4369541,62.057123],[59.424375500000004,62.0493685],[59.4335216,62.03843930000001],[59.442716100000005,62.0163511],[59.44165099999999,62.0055445],[59.4376121,62.00013380000001],[59.46531320000001,61.995063300000005],[59.469957300000004,61.98475439999999],[59.477807999999996,61.98049449999999],[59.48152149999999,61.961610900000004],[59.4887706,61.950032900000004],[59.4866989,61.9460689],[59.4558109,61.9373263],[59.4479708,61.933122000000004],[59.447061999999995,61.92812250000001],[59.4021235,61.908123800000006],[59.39632890000001,61.899488],[59.3967839,61.89073890000001],[59.403715600000005,61.88380769999999],[59.3870128,61.8764219],[59.3645146,61.8735809],[59.32758739999999,61.8422195],[59.330655900000004,61.832675],[59.334860299999995,61.83017530000001],[59.32577030000001,61.824266699999995],[59.326452700000004,61.81460839999999],[59.3156587,61.802336600000004],[59.32815850000001,61.7875654],[59.327818,61.783702100000006],[59.3422485,61.785179400000004],[59.354861599999985,61.779498200000006],[59.3597481,61.76961280000001],[59.3910527,61.76518180000001],[59.4185512,61.75370590000001],[59.40162169999999,61.737911600000004],[59.399747399999995,61.727571600000005],[59.369295900000004,61.7138224],[59.367364699999996,61.7056413],[59.3713419,61.700982700000004],[59.3452081,61.68984699999999],[59.3605043,61.673065300000005],[59.3489689,61.6630673],[59.2940346,61.655185700000004],[59.28188109999999,61.6416956],[59.267125500000006,61.63881260000001],[59.2436838,61.62705330000001],[59.23632500000001,61.62637050000001],[59.22995200000001,61.6319085],[59.206698900000006,61.63979810000001],[59.19721580000001,61.63866],[59.18746779999999,61.62819070000001],[59.16903230000001,61.6318319],[59.148321200000005,61.6297074],[59.123438500000006,61.6103617],[59.118053,61.5946577],[59.090423,61.5743375],[59.0824092,61.5603814],[59.0752919,61.5586908],[59.058334300000006,61.541578],[59.048309200000006,61.5363941],[59.023314000000006,61.5384061],[58.997164399999996,61.535161300000006],[58.9841565,61.532422000000004],[58.974044199999994,61.52207530000001],[58.9189484,61.531536300000006],[58.8441082,61.517879799999996],[58.84388179999999,61.4950446],[57.0926875,61.50185],[57.0805507,61.475297399999995],[56.6531242,61.524300100000005],[56.637194300000004,61.492588700000006],[56.6394705,61.4884921],[56.597365200000006,61.4928916],[56.5663405,61.4189994],[56.3782697,61.4431218],[56.3228946,61.332511100000005],[56.311971799999995,61.301254899999996],[56.3260833,61.291241],[56.274500700000004,61.19185830000001],[55.81308669999999,61.246777900000005],[55.7314992,61.095603200000006],[55.2758778,61.14871320000001],[55.1999605,60.9915626],[55.050050399999996,61.009161],[54.9768506,60.859908],[53.8758313,60.982651],[53.81382419999999,60.83160409999999],[53.66397690000001,60.8471196],[53.355153200000004,60.8826609],[53.398251300000005,61.0003892],[53.413588399999995,61.033484599999994],[52.8707305,61.09013110000001],[52.8064639,60.9377462],[52.4314333,60.976415900000006],[52.3609435,60.829175400000004],[51.892312300000015,60.881543099999995],[51.8335047,60.726085700000006],[51.7715414,60.57991200000001],[52.1528144,60.541242399999994],[52.124069399999996,60.464575800000006],[52.355027799999995,60.4380924],[52.332942300000006,60.3608143],[52.37189409999999,60.3563687],[52.317282299999995,60.227188000000005],[52.0654574,60.30848749999999],[51.97386939999999,60.27933390000001],[51.8943912,60.2158761],[51.85785679999999,60.19055710000001],[51.859138900000005,60.1879932],[51.766357600000006,60.0858651],[51.665251000000005,60.027746300000004],[51.6091672,59.98960739999999],[51.5513213,59.9415334],[51.504668499999994,59.93210860000001],[51.467194,59.915572600000004],[51.450527799999996,59.926469],[51.4348239,59.92550730000001],[51.4184781,59.937685599999995],[51.3902718,59.9940912],[51.3091867,60.012357900000005],[51.1790655,60.0488917],[51.123985600000005,60.0350881],[51.112403900000004,60.040558100000005],[51.0476653,60.031904],[50.911462799999995,59.92293610000001],[50.873173300000005,59.91169649999999],[50.8665684,59.9003545],[50.8727075,59.8861823],[50.8614689,59.8761441],[50.831023099999996,59.8633241],[50.78166759999999,59.8604391],[50.735837000000004,59.87069399999999],[50.4746392,59.836077599999996],[50.402528700000005,59.838961],[50.28883230000001,59.80553590000001],[50.26890120000001,59.74879980000001],[50.10612280000001,59.75182409999999],[49.9868683,59.76970680000001],[49.979165800000004,59.75146159999999],[49.97211510000001,59.750500100000004],[49.9822406,59.723801],[50.0092942,59.70979870000001],[50.024357300000005,59.70915790000001],[50.084931499999996,59.680314800000005],[50.076919700000005,59.673263999999996],[50.0666642,59.6703794],[50.018525600000004,59.6744372],[49.997117700000004,59.67133990000001],[49.974509399999995,59.6575504],[49.8594143,59.6552653],[49.798428400000006,59.48507],[49.8721915,59.478513500000005],[49.8314543,59.363961399999994],[49.868893,59.360468999999995],[49.817400199999994,59.21053520000001],[49.8041821,59.2117797],[49.8050819,59.216684199999996],[49.79692200000001,59.22158820000001],[49.794653600000004,59.21985230000001],[49.79853120000001,59.215562500000004],[49.794825900000006,59.215071200000004],[49.768789100000006,59.22099250000001],[49.7509477,59.20681020000001],[49.72592380000001,59.19862620000001],[49.5238455,59.216619900000005],[49.52691130000001,59.220515100000014],[49.52577990000001,59.22510800000001],[49.5353616,59.2343613],[49.5075855,59.24621870000001],[49.5304439,59.26210490000001],[49.571820599999995,59.3931447],[49.499788200000005,59.3956567],[49.3444539,59.4093315],[49.361789599999994,59.4587516],[49.35044599999999,59.4593222],[49.351719499999994,59.4651245],[49.216094,59.4750297],[49.220259600000006,59.489612],[49.196698500000004,59.4882826],[49.151193,59.507077599999995],[49.11786239999999,59.49970590000001],[49.0965414,59.48143099999999],[49.0396637,59.4823984],[49.101547399999994,59.661698900000005],[48.876736,59.6808952],[48.875856399999996,59.6771497],[48.8535959,59.6806967],[48.84728009999999,59.67903290000001],[48.8224774,59.69057200000001],[48.807417599999994,59.70244580000001],[48.8011858,59.686542200000005],[48.5232237,59.7068443],[48.5121204,59.7782014],[48.5060242,59.899666399999994],[48.50933200000001,59.89934590000001],[48.4999278,60.0214517],[48.4835825,60.0272203],[48.4819763,60.0916384],[48.472056200000004,60.13227030000001],[48.49222590000001,60.195156200000014],[48.6788736,60.2740902],[48.681263099999995,60.279949],[48.773750500000006,60.3177151],[48.7850891,60.352692],[48.68011690000001,60.400813],[48.676327300000004,60.390446],[48.530512400000006,60.40042939999999],[48.56255350000001,60.420853900000004],[48.60549580000001,60.4155561],[48.6329076,60.423506],[48.629703400000004,60.4272136],[48.6180849,60.424627599999994],[48.60871010000001,60.432239100000004],[48.59903070000001,60.4319906],[48.59893500000001,60.43512330000001],[48.5666452,60.440490999999994],[48.5551066,60.458758700000004],[48.49613560000001,60.47221830000001],[48.49837870000001,60.4757437],[48.5137621,60.478948700000004],[48.5076725,60.4834355],[48.5208114,60.5039469],[48.4968025,60.5172508],[48.560666,60.5515126],[48.502164900000004,60.67311350000001],[48.5017925,60.680725900000006],[48.41967749999999,60.8372063],[48.426618100000006,60.88086549999999],[48.4485471,60.957719999999995],[48.474967199999995,61.02213950000001],[48.83056439999999,61.114024199999996],[48.8524981,61.1150607],[48.865191700000004,61.1219691],[48.923591,61.1371611],[48.9593556,61.10567330000001],[49.090527200000004,61.160499800000004],[49.12675300000001,61.17223030000001],[49.3208192,61.1527734],[49.35368409999999,61.24850930000001],[49.502104,61.605036000000005],[49.04031020000001,61.648689499999996],[49.176723300000006,61.9736421],[49.2272618,62.1022],[49.2472422,62.103978700000006],[49.272112100000015,62.102079200000006],[49.284115500000006,62.09810720000001],[49.300003999999994,62.106915400000005],[49.29110920000001,62.113564399999994],[49.293786000000004,62.1164141],[49.280055600000004,62.1173638],[49.288487599999996,62.140472],[49.3745726,62.1339064],[49.469642300000004,62.365154100000005],[49.5671735,62.6218908],[49.5763215,62.621038600000006],[49.640876999999996,62.7707677],[48.7413317,62.85169989999999],[48.681412900000005,62.70213610000001],[48.3522311,62.73373630000001],[48.287303800000004,62.5836541],[48.2886858,62.580372800000006],[48.2539941,62.50747],[48.29801920000001,62.476922300000005],[48.3206534,62.3375492],[48.322900700000005,62.3071531],[48.151639499999995,62.31508349999999],[47.659359300000006,62.328386],[47.642617200000004,62.175714000000006],[47.389083299999996,62.181409499999994],[47.402889099999996,62.334426799999996],[47.231909200000004,62.33718749999999],[47.2412248,62.48813230000001],[47.24535910000001,62.63873160000001],[47.23050550000001,62.6501299],[47.0850749,62.8090167],[47.0608946,62.826286999999994],[47.28851610000001,62.911606899999995],[47.42287890000001,62.955130700000005],[47.4427395,62.964975300000006],[47.409061599999994,62.9648021],[47.4703693,63.0103972],[47.530813800000004,63.0499478],[47.5423804,63.115057900000004],[47.5598239,63.1133311],[47.5673571,63.144878],[47.3900498,63.15633220000001],[47.23049880000001,63.22219360000001],[47.16017020000001,63.2454448],[47.0510187,63.253905700000004],[47.03201800000001,63.29241870000001],[46.9427243,63.3494102],[46.9458288,63.4038124],[46.9392623,63.453551499999996],[47.01196699999999,63.5179718],[47.0173162,63.5777279],[46.9912367,63.588608],[46.99952570000001,63.5996613],[46.88138609999999,63.703282800000004],[46.809881299999994,63.756647699999995],[46.499691,63.8645839],[46.408327,63.8891066],[46.3345799,63.9044762],[46.19953860000001,63.92502530000001],[46.151162,63.9438503],[45.9433945,63.956627299999994],[45.80436439999999,63.99911090000001],[45.594518400000005,64.05696360000002],[45.399349900000004,64.17491849999999],[45.7140431,64.2574417],[45.85200639999999,64.27803069999999],[46.26287830000001,64.2526493],[46.261324200000004,64.24971340000002],[46.32108099999999,64.2479873],[46.35009449999999,64.2635312],[46.3709917,64.2678491],[46.392925600000005,64.26681320000002],[46.3991436,64.26042320000002],[46.630221,64.3169015],[46.962680399999996,64.337804],[47.344534499999995,64.3543896],[47.9600638,64.3440367],[48.1614404,64.3452487],[48.1566056,64.33160480000001],[48.16576370000001,64.27616660000001],[48.188750500000005,64.2306363],[48.4647256,64.20432560000002],[48.5244702,64.3556166],[48.8837901,64.3266937],[48.89311610000001,64.3292844],[48.8989015,64.3333431],[48.88551590000001,64.34266910000001],[48.96106449999999,64.47755320000002],[49.4831632,64.42505849999999],[49.5524068,64.57583149999998],[49.9054231,64.54751310000002],[49.912503300000004,64.5578755],[50.3606832,64.51038809999999],[50.443222999999996,64.69069400000001],[50.498912200000014,64.79268350000001],[50.3679242,64.8171628],[50.23293160000001,64.83088],[49.923782200000005,65.07205809999998],[49.8228998,65.14421800000001],[49.635408000000005,65.28799760000001],[49.5204766,65.27874879999997],[49.0521606,65.2254529],[49.0157734,65.8565846],[49.00088939999999,65.9974923],[49.0004687,66.11357109999999],[50.3466287,66.4730566],[51.54494739999999,66.77497460000001],[51.5463638,66.78481900000001],[51.541555800000005,66.7853198],[51.5380866,66.78993779999999],[51.536015000000006,66.79862700000001],[51.519866199999996,66.8018913],[51.5161657,66.80697849999999],[51.5165907,66.8133022],[51.49523790000001,66.8178121],[51.48764729999999,66.82245219999999],[51.485867899999995,66.82400609999999],[51.491011300000004,66.83065970000001],[51.4839203,66.83455000000001],[51.5080515,66.8523532],[51.5358461,66.8575029],[51.5331074,66.8581167],[51.5372827,66.8628193],[51.529167,66.87009479999999],[51.529239700000005,66.8742862],[51.541027099999994,66.87903789999999],[51.5438059,66.88391560000001],[51.5308737,66.88687029999998],[51.5100717,66.89796650000001],[51.5069092,66.91291090000001],[51.4997437,66.91590640000001],[51.499489,66.9222841],[51.50807280000001,66.9244061],[51.5200954,66.93922950000002],[51.5317957,66.93961450000002],[51.5436079,66.9452318],[51.571388999999996,66.94168560000003],[51.6112149,66.94972350000002],[51.619083499999995,66.9485348],[51.62607570000001,66.94199680000001],[51.6515443,66.9387986],[51.697632000000006,66.920793],[51.726633500000005,66.91904390000002],[51.755219200000006,66.9294451],[51.777953000000004,66.9217842],[51.77506,66.9326891],[51.7769014,66.93746140000002],[51.8019207,66.94368650000001],[51.78111530000001,66.94734990000002],[51.7500786,66.9439741],[51.747624699999996,66.94595490000002],[51.749077,66.9488571],[51.7869836,66.9608461],[51.8019052,66.94912160000003],[51.83165639999999,66.94552350000002],[51.822041399999996,66.9576401],[51.8234436,66.9629515],[51.8465798,66.9715335],[51.84447649999999,66.9767243],[51.866136000000004,66.9721148],[51.841471799999994,66.9827169],[51.8380665,66.98710260000001],[51.8433247,66.991331],[51.86851420000001,66.9938364],[51.869665999999995,66.99669380000002],[51.836413900000004,66.99432570000002],[51.8253465,66.9988072],[51.8662607,67.0035031],[51.8783797,67.00162490000002],[51.8836379,66.99450180000001],[51.8891839,66.99350910000001],[51.904871199999995,67.0024466],[51.923695,67.00316660000001],[51.9313628,67.00637889999999],[51.9347918,67.00552920000001],[51.9339595,67.00073869999999],[51.9490978,67.0005288],[51.954814899999995,67.0032065],[51.9540337,67.0054399],[51.929816,67.01419140000002],[51.9495913,67.02044],[51.996290300000005,67.0247832],[52.0017731,67.0270668],[52.0049281,67.0327344],[52.008272600000005,67.0319784],[52.01088039999999,67.02509249999999],[52.059513700000004,67.02952940000002],[52.0610661,67.0326366],[52.048897,67.0364273],[52.0563086,67.04037360000001],[52.0554072,67.04308879999999],[52.0429377,67.04629190000001],[52.0520072,67.04998950000001],[52.0305643,67.0497075],[52.0296436,67.05719020000001],[52.0372707,67.0596627],[52.0647079,67.05566340000001],[52.0728207,67.0671008],[52.1522299,67.10117199999999],[53.8754797,67.0014801],[59.97811060000001,67.00049609999999],[59.96681290000001,66.99360870000001],[59.9670457,66.9889689],[59.97484299999999,66.98109720000001],[59.9718172,66.9786397],[59.9325977,66.97804799999999],[59.9161883,66.9731776],[59.910253,66.9624774],[59.92811870000001,66.9506583],[59.930508200000006,66.95456360000003],[59.937724599999996,66.9525248],[59.9440929,66.9564963],[59.9758131,66.95557029999999],[59.98064749999999,66.95652980000001],[59.9789498,66.95862580000001],[59.9882055,66.95833009999998],[59.9883736,66.96165170000002],[59.9933746,66.9633041],[60.0006115,66.9603551],[60.015954,66.96613980000001],[60.0182898,66.96524930000001],[60.0134528,66.96224340000002],[60.0167625,66.9610071],[60.0319688,66.96068360000002],[60.0367837,66.96443460000002],[60.0480072,66.9647807],[60.057077699999994,66.9722377],[60.07847890000001,66.97837719999998],[60.1098549,67.0006373],[61.320977,67.00061950000001],[61.32066,66.99599960000002],[61.3350298,66.992889],[61.3457276,66.9937327],[61.3377992,66.9973774],[61.34511010000001,67.0013577],[61.35374959999999,66.99550540000001],[61.369038,66.9917371],[61.380548399999995,66.99419290000002],[61.3742109,66.9884129],[61.3821463,66.98128670000001],[61.3799254,66.9749687],[61.3852931,66.97280809999998],[61.3930098,66.97651809999999],[61.3854537,66.97818109999999],[61.38744429999999,66.9792985],[61.413443799999996,66.9786179],[61.422488300000005,66.98386430000001],[61.448992800000006,66.9813483],[61.458989499999994,66.9838943],[61.4600236,66.98849129999999],[61.4493375,67.0002719],[61.4673775,67.01105950000002],[61.475459,67.0097431],[61.4722034,67.005195],[61.4790211,67.0018282],[61.5080535,67.01090990000002],[61.514526399999994,67.0101769],[61.51552220000001,67.0064967],[61.50395520000001,67.0025615],[61.5016188,66.9988651],[61.514526399999994,66.99452450000003],[61.5298852,66.99753310000001],[61.5457802,67.00835179999999],[61.557806899999996,67.0095187],[61.6010107,66.99221920000002],[61.60311730000001,66.9930575],[61.59859780000001,66.99729360000003],[61.59802320000001,67.00275599999999],[61.603845,67.0057935],[61.6133055,67.00637699999999],[61.6310007,67.00082560000001],[61.646091399999996,67.0033695],[61.6463978,67.0064069],[61.638048100000006,67.0128395],[61.638946600000004,67.01914440000002],[61.65363,67.0138403],[61.6810222,67.01426050000002],[61.6854268,67.0155018],[61.67863260000001,67.0211051],[61.688988900000005,67.0219171],[61.69542890000001,67.02752410000001],[61.716050100000004,67.03056620000001],[61.716700100000004,67.0355437],[61.707871,67.0426329],[61.713612600000005,67.04760790000002],[61.7071114,67.05535189999999],[61.72677500000001,67.0602678],[61.7449278,67.07548539999999],[61.74311320000001,67.07803819999998],[61.7196051,67.0806013],[61.742923600000005,67.0839339],[61.7310612,67.09422430000002],[61.73260500000001,67.0994838],[61.7386174,67.1021184],[61.74823190000001,67.1017074],[61.75895680000001,67.0934443],[61.780596300000006,67.0968489],[61.7768859,67.10071679999999],[61.7848754,67.1100942],[61.80908769999999,67.10692320000001],[61.812608499999996,67.10898809999998],[61.808139800000006,67.1115479],[61.8094058,67.1144512],[61.8327854,67.11516060000001],[61.849631099999996,67.1201102],[61.84434459999999,67.1246153],[61.8466506,67.12615279999999],[62.150142200000005,67.1961101],[62.48449769999999,67.2792897],[62.7535116,67.35032279999999],[62.8656016,67.3700197],[62.8509951,67.3791638],[62.8497784,67.38277979999998],[62.882866099999994,67.38808519999999],[62.884608199999995,67.3935919],[62.8768103,67.40499450000002],[62.89637930000001,67.3995582],[62.9009271,67.40302090000002],[62.8973955,67.4051343],[62.9045832,67.4052882],[62.908503200000006,67.41151480000002],[62.914845199999995,67.4123989],[62.905158500000006,67.41970160000001],[62.9086178,67.4205473],[62.906772700000005,67.4221615],[62.9092709,67.42481370000002],[62.9043124,67.42696600000001],[62.9086939,67.4303485],[62.9009291,67.4369978],[62.9173023,67.44806750000001],[62.907039499999996,67.44987390000001],[62.9086919,67.4544479],[62.9054935,67.4575787],[62.9088957,67.4608317],[62.894267799999994,67.46432370000002],[62.895756600000006,67.46936090000001],[62.889875599999996,67.4717054],[62.88424109999999,67.48169690000002],[62.8539926,67.48952660000002],[62.854415599999996,67.49514300000001],[62.857517699999995,67.495979],[62.852836999999994,67.49942130000001],[62.8570588,67.5005733],[62.84835830000001,67.50607269999999],[62.8353625,67.5055108],[62.8449258,67.50935199999999],[62.8432921,67.51326970000002],[62.836142300000006,67.5150516],[62.837772900000004,67.51690380000001],[62.8453511,67.52249009999998],[62.879694099999995,67.51967520000001],[62.898047,67.5224244],[62.898228700000004,67.5279121],[62.909416900000004,67.53024370000001],[62.9049001,67.5328529],[62.9058086,67.53752490000002],[62.9267574,67.5404307],[62.922803900000005,67.54416250000001],[62.9268972,67.55131300000001],[62.9183802,67.5544038],[62.92021570000001,67.562518],[62.914213399999994,67.5674987],[62.920068900000004,67.574369],[62.92829880000001,67.5775098],[62.9308502,67.586533],[62.91789119999999,67.59234119999999],[62.91460739999999,67.6002497],[62.925413400000004,67.594727],[62.935194300000006,67.59380809999999],[62.9364134,67.5974621],[62.93231270000001,67.59933109999999],[62.9370784,67.6006404],[62.941234599999994,67.60012300000001],[62.94442099999999,67.59462130000001],[62.9533983,67.59499100000001],[62.943617399999994,67.59764160000002],[62.9485297,67.6012183],[62.9443369,67.60483889999999],[62.96704449999999,67.60821390000001],[62.968810000000005,67.60984009999999],[62.9660773,67.611477],[62.972503,67.61526490000001],[62.987954599999995,67.614727],[63.0376912,67.6249516],[63.0585576,67.62577149999997],[63.0666457,67.6296005],[63.061348300000006,67.63558929999999],[63.085509,67.6338247],[63.086421099999995,67.6315061],[63.082371300000005,67.63017769999999],[63.0857887,67.6291548],[63.094143900000006,67.63097379999999],[63.093499300000005,67.6331629],[63.0887076,67.6315755],[63.0884643,67.6341487],[63.0772147,67.63590719999999],[63.0944425,67.63743729999999],[63.0909775,67.6413419],[63.10637090000001,67.64341590000001],[63.1171377,67.64872749999999],[63.1075749,67.65172940000001],[63.12202230000001,67.6512782],[63.119924,67.6528542],[63.12372500000001,67.65647029999998],[63.116487799999994,67.6630847],[63.1447251,67.67094269999998],[63.136954700000004,67.67194049999999],[63.136658700000005,67.6770264],[63.1502117,67.68437209999998],[63.1461218,67.6902305],[63.153326,67.69441460000002],[63.228196900000015,67.6990587],[63.22602570000001,67.7062728],[63.2314516,67.71006330000002],[63.2594566,67.71090000000001],[63.26629530000001,67.71524020000001],[63.3079463,67.71433520000001],[63.316959399999995,67.72279259999999],[63.3133431,67.7283334],[63.3013726,67.7328922],[63.33044449999999,67.73936900000001],[63.324809599999995,67.74136800000001],[63.330421699999995,67.7430989],[63.328272600000005,67.74754390000003],[63.3342099,67.7524806],[63.38442769999999,67.7532891],[63.387786899999995,67.75465700000001],[63.3865557,67.7569082],[63.4096531,67.76612350000002],[63.42891800000001,67.7695458],[63.43513110000001,67.76490640000002],[63.462727300000005,67.7628207],[63.491742900000006,67.75570979999999],[63.49510480000001,67.7425777],[63.52850050000001,67.74061010000001],[63.55128919999999,67.7331343],[63.5543626,67.73309960000002],[63.554184799999994,67.73824390000001],[63.5602062,67.7424651],[63.570581499999996,67.73833529999999],[63.59953910000001,67.73664460000002],[63.612064,67.7319889],[63.679416100000005,67.73546990000001],[63.6751215,67.7375523],[63.676919100000006,67.73868960000001],[63.69017720000001,67.73755920000002],[63.69827080000001,67.73256],[63.70301560000001,67.73410550000001],[63.70011390000001,67.73712710000001],[63.7040284,67.73847869999999],[63.72101850000001,67.7367122],[63.7212466,67.7331305],[63.72678530000001,67.7314743],[63.7264819,67.7282208],[63.744244599999995,67.72142910000001],[63.7580262,67.7244008],[63.7546518,67.72734779999999],[63.7579488,67.73085920000001],[63.751367699999996,67.73351920000002],[63.75801980000001,67.7384059],[63.753922700000004,67.74031970000001],[63.770794900000006,67.74055670000001],[63.77391130000001,67.74668570000001],[63.7494062,67.74506320000002],[63.759161399999996,67.74861820000001],[63.749042200000005,67.75443960000001],[63.7310833,67.7534593],[63.73297080000001,67.75678809999998],[63.7059574,67.76316320000002],[63.710008800000004,67.76750160000002],[63.6914421,67.774719],[63.702023600000004,67.777301],[63.69997180000001,67.7834105],[63.70731430000001,67.78469860000001],[63.7067465,67.79047940000001],[63.712566300000006,67.7933229],[63.701701,67.79446410000001],[63.7173925,67.79739500000001],[63.706185000000005,67.8062553],[63.7478149,67.8157942],[63.75215070000001,67.81391330000001],[63.747272900000006,67.810083],[63.7589899,67.8061837],[63.7580608,67.8038049],[63.763365500000006,67.8002093],[63.77572370000001,67.8080557],[63.76401890000001,67.8114489],[63.76895610000001,67.81337679999999],[63.76841870000001,67.81633169999999],[63.798547000000006,67.829297],[63.804099099999995,67.82894139999999],[63.8055013,67.82502779999999],[63.81344449999999,67.82133219999999],[63.83043,67.82681709999999],[63.8432307,67.82258609999998],[63.868333400000004,67.8266602],[63.86928339999999,67.8310562],[63.893958600000005,67.83998009999999],[63.9074124,67.8398457],[63.91068979999999,67.8461872],[63.924583,67.8459901],[63.925959600000006,67.85070979999999],[63.9117358,67.8546792],[63.9219376,67.85731879999999],[63.917485299999996,67.8636841],[63.9317506,67.868422],[63.92615850000001,67.87096199999999],[63.926830200000005,67.87314119999999],[63.949190200000004,67.87293879999997],[63.95658749999999,67.8838695],[63.95082749999999,67.88965370000001],[63.9967946,67.89268990000001],[63.9977802,67.90140260000001],[63.9821638,67.9065709],[63.964874599999995,67.90638779999999],[63.9567524,67.9124343],[63.930815800000005,67.92095900000001],[63.932555400000005,67.92465000000001],[63.9228064,67.93123380000002],[63.9311779,67.9344771],[63.929551100000005,67.93711780000001],[63.94390739999999,67.94030000000001],[63.949832900000004,67.94518920000002],[63.9361446,67.94972330000002],[63.937962399999996,67.9513577],[63.9279242,67.9524044],[63.936123300000006,67.95484490000001],[63.93248739999999,67.9568029],[63.94129449999999,67.9585986],[63.9404336,67.96318140000001],[63.9298297,67.96489890000001],[63.9304293,67.9681151],[63.92415880000001,67.97340460000001],[63.91189979999999,67.97537519999999],[63.910690699999996,67.9778815],[63.9150233,67.9805921],[63.912286099999996,67.9813476],[63.91188719999999,67.9861163],[63.9013603,67.9869301],[63.8969825,67.99306020000002],[63.910898599999996,67.99804390000001],[63.8949748,68.000676],[63.8775492,68.02878889999998],[63.8787273,68.03123760000001],[63.867710900000006,68.0329095],[63.877518,68.03639199999999],[63.8965575,68.0340075],[63.9012384,68.0361474],[63.89811780000001,68.03833379999999],[63.9230202,68.03990540000001],[63.9228745,68.0430716],[63.964232900000006,68.04416060000003],[63.9538309,68.04755170000001],[63.97619520000001,68.0487416],[63.97517580000001,68.05283189999999],[63.9851201,68.0572713],[63.997061599999995,68.05486900000001],[64.01208209999999,68.0581187],[64.0208406,68.0552189],[64.03271960000001,68.056696],[64.04709120000001,68.06257769999999],[64.0469405,68.0679211],[64.0711248,68.06760240000001],[64.0830992,68.07465640000001],[64.09369090000001,68.07538139999998],[64.07659709999999,68.0801816],[64.07550849999998,68.0844427],[64.0799512,68.0864302],[64.1004274,68.0819278],[64.11096020000001,68.0827844],[64.08205009999999,68.08843309999999],[64.0826275,68.09196350000002],[64.1069295,68.09411500000002],[64.11810960000001,68.09022900000002],[64.1466777,68.0950261],[64.1603435,68.09278629999999],[64.16728690000001,68.1002386],[64.1781434,68.1006995],[64.1677282,68.10603199999998],[64.16814009999999,68.10983859999999],[64.1985912,68.1045509],[64.21692060000002,68.11378709999998],[64.25746320000002,68.11045279999999],[64.2708205,68.1197854],[64.30762650000001,68.1132168],[64.3230433,68.12337049999998],[64.34077509999999,68.12353239999999],[64.3368915,68.1300213],[64.33924520000001,68.1310076],[64.36772500000001,68.1275662],[64.37513919999999,68.1362893],[64.36922170000001,68.1405886],[64.37236979999999,68.14585709999999],[64.39742120000001,68.1603667],[64.3898902,68.1620692],[64.381527,68.15773509999998],[64.3634275,68.1571469],[64.3532335,68.15846269999999],[64.351486,68.161868],[64.37290209999998,68.1637197],[64.3745202,68.16544869999998],[64.3701659,68.1681404],[64.3778154,68.17252749999999],[64.3748439,68.17672779999998],[64.40400040000002,68.17868549999999],[64.45120990000002,68.2005792],[64.50025460000002,68.1994449],[64.5021565,68.1907214],[64.5079773,68.18726330000001],[64.52316330000001,68.188623],[64.54961630000001,68.1973045],[64.57673209999997,68.19394360000001],[64.5827834,68.20213079999999],[64.56102740000001,68.208411],[64.5766457,68.21158790000001],[64.5682026,68.2352671],[64.5766457,68.24682520000002],[64.5620804,68.25402930000001],[64.5797056,68.26521430000001],[64.5646885,68.26977889999999],[64.5637104,68.27306779999999],[64.56847839999999,68.27475729999999],[64.5669706,68.27622050000001],[64.5463513,68.2740807],[64.5287159,68.280949],[64.5280243,68.29062940000003],[64.5318627,68.29326930000002],[64.5323237,68.29920490000002],[64.52903869999999,68.3017619],[64.54010400000001,68.30758879999999],[64.528203,68.32579479999998],[64.55713420000001,68.3335306],[64.54465690000002,68.3361902],[64.5428127,68.33985990000001],[64.5577682,68.3426357],[64.5777664,68.34076390000001],[64.58433649999999,68.34424150000001],[64.57871729999998,68.34714440000002],[64.5779969,68.35225799999999],[64.5847399,68.3568179],[64.6061213,68.3626095],[64.65424390000001,68.3670398],[64.6636379,68.3762589],[64.6611309,68.38174829999998],[64.6636955,68.3846463],[64.689601,68.3946011],[64.7233445,68.3925426],[64.73489970000001,68.38638709999998],[64.7527655,68.38698149999999],[64.7718129,68.39092960000002],[64.7776625,68.39452680000001],[64.7775184,68.40132700000001],[64.8041731,68.40901600000001],[64.82422900000002,68.4085812],[64.8385217,68.4051983],[64.8487514,68.39879179999998],[64.87556879999998,68.40474350000001],[64.8715545,68.399673],[64.8789232,68.39406490000002],[64.87532139999999,68.39148300000001],[64.8845048,68.3894072],[64.91720050000002,68.3964706],[64.92326640000002,68.3944805],[64.94079640000001,68.40379490000001],[64.94966200000002,68.40451040000002],[64.95785120000001,68.40112230000001],[64.96844990000001,68.40324700000001],[64.98991290000001,68.3882012],[65.0276921,68.3831229],[65.0295582,68.3805412],[65.03466150000001,68.3825337],[65.03118560000001,68.3847507],[65.04354000000001,68.38808749999998],[65.06152220000001,68.38700109999999],[65.05337079999998,68.3980007],[65.05571499999999,68.40197370000001],[65.1151104,68.41505340000002],[65.12918679999999,68.4143828],[65.14702740000001,68.4054015],[65.16985209999999,68.40766390000003],[65.16459320000001,68.40313400000001],[65.22286360000001,68.40194310000001],[65.24719470000002,68.39479440000001],[65.2534215,68.39525560000001],[65.2515379,68.3969084],[65.2595322,68.40432660000002],[65.280922,68.40667140000001],[65.29053160000001,68.4030585],[65.28999370000001,68.4001375],[65.29622040000002,68.4005218],[65.2951445,68.39721640000002],[65.30037209999998,68.3944491],[65.33350440000001,68.3987542],[65.34126830000001,68.40221360000002],[65.3408069,68.4051347],[65.34718690000001,68.41051580000001],[65.35579649999998,68.4137445],[65.3773215,68.4086712],[65.38208729999998,68.4134373],[65.37947319999999,68.418434],[65.3925414,68.42150900000001],[65.41145260000002,68.41881860000001],[65.42282960000001,68.42266240000001],[65.44266320000003,68.42058709999999],[65.45848029999999,68.4164362],[65.45840360000001,68.41416850000002],[65.47401690000001,68.41795450000002],[65.4739141,68.41167450000002],[65.46439990000002,68.4048875],[65.4349311,68.392136],[65.43534609999999,68.38626160000001],[65.42823560000001,68.37869579999999],[65.44110890000002,68.37116350000001],[65.4393835,68.3661587],[65.41142270000002,68.36175920000001],[65.40562160000002,68.33646990000001],[65.3964831,68.33082660000001],[65.39553009999999,68.3251945],[65.38855709999999,68.31798340000002],[65.3749756,68.31428060000002],[65.3636915,68.3040324],[65.36820340000001,68.29759380000002],[65.3625222,68.2861833],[65.3644889,68.2821585],[65.35837559999999,68.2760833],[65.3509469,68.2720416],[65.33563579999999,68.2713079],[65.33261440000001,68.27692940000001],[65.3279552,68.2775275],[65.32403869999999,68.26863920000001],[65.29722870000002,68.252275],[65.30320760000001,68.2483287],[65.3029816,68.24430160000001],[65.2746764,68.23456630000001],[65.284441,68.228104],[65.2779852,68.22318],[65.2833579,68.21814360000002],[65.2774074,68.20790020000001],[65.28294079999999,68.2031613],[65.2808519,68.19788179999999],[65.29364440000002,68.19275929999999],[65.31326940000002,68.19150420000001],[65.29882350000001,68.18857419999999],[65.29643420000001,68.1849977],[65.3099631,68.18679579999998],[65.31625320000002,68.1842349],[65.3108907,68.1734994],[65.28895809999999,68.15398189999999],[65.3039427,68.15242529999999],[65.30027609999999,68.1469493],[65.32263449999999,68.11988269999999],[65.3210439,68.11108060000001],[65.3524237,68.1081267],[65.33530029999999,68.10263629999999],[65.35189109999999,68.0984853],[65.33958809999999,68.0929641],[65.3367593,68.0883202],[65.33768340000002,68.08259269999999],[65.34794930000001,68.0785126],[65.3361865,68.07227169999999],[65.3488396,68.06214340000001],[65.3311438,68.05333079999998],[65.33114060000001,68.04784120000001],[65.32543519999999,68.04140170000001],[65.3313182,68.03620370000002],[65.32648119999999,68.0294147],[65.32885779999998,68.0256902],[65.31915160000001,68.0146981],[65.3309364,68.00660640000001],[65.3276847,67.99579560000001],[65.3388806,67.99188990000002],[65.3377138,67.9847165],[65.35535859999999,67.978994],[65.34268490000001,67.9711558],[65.3557699,67.96240660000001],[65.3513766,67.956961],[65.35490340000001,67.95239509999999],[65.38145109999999,67.94602180000001],[65.38303739999999,67.9425325],[65.37841789999999,67.9387959],[65.3855607,67.92876199999999],[65.4030348,67.9247975],[65.4156085,67.91494470000002],[65.4321827,67.90965980000001],[65.455274,67.9133408],[65.4551121,67.91903940000002],[65.48814660000001,67.91999120000001],[65.51719820000001,67.92920480000001],[65.55022170000001,67.9329177],[65.6609261,67.92955620000001],[65.6806319,67.92602420000001],[65.69293379999999,67.9288109],[65.7501526,67.9177738],[65.8661452,67.95604340000001],[65.90326570000002,67.9613683],[65.93267390000001,67.95831729999999],[65.9452418,67.95006240000001],[65.98764300000002,67.94424750000002],[66.0206933,67.93271809999999],[66.0766097,67.93881400000001],[66.09109640000001,67.93110060000002],[66.10842819999999,67.9294118],[66.13348909999999,67.91422130000002],[66.11923940000001,67.9021358],[66.1245974,67.89325740000001],[66.1190312,67.88727970000001],[66.0571762,67.87933099999998],[66.04730260000001,67.86464940000002],[66.0604569,67.8616003],[66.06241360000001,67.85439079999999],[66.08058129999999,67.8495075],[66.0742985,67.831083],[66.05079169999999,67.8193101],[66.0224076,67.8106917],[66.02300609999999,67.8074816],[66.02980529999999,67.8034105],[66.06504340000001,67.79844709999999],[66.0541745,67.7843716],[66.05580719999999,67.7831738],[66.0765176,67.77934829999998],[66.1132527,67.78210849999999],[66.15117829999998,67.7770582],[66.1675922,67.77077549999998],[66.18834649999998,67.75759540000001],[66.2267466,67.7538852],[66.24440790000001,67.74265360000003],[66.25168590000001,67.7339129],[66.2247671,67.7185313],[66.2269667,67.6995907],[66.2217107,67.69322650000001],[66.22069540000001,67.6848843],[66.1612571,67.64942420000001],[66.11760410000001,67.64770109999999],[66.0477283,67.67383699999998],[65.99127130000001,67.67730329999999],[65.97715420000002,67.6732932],[65.97241009999999,67.666612],[65.97686660000001,67.66044869999999],[65.96072480000001,67.65388219999998],[65.9044367,67.66674249999998],[65.8520004,67.66848639999999],[65.8457152,67.66757799999999],[65.83077379999999,67.6571508],[65.7863756,67.64261570000001],[65.789304,67.6373097],[65.81370849999999,67.62671849999998],[65.81597709999998,67.6165057],[65.82896829999999,67.61112670000001],[65.83679129999999,67.6016113],[65.8064734,67.58887539999999],[65.7872755,67.57414370000001],[65.78688749999999,67.5700203],[65.8017153,67.5535065],[65.82077319999999,67.53942140000001],[65.87680129999998,67.54226920000002],[65.8930794,67.55298889999999],[65.97107799999999,67.560416],[66.0239572,67.57608609999998],[66.0500086,67.5802082],[66.05576119999999,67.57635149999999],[66.0598435,67.56531],[66.0607449,67.54062060000003],[66.0917521,67.51416540000002],[66.09248709999999,67.49312560000003],[66.0769149,67.47172330000001],[66.0405818,67.44392930000002],[66.01017879999999,67.40910790000001],[65.9924473,67.40308540000001],[65.8918045,67.40255960000002],[65.85406990000001,67.3961792],[65.82843499999998,67.38710460000001],[65.79527360000002,67.3917662],[65.698554,67.3807957],[65.68965460000001,67.3706565],[65.69272209999998,67.36424070000001],[65.7321584,67.3469474],[65.74695240000001,67.3453606],[65.74406570000002,67.3386551],[65.74677340000001,67.33393809999998],[65.66589729999998,67.3242705],[65.66970549999999,67.31429390000002],[65.664395,67.3100033],[65.67204809999997,67.30489320000001],[65.66200889999999,67.29448690000001],[65.6196615,67.3036009],[65.6018535,67.2997451],[65.5865589,67.2835087],[65.5702022,67.27941340000001],[65.57205219999999,67.26665740000001],[65.55666310000001,67.2569312],[65.512548,67.25087719999999],[65.4998774,67.24068050000001],[65.48881209999999,67.2404588],[65.4588107,67.2214789],[65.42756160000002,67.2094562],[65.405533,67.21945470000001],[65.3878093,67.21990720000001],[65.3640804,67.2154168],[65.34418040000001,67.2066527],[65.3197015,67.203618],[65.3062589,67.18733139999999],[65.26324950000001,67.17155799999999],[65.2612871,67.1626392],[65.2398817,67.15978569999999],[65.22330809999998,67.1615288],[65.207172,67.15230869999998],[65.1813657,67.15002340000001],[65.1809096,67.1425448],[65.2064433,67.13700109999999],[65.21642860000001,67.131246],[65.21596530000001,67.12428249999999],[65.2062743,67.11565560000001],[65.2051827,67.11088279999998],[65.24467070000001,67.09292560000002],[65.22398809999999,67.07699649999999],[65.2054056,67.06729190000001],[65.12797649999999,67.06190060000002],[65.0817816,67.0397759],[65.11319040000001,67.002925],[65.11499520000001,66.99463840000001],[65.1124614,66.98147060000001],[65.1174732,66.97215390000001],[65.1176733,66.9608427],[65.1407609,66.9566783],[65.1333209,66.94882070000001],[65.1349063,66.94106390000003],[65.1459549,66.93503729999999],[65.14356910000001,66.9153468],[65.13915879999999,66.90772660000002],[65.11704540000001,66.9001058],[65.09508709999999,66.8978342],[65.0796049,66.8900145],[65.0600162,66.88697029999999],[65.05230309999999,66.88203599999999],[65.0517597,66.8765035],[65.0404553,66.87245869999998],[65.0165681,66.87245469999999],[64.9867406,66.86508819999999],[64.98645400000001,66.8618968],[64.979456,66.860543],[64.9395728,66.8634042],[64.9288904,66.85876219999999],[64.92292090000001,66.85021660000001],[64.877128,66.83484879999999],[64.8512118,66.8358036],[64.8333,66.82881129999998],[64.8263199,66.8329942],[64.81235889999999,66.83122570000002],[64.80907229999998,66.83283669999999],[64.8147963,66.8365759],[64.8119353,66.837642],[64.78226980000001,66.83575049999999],[64.7555908,66.82482990000001],[64.708453,66.83102860000001],[64.70099350000001,66.8276281],[64.70100140000001,66.822561],[64.70896560000001,66.81792030000001],[64.7138627,66.80970549999999],[64.67771279999998,66.80121430000001],[64.65653739999999,66.80073819999998],[64.63069660000001,66.80817849999998],[64.62847279999997,66.80123900000001],[64.6119877,66.79712420000003],[64.58938029999999,66.80078209999998],[64.5610826,66.799888],[64.5530226,66.79629790000001],[64.5559924,66.79296960000002],[64.5533286,66.78587509999998],[64.55761460000002,66.77917719999999],[64.55311400000001,66.7654779],[64.5151393,66.7569138],[64.5060802,66.7508597],[64.5058937,66.7425473],[64.51125390000003,66.73765270000001],[64.54472290000001,66.72884629999999],[64.5438366,66.72301340000001],[64.5341725,66.7154889],[64.518815,66.7147003],[64.496341,66.71966420000003],[64.45889609999999,66.71398],[64.44121480000003,66.72094990000001],[64.39506829999999,66.7221505],[64.3836369,66.71582430000001],[64.35931599999999,66.7108448],[64.337775,66.6991573],[64.3326397,66.6911814],[64.33836409999999,66.68453729999999],[64.3163756,66.67575159999998],[64.31721530000002,66.67202879999998],[64.32512360000001,66.66726200000001],[64.30137199999999,66.65945719999999],[64.26661340000003,66.659059],[64.26492420000002,66.6540039],[64.2688866,66.6493179],[64.26361560000002,66.645543],[64.22598679999999,66.6465919],[64.18949049999999,66.65243169999998],[64.17280769999998,66.65040749999999],[64.15819209999998,66.64176940000002],[64.1265434,66.64784460000001],[64.0384275,66.63475749999999],[63.98508149999999,66.6378374],[63.9754501,66.63258599999999],[63.972683999999994,66.62212269999999],[63.9642097,66.61877519999999],[63.951000799999996,66.6043614],[63.935017800000004,66.5955372],[63.903159,66.58933929999999],[63.8947766,66.5817972],[63.88404309999999,66.5776393],[63.86386439999999,66.5800797],[63.853769299999996,66.5777042],[63.8403573,66.54798930000001],[63.832340900000005,66.54454900000002],[63.818981699999995,66.54499570000002],[63.8141943,66.53660990000002],[63.8045517,66.5325055],[63.76797390000001,66.53366840000001],[63.7476997,66.5240339],[63.7078904,66.5219459],[63.685402200000006,66.5159055],[63.66223010000001,66.5152925],[63.63087590000001,66.5195583],[63.626707,66.510935],[63.585738400000004,66.498387],[63.5838505,66.492185],[63.5638697,66.4867116],[63.5540355,66.4741482],[63.532868,66.47107709999999],[63.5103627,66.4575383],[63.46570020000001,66.46182600000002],[63.4497654,66.46834360000001],[63.4184823,66.46661720000002],[63.404915800000005,66.45732430000001],[63.416008,66.45157209999999],[63.415112400000005,66.44793450000002],[63.3821887,66.44327920000002],[63.3802369,66.43765440000003],[63.365943,66.43029300000002],[63.3632166,66.4256529],[63.3488135,66.42062560000002],[63.3443332,66.4241082],[63.332413200000005,66.4225459],[63.3238222,66.41735100000001],[63.3312561,66.41316620000002],[63.329908200000006,66.40765350000002],[63.308493999999996,66.3918865],[63.3061049,66.381457],[63.3121698,66.37813379999999],[63.29841970000001,66.36701160000001],[63.3026036,66.35852390000001],[63.28993580000001,66.3570164],[63.283960300000004,66.35030699999999],[63.2846062,66.34390900000001],[63.2926635,66.3390467],[63.286937200000004,66.3361655],[63.275274,66.33704940000001],[63.2652276,66.3326553],[63.2296648,66.33094799999999],[63.2306843,66.3232474],[63.2430293,66.31529090000001],[63.234032000000006,66.3010705],[63.236948100000006,66.29573769999999],[63.2577716,66.28894269999999],[63.26214420000001,66.2832467],[63.26154030000001,66.27579679999998],[63.270962100000006,66.27329370000001],[63.2707764,66.26556440000002],[63.31196539999999,66.2477922],[63.30253080000001,66.24489050000001],[63.29009990000001,66.2348309],[63.27841240000001,66.21945720000001],[63.26533840000001,66.2230145],[63.2491575,66.2220816],[63.24561020000001,66.22836769999999],[63.224357600000005,66.2367354],[63.201038100000005,66.23390300000001],[63.178859,66.2468398],[63.1380846,66.25685460000001],[63.1094823,66.24798160000002],[63.105057200000005,66.23744940000002],[63.0965696,66.231371],[63.089206499999996,66.22022690000001],[63.0688442,66.20969660000002],[63.031277499999995,66.20354],[63.0276456,66.1967932],[63.031789399999994,66.18555239999999],[62.9977217,66.18088309999999],[62.9866382,66.17236759999999],[62.994195500000004,66.15813419999999],[62.9914186,66.15148699999999],[62.9579198,66.1281394],[62.973753,66.12523249999998],[62.9752336,66.1191354],[62.972626,66.11534069999999],[62.9433277,66.11677309999999],[62.933434399999996,66.11058440000001],[62.9552796,66.0998908],[62.926368800000006,66.0907987],[62.925695100000006,66.0840213],[62.86831630000001,66.06378079999999],[62.858526499999996,66.04879109999999],[62.85906549999999,66.04625820000001],[62.865841399999994,66.0454482],[62.8659272,66.04177729999999],[62.851145499999994,66.02398079999999],[62.792307400000006,66.00090809999999],[62.8017718,65.99505950000001],[62.8332596,65.99681370000002],[62.8650661,65.9825989],[62.88314739999999,65.97966910000001],[62.9044356,65.9659453],[62.8469269,65.9530585],[62.8226007,65.94201660000002],[62.8179126,65.93491240000002],[62.775380500000004,65.90316920000002],[62.837356,65.88629470000001],[62.8406196,65.8781559],[62.8262379,65.86816360000002],[62.79967510000001,65.85769760000001],[62.75501620000001,65.86689179999999],[62.7501067,65.86530739999999],[62.7472939,65.85597809999997],[62.69977980000001,65.85889869999998],[62.6972247,65.85183879999998],[62.6846002,65.8448088],[62.66104,65.8537631],[62.64603520000001,65.85580229999998],[62.6139482,65.84819900000001],[62.566382700000005,65.85178009999998],[62.5569242,65.84651470000001],[62.554121599999995,65.8382812],[62.54029,65.83948709999999],[62.53032590000001,65.84488400000001],[62.5104134,65.8420866],[62.496708700000006,65.847722],[62.483805,65.8440343],[62.482626499999995,65.8335762],[62.468014000000004,65.8227696],[62.406354300000004,65.8095641],[62.3749098,65.81005760000001],[62.35364749999999,65.80632809999999],[62.3199137,65.7933401],[62.3080856,65.7843665],[62.26651850000001,65.78287499999999],[62.238799400000005,65.76902620000001],[62.22909560000001,65.7579063],[62.175054,65.75146040000001],[62.1315572,65.7522085],[62.1100395,65.74659420000002],[62.066414800000004,65.7286742],[62.02600880000001,65.7258432]],[[59.5894347,66.83429940000002],[59.579458,66.8411188],[59.56693370000001,66.83716540000002],[59.553563999999994,66.83835199999999],[59.56270190000001,66.84756640000002],[59.53393570000001,66.8504336],[59.525445500000004,66.843652],[59.494722900000006,66.8396333],[59.49854880000001,66.83619340000001],[59.5100657,66.83647509999999],[59.504078,66.83407460000001],[59.50539590000001,66.8311329],[59.5106387,66.833297],[59.5229864,66.8292955],[59.5184312,66.823185],[59.5894347,66.83429940000002]]]}}