{"type":"Feature","properties":{"regionId":"respublika_khakasiya","name":"Республика Хакасия","name:en":"Khakassia","timezone":"Asia/Krasnoyarsk","name_ru":"Республика Хакасия","name_en":"Khakassia","name_zh":"哈卡斯共和国"},"geometry":{"type":"Polygon","coordinates":[[[90.4867326,52.195871100000005],[90.43471980000001,52.1792174],[90.4256165,52.1842973],[90.3963617,52.1853834],[90.3884997,52.1916144],[90.38028879999999,52.1933834],[90.3745002,52.2014765],[90.35728,52.20292590000001],[90.3483154,52.2008901],[90.34652240000001,52.195447200000004],[90.3335277,52.1893425],[90.3190402,52.1773237],[90.29710450000002,52.170093],[90.2840525,52.1775591],[90.26147300000001,52.171297599999995],[90.2539189,52.17573420000001],[90.2394522,52.15893500000001],[90.22099560000001,52.15634],[90.20695320000002,52.158326100000004],[90.1935495,52.1552269],[90.1832502,52.147387699999996],[90.16270679999998,52.153466099999996],[90.14344279999999,52.1484879],[90.13873239999998,52.138449800000004],[90.14701690000001,52.13511300000001],[90.1463407,52.128103300000014],[90.1409119,52.1232274],[90.13849689999999,52.114186399999994],[90.1486333,52.1046371],[90.1479023,52.09830420000001],[90.15451320000001,52.0895431],[90.1518248,52.08424699999999],[90.15894719999999,52.0737616],[90.1584652,52.0607664],[90.1499526,52.058506300000005],[90.1379465,52.046987699999995],[90.13199809999999,52.03424739999999],[90.11164140000001,52.033574900000005],[90.10232709999998,52.0197578],[90.0832986,52.015482999999996],[90.07581669999999,52.0082886],[90.07149709999999,51.992169700000005],[90.0539077,51.978973200000006],[90.045184,51.9736428],[90.02879549999999,51.9736368],[90.01709900000002,51.96993590000001],[90.01106170000001,51.9615868],[90.01836,51.9475461],[90.02992970000001,51.936452700000004],[90.0609641,51.93635210000001],[90.0627112,51.9235813],[90.05780320000001,51.9079571],[90.06779660000001,51.8992104],[90.0607398,51.8827868],[90.06450310000001,51.877423699999994],[90.06301640000001,51.8724566],[90.0670465,51.861113],[90.073104,51.854299899999994],[90.0731269,51.846889899999994],[90.08333429999999,51.832297499999996],[90.0813513,51.819486899999994],[90.1021069,51.80348949999999],[90.10332109999999,51.796866900000005],[90.10876869999998,51.791009200000005],[90.1215661,51.784684899999995],[90.1182786,51.7772773],[90.1279141,51.7674411],[90.1356819,51.76522860000001],[90.1351174,51.76045930000001],[90.12667629999999,51.754935800000005],[90.119191,51.75541090000001],[90.10966420000001,51.74851060000001],[90.0935738,51.7466081],[90.09167330000001,51.7442943],[90.09584749999999,51.739766100000004],[90.09491570000002,51.73561370000001],[90.0796333,51.7308617],[90.06426730000001,51.735294100000004],[90.06373179999999,51.739771700000006],[90.05925060000001,51.74205890000001],[90.03088279999999,51.746819200000004],[90.0292185,51.752026900000004],[90.0342801,51.757125],[90.0210457,51.75805090000001],[90.010591,51.76272220000001],[89.9817668,51.7573606],[89.96548560000001,51.7618883],[89.94982350000002,51.75486179999999],[89.9388977,51.7585642],[89.92692600000001,51.7571936],[89.9234358,51.7405216],[89.9035878,51.72998530000001],[89.89444,51.7035648],[89.8859109,51.7017676],[89.87116400000001,51.6873745],[89.85685279999998,51.6839576],[89.85308889999999,51.67275660000001],[89.83568149999999,51.66502380000001],[89.82539449999999,51.6535424],[89.8207949,51.6541535],[89.81029950000001,51.648529100000005],[89.8056075,51.629071200000006],[89.8069979,51.620814300000006],[89.7969065,51.6183635],[89.78967420000001,51.60913270000001],[89.76002330000001,51.59503280000001],[89.75469540000002,51.5870505],[89.73702950000002,51.5831699],[89.7113001,51.562489],[89.699019,51.564638200000005],[89.695579,51.5554027],[89.66373609999998,51.54744899999999],[89.65967529999999,51.5391677],[89.64621390000002,51.5469418],[89.63281649999999,51.5475796],[89.60586249999999,51.53216580000001],[89.5884749,51.546150600000004],[89.5802513,51.5488568],[89.5735474,51.5598428],[89.5417762,51.566234200000004],[89.50817219999999,51.586279],[89.49456400000003,51.5857637],[89.48462820000002,51.59057000000001],[89.46480480000001,51.5898547],[89.4334517,51.60845890000001],[89.40986330000001,51.608468300000006],[89.39412950000002,51.604390800000004],[89.37481809999998,51.60610590000001],[89.34620440000002,51.59351010000001],[89.3350555,51.594171900000006],[89.3221644,51.586390800000004],[89.318874,51.5804522],[89.2966375,51.571694099999995],[89.27848309999999,51.5472289],[89.24937,51.5432255],[89.23647340000001,51.5541193],[89.23772260000001,51.567238200000006],[89.2327601,51.583096399999995],[89.24306910000001,51.594725100000005],[89.24269590000002,51.6150454],[89.2536801,51.6187545],[89.25337429999999,51.62771130000001],[89.26382430000001,51.6412419],[89.2545877,51.6524007],[89.2221619,51.653349],[89.20731,51.658724],[89.20136260000001,51.6511428],[89.18859579999999,51.6497418],[89.16492070000001,51.63569090000001],[89.1338107,51.63577660000001],[89.1225164,51.641807299999996],[89.09421670000002,51.62616070000001],[89.0865595,51.624821399999995],[89.0898749,51.6194115],[89.0818794,51.6119022],[89.08543109999998,51.60205130000001],[89.0733959,51.5886206],[89.03441160000001,51.58813120000001],[89.0170307,51.5849517],[89.01377149999999,51.578731600000005],[89.0014825,51.5708381],[88.97950920000001,51.573712400000005],[88.9709831,51.567743300000004],[88.963374,51.56811730000001],[88.9505743,51.5629611],[88.925857,51.5715031],[88.91392310000002,51.5668484],[88.8942128,51.567922100000004],[88.87195179999999,51.562409300000006],[88.8525859,51.570949],[88.8319893,51.568626800000004],[88.8327607,51.5610252],[88.8287896,51.5587495],[88.7761055,51.5499621],[88.7630754,51.5614286],[88.75178269999999,51.556390300000004],[88.7541281,51.54857230000001],[88.75039279999999,51.54535820000001],[88.7321507,51.54553190000001],[88.72719930000001,51.54066739999999],[88.710347,51.5348255],[88.67864049999999,51.5374316],[88.66178829999998,51.530742800000006],[88.658053,51.528049900000006],[88.6636125,51.524835800000005],[88.66873759999999,51.51597530000001],[88.6682164,51.50531240000001],[88.67212549999999,51.49957920000001],[88.68532929999999,51.49228230000001],[88.6865454,51.484898599999994],[88.6924524,51.4808158],[88.694016,51.468502400000006],[88.6829839,51.46025],[88.6805516,51.444440199999995],[88.69384229999999,51.440444299999996],[88.6965352,51.42650210000001],[88.6923655,51.422245600000004],[88.6983594,51.4105185],[88.6975776,51.398140000000005],[88.70287649999999,51.39336230000001],[88.70087849999999,51.390930000000004],[88.6877616,51.3856311],[88.6719517,51.391885499999994],[88.66778209999998,51.3862391],[88.65397019999999,51.38206949999999],[88.6414613,51.387433599999994],[88.6313847,51.3853488],[88.6197445,51.371449999999996],[88.62165560000001,51.3534033],[88.59548749999999,51.3360551],[88.59038340000001,51.3233473],[88.57283619999998,51.319959499999996],[88.5547678,51.32534520000001],[88.54000040000001,51.3194383],[88.53669950000001,51.31344439999999],[88.5190355,51.30686849999999],[88.5103552,51.3000796],[88.4693774,51.306495],[88.46112500000002,51.29415990000001],[88.4454889,51.28512570000001],[88.42160040000002,51.2872105],[88.403532,51.29919820000001],[88.4014472,51.3080586],[88.37338909999998,51.3107732],[88.3485451,51.32234830000001],[88.3392503,51.3210453],[88.32526460000001,51.32452],[88.3201395,51.32834210000001],[88.32187679999998,51.336942],[88.3151012,51.3444126],[88.3024186,51.3404167],[88.28799860000001,51.34762669999999],[88.2690615,51.35188319999999],[88.25863749999999,51.35344679999999],[88.24274079999999,51.3502327],[88.233446,51.354575999999994],[88.1873195,51.3590063],[88.17289949999999,51.347366099999995],[88.15639479999999,51.3484953],[88.1577846,51.3530993],[88.1532675,51.355879099999996],[88.15370189999999,51.3626547],[88.14727370000001,51.3712111],[88.13328809999999,51.37416459999999],[88.14327779999999,51.386152300000006],[88.1252094,51.3940572],[88.13354869999999,51.406001399999994],[88.13215879999998,51.41746789999999],[88.1391082,51.421985],[88.1411061,51.4285435],[88.11904179999999,51.4306283],[88.1062724,51.443919],[88.0957614,51.444201299999996],[88.0969776,51.4486315],[88.0836,51.453409199999996],[88.0736972,51.450803199999996],[88.0707437,51.4595768],[88.055455,51.465679200000004],[88.02270609999998,51.4670039],[88.0178415,51.4706524],[88.0002478,51.46661],[87.9904784,51.473084699999994],[87.98639560000001,51.4678726],[87.98022800000001,51.4664827],[87.96198590000002,51.47293260000001],[87.94939020000001,51.4734538],[87.94139840000001,51.4789265],[87.9517356,51.4853547],[87.93418840000001,51.518581399999995],[87.93444900000001,51.52631250000001],[87.9103868,51.5476384],[87.90456670000002,51.5475516],[87.900397,51.55154749999999],[87.9500851,51.551330300000004],[87.95086690000001,51.5610594],[87.9590324,51.576348100000004],[87.9747554,51.5779117],[87.98144420000001,51.586555000000004],[87.98978340000001,51.5907246],[88.00394279999999,51.589269599999994],[88.0062013,51.5917018],[88.00133679999999,51.597435100000006],[88.00124990000002,51.63239910000001],[88.00411650000001,51.6419545],[88.0195789,51.6566568],[88.01914450000001,51.664388],[88.02887369999999,51.667971300000005],[88.0543258,51.66692890000001],[88.0619701,51.6730964],[88.0760426,51.6748338],[88.07882229999998,51.67839530000001],[88.0759557,51.6852578],[88.0778668,51.6911648],[88.08455560000002,51.69073050000001],[88.0979331,51.69639860000001],[88.1011472,51.69961270000001],[88.10053909999999,51.704824699999996],[88.1067936,51.708560000000006],[88.10184209999998,51.7192881],[88.10827029999999,51.72701930000001],[88.1100945,51.7402665],[88.1000179,51.74130890000001],[88.09402410000001,51.7500825],[88.0808203,51.759377300000004],[88.0501561,51.7568582],[88.0292211,51.7506037],[87.99117330000001,51.7513855],[87.9837027,51.7568582],[87.97197560000001,51.7590516],[87.96328890000001,51.76730390000001],[87.94878209999999,51.76834630000001],[87.9438307,51.77850980000001],[87.9327117,51.7845471],[87.91846540000002,51.7819411],[87.9025687,51.783852100000004],[87.8889306,51.7803775],[87.88258929999999,51.7828966],[87.8832842,51.78611070000001],[87.8895386,51.7914965],[87.89144970000001,51.8125618],[87.89857279999998,51.822290900000006],[87.91516450000002,51.832454399999996],[87.91464330000002,51.840315800000006],[87.91733620000001,51.8424007],[87.93453590000001,51.8485682],[87.93140860000001,51.85829739999999],[87.94435190000002,51.8678962],[87.94522050000002,51.8706759],[87.93931360000002,51.875714200000004],[87.9453074,51.885704],[87.95929300000002,51.8862252],[87.96980400000001,51.890264499999994],[87.9850057,51.901991599999995],[87.9895228,51.9020784],[88.00142360000002,51.9161726],[88.0062882,51.931635],[88.00177109999998,51.9417116],[87.98926220000001,51.940148],[87.9877855,51.9454903],[87.9768402,51.952265999999995],[87.9934318,51.956261899999994],[87.99265000000001,51.964687999999995],[88.0000338,51.9680975],[88.0165385,51.963840999999995],[88.0286131,51.9642754],[88.03443320000001,51.9754812],[88.05632370000001,51.987403799999996],[88.07274159999999,51.9907916],[88.08759590000001,52.0000212],[88.07699809999998,52.006015100000006],[88.06839829999998,52.0172427],[88.05762670000001,52.0168083],[88.0572793,52.03631000000001],[88.06666090000002,52.04968759999999],[88.0846424,52.0522502],[88.1264256,52.06823370000001],[88.14015060000001,52.0826971],[88.1397162,52.0871273],[88.15179079999999,52.0959878],[88.1744631,52.0738367],[88.17828529999998,52.06575800000001],[88.18827499999999,52.0654974],[88.19522440000001,52.05833090000001],[88.25246990000001,52.0458003],[88.2565527,52.0520547],[88.2538598,52.0596121],[88.2559446,52.065606],[88.24838709999999,52.077550200000005],[88.2588112,52.0863238],[88.27079889999999,52.09031970000001],[88.2770533,52.0972908],[88.289041,52.1015473],[88.2862613,52.1117325],[88.30207109999998,52.113556700000004],[88.3064145,52.10990830000001],[88.3486319,52.118443],[88.366874,52.1156632],[88.37825360000001,52.1246105],[88.3702619,52.1312993],[88.36122770000001,52.13251550000001],[88.362965,52.136337600000004],[88.3601853,52.1462839],[88.3745184,52.154623199999996],[88.3635731,52.1690649],[88.37583179999997,52.177457399999994],[88.38839209999998,52.169797100000004],[88.4043882,52.167882999999996],[88.4106321,52.1634668],[88.4410088,52.16375370000001],[88.4524709,52.1712259],[88.4737052,52.169832400000004],[88.47793920000001,52.180841699999995],[88.5286935,52.196609800000004],[88.52778869999999,52.20691070000001],[88.5407754,52.215722500000005],[88.5607622,52.211356],[88.58420320000002,52.217110000000005],[88.60939229999998,52.2308647],[88.61506849999999,52.237805200000004],[88.63269799999999,52.243034300000005],[88.6343625,52.24878030000001],[88.66629390000001,52.25273490000001],[88.6740616,52.2479859],[88.6731622,52.24211060000001],[88.68249209999998,52.24031260000001],[88.7037566,52.25166469999999],[88.70716410000001,52.259644699999996],[88.7010343,52.271687799999995],[88.7098038,52.2778655],[88.7093258,52.29315750000001],[88.716037,52.29865090000001],[88.71544209999999,52.308354],[88.70833869999998,52.3254668],[88.68921590000001,52.328002000000005],[88.67630589999999,52.334203499999994],[88.6792526,52.340227999999996],[88.6948437,52.34928339999999],[88.7000793,52.35664249999999],[88.6994793,52.3637881],[88.71788590000001,52.367447199999994],[88.7625389,52.3859403],[88.76664070000001,52.3912913],[88.76450580000001,52.3962596],[88.7765438,52.4079147],[88.80162800000001,52.412530800000006],[88.8053554,52.4204436],[88.86069570000001,52.4340378],[88.8823296,52.4461851],[88.88934619999999,52.46457],[88.92799990000002,52.4711425],[88.94063910000001,52.479500300000005],[88.9391374,52.4874351],[88.9867593,52.4956255],[88.99409400000002,52.509122000000005],[88.98703470000001,52.5168537],[88.9867551,52.52577980000001],[89.0095419,52.5349469],[89.0084352,52.540615900000006],[89.01590920000001,52.554703399999994],[89.0578224,52.56207070000001],[89.05948279999998,52.56834630000001],[89.05463390000001,52.571107],[89.054931,52.579547399999996],[89.0639258,52.581888799999994],[89.0668448,52.5858228],[89.060082,52.5915314],[89.06221500000001,52.59536020000001],[89.0822538,52.599826900000004],[89.09712900000002,52.588145000000004],[89.1103957,52.58784969999999],[89.1168953,52.5910048],[89.1234277,52.5988576],[89.12435289999999,52.60788139999999],[89.1292686,52.610529],[89.1206467,52.620140500000005],[89.1025224,52.62123690000001],[89.0931915,52.62639810000001],[89.090047,52.634245],[89.08238039999999,52.633369],[89.07675569999999,52.636382000000005],[89.07793249999999,52.6405842],[89.0841022,52.6428548],[89.0790176,52.6510923],[89.084592,52.6634246],[89.07450990000001,52.66892430000001],[89.07647519999999,52.6732316],[89.0739603,52.6779742],[89.058029,52.68669739999999],[89.0530538,52.70581560000001],[89.08143390000001,52.709602700000005],[89.10847649999998,52.7038314],[89.137409,52.706822100000004],[89.14109320000001,52.7140711],[89.1314219,52.72661630000001],[89.1365764,52.729854100000004],[89.1378169,52.7351845],[89.15929609999999,52.731642900000004],[89.16720900000001,52.73512650000001],[89.1679835,52.7448069],[89.17971259999999,52.7539889],[89.17506689999999,52.76501770000001],[89.1872382,52.76723230000001],[89.18802809999998,52.78297870000001],[89.19543039999999,52.78777830000001],[89.2397495,52.80068849999999],[89.23851640000001,52.8091573],[89.2301798,52.822696300000004],[89.22091320000001,52.8565926],[89.1991687,52.8637777],[89.1844356,52.8815353],[89.17615809999998,52.8831147],[89.15191490000001,52.876003399999995],[89.12779879999998,52.863294399999994],[89.1177756,52.8673395],[89.1144749,52.874237799999996],[89.1033643,52.88026369999999],[89.11248479999999,52.887892799999996],[89.11146470000001,52.8972482],[89.11667920000001,52.9033406],[89.11421960000003,52.9073692],[89.1050266,52.9105062],[89.1072261,52.91528449999999],[89.10031509999999,52.918856399999996],[89.09742930000002,52.928363600000004],[89.0843531,52.9388827],[89.081447,52.9501145],[89.0754334,52.9581891],[89.05564279999999,52.9582953],[89.05161980000001,52.964847299999995],[89.01921990000002,52.9607635],[89.0015118,52.9654641],[88.97237779999998,52.96595130000001],[88.9567053,52.950450499999995],[88.93970209999999,52.966548700000004],[88.93458550000001,52.975493300000004],[88.93481910000001,52.9829234],[88.91179690000001,52.990432500000004],[88.9181817,52.99217320000001],[88.91719620000002,52.9988498],[88.9329727,53.011609699999994],[88.93256190000001,53.017860799999994],[88.94192800000002,53.030970100000005],[88.9262011,53.0300366],[88.9157051,53.033596],[88.9144528,53.03873060000001],[88.91947590000001,53.045191300000006],[88.93577579999999,53.0455813],[89.0081807,53.07679220000001],[89.0098058,53.0819982],[89.02534229999998,53.09315310000001],[89.01257229999999,53.1031825],[89.0183886,53.1176543],[89.03994440000001,53.12822930000001],[89.06357460000001,53.132341700000005],[89.0684307,53.149028200000004],[89.07620920000001,53.154423599999994],[89.07622090000001,53.1587647],[89.0637224,53.166356400000005],[89.02611950000001,53.1664076],[89.0271227,53.172991700000004],[89.0118776,53.1856201],[89.00573769999998,53.196190400000006],[89.01482590000002,53.2020434],[89.0164486,53.207070900000005],[89.04741510000001,53.220815400000006],[89.0474384,53.22753510000001],[89.0547814,53.2318689],[89.05535979999999,53.235665000000004],[89.04635360000002,53.244264799999996],[89.04290660000001,53.2572288],[89.03380609999999,53.263985600000005],[89.03920570000001,53.2690672],[89.03645460000001,53.2800566],[89.0168221,53.28877560000001],[89.0038416,53.287091499999995],[88.98742580000001,53.301162999999995],[88.9458759,53.31742909999999],[88.94824970000002,53.3302949],[88.95242540000001,53.33254590000001],[88.9515075,53.342117200000004],[88.94131800000001,53.35185779999999],[88.927784,53.355883199999994],[88.91052090000002,53.39213860000001],[88.88046440000001,53.394102600000004],[88.8497513,53.38328399999999],[88.8491965,53.3796651],[88.82286849999998,53.368652700000005],[88.8154227,53.3502127],[88.80099849999999,53.3428196],[88.79055460000002,53.3449392],[88.7800158,53.342420999999995],[88.77339879999998,53.3457902],[88.7573948,53.35774179999999],[88.75690360000002,53.3723776],[88.7592012,53.377457899999996],[88.7759572,53.3786368],[88.79036690000001,53.385498],[88.79421210000001,53.3988795],[88.80264209999999,53.4052937],[88.8022913,53.41582449999999],[88.80873099999998,53.4221494],[88.8202629,53.4264341],[88.8054216,53.4380174],[88.81555370000001,53.45142189999999],[88.8196303,53.465215400000005],[88.83650809999999,53.4729849],[88.84772380000001,53.4650219],[88.85993629999999,53.463999900000005],[88.8749467,53.492546700000005],[88.8760849,53.4979997],[88.86029520000001,53.5177513],[88.86393779999999,53.52572230000001],[88.8572353,53.5321895],[88.8796624,53.540520900000004],[88.87735819999999,53.549357900000004],[88.88895279999998,53.5608305],[88.87932179999999,53.5643718],[88.86183809999999,53.5642886],[88.85877909999998,53.5765265],[88.8457432,53.577739300000005],[88.8382124,53.5906997],[88.83882879999999,53.595685200000005],[88.8489608,53.59879960000001],[88.8715273,53.59595110000001],[88.88853689999999,53.607517200000004],[88.93391590000002,53.611549399999994],[88.9264607,53.62570350000001],[88.9318888,53.62847030000001],[88.93006860000001,53.6324244],[88.93720560000003,53.635341800000006],[88.94160070000002,53.643893],[88.9483322,53.6466379],[88.97476970000001,53.6448369],[88.99432970000002,53.65426479999999],[88.99455320000003,53.656877599999994],[88.9848073,53.66251050000001],[88.9777757,53.663476300000006],[88.9864601,53.67271870000001],[88.9882628,53.679655800000006],[89.00294109999999,53.6871416],[89.0035925,53.70821980000001],[89.0107129,53.72828020000001],[89.0299505,53.739360000000005],[89.0319025,53.744687899999995],[89.0439352,53.753581399999995],[89.04211550000001,53.7587084],[89.04666730000001,53.7744572],[89.03796000000001,53.786147],[89.04405660000002,53.7918176],[89.07752420000001,53.79451910000001],[89.08767490000001,53.788411200000006],[89.1130924,53.793309400000005],[89.1286579,53.787921499999996],[89.13818219999999,53.79142530000001],[89.14639460000001,53.801789899999996],[89.15564679999999,53.80211580000001],[89.15970999999999,53.79841260000001],[89.18764350000001,53.79602250000001],[89.21019120000001,53.8054251],[89.222201,53.806571399999996],[89.23910940000002,53.8188981],[89.2384445,53.8375073],[89.22553719999999,53.8406799],[89.21461910000002,53.84908839999999],[89.19767660000001,53.8501136],[89.18873189999998,53.863716600000004],[89.17540209999997,53.871961799999994],[89.16508849999998,53.8853762],[89.1782137,53.8916786],[89.1745665,53.896117800000006],[89.17640479999999,53.898962100000006],[89.193908,53.90108549999999],[89.2065001,53.9145459],[89.2079765,53.9202207],[89.20462430000002,53.9305626],[89.1949148,53.93371380000001],[89.19683849999998,53.9518328],[89.1700196,53.9549792],[89.14206300000001,53.948523800000004],[89.1267666,53.95497999999999],[89.1052057,53.9532787],[89.0741119,53.9564957],[89.0506391,53.938405700000004],[89.04462590000003,53.9389096],[89.0408857,53.9415308],[89.04510020000001,53.94878739999999],[89.04165500000002,53.960798200000006],[89.0616923,53.9724642],[89.0335316,53.985019300000005],[89.0307189,53.990953100000006],[89.0118887,53.998048700000005],[89.0054838,54.003970300000006],[89.00693279999999,54.013103300000004],[89.0156423,54.017833499999995],[89.0244406,54.02850780000001],[89.01422650000002,54.0365879],[89.0097584,54.050755300000006],[89.01029550000001,54.05978459999999],[89.00596279999999,54.0642572],[89.01231990000001,54.0807409],[89.02289779999998,54.084071699999996],[89.02877749999998,54.09057290000001],[89.0396727,54.095248000000005],[89.0416388,54.108973500000005],[89.0569009,54.111085499999994],[89.0715719,54.1069687],[89.0910769,54.1104962],[89.10255509999999,54.1193345],[89.12727109999999,54.1177107],[89.13333329999999,54.120104700000006],[89.1356506,54.12909810000001],[89.16378849999998,54.1386447],[89.17278629999997,54.153824099999994],[89.1816905,54.157468699999995],[89.18082279999999,54.1640849],[89.1905869,54.16860520000001],[89.20162110000001,54.1798209],[89.20100040000001,54.1834],[89.1928406,54.18438139999999],[89.1931451,54.192046600000005],[89.1997734,54.19656390000001],[89.19476809999999,54.207358600000006],[89.1977886,54.210752400000004],[89.21404300000002,54.2149738],[89.20698970000001,54.22919610000001],[89.21470990000002,54.236903500000004],[89.21671960000002,54.249770100000006],[89.2383938,54.26560280000001],[89.2060593,54.26881550000001],[89.2009141,54.280921],[89.1913467,54.28829030000001],[89.20240460000001,54.29932720000001],[89.1690608,54.305164399999995],[89.1611802,54.31000339999999],[89.1602438,54.325123500000004],[89.16429440000002,54.3305808],[89.1597604,54.34112739999999],[89.12580369999999,54.3457145],[89.10540699999999,54.33893690000001],[89.07995629999999,54.3387244],[89.075554,54.330119],[89.02973239999999,54.3313746],[89.02847739999999,54.3141522],[89.0041929,54.297850000000004],[89.0007602,54.2878583],[88.97517149999999,54.2877394],[88.98729070000002,54.300918700000004],[88.9747058,54.3162283],[88.93602120000001,54.3219096],[88.94001580000001,54.335461499999994],[88.9525112,54.34792469999999],[88.9521078,54.3521801],[88.94162980000003,54.361062399999994],[88.94418790000002,54.3677995],[88.92782950000002,54.3707376],[88.9275413,54.3863203],[88.91892730000001,54.38728999999999],[88.90963990000002,54.39570200000001],[88.90612890000001,54.40348699999999],[88.891411,54.4047888],[88.86790440000001,54.4011117],[88.8608623,54.4053825],[88.8596876,54.4177083],[88.8512878,54.41908599999999],[88.83187679999999,54.41819290000001],[88.82759,54.4135013],[88.82713269999999,54.4032221],[88.8074105,54.3858008],[88.7830058,54.391514900000004],[88.7806385,54.3862582],[88.75842,54.374098],[88.7403774,54.35925759999999],[88.715498,54.355868199999996],[88.6966148,54.3472167],[88.69836719999999,54.3403546],[88.69484,54.3362422],[88.6621339,54.3275411],[88.65888889999998,54.320213200000005],[88.6649895,54.3151348],[88.65275249999998,54.306681899999994],[88.6516121,54.29343880000001],[88.64469650000001,54.2856851],[88.6326253,54.2810926],[88.62109809999998,54.290285600000004],[88.6061522,54.29012890000001],[88.59410690000001,54.286126800000005],[88.5815875,54.28825380000001],[88.5716589,54.2970641],[88.5733509,54.3041173],[88.57003859999999,54.3079062],[88.5778764,54.3134521],[88.58119990000002,54.32321880000001],[88.55805199999999,54.3377893],[88.532687,54.33424959999999],[88.5167229,54.335887199999995],[88.4984208,54.348067099999994],[88.4547797,54.356445699999995],[88.43560360000002,54.34948139999999],[88.425006,54.35204469999999],[88.41623960000003,54.348699599999996],[88.40672960000002,54.3503566],[88.3812973,54.359806299999995],[88.36776300000001,54.3722079],[88.3638129,54.3820623],[88.36655970000001,54.3880955],[88.3749575,54.38942699999999],[88.3815628,54.398031700000004],[88.40808340000001,54.3988549],[88.42195440000002,54.3933415],[88.4324557,54.3994005],[88.4597285,54.40412739999999],[88.46665960000003,54.4098699],[88.5038464,54.416481299999994],[88.52440920000001,54.4156883],[88.526661,54.4241618],[88.54655050000001,54.4324701],[88.5307509,54.438141200000004],[88.5241893,54.4482124],[88.51751840000001,54.4499017],[88.5180399,54.4557216],[88.54233229999998,54.45862439999999],[88.5383962,54.467949399999995],[88.5518622,54.4704526],[88.56874069999999,54.4793905],[88.5633706,54.485821699999995],[88.5697222,54.491684799999994],[88.57428279999999,54.5040513],[88.5658449,54.5184892],[88.5755229,54.52300090000001],[88.5770274,54.527559200000006],[88.58484879999999,54.531559200000004],[88.59225300000001,54.54055830000001],[88.5839261,54.5473265],[88.58791240000001,54.55779749999999],[88.57503169999998,54.57128339999999],[88.5749967,54.575683399999996],[88.5885584,54.590191000000004],[88.5852317,54.59415860000001],[88.58720490000002,54.6001375],[88.57894449999999,54.606309700000004],[88.57823009999998,54.6169611],[88.5901183,54.62233460000001],[88.6041712,54.63576390000001],[88.60839699999998,54.644150200000006],[88.6063442,54.6570787],[88.60883149999998,54.662931500000006],[88.62284739999998,54.6672034],[88.6197998,54.674759800000004],[88.59699470000001,54.6713765],[88.59378109999999,54.67837480000001],[88.5954009,54.683050200000004],[88.61114560000001,54.694554000000004],[88.62374349999999,54.699023100000005],[88.64112820000001,54.722807700000004],[88.6486472,54.72585660000001],[88.64133849999999,54.733090100000005],[88.6458038,54.739331500000006],[88.63884779999998,54.74519260000001],[88.63993549999999,54.7492206],[88.63581079999999,54.7565295],[88.64676940000001,54.76565570000001],[88.65979779999998,54.76744],[88.6870618,54.76533960000001],[88.6904442,54.76261720000001],[88.73245320000001,54.768861300000005],[88.75416330000002,54.79054680000001],[88.75450620000001,54.80796159999999],[88.7504812,54.8219911],[88.7550402,54.8273949],[88.74798490000002,54.8333231],[88.74786850000001,54.8401618],[88.7599309,54.849856599999995],[88.7434874,54.858001099999996],[88.7389127,54.864249699999995],[88.746936,54.8757872],[88.74368820000001,54.888913300000006],[88.7320006,54.8929449],[88.6932519,54.8839196],[88.6872681,54.88138709999999],[88.6878342,54.875196200000005],[88.64752090000002,54.895368700000006],[88.6545972,54.904427999999996],[88.654271,54.91156659999999],[88.6598667,54.91464109999999],[88.6610248,54.92271060000001],[88.67680059999999,54.929746900000005],[88.67626440000001,54.936710100000006],[88.66542360000001,54.944230999999995],[88.67368189999999,54.9491114],[88.67277549999997,54.95215590000001],[88.65381029999999,54.96573230000001],[88.635264,54.964496999999994],[88.62599849999998,54.95766559999999],[88.60818179999998,54.961648],[88.60612940000001,54.9645881],[88.60918629999999,54.971265499999994],[88.60105229999999,54.9798148],[88.6045675,54.9927879],[88.5995408,55.0019857],[88.57429570000001,55.002228900000006],[88.56322320000002,54.998498500000004],[88.54833909999999,55.003475],[88.55656330000001,55.016891799999996],[88.5393082,55.0358883],[88.5378789,55.04151590000001],[88.550186,55.0513386],[88.5544415,55.0868305],[88.55947209999998,55.0891281],[88.5611518,55.0952474],[88.5619571,55.105334000000006],[88.55847509999998,55.1164203],[88.560741,55.1190484],[88.5493058,55.124149900000006],[88.54945370000002,55.12722230000001],[88.5426015,55.131161],[88.545473,55.135092400000005],[88.5398902,55.139770000000006],[88.5182983,55.1435574],[88.5201271,55.1564066],[88.50826440000002,55.159033900000004],[88.51884799999999,55.163449],[88.5182498,55.16942],[88.52575119999999,55.1767661],[88.5018793,55.192178100000014],[88.5189309,55.2008827],[88.51194500000001,55.207228300000004],[88.5139101,55.212754200000006],[88.51001020000001,55.213393],[88.50278449999999,55.207991],[88.49013260000001,55.212043200000004],[88.49496920000003,55.22261210000001],[88.48045809999999,55.22125390000001],[88.4788147,55.224285200000004],[88.4880856,55.229132200000016],[88.4948761,55.22743830000001],[88.4957033,55.2311646],[88.4880495,55.239229200000004],[88.4767102,55.2430345],[88.46702250000001,55.2514543],[88.45732740000001,55.2524717],[88.45409240000001,55.2572929],[88.45677079999999,55.259858900000005],[88.44626190000002,55.262592800000014],[88.44137440000002,55.2543735],[88.4331911,55.256772600000005],[88.4326879,55.26002590000001],[88.44162160000003,55.264053800000006],[88.43498550000001,55.269268800000006],[88.43990560000002,55.270923100000005],[88.43286520000001,55.276438000000006],[88.4325438,55.2818738],[88.44668910000001,55.2896779],[88.44140980000002,55.304842099999995],[88.4766121,55.31847139999999],[88.4859967,55.32411880000001],[88.4873025,55.329610900000006],[88.5038404,55.32851670000001],[88.50639579999999,55.329911900000006],[88.5056629,55.335330500000005],[88.53504179999999,55.3426334],[88.5334945,55.3484785],[88.53690350000001,55.355687999999994],[88.5339503,55.35756789999999],[88.5381798,55.3590009],[88.53611450000001,55.359561899999996],[88.5386425,55.3628591],[88.556739,55.371903399999994],[88.5630987,55.3717033],[88.57807149999998,55.3833406],[88.5752226,55.3852202],[88.5794992,55.387721199999994],[88.57190390000001,55.39631980000001],[88.59032060000001,55.4075547],[88.6110731,55.41429759999999],[88.6110287,55.4183405],[88.6019403,55.4292718],[88.6069175,55.4305776],[88.6090219,55.4272782],[88.62130679999999,55.4349317],[88.6575593,55.4315212],[88.66892390000001,55.437877699999994],[88.6985163,55.4301975],[88.7423379,55.43187939999999],[88.75055520000001,55.3942683],[88.7920469,55.4095661],[88.7969776,55.39855370000001],[88.8023224,55.396761399999995],[88.83988409999999,55.39217550000001],[88.8708533,55.3935677],[88.87360199999999,55.3915466],[88.86934769999999,55.3824751],[88.8709592,55.368187],[88.9003608,55.3403562],[88.96823340000002,55.3435336],[88.97061450000001,55.3300486],[88.99723980000002,55.320613900000005],[89.00799920000001,55.3200939],[89.01142200000001,55.32364749999999],[89.0098953,55.2337044],[89.02478179999999,55.22211700000001],[89.07657499999999,55.1946697],[89.11594209999998,55.1801225],[89.1100648,55.174049499999995],[89.0922316,55.166117500000006],[89.07623869999999,55.1441467],[89.07534479999998,55.13831320000001],[89.0613355,55.1282878],[89.06411940000002,55.120054700000004],[89.1240248,55.120451800000005],[89.17044259999999,55.124705500000005],[89.19802460000001,55.1210912],[89.22962270000001,55.1113598],[89.24111960000003,55.111902300000004],[89.24763020000002,55.106825],[89.26422580000002,55.1033601],[89.27277989999999,55.094978600000005],[89.27090799999999,55.0593178],[89.2770014,55.059131900000004],[89.2781955,55.0420682],[89.32993139999999,55.040313700000006],[89.37197819999999,55.04258],[89.38204009999998,55.0228771],[89.41693490000002,55.015333500000004],[89.4230395,55.01128859999999],[89.4577762,55.0150378],[89.4539413,55.021408],[89.43705450000002,55.023910400000005],[89.4373752,55.0492251],[89.432007,55.0543582],[89.43035970000001,55.0624634],[89.5021833,55.0666424],[89.5051693,55.064226999999995],[89.5401075,55.0686271],[89.5621874,55.088492],[89.58025090000001,55.0878532],[89.59310320000002,55.075785800000006],[89.59706800000001,55.0679544],[89.60887089999999,55.0655875],[89.62779509999999,55.0697996],[89.62927289999999,55.07641530000001],[89.6468065,55.079748200000004],[89.6613597,55.0743746],[89.65025779999999,55.06827380000001],[89.64480360000002,55.0714089],[89.63596960000001,55.0708266],[89.6347598,55.06635860000001],[89.6277239,55.064036300000005],[89.624329,55.059897299999996],[89.62718869999999,55.0471287],[89.6158994,55.0360207],[89.6304156,55.031258900000005],[89.60729930000001,55.02816330000001],[89.6660584,55.0003375],[89.6833241,55.006838800000004],[89.6998662,55.0179369],[89.7309127,55.04482039999999],[89.7244463,55.068499100000004],[89.83429020000001,55.0851911],[89.8815451,55.082297],[89.8925667,55.1008073],[89.8979988,55.1012049],[89.90552620000001,55.09511770000001],[89.91162880000002,55.1013418],[89.9317278,55.10997580000001],[89.94620630000001,55.1140267],[89.97161150000001,55.114321499999996],[89.9869581,55.121745700000005],[90.0013948,55.1214266],[90.0183893,55.1164863],[90.03297189999999,55.1234831],[90.043357,55.11519230000001],[90.0744398,55.1189898],[90.0873894,55.1101663],[90.1029202,55.114961099999995],[90.10276499999999,55.108436100000006],[90.1137445,55.1072713],[90.1261605,55.1176493],[90.1328674,55.1311741],[90.1262452,55.1458711],[90.12628409999999,55.1535012],[90.216932,55.1535837],[90.21607060000001,55.1315565],[90.24960860000002,55.112082],[90.2498261,55.10223630000001],[90.24260450000001,55.0896281],[90.24810450000001,55.0857802],[90.24387,55.078872000000004],[90.24643,55.076326900000005],[90.2735526,55.07573620000001],[90.29534279999999,55.066437300000004],[90.3002181,55.06780139999999],[90.30021860000001,55.072259100000004],[90.31331809999999,55.0745823],[90.31926310000001,55.073745800000005],[90.31728370000002,55.06812850000001],[90.3218548,55.06669],[90.33465970000002,55.070076900000004],[90.3569,55.0658505],[90.36589049999999,55.06633820000001],[90.3613224,55.0729862],[90.3643584,55.0760908],[90.3963484,55.0743374],[90.40306970000002,55.069419700000005],[90.4053207,55.0744828],[90.41068490000002,55.07590280000001],[90.41495210000001,55.0736252],[90.40992540000002,55.0674112],[90.41160090000002,55.0647384],[90.42639390000001,55.062123500000006],[90.43522590000002,55.06819020000001],[90.4398129,55.0607467],[90.44527040000001,55.06527390000001],[90.4689893,55.0729417],[90.49921510000001,55.060849399999995],[90.5268669,55.0236566],[90.5298197,54.9898148],[90.5062975,54.906992],[90.6372984,54.90492739999999],[90.67886409999998,54.9159621],[90.7413387,54.9159735],[90.7791572,54.912111700000004],[90.7805307,54.871265599999994],[90.9456768,54.84813220000001],[90.940488,54.8365506],[90.93941450000001,54.8202482],[90.94451760000003,54.779887599999995],[90.93609670000001,54.758754],[90.91414090000002,54.72211260000002],[90.918748,54.6536342],[90.9519468,54.63370290000001],[91.01009340000002,54.6166621],[91.04056500000002,54.6012512],[91.09651050000001,54.5866609],[91.17075649999998,54.54556],[91.21760790000002,54.52807030000001],[91.2602371,54.5065858],[91.26340809999999,54.502109700000005],[91.2633356,54.4880734],[91.26918320000001,54.4665545],[91.26524140000001,54.4556931],[91.24752390000003,54.4354407],[91.24645450000001,54.42537500000001],[91.2509153,54.4147553],[91.2767856,54.3807327],[91.31165070000002,54.35128579999999],[91.31373679999999,54.3460307],[91.30773679999999,54.3338326],[91.35851149999999,54.3180319],[91.41650740000001,54.27960230000001],[91.4340763,54.2594306],[91.45837499999999,54.2155076],[91.47898219999999,54.190856100000005],[91.4865087,54.171018000000004],[91.49679660000001,54.16693870000001],[91.5051548,54.158176600000004],[91.5295103,54.12414090000001],[91.5772335,54.087023699999996],[91.58167809999999,54.0724417],[91.5807586,54.063137100000006],[91.5640561,54.0191472],[91.5488794,53.9960419],[91.51593229999999,53.9597593],[91.4801565,53.945136000000005],[91.4286495,53.8660266],[91.42754090000001,53.85784279999999],[91.45046940000002,53.790421],[91.46196660000003,53.7701664],[91.482058,53.7505535],[91.4820864,53.7447377],[91.48768650000001,53.7370146],[91.4947453,53.7344991],[91.505855,53.73591660000001],[91.5245517,53.7204818],[91.54902370000002,53.713391900000005],[91.54946320000002,53.7108202],[91.56794450000001,53.7086474],[91.5709579,53.70547680000001],[91.56791050000001,53.69519070000001],[91.5782962,53.6862195],[91.57577259999998,53.6649047],[91.5714854,53.659669199999996],[91.54477849999999,53.649919000000004],[91.5389959,53.6415773],[91.54544990000001,53.63500090000001],[91.5600352,53.62810850000001],[91.5577695,53.61702639999999],[91.5716495,53.6035978],[91.56792240000001,53.602325400000005],[91.5673961,53.5968579],[91.59252990000002,53.584127599999995],[91.6047447,53.5838185],[91.6239192,53.5763647],[91.63193340000001,53.562577700000006],[91.62693769999998,53.5527937],[91.62509599999998,53.533874499999996],[91.64488360000001,53.526394700000004],[91.646049,53.5186298],[91.64996400000001,53.51597830000001],[91.6598293,53.5195402],[91.71366160000002,53.503796900000005],[91.7339098,53.500783999999996],[91.74302400000002,53.49475230000001],[91.76115940000003,53.49237900000001],[91.80546460000001,53.47161],[91.81589129999999,53.4709597],[91.8371779,53.4587237],[91.8635706,53.4569168],[91.86421920000002,53.4367377],[91.8731794,53.4330428],[91.87281849999998,53.425529100000006],[91.87931909999999,53.42511960000001],[91.88977769999998,53.431809599999994],[91.90251460000002,53.42815850000001],[91.9047775,53.403019300000004],[91.91774330000001,53.3972727],[91.91895400000001,53.3939437],[91.90584249999999,53.3826109],[91.90524160000001,53.37786319999999],[91.91964470000002,53.36706469999999],[91.9247253,53.35432599999999],[91.92369740000001,53.349600599999995],[91.9070724,53.3346628],[91.88122490000002,53.32476],[91.8745603,53.3165187],[91.86417460000001,53.3134125],[91.8439802,53.297365000000006],[91.8078353,53.24376590000001],[91.7884964,53.23791610000001],[91.7719753,53.22612680000001],[91.76750720000001,53.215282200000004],[91.7384617,53.1777456],[91.676469,53.1668946],[91.6354597,53.1463424],[91.5936475,53.139705400000004],[91.57353579999999,53.1396365],[91.5273977,53.157363999999994],[91.4953089,53.1586097],[91.4764079,53.1537238],[91.4499723,53.13570260000001],[91.44031120000001,53.118643399999996],[91.44337940000001,53.117755300000006],[91.44288829999999,53.11444899999999],[91.428855,53.103592600000006],[91.419876,53.086447699999994],[91.42519060000001,53.07843880000001],[91.4338468,53.0739975],[91.4337753,53.0622271],[91.44196900000003,53.049641799999996],[91.445717,53.03571560000001],[91.46122560000003,53.021404499999996],[91.49640140000001,53.0045985],[91.5051957,52.99374890000001],[91.49205330000001,52.95482809999999],[91.4755077,52.9435887],[91.4658967,52.923675],[91.46469260000002,52.914611699999995],[91.4748407,52.901271699999995],[91.47553609999999,52.894464799999994],[91.4624707,52.8869752],[91.42634509999999,52.8840009],[91.41960250000001,52.87604639999999],[91.4279311,52.85453699999999],[91.42441300000002,52.84458719999999],[91.37388349999999,52.8272172],[91.34264,52.8051214],[91.33228179999999,52.7870336],[91.3122845,52.774375000000006],[91.310533,52.7679041],[91.3163122,52.76041280000001],[91.3163986,52.745845700000004],[91.32192470000001,52.733034],[91.28722340000003,52.716195600000006],[91.2688187,52.715296900000006],[91.2636071,52.7119216],[91.26566360000002,52.7009648],[91.2584397,52.696815400000006],[91.2615761,52.693082100000005],[91.263068,52.671998900000006],[91.2574915,52.6667934],[91.2564007,52.6553825],[91.25684509999999,52.64665],[91.26275509999999,52.6387675],[91.2327574,52.63832730000001],[91.23250060000001,52.618930500000005],[91.2282593,52.615591200000004],[91.2193573,52.6178326],[91.1956843,52.63259220000001],[91.18873359999999,52.631799900000004],[91.1903104,52.62817340000001],[91.1851642,52.62522920000001],[91.1185915,52.633616],[91.0737664,52.6230625],[91.01452340000003,52.6161893],[90.96120700000002,52.6002491],[90.91429030000002,52.60263200000001],[90.8949767,52.6009949],[90.8832916,52.59671960000001],[90.8857937,52.5896049],[90.86429400000002,52.57503280000001],[90.8605829,52.5693842],[90.8498033,52.5675945],[90.8317633,52.555171],[90.8236831,52.5537448],[90.81835209999998,52.54235430000001],[90.80878829999997,52.5378888],[90.80469640000001,52.527519700000006],[90.7969877,52.5238914],[90.7900479,52.5152643],[90.7797622,52.512359100000005],[90.7732314,52.5038788],[90.7589131,52.498282700000004],[90.73811990000002,52.4771649],[90.72016590000001,52.4702354],[90.71127070000001,52.455097099999996],[90.6920131,52.43611560000001],[90.70561460000002,52.4313144],[90.7044743,52.4136057],[90.70693829999999,52.409379],[90.68545529999999,52.3799063],[90.68443549999999,52.37489359999999],[90.68838489999999,52.369667899999996],[90.67570479999998,52.361651699999996],[90.66856999999999,52.350256599999994],[90.6549512,52.345888499999994],[90.63903719999999,52.3275941],[90.589912,52.31100769999999],[90.59122360000003,52.303822399999994],[90.5873422,52.3006859],[90.5680678,52.298084800000005],[90.57174239999999,52.2877868],[90.5577215,52.2776472],[90.5589043,52.261357100000005],[90.54964520000001,52.2545985],[90.5438623,52.24365530000001],[90.5334945,52.233816600000004],[90.5096058,52.22796230000001],[90.51356980000001,52.2120972],[90.49615650000001,52.2097861],[90.49610450000002,52.201959200000005],[90.4867326,52.195871100000005]],[[88.5865169,55.391732100000006],[88.58287629999998,55.394067699999994],[88.5782099,55.3900066],[88.5851552,55.3871559],[88.5865169,55.391732100000006]],[[88.6560291,55.291765000000005],[88.6562455,55.2949745],[88.6538932,55.29433990000001],[88.6560291,55.291765000000005]]]}}