{"type":"Feature","properties":{"regionId":"respublika_kalmykiya","name":"Калмыкия","name:en":"Kalmykia","timezone":"Europe/Moscow","name_ru":"Республика Калмыкия","name_en":"Kalmykia","name_zh":"卡尔梅克共和国"},"geometry":{"type":"MultiPolygon","coordinates":[[[[46.984589699999994,45.780855300000006],[46.962247399999995,45.72039310000001],[46.937732000000004,45.719035000000005],[46.93764399999999,45.76903390000001],[46.984589699999994,45.780855300000006]]],[[[47.131915400000004,46.0977255],[47.129090100000006,46.068962000000006],[47.116645,46.0537043],[47.008101,46.0556578],[47.006272,46.0744969],[47.01510510000001,46.09290210000001],[47.03471090000001,46.101464099999994],[47.077026599999996,46.1006204],[47.0883613,46.1080071],[47.1247015,46.114434499999994],[47.128938800000014,46.11251240000001],[47.131915400000004,46.0977255]]],[[[47.29360880000001,44.7188913],[46.9785465,44.76646290000001],[46.89843630000001,44.811999699999994],[46.8869125,44.810512700000004],[46.8649803,44.79936030000001],[46.826133600000006,44.80828149999999],[46.81368049999999,44.8077237],[46.807732800000004,44.80382039999999],[46.809963399999994,44.7950846],[46.816654699999994,44.79471300000001],[46.82501890000001,44.788951100000006],[46.8229746,44.7804012],[46.837658399999995,44.768505800000014],[46.8296662,44.76218610000001],[46.817956599999995,44.76032730000001],[46.812566399999994,44.762929400000004],[46.8129379,44.77055000000001],[46.7978824,44.77761280000001],[46.795466000000005,44.7835606],[46.756061599999995,44.79880130000001],[46.75513210000001,44.802890399999995],[46.772789200000005,44.819433],[46.76981520000001,44.82631010000001],[46.690077200000005,44.8465688],[46.6770662,44.8588359],[46.657735900000006,44.85920739999999],[46.63933480000001,44.8642257],[46.63505990000001,44.8610659],[46.584874799999994,44.889874899999995],[46.5705625,44.907346399999994],[46.5045787,44.934296499999995],[46.484505,44.930393],[46.449375700000004,44.9391284],[46.4343204,44.938756500000004],[46.4270717,44.93448139999999],[46.38320649999999,44.9473058],[46.3688947,44.9465622],[46.358672,44.9408001],[46.3473338,44.9510228],[46.325959000000005,44.949721399999994],[46.22614730000001,44.972953800000006],[46.20031200000001,44.9584557],[46.1614654,44.963101900000005],[46.159792700000004,44.9584552],[46.15533190000001,44.9588269],[46.117414499999995,44.969792700000006],[46.0830289,44.968677],[46.0767095,44.9647737],[46.0666725,44.971278999999996],[46.031914900000004,44.9807579],[46.016302,44.9796425],[45.9993878,44.9872629],[45.9824738,44.9891213],[45.969277399999996,44.9807571],[45.9490176,44.98633290000001],[45.9308026,44.9846599],[45.88136159999999,44.9880049],[45.874112800000006,44.9854026],[45.846046699999995,44.985774],[45.8137055,44.991721399999996],[45.79363180000001,44.9876321],[45.7973494,44.9768517],[45.7834095,44.968487499999995],[45.748837900000005,44.9753642],[45.73471200000001,44.9727619],[45.70511590000002,44.9773628],[45.71595330000001,44.9958415],[45.5863284,45.12111990000001],[45.5900272,45.12578380000001],[45.3511726,45.218374100000005],[45.13634630000001,45.3060591],[44.89511260000001,45.38743169999999],[44.8931824,45.403513800000006],[44.877570399999996,45.405308000000005],[44.871555,45.4117178],[44.8373769,45.428279700000004],[44.8306221,45.437285599999996],[44.8058558,45.4313349],[44.79701080000001,45.425706000000005],[44.7880047,45.430208900000004],[44.761308400000004,45.4308518],[44.74281390000001,45.4348722],[44.72367590000001,45.4451645],[44.7133834,45.4450035],[44.699874300000005,45.4504713],[44.6328115,45.464140300000004],[44.59839550000001,45.478292100000004],[44.5749149,45.506114000000004],[44.5540083,45.49935920000001],[44.5475754,45.503218800000006],[44.5368005,45.4988765],[44.534066499999994,45.499037300000005],[44.536157100000004,45.5030579],[44.5339055,45.5048269],[44.5146069,45.5104554],[44.497720900000004,45.5017708],[44.470863699999995,45.503378700000006],[44.4517259,45.5070773],[44.4097512,45.524123900000006],[44.3819288,45.539723200000005],[44.365846499999996,45.5447085],[44.3642381,45.551945399999994],[44.33464709999999,45.549854399999994],[44.3159918,45.552748900000005],[44.29733610000001,45.56931330000001],[44.2780375,45.5749418],[44.2788414,45.5808922],[44.274499,45.5892549],[44.234615100000006,45.59922530000001],[44.2141905,45.6146639],[44.20711430000001,45.616111200000006],[44.1714113,45.644254499999995],[44.171572000000005,45.6479534],[44.131043999999996,45.69201800000001],[44.119303,45.734796300000006],[44.105954700000005,45.73817340000001],[44.103703,45.748466],[44.0932491,45.767442800000005],[44.0885848,45.7864196],[44.091157700000004,45.79639060000001],[44.071858999999996,45.8007325],[44.0638177,45.8105425],[44.060762200000006,45.8098992],[44.059314900000004,45.8044313],[44.042106700000005,45.8195483],[44.032778500000006,45.8406158],[44.035512200000014,45.84946099999999],[44.016856399999995,45.87085],[44.001739,45.8806599],[43.9827619,45.890148100000005],[43.973595100000004,45.8890223],[43.9449688,45.894811499999996],[43.92293610000001,45.9030131],[43.931459399999994,45.9105718],[43.92711690000001,45.9252065],[43.9206839,45.931156800000004],[43.919372900000006,45.9439519],[43.9152155,45.9465956],[43.90315390000001,45.9483645],[43.8931831,45.944182999999995],[43.84702709999999,45.957369799999995],[43.82451210000001,45.9591385],[43.8179186,45.9567261],[43.81438039999999,45.9592992],[43.8100383,45.95640439999999],[43.7871413,45.962897],[43.78563830000001,45.967811499999996],[43.7789866,45.968599600000005],[43.77639830000001,45.972931800000005],[43.7662946,45.9713602],[43.7486041,45.97891860000001],[43.7330045,45.978275100000005],[43.72319430000001,45.9826172],[43.691834300000004,45.9792395],[43.665781200000005,45.982938100000005],[43.645357000000004,45.9793997],[43.6384416,45.98084699999999],[43.6394065,45.9839027],[43.63522520000001,45.982294399999994],[43.6360292,45.9877623],[43.62895310000001,45.984384999999996],[43.623163500000004,45.9859931],[43.622680900000006,45.9911394],[43.6193037,45.9904961],[43.614640099999995,45.982615800000005],[43.60708149999999,45.98181159999999],[43.60676,45.97891680000001],[43.59421570000001,45.98888759999999],[43.589551900000004,45.9867968],[43.5887479,45.982133000000005],[43.570092800000005,45.9790771],[43.5118753,45.9892081],[43.469740200000004,45.988885999999994],[43.359737499999994,46.033110400000005],[43.3103639,46.0898798],[43.2817374,46.1040317],[43.2574532,46.110464199999996],[43.21837370000001,46.11223280000001],[43.19264220000001,46.1175395],[43.1644431,46.128764700000005],[43.06993490000001,46.1514713],[43.03326739999999,46.163693200000004],[43.0017463,46.1693216],[42.9785877,46.182508600000006],[42.961861999999996,46.196499900000006],[42.93178739999999,46.2360616],[42.9137754,46.23622220000001],[42.881605799999996,46.2082575],[42.8751212,46.20902280000001],[42.876006399999994,46.2049613],[42.871890799999996,46.208187],[42.856622599999994,46.19911370000001],[42.852038,46.20227630000001],[42.8487032,46.2009806],[42.845038200000005,46.19216590000001],[42.8393776,46.190603100000004],[42.85705169999999,46.184155700000005],[42.855051599999996,46.17810630000001],[42.862964,46.1778457],[42.737763,46.0910085],[42.6720445,46.08989139999999],[42.5543563,46.007628999999994],[42.3180347,45.969723900000005],[42.319547199999995,46.04162049999999],[42.3296764,46.13521870000001],[42.1706684,46.1099034],[42.167570700000006,46.069923100000004],[42.1802755,46.0713707],[42.176230100000005,46.040629499999994],[42.1636345,46.0387676],[42.15156939999999,45.9430799],[42.0832996,45.9322266],[42.0800939,45.9337535],[42.0829478,45.96635190000001],[41.9272893,45.9745191],[41.9028017,45.9679672],[41.819694999999996,45.9753624],[41.8098889,45.978956100000005],[41.7947295,45.9768372],[41.71441,45.9824283],[41.7020875,46.0517196],[41.6447749,46.142005100000006],[41.65053030000001,46.1501696],[41.6408978,46.156547599999996],[41.6541899,46.16813120000001],[41.6477704,46.1735272],[41.636828300000005,46.1765662],[41.6349277,46.18522230000001],[41.641125900000006,46.189562300000006],[41.65100749999999,46.19013850000001],[41.659748,46.1777685],[41.687034,46.1856451],[41.6890458,46.1877735],[41.6869773,46.1904804],[41.67836280000001,46.1937866],[41.6773667,46.19801570000001],[41.69281780000001,46.2042514],[41.69735570000001,46.215097],[41.7031775,46.2169504],[41.72610670000001,46.19992030000001],[41.7439862,46.19399510000001],[41.738479100000006,46.18579630000001],[41.862568200000005,46.144229599999996],[41.8864039,46.1758046],[41.9626496,46.176400300000005],[41.962433700000005,46.2032235],[41.910645599999995,46.203357200000006],[41.9111392,46.2550881],[41.962787,46.255098100000005],[41.962324100000004,46.29800780000001],[42.170370000000005,46.297813700000006],[42.17502530000001,46.3610713],[42.164222,46.38268769999999],[42.100658,46.374459699999996],[42.06633370000001,46.48333],[42.050924099999996,46.5086091],[42.0495334,46.5173398],[42.056179,46.52523870000001],[42.044102900000006,46.535377000000004],[42.0493046,46.53875030000001],[42.049722700000004,46.5461641],[42.06277490000001,46.5443623],[42.12995010000001,46.5563511],[42.200365600000005,46.5584041],[42.2150535,46.55635230000001],[42.2790978,46.530757200000004],[42.3325575,46.5270859],[42.37402959999999,46.514126499999996],[42.3970838,46.5111225],[42.4167977,46.4986831],[42.41571820000001,46.482267199999995],[42.424250300000004,46.475031300000005],[42.443690399999994,46.4669316],[42.4711224,46.462828],[42.488942200000004,46.4641242],[42.503306300000006,46.456672399999995],[42.51551070000001,46.440688699999995],[42.5514751,46.4137972],[42.5605475,46.3993254],[42.5739396,46.392413600000005],[42.59845560000001,46.38388199999999],[42.67988749999999,46.368331100000006],[42.76910650000001,46.3686819],[42.79085990000001,46.3825717],[42.7810819,46.4027843],[42.9317296,46.4469146],[43.3392286,46.167136400000004],[43.5383234,46.1571501],[43.6007947,46.17275260000001],[43.63033670000001,46.175383800000006],[43.6869298,46.284047599999994],[43.7509572,46.361153800000004],[43.729290500000005,46.3924577],[43.73883520000001,46.4080468],[43.8097038,46.38105409999999],[43.81841,46.38196159999999],[43.829365100000004,46.3498549],[43.8471533,46.3325374],[43.88966099999999,46.31382169999999],[43.848861899999996,46.28819810000001],[43.84786919999999,46.2846192],[43.85447919999999,46.28239920000001],[43.85289709999999,46.27671210000001],[43.858392200000004,46.2761944],[43.85928119999999,46.269892500000005],[43.8956896,46.30046639999999],[43.9587354,46.3191021],[43.9724562,46.3580822],[43.9587469,46.3703535],[43.9412452,46.3734939],[43.940805999999995,46.378882],[43.92394,46.38727049999999],[43.9319803,46.4187141],[43.9155438,46.420039900000006],[43.9153424,46.446916800000004],[43.9298913,46.4854738],[43.930568900000004,46.5350447],[43.812758,46.571863799999996],[43.8271565,46.596416000000005],[43.8820262,46.623488],[43.91262449999999,46.67577300000001],[43.900707499999996,46.6868717],[43.912245399999996,46.7144377],[44.0335941,46.76454510000001],[44.048389,46.8000772],[44.0868358,46.8355016],[44.1568789,46.8232316],[44.248460300000005,46.8896726],[44.250970800000005,46.895699300000004],[44.26594830000001,46.9094657],[44.2616242,46.911321699999995],[44.261538400000006,46.920174700000004],[44.26752510000001,46.9644906],[44.324151900000004,47.1423944],[44.318443599999995,47.413209099999996],[44.31106419999999,47.4133111],[44.312238300000004,47.47787149999999],[44.2328944,47.4785437],[44.23410220000001,47.549053900000004],[44.187735800000006,47.551574499999994],[44.187718600000004,47.53613230000001],[44.13513200000001,47.544900999999996],[44.1326114,47.413516],[44.109607499999996,47.4140557],[43.96413280000001,47.4002299],[43.925686999999996,47.32873360000001],[43.93951290000001,47.25875010000001],[43.7934975,47.2678201],[43.7867434,47.354211199999995],[43.6675966,47.5488881],[43.7147687,47.717623999999994],[43.752131000000006,47.73312060000001],[43.781057,47.733121000000004],[43.8061947,47.7458626],[43.871449899999995,47.760843],[43.9458313,47.753095900000005],[44.0302116,47.8233847],[44.0137318,47.83993230000001],[44.0825899,47.899435100000005],[44.15728139999999,47.8875026],[44.152960900000004,47.874477299999995],[44.1677544,47.87494039999999],[44.1713888,47.8841531],[44.3590569,47.85164979999999],[44.392011800000006,47.889482799999996],[44.392937100000005,47.9183434],[44.42323520000001,47.9556725],[44.4238565,48.04236280000001],[44.32513240000001,48.0413284],[44.3264088,48.23879680000001],[44.381122,48.250449499999995],[44.382408999999996,48.2336044],[44.4372921,48.229747],[44.435766900000004,48.2062304],[44.47801880000001,48.2019976],[44.504619999999996,48.1848439],[44.544156900000004,48.188073200000005],[44.54106049999999,48.050486799999995],[44.580116800000006,48.0509221],[44.5917095,48.0542583],[44.6489871,48.0538463],[44.66295690000001,48.0579929],[44.6630614,48.0863317],[44.80976739999999,48.0506324],[44.9256618,48.1202484],[44.9143743,48.171373100000004],[44.9374737,48.19473210000001],[44.909748300000004,48.2193895],[44.96097830000001,48.27085580000001],[45.167630700000004,48.222016900000014],[45.14567230000001,48.18771280000001],[45.23850490000001,48.1648779],[45.26605320000001,48.105472400000004],[45.3794059,48.09975490000001],[45.550385,47.9937796],[45.59470290000001,48.0117145],[45.69854380000001,48.0322744],[45.7566315,48.001332600000005],[45.7138656,47.9312193],[45.74017250000001,47.830261799999995],[45.783959700000004,47.81440699999999],[45.8412563,47.720167100000005],[45.8998712,47.716951800000004],[45.9216779,47.6446798],[46.007969499999994,47.5647578],[46.09507240000001,47.51058139999999],[46.2672072,47.4207447],[46.39888739999999,47.413302300000005],[46.538237900000006,47.5078579],[46.546822399999996,47.516954],[46.685458000000004,47.6016555],[46.704218700000006,47.60225020000001],[46.703368100000006,47.6071715],[46.761097,47.6075749],[46.777415700000006,47.5946266],[46.8731427,47.548898],[46.787226499999996,47.526391000000004],[46.66931370000001,47.4819759],[46.5362576,47.4034067],[46.739231000000004,47.073858300000005],[46.778304500000004,47.0544307],[46.81706469999999,46.99221500000001],[46.8996869,46.9871526],[46.962177600000004,46.9742199],[46.9734006,46.892003300000006],[46.9788341,46.874193399999996],[46.9648356,46.831982399999994],[46.957239599999994,46.715369900000006],[46.8662085,46.619630300000004],[46.9503268,46.524452200000006],[46.964672900000004,46.4454705],[46.864723999999995,46.457179499999995],[46.6629674,46.4409194],[46.560863,46.35426569999999],[46.504664999999996,46.3757765],[46.4008324,46.320618100000004],[46.4050946,46.3080607],[46.50124439999999,46.2809492],[46.449329,46.177632300000006],[46.45492939999999,45.965448200000004],[46.3106359,45.963010600000004],[46.295432300000016,45.9144253],[46.4119318,45.8159581],[46.549815100000004,45.79801300000001],[46.5357867,45.7575171],[46.477718200000005,45.7004604],[46.6938838,45.6484696],[46.6834006,45.6194747],[46.69252030000001,45.6143943],[46.7496692,45.615088],[46.76247190000001,45.59816220000001],[46.769149000000006,45.577237399999994],[46.8140589,45.5653878],[46.85435699999999,45.56885870000001],[46.876733,45.579508100000005],[46.9487947,45.5964446],[46.969002,45.61886739999999],[47.1528252,45.609930600000006],[47.2123804,45.6182056],[47.21833980000001,45.625675400000006],[47.2426066,45.6395875],[47.2710977,45.648736500000005],[47.2841047,45.6473425],[47.29351000000001,45.660197600000004],[47.29599120000001,45.6767832],[47.3397618,45.668504000000006],[47.3963857,45.665863300000005],[47.4011901,45.663993600000005],[47.401006699999996,45.654926399999994],[47.449019,45.64931630000001],[47.465030500000005,45.651004099999994],[47.479616,45.645917100000005],[47.4891268,45.6453245],[47.5203414,45.66065530000001],[47.5339711,45.64857190000001],[47.5547921,45.642023900000005],[47.556812900000004,45.634150600000005],[47.564492800000004,45.6276312],[47.552301,45.62680520000001],[47.531620399999994,45.6154084],[47.49804090000001,45.6183861],[47.491573700000004,45.60943090000001],[47.5034114,45.5949408],[47.5001114,45.5712426],[47.5099807,45.538623300000005],[47.526597800000005,45.5176757],[47.5639431,45.4954544],[47.566882,45.449269199999996],[47.5564068,45.42811300000001],[47.551401899999995,45.404747099999994],[47.8268033,45.262264200000004],[47.6154948,45.20645890000001],[47.557974699999995,45.12973810000001],[47.5352295,45.081781899999996],[47.510325800000004,45.0104169],[47.4998218,44.9917304],[47.41766939999999,44.885012800000005],[47.349062599999996,44.7755677],[47.29360880000001,44.7188913]],[[46.88446299999999,45.523708400000004],[46.77218370000001,45.52858690000001],[46.7710745,45.549681299999996],[46.7334648,45.552636],[46.6600547,45.547384799999996],[46.6463734,45.504598300000005],[46.4572763,45.482867199999994],[46.44404739999999,45.4526555],[46.5775668,45.4432392],[46.577223,45.4299225],[46.625217000000006,45.43882],[46.6386649,45.480540999999995],[46.69913120000001,45.4772029],[46.737626,45.480026099999996],[46.79063670000001,45.474425],[46.827932600000004,45.45005],[46.85516139999999,45.45052],[46.88446299999999,45.523708400000004]]]]}}