{"type":"Feature","properties":{"regionId":"respublika_tatarstan","name":"Татарстан","name:en":"Tatarstan","timezone":"Europe/Moscow","name_ru":"Республика Татарстан (Татарстан)","name_en":"Tatarstan","name_zh":"鞑靼斯坦共和国"},"geometry":{"type":"MultiPolygon","coordinates":[[[[47.2570292,54.847092499999995],[47.24509820000001,54.8428556],[47.239422700000006,54.842940399999996],[47.23701890000001,54.8467982],[47.24536290000001,54.8493115],[47.2478426,54.847895799999996],[47.24327,54.847549799999996],[47.246661399999994,54.8450921],[47.2570292,54.847092499999995]]],[[[47.3497533,54.869517],[47.3465727,54.86768149999999],[47.345085499999996,54.8756493],[47.342158000000005,54.8758201],[47.3439253,54.8820602],[47.3454228,54.8781486],[47.3507786,54.8794059],[47.3497533,54.869517]]],[[[53.071859999999994,56.19861980000001],[53.0795376,56.191385600000004],[53.072598600000006,56.188211200000005],[53.062854300000005,56.190794800000006],[53.062706500000004,56.19345230000001],[53.071859999999994,56.19861980000001]]],[[[53.09053680000001,56.1910905],[53.082416300000006,56.1975865],[53.0878789,56.20061320000001],[53.0835233,56.2044517],[53.090167,56.20821660000001],[53.0968114,56.1947077],[53.09053680000001,56.1910905]]],[[[47.329389,54.88766119999999],[47.31386149999999,54.8841768],[47.3024784,54.875975100000005],[47.29970820000001,54.8717228],[47.301746099999995,54.8699473],[47.29209210000001,54.867532600000004],[47.299226000000004,54.878449599999996],[47.3163266,54.8884391],[47.32503330000001,54.891835900000004],[47.329389,54.88766119999999]]],[[[47.3296955,54.846784099999994],[47.321946499999996,54.845659399999995],[47.322108400000005,54.8427076],[47.297393400000004,54.8463926],[47.2968862,54.84229739999999],[47.29409090000001,54.847865299999995],[47.300037599999996,54.8520532],[47.3250655,54.8525192],[47.3296955,54.846784099999994]]],[[[47.74279860000001,55.3675306],[47.73341530000001,55.3691904],[47.731163200000005,55.3758585],[47.70637970000001,55.381228699999994],[47.707793800000005,55.3839769],[47.69862080000001,55.388532700000006],[47.70374210000001,55.396016900000006],[47.7161696,55.391556800000004],[47.717343,55.3850487],[47.73865990000001,55.3757384],[47.74279860000001,55.3675306]]],[[[52.230094900000005,56.0571754],[52.22231020000002,56.0562622],[52.2274464,56.052060999999995],[52.226854700000004,56.0475117],[52.22419890000001,56.05290290000001],[52.21681,56.055944499999995],[52.20433260000001,56.04496399999999],[52.201249499999996,56.0477869],[52.208909000000006,56.056147599999996],[52.19817920000001,56.0632013],[52.2006661,56.0675617],[52.2117795,56.06277530000001],[52.213636,56.066164900000004],[52.2094194,56.066819],[52.20635510000001,56.07273330000001],[52.22211530000002,56.073613300000005],[52.22555750000001,56.064627599999994],[52.22382,56.059153200000004],[52.230094900000005,56.0571754]]],[[[53.5006057,54.0561286],[53.44595210000001,54.043072800000004],[53.414488199999994,54.03053090000001],[53.4006961,53.9930872],[53.3688603,53.97424439999999],[53.3523951,53.988102500000004],[53.34678339999999,54.0012957],[53.320406,54.01873630000001],[53.310328,54.0197066],[53.307190399999996,54.0168888],[53.28681580000001,54.02953850000001],[53.28215060000001,54.0375666],[53.29074270000001,54.07168949999999],[53.2872436,54.087366599999996],[53.22577130000001,54.08727459999999],[53.22819060000001,54.09675520000001],[53.2318038,54.09847390000001],[53.2543035,54.0980344],[53.23635090000001,54.1131747],[53.19997540000001,54.1115761],[53.189959800000004,54.1043684],[53.19735880000001,54.102654],[53.19840890000001,54.096781],[53.171209,54.084726999999994],[53.133062100000004,54.0769046],[53.09252540000001,54.07913890000001],[53.062389,54.06537680000001],[53.0587658,54.0826542],[53.062124600000004,54.088795700000006],[53.083713900000006,54.092347600000004],[53.0868596,54.1096535],[53.0970165,54.125689900000005],[53.0795241,54.1246824],[53.0628067,54.131013200000005],[53.044022999999996,54.131546900000004],[53.04630220000001,54.13857540000001],[53.02507560000001,54.16897980000001],[53.0124218,54.1750642],[53.00536280000001,54.1750485],[53.00471280000001,54.179483],[52.9962855,54.1765072],[52.968900500000004,54.1825466],[52.962820900000004,54.1910878],[52.9705786,54.2072166],[52.9641572,54.2118702],[52.9515923,54.2138709],[52.958719900000006,54.21870260000001],[52.959509499999996,54.22268210000001],[52.953653599999996,54.22216840000001],[52.9492926,54.2266872],[52.954905999999994,54.23504930000001],[52.963131000000004,54.2334436],[52.9707316,54.2368095],[52.9889987,54.234396200000006],[53.0042732,54.237965],[53.0158548,54.228735100000016],[53.0078338,54.22917560000001],[52.9990279,54.22635410000001],[52.99912270000001,54.2188269],[53.0126167,54.22285910000001],[53.00931370000001,54.2279448],[53.0178381,54.22770190000001],[53.027078200000005,54.220662100000006],[53.051916999999996,54.2174547],[53.074925300000004,54.221104800000006],[53.05478949999999,54.235290500000005],[53.0509687,54.233667399999995],[53.0442028,54.2360837],[53.0433766,54.2399545],[53.03133820000001,54.24303870000001],[53.03311280000001,54.244889699999995],[53.0444163,54.245803],[53.0526754,54.24077630000001],[53.0571901,54.24258890000001],[53.0628248,54.2372218],[53.0656777,54.24057230000001],[53.097553700000006,54.2344304],[53.1400911,54.2472001],[53.1434891,54.251755700000004],[53.12435580000001,54.2575212],[53.123029200000005,54.2591278],[53.129426200000005,54.2608164],[53.1164262,54.26721930000001],[53.154678399999995,54.28899990000001],[53.124610700000005,54.3015752],[53.116604099999996,54.3070981],[53.1204616,54.3089493],[53.11661290000001,54.31165419999999],[53.081858399999994,54.31748509999999],[53.0562969,54.3527385],[53.02982,54.33891810000001],[53.0113033,54.3339792],[53.0168326,54.32273830000001],[52.990646399999996,54.318612],[53.025673000000005,54.303074699999996],[53.0294656,54.291641],[52.97897530000001,54.286382100000004],[52.98120779999999,54.2679893],[52.9672773,54.266090500000004],[52.957353399999995,54.2722811],[52.94541530000001,54.268671000000005],[52.9359024,54.2771771],[52.9239012,54.26932480000001],[52.9006517,54.27200030000001],[52.8905578,54.276982600000004],[52.904268699999996,54.290592900000014],[52.927788,54.292027600000004],[52.932647599999996,54.297813500000004],[52.9522388,54.3069507],[52.9341885,54.3084257],[52.9176558,54.320039200000004],[52.8971207,54.31706939999999],[52.8779981,54.325628200000004],[52.85692399999999,54.322864599999996],[52.844569699999994,54.3135956],[52.8315203,54.319294199999995],[52.835237,54.322825200000004],[52.8249892,54.321082],[52.81000749999999,54.3325485],[52.78679090000001,54.34144539999999],[52.75550200000001,54.3490432],[52.7074786,54.354456799999994],[52.704396700000004,54.35984649999999],[52.696425100000006,54.3607571],[52.683280399999994,54.3563738],[52.682268,54.3589372],[52.678206900000006,54.357830799999995],[52.6380665,54.3382716],[52.62854190000001,54.3393891],[52.62354220000001,54.34698959999999],[52.622825600000006,54.3560983],[52.6126678,54.36279530000001],[52.6014146,54.365556100000006],[52.5731794,54.3494829],[52.568276000000004,54.3401279],[52.5060966,54.373703],[52.489178200000005,54.390070200000004],[52.4900777,54.3922275],[52.501823699999996,54.391239],[52.504079999999995,54.4373736],[52.491684199999995,54.439693399999996],[52.484836699999995,54.4361246],[52.4850033,54.44167149999999],[52.50211730000001,54.45906179999999],[52.486742,54.4665996],[52.465894399999996,54.467960399999996],[52.4359601,54.464313800000006],[52.431903399999996,54.474154],[52.386907199999996,54.4456629],[52.38907759999999,54.433844799999996],[52.391815,54.4337346],[52.3938981,54.4240662],[52.400088399999994,54.4184958],[52.3944392,54.41813990000001],[52.3970943,54.412728200000004],[52.36722159999999,54.3986609],[52.350913399999996,54.4266141],[52.33168749999999,54.4333314],[52.3324531,54.4363065],[52.343376,54.439080999999995],[52.3323447,54.4482209],[52.326719700000005,54.44408779999999],[52.298148200000014,54.4470319],[52.293817700000005,54.4348336],[52.2428893,54.4396819],[52.239888300000004,54.4433743],[52.2170498,54.43561590000001],[52.221793500000004,54.430969],[52.18895630000001,54.417848199999995],[52.190639000000004,54.411057299999996],[52.198535800000016,54.406980999999995],[52.1979698,54.398934000000004],[52.19277010000001,54.39659520000001],[52.19275400000001,54.39259090000001],[52.18252030000001,54.391688699999996],[52.1845673,54.38498249999999],[52.1771034,54.375017],[52.1579119,54.364848099999996],[52.1446166,54.363566399999996],[52.135603,54.3711286],[52.12545220000001,54.3737219],[52.1258824,54.379162900000004],[52.11786759999999,54.3915906],[52.09552820000001,54.3911912],[52.097268,54.3807187],[52.1042311,54.3815956],[52.101113000000005,54.3641701],[52.1164637,54.3612372],[52.1168316,54.355353900000004],[52.114015900000005,54.346787199999994],[52.1120956,54.348479499999996],[52.1072395,54.339378700000005],[52.09254250000001,54.32830200000001],[52.054751599999996,54.342525200000004],[52.05338,54.345897199999996],[52.0362737,54.3551629],[52.061177300000004,54.3773868],[52.0468728,54.3804127],[52.046004599999996,54.3873549],[52.058303,54.400010800000004],[52.0662232,54.418204499999995],[52.03488339999999,54.41428789999999],[52.02672570000001,54.42605830000001],[52.017789199999996,54.4249335],[52.0078433,54.42968749999999],[51.99535790000001,54.42990230000001],[51.9914706,54.427097599999996],[52.0010722,54.420852800000006],[51.990581399999996,54.4191173],[51.9806659,54.4216394],[51.973568300000004,54.411965499999994],[51.9853437,54.4159336],[51.994012600000005,54.4131366],[52.0062649,54.4159336],[52.01622739999999,54.413999499999996],[51.9966371,54.4086141],[51.988357900000004,54.4129824],[51.98184369999999,54.412063999999994],[51.9745257,54.40764169999999],[51.975948,54.4039401],[51.9717566,54.403013900000005],[51.965950600000006,54.419112500000004],[51.9756601,54.4283264],[51.9634898,54.4315973],[51.954142499999996,54.426875800000005],[51.9565208,54.4192309],[51.951043899999995,54.4141361],[51.9042719,54.412539300000006],[51.905176700000005,54.417540499999994],[51.911842199999995,54.42095810000001],[51.9157725,54.4294971],[51.91186689999999,54.4331669],[51.915259999999996,54.434112600000006],[51.9145582,54.4365671],[51.9095991,54.4375068],[51.908101900000005,54.441004099999994],[51.9254075,54.4376993],[51.92539120000001,54.4433441],[51.928434300000006,54.445692300000005],[51.941980599999994,54.442129300000005],[51.945939200000005,54.448562200000005],[51.9423517,54.4473086],[51.9437478,54.4498055],[51.9313036,54.4523848],[51.9419829,54.4557134],[51.945399300000005,54.45349749999999],[51.95153749999999,54.4734449],[51.940415800000004,54.4836389],[51.9378859,54.5165375],[51.9209067,54.524169],[51.9315487,54.5296291],[51.928782600000005,54.535055400000005],[51.9064592,54.5378187],[51.875861699999994,54.52759220000001],[51.865284599999995,54.528787900000005],[51.86003,54.5347603],[51.8230007,54.53915090000001],[51.8152562,54.535750400000005],[51.8064371,54.539049399999996],[51.8020803,54.535368000000005],[51.789260999999996,54.5366255],[51.777251,54.5568526],[51.72674920000001,54.5525648],[51.708220700000005,54.5570555],[51.69069210000001,54.5557882],[51.6632095,54.56909830000001],[51.6336446,54.5650035],[51.63353000000001,54.568859200000006],[51.6194005,54.5733984],[51.61875390000001,54.5775626],[51.61203230000001,54.580393900000004],[51.60951120000001,54.5864141],[51.5849025,54.60641220000001],[51.586441199999996,54.60827510000001],[51.5833026,54.6090216],[51.5871166,54.613279999999996],[51.5827036,54.613372600000005],[51.5820683,54.617825499999995],[51.578452600000006,54.6192063],[51.5801964,54.6234314],[51.560262,54.625899000000004],[51.56291820000001,54.628521500000005],[51.555506900000005,54.633631300000005],[51.5575391,54.6348731],[51.5553697,54.6390945],[51.5412403,54.64127439999999],[51.5378052,54.644232800000005],[51.54272530000001,54.6437712],[51.542832600000004,54.6462683],[51.5338198,54.65104839999999],[51.5189456,54.6506098],[51.5131596,54.595378300000014],[51.495554600000006,54.5966862],[51.381751599999994,54.588079300000004],[51.38762339999999,54.5992504],[51.38128269999999,54.612092600000004],[51.3826338,54.617752700000004],[51.3870709,54.620419000000005],[51.3882364,54.62693430000001],[51.3960174,54.6370217],[51.39253050000001,54.647401099999996],[51.3895692,54.648436700000005],[51.3940802,54.6511638],[51.3984514,54.663439100000005],[51.4039598,54.6681675],[51.388873,54.677156200000006],[51.3809552,54.67299980000001],[51.38102349999999,54.6644076],[51.3624411,54.6612609],[51.365428200000004,54.6563056],[51.3559508,54.652573800000006],[51.3365226,54.652048],[51.3303698,54.6562259],[51.3149569,54.646703800000004],[51.303294699999995,54.648968100000005],[51.3049499,54.65165699999999],[51.302069599999996,54.6532199],[51.28843880000001,54.652738500000005],[51.2869965,54.6479331],[51.2791094,54.64169939999999],[51.2616394,54.640505100000006],[51.252607399999995,54.633607399999995],[51.243393600000005,54.635720400000004],[51.22820330000001,54.631567499999996],[51.225567700000006,54.647673999999995],[51.2070134,54.6502718],[51.206653,54.653156900000006],[51.19876560000001,54.6531019],[51.196448000000004,54.648563800000005],[51.187666199999995,54.6505297],[51.19050300000001,54.6545171],[51.19816800000001,54.655061599999996],[51.2003604,54.659004499999995],[51.1902875,54.659564599999996],[51.16880590000001,54.6520575],[51.161213100000005,54.6446049],[51.1500316,54.63961210000001],[51.14873980000001,54.613979],[51.10057260000001,54.586824199999995],[51.1050911,54.5838051],[51.09019890000001,54.5773148],[51.09998230000001,54.571066699999996],[51.0744203,54.5402093],[51.054118900000006,54.545123800000006],[51.041894899999996,54.544265599999996],[51.0083646,54.5494356],[51.00057580000001,54.500792600000004],[51.0008982,54.482101300000004],[51.00850820000001,54.48140449999999],[51.0122451,54.4743508],[51.0208962,54.469650200000004],[50.9947778,54.4509798],[50.98444439999999,54.4379956],[50.9889064,54.432022],[50.985974,54.4291217],[50.9885691,54.413028499999996],[50.9916761,54.405911],[50.999408,54.402911100000004],[50.98782609999999,54.402598100000006],[50.98268769999999,54.3970142],[50.978914800000005,54.39839430000001],[50.975333500000005,54.3950074],[50.9665681,54.397192600000004],[50.965910400000006,54.3942176],[50.95720669999999,54.398520600000005],[50.9498712,54.3961418],[50.9543557,54.3920836],[50.95126049999999,54.3426393],[50.8995606,54.34338459999999],[50.90657230000001,54.35580439999999],[50.907298499999996,54.3703401],[50.8894708,54.3717882],[50.875258200000005,54.38460799999999],[50.8660501,54.3815926],[50.8613699,54.373572200000005],[50.8547302,54.3723685],[50.854858099999994,54.36997530000001],[50.822766,54.363486599999995],[50.774475300000006,54.37698439999999],[50.7502437,54.3759015],[50.736443,54.4047196],[50.673402800000005,54.3948927],[50.6484426,54.385120300000004],[50.6368425,54.37161139999999],[50.6214647,54.37068939999999],[50.5817199,54.345519200000005],[50.55968729999999,54.347092599999996],[50.5484609,54.337253499999996],[50.5212626,54.324949399999994],[50.508101,54.33055220000001],[50.5035098,54.32821880000001],[50.4935175,54.3327965],[50.483047899999995,54.34589449999999],[50.5060564,54.350622599999994],[50.49353830000001,54.3642599],[50.4870301,54.3665882],[50.477722,54.38346759999999],[50.473904399999995,54.40893090000001],[50.4627544,54.42845230000001],[50.4309442,54.420995600000005],[50.389254799999996,54.4820543],[50.37424599999999,54.493498800000005],[50.365300100000006,54.4850943],[50.35460839999999,54.48444729999999],[50.35948149999999,54.48913530000001],[50.35498679999999,54.4910114],[50.3418388,54.4880737],[50.3443784,54.481191499999994],[50.324443699999996,54.480866199999994],[50.3347508,54.47923230000001],[50.3337976,54.4713072],[50.3434752,54.4626219],[50.30252290000001,54.4565297],[50.30748349999999,54.4426548],[50.29047930000001,54.44452149999999],[50.2734913,54.441629899999995],[50.2510279,54.4476183],[50.2442619,54.4426711],[50.23587260000001,54.446815300000004],[50.22314930000001,54.49217540000001],[50.19522550000001,54.5011749],[50.0538132,54.5090237],[50.030697399999994,54.5073755],[50.013607799999996,54.5088517],[49.9894603,54.5170082],[49.9822439,54.5066623],[49.9671431,54.500718500000005],[49.9528056,54.5088115],[49.9532536,54.52285880000001],[49.9415656,54.535254],[49.8481468,54.53722139999999],[49.8393748,54.5486105],[49.8265718,54.5496025],[49.823269599999996,54.5587612],[49.81446259999999,54.563725600000005],[49.8040951,54.56463230000001],[49.78590020000001,54.5600678],[49.772187900000006,54.568709600000005],[49.7716652,54.572956600000005],[49.76735990000001,54.571041199999996],[49.7374566,54.576806499999996],[49.71971230000001,54.5741076],[49.699845800000006,54.5786956],[49.668468100000005,54.5720576],[49.660418400000005,54.5735431],[49.652225,54.5646266],[49.6276712,54.5600862],[49.6273695,54.55728559999999],[49.62025280000001,54.5558613],[49.6111978,54.557090699999996],[49.610108700000005,54.5605465],[49.591244499999995,54.557599399999994],[49.575009900000005,54.562908500000006],[49.5601472,54.562065000000004],[49.5512143,54.5764324],[49.56695500000001,54.5819542],[49.5694574,54.588925100000004],[49.5841515,54.597492900000006],[49.581221899999996,54.615053800000005],[49.5458222,54.6186255],[49.5337261,54.621958600000006],[49.5304796,54.628804],[49.5345618,54.6346463],[49.5360912,54.649841099999996],[49.551035,54.66806090000001],[49.543618200000004,54.6694904],[49.5310184,54.680484099999994],[49.5317999,54.6856932],[49.52876330000001,54.6891611],[49.536059800000004,54.68911810000001],[49.534839999999996,54.691495100000004],[49.51548439999999,54.695094600000004],[49.5073625,54.68973510000001],[49.4797294,54.688562100000006],[49.4897711,54.709728000000005],[49.52531620000001,54.72077620000001],[49.52581610000001,54.72359780000001],[49.4857839,54.732251100000006],[49.490032400000004,54.748164],[49.4842181,54.753441099999996],[49.4760724,54.778521000000005],[49.4687495,54.78517630000001],[49.436885399999994,54.80322339999999],[49.377965399999994,54.8277038],[49.407581799999996,54.830578200000005],[49.405554,54.839052],[49.35776639999999,54.8401072],[49.3268521,54.8682007],[49.31758339999999,54.870962],[49.288298600000005,54.8914462],[49.2395841,54.880309499999996],[49.2715254,54.861326399999996],[49.23897060000001,54.8415593],[49.2092462,54.8458223],[49.20033680000001,54.8529022],[49.1804968,54.8525937],[49.148209,54.841825299999996],[49.14051020000001,54.833265499999996],[49.12563280000001,54.8020222],[49.120600200000005,54.798179200000014],[49.0970737,54.79763220000001],[49.0976955,54.79416870000001],[49.0895406,54.788270600000004],[49.0837765,54.79137230000001],[49.0836117,54.79606090000001],[49.0768113,54.80163039999999],[49.07172739999999,54.801477899999995],[49.0679973,54.796256500000005],[49.058452,54.797962500000004],[49.0524248,54.806111300000005],[49.0450947,54.8034852],[49.033122000000006,54.8097719],[49.02845530000001,54.8085015],[49.03239800000001,54.815460099999996],[49.0226813,54.8107107],[49.012551900000005,54.79607310000001],[48.881779599999994,54.7960204],[48.88174139999999,54.625206000000006],[48.465153400000005,54.62521080000001],[48.4177025,54.6541966],[48.35372449999999,54.66960290000001],[48.350916,54.6811206],[48.3626015,54.692083800000006],[48.3342463,54.7034234],[48.2806832,54.663425600000004],[48.2296861,54.701703],[48.2324774,54.704095900000006],[48.2438432,54.702291300000006],[48.24879520000001,54.7068597],[48.2648888,54.711524499999996],[48.266862,54.714681899999995],[48.2631816,54.718927],[48.2771245,54.726404800000005],[48.2800661,54.72961820000001],[48.277954,54.7308697],[48.26924820000001,54.729419400000005],[48.2630475,54.72363580000001],[48.25148649999999,54.72480830000001],[48.2494605,54.717956],[48.211251,54.723569600000005],[48.2139825,54.7363974],[48.2060744,54.733519400000006],[48.20231990000001,54.736229800000004],[48.18386449999999,54.7268978],[48.1526437,54.72383850000001],[48.1162513,54.73890020000001],[48.098001200000006,54.738563400000004],[48.10341520000001,54.76652320000001],[48.0696218,54.76373060000001],[48.07215690000001,54.7402907],[48.0560098,54.74250120000001],[48.0570263,54.73311680000001],[48.072426,54.73655510000001],[48.080969599999996,54.7138716],[48.03891670000001,54.70399810000001],[48.02155380000001,54.72771210000001],[47.956142,54.7119757],[47.9456048,54.72609800000001],[47.92070890000001,54.7196144],[47.928121700000005,54.699063800000005],[47.9034658,54.69639720000001],[47.90709,54.66671560000001],[47.9252971,54.6674456],[47.9286914,54.6404568],[47.921762900000004,54.6382611],[47.9095316,54.647899499999994],[47.816598,54.64169139999999],[47.7834849,54.667243],[47.77016880000001,54.6828775],[47.79070530000001,54.69043670000001],[47.83555880000001,54.68973630000001],[47.8229846,54.72838870000001],[47.717752000000004,54.735028500000006],[47.6996869,54.716239200000004],[47.7115741,54.708718300000015],[47.7038579,54.695479500000005],[47.670676300000004,54.673728800000006],[47.69394520000001,54.6581871],[47.692094000000004,54.655782800000004],[47.6511857,54.625333200000014],[47.6129666,54.612948900000006],[47.6340171,54.590038400000005],[47.633757700000004,54.58164659999999],[47.6177737,54.5586792],[47.594611,54.5401797],[47.5785636,54.5328111],[47.53934280000001,54.530415000000005],[47.5208985,54.53810060000001],[47.5067254,54.55148299999999],[47.484000599999995,54.545636800000004],[47.4859734,54.5570253],[47.4684679,54.5612808],[47.4618397,54.566727],[47.450561099999994,54.567324],[47.438174100000005,54.5631837],[47.435585200000006,54.5442166],[47.419209699999996,54.535159400000005],[47.405316000000006,54.5331574],[47.4037924,54.5270813],[47.4245617,54.49854520000001],[47.396855200000005,54.4964095],[47.38796129999999,54.523418500000005],[47.3638717,54.5678938],[47.368439,54.56859670000001],[47.3533969,54.577307399999995],[47.3567083,54.5816356],[47.34828039999999,54.598786200000006],[47.344218999999995,54.621301700000004],[47.3613106,54.629529700000006],[47.3933991,54.63257830000001],[47.4052866,54.638392900000014],[47.3942304,54.646148200000006],[47.3915612,54.6530392],[47.3735207,54.65533920000001],[47.37513580000001,54.6610649],[47.3650116,54.6725276],[47.370813999999996,54.697904300000005],[47.29277970000001,54.6744993],[47.26883890000001,54.6732868],[47.25859680000001,54.677531800000004],[47.27688739999999,54.696482800000005],[47.28563210000001,54.714442399999996],[47.307493199999996,54.722897200000006],[47.31728019999999,54.730097],[47.38767359999999,54.7527978],[47.38484729999999,54.760036500000005],[47.3688925,54.766866300000004],[47.368727,54.77101570000001],[47.358840699999995,54.773965100000005],[47.370767099999995,54.7812756],[47.3660265,54.796091600000004],[47.36883280000001,54.79801010000001],[47.370507599999996,54.817372399999996],[47.3619166,54.8280865],[47.3692517,54.82871840000001],[47.387243299999994,54.8430088],[47.413865099999995,54.83486169999999],[47.426415000000006,54.8364401],[47.415863599999994,54.855616],[47.41520739999999,54.8630906],[47.4046598,54.867609099999996],[47.4136141,54.87466939999999],[47.3993011,54.881148599999996],[47.39792739999999,54.892569300000005],[47.4102221,54.8922966],[47.40108789999999,54.88591830000001],[47.409066499999994,54.880576399999995],[47.42059030000001,54.8822372],[47.425231700000005,54.88586439999999],[47.4247682,54.878649599999996],[47.4531741,54.8725014],[47.4505184,54.861459499999995],[47.4547232,54.8637042],[47.5605015,54.8446509],[47.570647599999994,54.83833130000001],[47.5769495,54.828649],[47.5861978,54.8263316],[47.6149784,54.8400331],[47.6404042,54.8647512],[47.65899890000001,54.8595458],[47.684068499999995,54.839776900000004],[47.7099675,54.8430137],[47.7418773,54.8157443],[47.743702600000006,54.809946499999995],[47.754645599999996,54.8155596],[47.724881599999996,54.8465535],[47.72262930000001,54.858919],[47.7414017,54.89183],[47.7344973,54.899872300000006],[47.714598300000006,54.9013398],[47.7358234,54.908910600000006],[47.73837010000001,54.901172200000005],[47.747586,54.8948399],[47.787322200000006,54.82393290000001],[47.780615100000006,54.818650399999996],[47.79533700000001,54.80506],[47.8068939,54.8017372],[47.8134592,54.8070051],[47.8235394,54.803411499999996],[47.83448939999999,54.809400399999994],[47.84487729999999,54.8199513],[47.801670699999995,54.826487099999994],[47.79240080000001,54.8465887],[47.78261870000001,54.869541],[47.7781675,54.90148539999999],[47.77371370000001,54.9031066],[47.7699894,54.91531880000001],[47.7694271,54.943294099999996],[47.76372190000001,54.9543193],[47.76673670000001,54.9587734],[47.775386600000004,54.9610292],[47.78635560000001,54.957916999999995],[47.800193,54.959202399999995],[47.8084043,54.964952600000004],[47.824938,54.9575956],[47.836860699999995,54.963694],[47.8521682,54.964345300000005],[47.849899799999996,54.9627204],[47.8599383,54.9606298],[47.862371200000005,54.9651214],[47.8632747,54.959132000000004],[47.860786499999996,54.9582757],[47.8957278,54.94166939999999],[47.914648199999995,54.95003749999999],[47.930317800000005,54.95006169999999],[47.9208791,54.9647117],[47.927825999999996,54.964234499999996],[47.93217800000001,54.96959280000001],[47.9310799,54.9593349],[47.9348738,54.95231570000001],[47.9388732,54.9539482],[47.93212210000001,54.947852],[47.9339212,54.94586949999999],[47.950171499999996,54.9473459],[47.953964799999994,54.945042900000004],[47.96239310000001,54.9482047],[47.9664778,54.9550967],[47.9761867,54.95278149999999],[48.01160439999999,54.9855305],[48.01660699999999,54.9943619],[48.0280344,55.039695300000005],[48.0131225,55.036962300000006],[47.996859900000004,55.0534453],[47.9753794,55.0409114],[47.971864999999994,55.052415200000006],[47.975539700000006,55.05728749999999],[47.97274590000001,55.0646788],[47.9524821,55.0645802],[47.9453747,55.061714],[47.9361547,55.0496482],[47.951350399999995,55.0373585],[47.930529,55.026238400000004],[47.9188524,55.0456471],[47.9000177,55.052815300000006],[47.9061848,55.0727643],[47.901059499999995,55.0788849],[47.9016142,55.091834399999996],[47.9284467,55.087840299999996],[47.94295210000001,55.0904256],[47.938962700000005,55.092663],[47.9414322,55.09515660000001],[47.949710200000005,55.09223080000001],[47.95078349999999,55.09719510000001],[47.958196900000004,55.094505500000004],[47.9591757,55.09851140000001],[47.96721230000001,55.0998017],[47.975216200000006,55.097250800000005],[47.992199500000005,55.099002000000006],[47.9964174,55.103635100000005],[48.001104399999996,55.101267199999995],[48.0144573,55.1048263],[48.01468249999999,55.108800900000006],[48.018749,55.110854399999994],[48.0168517,55.1157296],[48.0230073,55.1159466],[48.025621300000005,55.117558100000004],[48.02335860000001,55.119253900000004],[48.026872100000006,55.119687899999995],[48.035368500000004,55.11832820000001],[48.037879999999994,55.108639100000005],[48.063163,55.0836689],[48.0867935,55.0939435],[48.082375600000006,55.1066795],[48.061309800000004,55.12869510000001],[48.088033300000006,55.136855000000004],[48.103117000000005,55.13599610000001],[48.1044758,55.13973800000001],[48.1084632,55.13956230000001],[48.107665,55.1459047],[48.0749978,55.17532090000001],[48.06431620000001,55.22914190000001],[48.0340239,55.2297865],[48.0210945,55.23269810000001],[48.01291210000001,55.23826530000001],[48.004702800000004,55.2613871],[48.005172400000006,55.2678],[48.0161833,55.2847504],[48.012036200000004,55.2897866],[48.0011628,55.289087099999996],[47.9879101,55.29547880000001],[47.982687799999994,55.29399910000001],[47.976539300000006,55.296280100000004],[47.976535600000005,55.3034768],[47.96023,55.3045339],[47.940927699999996,55.310453599999995],[47.922949300000006,55.3221849],[47.911612999999996,55.322251900000005],[47.894410300000004,55.3154748],[47.88940439999999,55.315466699999995],[47.8837509,55.3217201],[47.872430800000004,55.321496499999995],[47.87380939999999,55.30452139999999],[47.8642142,55.2840683],[47.9017261,55.26223120000001],[47.8668656,55.254228],[47.86583290000001,55.26825560000001],[47.82292890000001,55.279782700000005],[47.8204936,55.2884347],[47.80812220000001,55.294300500000006],[47.8040308,55.3029547],[47.79739090000001,55.29682030000001],[47.788535300000014,55.297769900000006],[47.8003196,55.281832800000004],[47.799263200000006,55.2729846],[47.7895847,55.2716564],[47.7896787,55.2500426],[47.7828491,55.249798000000006],[47.7837034,55.23867010000001],[47.7509292,55.239574600000005],[47.715090700000005,55.233597200000006],[47.706126100000006,55.22625430000001],[47.703214200000005,55.2158425],[47.66994290000001,55.2142135],[47.66852050000001,55.2306481],[47.6872184,55.233977200000005],[47.6886546,55.250652800000005],[47.69651560000001,55.2606861],[47.693451700000004,55.280390800000006],[47.699566100000006,55.28503200000001],[47.698662600000006,55.2903876],[47.689030900000006,55.29621430000001],[47.684910900000006,55.3061602],[47.67561210000001,55.3082491],[47.683704399999996,55.323971],[47.6702585,55.3244543],[47.672060800000004,55.329615000000004],[47.6628017,55.3352705],[47.64510870000001,55.33553010000001],[47.66983390000001,55.3523873],[47.68442099999999,55.3483626],[47.68267590000001,55.35480379999999],[47.6908067,55.359048599999994],[47.6877706,55.362010000000005],[47.68951270000001,55.363170700000005],[47.69961380000001,55.356133],[47.70371080000001,55.34926449999999],[47.7197704,55.3484089],[47.72516110000001,55.35100009999999],[47.72152520000001,55.35442309999999],[47.7290635,55.354487099999986],[47.7411991,55.35212739999999],[47.7497804,55.345372600000005],[47.758503700000006,55.3453868],[47.7594798,55.3419109],[47.755879900000004,55.3379793],[47.76633460000001,55.33798639999999],[47.7614711,55.334859599999994],[47.7637045,55.3322961],[47.7804684,55.3330079],[47.7831862,55.3392733],[47.7892227,55.34046789999999],[47.79421120000001,55.335326200000004],[47.79831580000002,55.340446199999995],[47.7898955,55.3450649],[47.808679,55.3511002],[47.8033938,55.3580754],[47.8029512,55.3663949],[47.822742100000006,55.3677936],[47.838792000000005,55.3736055],[47.8531083,55.383042399999994],[47.858605399999995,55.3907863],[47.8766658,55.392661],[47.874059599999995,55.3948025],[47.8767261,55.395323100000006],[47.8751941,55.3991465],[47.881454899999994,55.401724599999994],[47.8773713,55.406135400000004],[47.876229599999995,55.4030224],[47.8724136,55.412618200000004],[47.8789511,55.4155464],[47.892659800000004,55.4140429],[47.8988544,55.41960709999999],[47.8929896,55.4245236],[47.8985831,55.4268904],[47.897173200000005,55.42918],[47.9127391,55.4294038],[47.913977599999996,55.434619999999995],[47.9080956,55.438784],[47.91406339999999,55.4377456],[47.9152525,55.441938],[47.9109096,55.44486979999999],[47.915353800000005,55.4455292],[47.916236399999995,55.4495857],[47.9079762,55.4488966],[47.9076039,55.45501590000001],[47.9106253,55.45768959999999],[47.9084534,55.45907999999999],[47.9143335,55.4569378],[47.9133732,55.4604235],[47.920926300000005,55.46033230000001],[47.920540100000004,55.4565972],[47.9238809,55.457111399999995],[47.9348269,55.4676402],[47.93057280000001,55.4697895],[47.9328651,55.47428539999999],[47.928997800000005,55.47235330000001],[47.9286116,55.4753284],[47.95075,55.483439999999995],[47.948516100000006,55.4847913],[47.958260499999994,55.482002300000005],[47.96551430000001,55.4850134],[47.96333310000001,55.48192139999999],[47.9679419,55.48140839999999],[47.969939200000006,55.4840156],[47.9672608,55.4850993],[47.9726437,55.4855176],[47.96638,55.49002290000001],[47.980983099999996,55.49217120000001],[47.979840499999995,55.5020827],[47.969810800000005,55.5032885],[47.9696034,55.5153812],[48.038815400000004,55.524694],[48.046717,55.522051000000005],[48.0360105,55.5186819],[48.043376900000005,55.5168889],[48.0358205,55.51604139999999],[48.0370822,55.512538500000005],[48.04283590000001,55.515613300000005],[48.0523892,55.5124948],[48.05749649999999,55.514536],[48.058576800000004,55.5218124],[48.06255710000001,55.51879290000001],[48.0692976,55.5237295],[48.06455520000001,55.52492230000001],[48.067698,55.5266795],[48.06547290000001,55.52811450000001],[48.0798367,55.52500020000001],[48.0800802,55.5212272],[48.1080847,55.5239811],[48.105976600000005,55.531919200000004],[48.108465200000005,55.546373300000006],[48.1131084,55.5462342],[48.11511920000001,55.553859599999996],[48.120318900000015,55.55613520000001],[48.12263670000001,55.5530231],[48.133892700000004,55.55496419999999],[48.147589399999994,55.56503260000001],[48.14513790000001,55.5698684],[48.136495000000004,55.573593200000005],[48.1254434,55.5662949],[48.1036942,55.5688794],[48.0914112,55.57456439999999],[48.09899010000001,55.5773998],[48.0718193,55.5854006],[48.0671241,55.59579860000001],[48.0807114,55.6088865],[48.082042300000005,55.616306900000005],[48.0587825,55.6109431],[48.0550104,55.607523],[48.0217794,55.6053295],[48.021242,55.6007851],[48.0134033,55.60001590000001],[48.010682599999996,55.6292746],[48.0339872,55.636329100000005],[48.033466399999995,55.650972800000005],[48.092021700000004,55.6511886],[48.0902746,55.65893280000001],[48.08446769999999,55.66491830000001],[48.087120399999996,55.670173000000005],[48.0824757,55.6784839],[48.08146309999999,55.69232920000001],[48.083966399999994,55.69476830000001],[48.10821530000001,55.690318200000014],[48.1102486,55.651781299999996],[48.129498700000006,55.6463475],[48.13513930000001,55.654710800000004],[48.12952330000001,55.661549300000004],[48.1304854,55.66877730000001],[48.136431,55.676085900000004],[48.13091980000001,55.6784497],[48.12860090000001,55.6889654],[48.134436,55.6915679],[48.1458718,55.693046900000006],[48.22226200000001,55.687398800000004],[48.2350696,55.6894458],[48.233638400000004,55.69999930000001],[48.2413273,55.7070219],[48.232289300000005,55.7129479],[48.2519252,55.735469200000004],[48.2376827,55.74867890000001],[48.2541806,55.748064],[48.2486772,55.7526396],[48.2642777,55.756496399999996],[48.2640705,55.761653200000005],[48.2817901,55.761588],[48.26815770000001,55.76994270000001],[48.266329500000005,55.7805496],[48.286756200000006,55.783816300000005],[48.29115370000001,55.7824462],[48.2886037,55.78133030000001],[48.2898248,55.77812410000001],[48.3099921,55.7816342],[48.3224865,55.77230530000001],[48.3206342,55.770054],[48.3374327,55.76916370000001],[48.33726659999999,55.772381300000006],[48.3505913,55.77890200000001],[48.3670303,55.77273970000001],[48.3735656,55.778004900000006],[48.38150939999999,55.776042600000004],[48.4122252,55.780884699999994],[48.4206024,55.793604800000004],[48.4190131,55.79681310000001],[48.4078453,55.79932580000001],[48.3950948,55.8088462],[48.389657099999994,55.80786849999999],[48.3883212,55.8117355],[48.393532500000006,55.8127365],[48.3955848,55.82993270000001],[48.45126769999999,55.832142000000005],[48.421398200000006,55.8346182],[48.405362000000004,55.8397117],[48.40162599999999,55.845173200000005],[48.4061919,55.856918],[48.398017100000004,55.857718399999996],[48.3994096,55.86225580000001],[48.38427099999999,55.8643431],[48.386065699999996,55.8719462],[48.4154202,55.91485449999999],[48.474071599999995,55.9361796],[48.521925800000005,55.9315318],[48.571037,55.944617599999994],[48.5760602,55.940412200000004],[48.5775941,55.9452236],[48.6018081,55.9456689],[48.6177517,55.9418959],[48.6268286,55.944749699999996],[48.6563256,55.937473399999995],[48.66619510000001,55.938391300000006],[48.66810850000001,55.946122800000005],[48.69505060000001,55.954844499999986],[48.703634900000004,55.9744829],[48.701191900000005,55.977087299999994],[48.70542820000001,55.985654],[48.7034943,55.9941272],[48.714882599999996,55.997875],[48.72503180000001,56.008075000000005],[48.72621920000001,56.0136379],[48.712245300000006,56.0137907],[48.687021699999995,56.026188100000006],[48.701463499999996,56.038514600000006],[48.71131880000001,56.040409399999994],[48.7142582,56.04832290000001],[48.70558330000001,56.0558206],[48.6918517,56.0591262],[48.6936776,56.0604276],[48.7177798,56.071226499999995],[48.725164500000005,56.0675669],[48.71653310000001,56.0594979],[48.7378296,56.0530339],[48.7407495,56.041345],[48.74834390000001,56.0413269],[48.777082300000004,56.057727699999994],[48.812392100000004,56.0557608],[48.8180191,56.05487039999999],[48.8212318,56.0499396],[48.829928100000004,56.050319300000005],[48.831677199999994,56.06265380000001],[48.8365019,56.06937920000001],[48.835294,56.076778600000004],[48.8299487,56.0809567],[48.836562,56.0932742],[48.8451248,56.094245300000004],[48.848632200000004,56.115987],[48.894515600000005,56.133042800000005],[48.9034534,56.1302412],[48.92919590000001,56.13201970000001],[48.94769959999999,56.139045800000005],[48.9539693,56.1606335],[48.9587543,56.1630576],[48.980718,56.162363000000006],[48.984553,56.20054280000001],[49.005451,56.20075130000001],[49.0099712,56.20453500000001],[49.0438956,56.188095100000005],[49.051586099999994,56.1902619],[49.052945300000005,56.195256400000005],[49.050321499999995,56.19641510000001],[49.0613619,56.2011048],[49.06150830000001,56.206707900000005],[49.0696524,56.20655520000001],[49.04571290000001,56.21553090000001],[49.0401905,56.22395390000001],[49.028425000000006,56.22783810000001],[49.024169900000004,56.23534120000001],[49.0098649,56.22233880000002],[49.0010922,56.220115700000015],[48.9375374,56.22537890000002],[48.9224213,56.2561808],[48.9734006,56.275231500000004],[49.0318057,56.2846569],[49.038115800000014,56.29244330000001],[49.029591,56.3026798],[49.0317697,56.3084306],[49.055362200000005,56.32164139999999],[49.0411164,56.3250219],[49.0515639,56.344789899999995],[49.0697236,56.3450892],[49.068537600000006,56.34140769999999],[49.0792591,56.3459934],[49.080152700000006,56.334948],[49.0974142,56.3395306],[49.109320200000006,56.3466353],[49.108433000000005,56.35722839999999],[49.1153491,56.3639292],[49.11444939999999,56.3692239],[49.128349500000006,56.3683074],[49.133501,56.356408699999996],[49.17052830000001,56.3608791],[49.1779861,56.35480309999999],[49.1919934,56.36553930000001],[49.17071180000001,56.3693917],[49.1670291,56.390401499999996],[49.2158505,56.3900754],[49.2234847,56.39428439999999],[49.22589330000001,56.3806033],[49.25164139999999,56.3611081],[49.25293670000001,56.3499282],[49.2892801,56.3451304],[49.312289299999996,56.332410800000005],[49.3347554,56.330072900000005],[49.34255,56.343053499999996],[49.33988109999999,56.3493955],[49.3313658,56.354365699999995],[49.331732300000006,56.362188800000006],[49.3393436,56.366505800000006],[49.3593712,56.363938700000006],[49.36977230000001,56.356914599999996],[49.3676959,56.353832999999995],[49.38147479999999,56.3492933],[49.394665599999996,56.3560999],[49.4003505,56.3647584],[49.3994337,56.3741531],[49.409293999999996,56.397521499999996],[49.4064972,56.405146900000005],[49.4003954,56.410163],[49.4000142,56.4210932],[49.4057114,56.4302072],[49.4033773,56.436392100000006],[49.4094547,56.45029459999999],[49.4354831,56.447501599999995],[49.4410124,56.468814200000004],[49.4342177,56.4645656],[49.421681099999994,56.462841399999995],[49.41762859999999,56.4734827],[49.4238042,56.478095700000004],[49.4358407,56.4770055],[49.4382665,56.4687837],[49.4756819,56.4764538],[49.460278,56.469107900000004],[49.45092399999999,56.46814800000001],[49.4411312,56.4490135],[49.44360139999999,56.4431891],[49.439945900000005,56.440824199999994],[49.4555742,56.42553170000001],[49.465482900000005,56.4212606],[49.4740481,56.424963999999996],[49.5152315,56.422563000000004],[49.52693270000001,56.428354500000005],[49.546379800000004,56.42931600000001],[49.5653446,56.4591966],[49.582131000000004,56.4591699],[49.5798967,56.4779443],[49.5614782,56.490407],[49.5690237,56.4922917],[49.5707865,56.4960643],[49.6115298,56.502162000000006],[49.6188077,56.515194300000005],[49.6364504,56.517510300000005],[49.6505251,56.526428200000005],[49.6646961,56.5274251],[49.684930900000005,56.515410100000004],[49.707402800000004,56.5174125],[49.732620100000005,56.531461099999994],[49.7440205,56.5306736],[49.75610280000001,56.5372145],[49.77739570000001,56.5313924],[49.813884499999986,56.5011655],[49.8060638,56.4893354],[49.7505477,56.462909800000006],[49.7537607,56.454254199999994],[49.7855575,56.4482111],[49.8036056,56.4372786],[49.8610596,56.42531320000001],[49.86766839999999,56.4355832],[49.8857513,56.447703999999995],[49.89751030000001,56.4478659],[49.9083315,56.4626878],[49.919404799999995,56.4673395],[49.9039853,56.4764429],[49.91089649999999,56.4835996],[49.929749900000004,56.49171820000001],[49.93339230000001,56.4968576],[49.987235,56.494623399999995],[49.987798999999995,56.486923399999995],[49.974551399999996,56.467311900000006],[49.953818399999996,56.460836900000004],[49.92853770000001,56.4584413],[49.9367472,56.45108269999999],[49.946481799999994,56.42892530000001],[49.970483699999996,56.4313809],[50.0185817,56.455639399999995],[50.0380446,56.45795139999999],[50.0369821,56.472936000000004],[50.039934200000005,56.485033300000005],[50.0539301,56.48658939999999],[50.056578300000005,56.497185],[50.0830305,56.505663],[50.077885499999994,56.512754900000004],[50.08973290000001,56.5166067],[50.1192621,56.5171077],[50.12685520000001,56.52241780000001],[50.160043200000004,56.5306073],[50.1604547,56.5336017],[50.18597320000001,56.5480019],[50.19465280000001,56.557410999999995],[50.201345200000006,56.5571242],[50.2012285,56.566455100000006],[50.19285800000001,56.572799200000006],[50.202147700000005,56.57881220000001],[50.202985000000005,56.5832536],[50.18702149999999,56.59011920000001],[50.173314700000006,56.59531060000001],[50.169562400000004,56.592931500000006],[50.05358149999999,56.59967890000001],[50.0618568,56.61313990000001],[50.14941220000001,56.6041065],[50.1589472,56.6318938],[50.1747965,56.634354900000005],[50.172819200000006,56.650296399999995],[50.22363070000001,56.6520512],[50.2419293,56.62811830000002],[50.257674599999994,56.632729700000006],[50.2992046,56.6322837],[50.3000519,56.6417422],[50.31464689999999,56.6416626],[50.316968599999996,56.6452619],[50.316394599999995,56.661383],[50.3069041,56.6607644],[50.30213020000001,56.66600510000001],[50.3076103,56.6750635],[50.329038600000004,56.67830860000001],[50.3456924,56.6746609],[50.3709626,56.65622739999999],[50.38427949999999,56.635619000000005],[50.4305064,56.60857330000001],[50.42557930000001,56.6025495],[50.4115883,56.6000246],[50.41447719999999,56.5946017],[50.409607599999994,56.588669499999995],[50.413841899999994,56.5835926],[50.4103068,56.5757835],[50.419587099999994,56.574770900000004],[50.4485775,56.5884095],[50.4528223,56.5978209],[50.4464798,56.6066861],[50.4525372,56.6113293],[50.4912409,56.60972],[50.4738089,56.583355600000004],[50.453372900000005,56.5720912],[50.445871399999994,56.5569985],[50.43825090000001,56.55056139999999],[50.4499491,56.5440223],[50.4642566,56.5443424],[50.4741395,56.539419900000006],[50.4755612,56.5339687],[50.4829316,56.52956220000001],[50.4966111,56.52836920000001],[50.506559200000005,56.523634300000005],[50.5100658,56.51696749999999],[50.515905200000006,56.51651580000001],[50.5162304,56.5128481],[50.521652,56.5146093],[50.5274628,56.508729300000006],[50.533879,56.507642],[50.533516600000006,56.5034192],[50.517326499999996,56.502134000000005],[50.5100628,56.4944262],[50.506408,56.4975941],[50.5008257,56.496517600000004],[50.5065216,56.493090800000004],[50.4999765,56.4936427],[50.5018101,56.488392600000005],[50.49505680000001,56.4880484],[50.4974826,56.4852957],[50.489056,56.4797622],[50.4990887,56.4760427],[50.547752300000006,56.4080433],[50.571827799999994,56.3934439],[50.5823024,56.39893880000001],[50.594796300000006,56.3927848],[50.62515910000001,56.409722],[50.639824399999995,56.4046026],[50.63659320000001,56.398039600000004],[50.62931700000001,56.396335400000005],[50.6191445,56.3852341],[50.617509399999996,56.37704639999999],[50.5776312,56.3586828],[50.5797906,56.349372800000005],[50.6156888,56.35476789999999],[50.6310203,56.338337200000005],[50.6452911,56.3327692],[50.6599175,56.32821820000001],[50.66594430000001,56.332279],[50.74737830000001,56.318535600000004],[50.746856900000004,56.31686399999999],[50.74203240000001,56.31282639999999],[50.742639600000004,56.3128198],[50.748229200000004,56.3136222],[50.749616700000004,56.3188172],[50.7554641,56.3175059],[50.761380800000005,56.3214093],[50.76051320000001,56.3267115],[50.7830678,56.3286994],[50.7874981,56.3322038],[50.78591320000001,56.335306],[50.813512,56.3434525],[50.81447349999999,56.3469408],[50.827085499999995,56.3468507],[50.7415881,56.4091964],[50.7838331,56.40619290000001],[50.788966,56.4027079],[50.8079584,56.40088899999999],[50.814003799999995,56.395389],[50.8241296,56.3975545],[50.8835451,56.3717709],[50.8793411,56.3696933],[50.8785856,56.3650296],[50.85908949999999,56.3619502],[50.8557683,56.358612],[50.86162339999999,56.3582342],[50.853890099999994,56.35509139999999],[50.86243290000001,56.348699499999995],[50.8618738,56.3456022],[50.8772538,56.327624199999995],[50.878131700000004,56.31836],[50.888398300000006,56.30776769999999],[50.913142900000004,56.307630499999995],[50.9121077,56.2986914],[50.9173259,56.278355300000015],[50.9109586,56.274164],[50.895228200000005,56.27583290000001],[50.8714507,56.2546092],[50.832154900000006,56.240606],[50.84686599999999,56.22741890000001],[50.8687638,56.223567900000006],[50.87108169999999,56.206878200000006],[50.877348,56.19555970000001],[50.9341005,56.192794400000004],[50.972562800000006,56.19612180000001],[51.002454,56.2035894],[50.995828200000005,56.192099400000004],[50.9844158,56.1832849],[50.9861618,56.1767607],[50.9798918,56.164749300000004],[50.98495749999999,56.1539713],[50.9982271,56.15126049999999],[51.0121941,56.140716700000006],[51.032482,56.1336671],[51.06675080000001,56.1316966],[51.05669339999999,56.11572290000001],[51.05853210000001,56.112815700000006],[51.0859705,56.112788],[51.091675200000005,56.1164986],[51.091950700000005,56.1340435],[51.1197478,56.130601],[51.129677,56.1367295],[51.145957300000006,56.124347900000004],[51.154127599999995,56.126262000000004],[51.2079842,56.123117500000006],[51.2092091,56.1064531],[51.2049086,56.103987599999996],[51.21559590000001,56.100778700000006],[51.218074800000004,56.0841968],[51.254668699999996,56.0796968],[51.2866305,56.083866699999994],[51.3088438,56.078253000000004],[51.308529,56.068749600000004],[51.31694709999999,56.06601230000001],[51.320319000000005,56.0607618],[51.3505409,56.07188349999999],[51.351958399999994,56.077488499999994],[51.3464053,56.0861887],[51.3565422,56.093895800000006],[51.38160669999999,56.103027499999996],[51.383693199999996,56.10715810000001],[51.402489599999996,56.1160802],[51.41926459999999,56.1175485],[51.4440082,56.12737580000001],[51.526746900000006,56.121948100000004],[51.532380200000006,56.122967900000006],[51.5501124,56.138897300000004],[51.56820030000001,56.1420865],[51.57402449999999,56.1409888],[51.591476300000004,56.12703690000001],[51.6213812,56.129988100000006],[51.639117500000005,56.13615300000001],[51.636183800000005,56.1268478],[51.64364,56.12238630000001],[51.645637900000004,56.110942300000005],[51.635028000000005,56.09063080000001],[51.6292514,56.0915897],[51.6150907,56.0862985],[51.592637,56.0891605],[51.5926675,56.0854801],[51.5598102,56.08158339999999],[51.5467852,56.082976800000004],[51.521653300000004,56.069175400000006],[51.4898328,56.06807560000001],[51.4815592,56.0645174],[51.476590800000004,56.058354800000004],[51.483175200000005,56.0545201],[51.47468239999999,56.0477178],[51.4543889,56.0439043],[51.43802,56.0349409],[51.417706599999995,56.0423774],[51.408013700000005,56.0357667],[51.3986772,56.03501880000001],[51.397544499999995,56.031909399999996],[51.4032176,56.0264477],[51.397878399999996,56.0220842],[51.412015800000006,56.0105467],[51.4079409,56.0088324],[51.3685175,56.0294663],[51.3526993,56.0428442],[51.343266699999994,56.04711220000001],[51.3411229,56.04537560000001],[51.3680887,56.02711490000001],[51.40595290000001,56.008349800000005],[51.403998800000004,56.00731580000001],[51.41368949999999,55.9910912],[51.409258,55.974760999999994],[51.4122279,55.9666176],[51.4552999,55.9232662],[51.470136800000006,55.91762069999999],[51.4714902,55.914511],[51.47342939999999,55.911487399999984],[51.4698592,55.919014399999995],[51.4649891,55.925070700000006],[51.455673,55.929875700000004],[51.4649779,55.9445653],[51.469925800000006,55.94748539999999],[51.4701378,55.954518300000004],[51.483836999999994,55.953416999999995],[51.48466499999999,55.9488521],[51.49261200000001,55.94146129999999],[51.5013263,55.9387841],[51.5002403,55.936515400000005],[51.51185939999999,55.9366233],[51.489578900000005,55.9460377],[51.484960599999994,55.9521633],[51.488842,55.9532439],[51.4826473,55.9541581],[51.4880248,55.9577743],[51.4856089,55.9581954],[51.48707039999999,55.9601048],[51.4998255,55.958756300000005],[51.4990687,55.9546351],[51.5077567,55.952031399999996],[51.50673590000001,55.95448509999999],[51.52057280000001,55.956728],[51.5204477,55.951622699999994],[51.522955300000014,55.951901899999996],[51.556888099999995,55.96250920000001],[51.5593067,55.969162000000004],[51.55402099999999,55.9747533],[51.556819,55.9770398],[51.5706423,55.971082499999994],[51.568071700000004,55.9624766],[51.577142300000006,55.966002200000005],[51.589638300000004,55.954596499999994],[51.601780399999996,55.952740399999996],[51.619681899999996,55.965074800000004],[51.647675,55.971199],[51.675836100000005,55.9528939],[51.6733944,55.947649899999995],[51.665684399999996,55.9440451],[51.677398600000004,55.9409718],[51.70845260000001,55.94135],[51.714610300000004,55.9488147],[51.70897810000001,55.956300399999996],[51.715248900000006,55.9675516],[51.71164739999999,55.973889099999994],[51.72278420000001,55.9790793],[51.74277240000001,55.98155739999999],[51.74410590000001,55.977363499999996],[51.7550479,55.977095399999996],[51.755030600000005,55.972003],[51.76120280000001,55.9703434],[51.7560147,55.957560799999996],[51.757614499999995,55.95409139999999],[51.737503000000004,55.9617035],[51.71138739999999,55.941682899999996],[51.72057520000001,55.9325875],[51.7480666,55.9412089],[51.750199300000006,55.93724459999999],[51.7612869,55.940275],[51.781853999999996,55.9391496],[51.781595800000005,55.9360466],[51.76258970000001,55.9220679],[51.7692644,55.891797499999996],[51.7809698,55.8865639],[51.8129609,55.927019],[51.8425454,55.936216],[51.85473139999999,55.9464037],[51.861575900000005,55.94788409999999],[51.8665175,55.9422793],[51.884321699999994,55.935590100000006],[51.903150800000006,55.945022200000004],[51.9298554,55.9517428],[51.9417093,55.961395800000005],[51.952489299999996,55.98986169999999],[51.979359300000006,55.9880973],[51.9797256,55.976516000000004],[51.9917372,55.971013],[51.9909412,55.9764206],[52.02325210000001,55.9694762],[52.0370093,55.9717989],[52.0332116,55.960919700000005],[52.055277399999994,55.9489049],[52.0658265,55.939024599999996],[52.06372880000001,55.93207830000001],[52.0822288,55.925258400000004],[52.056380999999995,55.91964749999999],[52.0561682,55.9079145],[52.06885510000001,55.9024018],[52.088767,55.9009233],[52.12309930000001,55.905977],[52.156221599999995,55.9043979],[52.158165100000005,55.9217056],[52.186300800000005,55.922611200000006],[52.19867320000001,55.9362336],[52.178152900000015,55.945398100000006],[52.17935260000001,55.9503406],[52.222933900000015,55.95060539999999],[52.2340406,55.947347799999996],[52.2448092,55.957520699999996],[52.2468262,55.966083999999995],[52.23891730000001,55.97483149999999],[52.2408379,55.9772023],[52.2098095,55.9800109],[52.2064347,56.02059980000001],[52.229960000000005,56.0187176],[52.21897990000001,56.021170500000004],[52.2191965,56.0236544],[52.2246852,56.026817],[52.233786800000004,56.040538000000005],[52.25837730000001,56.034022300000004],[52.261600200000004,56.0365564],[52.24713590000001,56.0428507],[52.254252,56.0497639],[52.236011600000005,56.064693],[52.2368774,56.070415700000005],[52.22979850000001,56.0812581],[52.2115221,56.091916000000005],[52.2429845,56.098086200000004],[52.24637250000001,56.08924739999999],[52.2678724,56.069554200000006],[52.2776233,56.07233250000001],[52.2906854,56.0596051],[52.3029092,56.0615915],[52.31462559999999,56.06831130000001],[52.308961,56.07215990000001],[52.319793,56.0726176],[52.3403497,56.06037690000001],[52.3279698,56.0581496],[52.3268898,56.055579],[52.334981899999995,56.050333],[52.3402178,56.0526521],[52.346227799999994,56.045177],[52.343718700000004,56.043821799999996],[52.353466899999994,56.03413580000001],[52.379718200000006,56.01913590000001],[52.3913858,56.020213600000005],[52.389605499999995,56.0228671],[52.39931880000001,56.02585200000001],[52.3972592,56.0273066],[52.406806599999996,56.02804030000001],[52.4046409,56.031088399999994],[52.415712400000004,56.0360194],[52.442815100000004,56.02201060000001],[52.4482869,56.016735700000005],[52.4472531,56.008991800000004],[52.46331180000001,56.00813860000001],[52.464550700000004,56.016007599999995],[52.4994034,56.0328978],[52.4870029,56.042990700000004],[52.4784285,56.0414723],[52.427004499999995,56.05808439999999],[52.4378088,56.069076900000006],[52.4500057,56.06830060000001],[52.4525549,56.0758831],[52.45706169999999,56.076905000000004],[52.456863299999995,56.082721],[52.4725691,56.077025],[52.4696943,56.0736655],[52.4999643,56.056767099999995],[52.5310948,56.0607636],[52.5586778,56.0354691],[52.6141104,56.032784],[52.608562500000005,56.030225900000005],[52.617869199999994,56.020026],[52.628874700000004,56.015860599999996],[52.6456256,56.0164659],[52.668530900000015,56.007757],[52.6764858,56.001064299999996],[52.6763765,55.9943906],[52.6992625,55.999127200000004],[52.7193948,55.9948693],[52.723577500000005,55.9887567],[52.756727399999995,55.9895579],[52.7507638,55.9975985],[52.745096200000006,55.9968201],[52.73589220000001,56.006141],[52.740159500000004,56.010754],[52.7540652,56.012974],[52.74257560000001,56.015824699999996],[52.747544399999995,56.0379115],[52.74531790000001,56.0571869],[52.75660739999999,56.0627805],[52.74633530000001,56.068043700000004],[52.72862870000001,56.08448969999999],[52.73209610000001,56.0875547],[52.743117100000006,56.0860925],[52.7448535,56.09579990000001],[52.7134402,56.102675000000005],[52.724457300000005,56.11391690000001],[52.72272800000001,56.1190658],[52.711663699999995,56.125116700000014],[52.7125476,56.130196700000006],[52.7471254,56.12502680000001],[52.745329500000004,56.1086698],[52.76359090000001,56.110176200000005],[52.7878683,56.100431],[52.8020009,56.085745200000005],[52.8450426,56.0801278],[52.8505188,56.0906571],[52.8693047,56.09533190000001],[52.8768586,56.1084741],[52.883352200000004,56.112703100000004],[52.88085639999999,56.118692100000004],[52.87093,56.115298900000006],[52.818890399999994,56.120532300000015],[52.8328362,56.125234600000006],[52.8378088,56.1376561],[52.87470449999999,56.15031810000001],[52.88384119999999,56.1563618],[52.882179300000004,56.15984709999999],[52.865692100000004,56.16614870000001],[52.8359687,56.167340900000006],[52.8275251,56.177576900000005],[52.8414528,56.17876590000001],[52.84738839999999,56.18315220000001],[52.84695,56.1874535],[52.78291660000001,56.19829990000001],[52.780953700000005,56.2048983],[52.7573403,56.20035680000001],[52.73608230000001,56.216205900000006],[52.737628900000004,56.221247399999996],[52.665335100000014,56.221115200000014],[52.666589300000005,56.22367520000001],[52.6521812,56.229228000000006],[52.637557,56.218905400000004],[52.626648700000004,56.22327210000001],[52.5841011,56.22225820000001],[52.555310000000006,56.2428635],[52.60253200000001,56.27931680000001],[52.5918681,56.2837604],[52.5937892,56.285455000000006],[52.620556500000006,56.28255920000001],[52.639879300000004,56.27033190000001],[52.65398139999999,56.2742265],[52.6585892,56.2816194],[52.6469995,56.2932849],[52.657025999999995,56.301448099999995],[52.6779484,56.310971099999996],[52.693828700000005,56.305342100000004],[52.69901820000001,56.3096508],[52.68001220000001,56.31564409999999],[52.697374800000006,56.3310408],[52.7004996,56.328151500000004],[52.72238190000001,56.3258776],[52.72512120000001,56.33786069999999],[52.733244,56.3392668],[52.72731210000001,56.3439055],[52.73310270000001,56.36181439999999],[52.76296200000001,56.35920109999999],[52.766034700000006,56.374184899999996],[52.7405765,56.3767174],[52.748253500000004,56.3829613],[52.7810371,56.3798926],[52.777968200000004,56.3978328],[52.8123663,56.397296999999995],[52.8238173,56.390069499999996],[52.82473890000001,56.38170099999999],[52.8294004,56.37893390000001],[52.841941299999995,56.384672599999995],[52.8705761,56.389022399999995],[52.8724821,56.39951880000001],[52.8855931,56.399027399999994],[52.8950206,56.402916700000006],[52.9240809,56.400795900000006],[52.93805690000001,56.4166409],[52.9337564,56.4246737],[52.943248,56.42899030000001],[52.943366,56.436432],[52.9639861,56.4284296],[52.9692354,56.4599668],[52.9533481,56.456559],[52.9501222,56.460382200000005],[52.931860699999994,56.4639424],[52.93553210000001,56.48466939999999],[52.896021399999995,56.483822999999994],[52.88686839999999,56.4906911],[52.878214,56.50809280000001],[52.8834133,56.5096413],[52.889843799999994,56.5004763],[52.920684599999994,56.5000493],[52.919209599999995,56.4919628],[52.935059200000005,56.490723800000005],[52.953859099999995,56.505902400000004],[52.9611097,56.5066596],[52.9670361,56.520275600000005],[52.9639578,56.53017210000001],[52.94548699999999,56.538285300000005],[52.948265,56.5423715],[52.9559939,56.5436561],[52.972016700000005,56.535416100000006],[52.98408899999999,56.53657990000001],[52.983141399999994,56.5345861],[53.021933600000004,56.530342600000004],[53.0332235,56.5431341],[53.054078499999996,56.53975830000001],[53.038542400000004,56.53255860000001],[53.069462300000005,56.533256800000004],[53.07031930000001,56.53034530000001],[53.08219590000001,56.52747290000001],[53.0822767,56.5238238],[53.09319800000001,56.52073030000001],[53.0894953,56.5126566],[53.1069243,56.52330260000001],[53.104043999999995,56.52654330000001],[53.1064898,56.52838390000001],[53.14482769999999,56.5246978],[53.1436637,56.5213534],[53.1305817,56.517564899999996],[53.134233200000004,56.5117201],[53.12973660000001,56.5036698],[53.104382900000004,56.5098943],[53.106140800000006,56.513833399999996],[53.087018,56.511085699999995],[53.0902236,56.5015431],[53.098824900000004,56.5008693],[53.096039600000005,56.4844983],[53.098268600000004,56.47676739999999],[53.0897409,56.4726411],[53.0890597,56.4626696],[53.0919317,56.45767609999999],[53.08835260000001,56.45452939999999],[53.023759500000004,56.4467285],[53.014634599999994,56.436945200000004],[53.0095632,56.438709800000005],[53.0104759,56.4319047],[53.0037464,56.431871799999996],[53.003584399999994,56.428049200000004],[53.0130953,56.42728159999999],[53.00651220000001,56.4246651],[53.000433,56.392734000000004],[52.9816521,56.38823],[52.9884535,56.3799039],[52.98467649999999,56.3711657],[52.9916948,56.3683854],[52.971433499999996,56.3589349],[52.967685599999996,56.3520137],[52.9618889,56.35445549999999],[52.96411820000001,56.3483471],[52.969579800000005,56.3496173],[52.9724867,56.343606599999994],[52.9693877,56.34046599999999],[52.965847,56.34382299999999],[52.9595401,56.341328399999995],[52.963157800000005,56.3357067],[52.9587334,56.3344112],[52.9627864,56.334326],[52.9636918,56.330910200000005],[52.9677756,56.333716300000006],[52.97366139999999,56.3300066],[52.9785984,56.3313984],[52.980660099999994,56.32873250000001],[52.9741956,56.3263376],[52.9849758,56.3250995],[52.976628399999996,56.3159823],[52.97033220000001,56.31426479999999],[52.9744538,56.31169469999999],[52.9677226,56.304428099999996],[52.95798479999999,56.30503230000001],[52.95762969999999,56.30145099999999],[52.9626012,56.29881960000001],[52.9524609,56.29656020000001],[52.951908499999995,56.29092870000001],[52.94404099999999,56.2854014],[52.9452726,56.28201260000001],[52.9908021,56.28577990000001],[52.997970200000005,56.2588091],[52.99213680000001,56.259292800000004],[52.980404099999994,56.281353900000006],[52.968739600000006,56.2798934],[52.965534100000006,56.2560859],[52.97282439999999,56.256575100000006],[52.97219290000001,56.248537000000006],[52.964152600000006,56.2466098],[52.963382200000005,56.2404472],[52.9738357,56.236830100000006],[52.9763438,56.22759070000001],[52.9743067,56.22373390000001],[52.986974399999994,56.2174595],[52.9837248,56.214578700000004],[52.987593399999994,56.212101800000006],[52.985467299999996,56.208648200000006],[52.996091,56.2106688],[52.996380300000006,56.2133066],[53.0000269,56.209763200000005],[53.00331690000001,56.212240300000005],[53.0065464,56.209493800000004],[53.010652,56.21599510000001],[53.016788,56.21153530000001],[53.01708399999999,56.2077298],[53.013441799999995,56.2059854],[53.0229647,56.20393130000001],[53.01368759999999,56.199506500000005],[53.0028977,56.200057],[53.00223890000001,56.19643990000001],[52.998118900000016,56.196090600000005],[53.0039575,56.192854700000005],[53.0012113,56.190833600000005],[52.9998663,56.17755230000001],[53.042978600000005,56.1706428],[53.02635990000001,56.196433400000004],[53.0173501,56.199643200000004],[53.047815,56.20279080000001],[53.0617045,56.212197800000006],[53.0501525,56.20890860000001],[53.02517110000001,56.217672300000004],[53.041467299999994,56.22438390000001],[53.0676924,56.2111575],[53.0520099,56.2004016],[53.0413461,56.19991630000001],[53.04815510000001,56.1970856],[53.04593330000001,56.1832144],[53.0615803,56.177631399999996],[53.0488924,56.16923370000001],[53.0626735,56.1695611],[53.0613855,56.17373260000001],[53.067098200000004,56.1780661],[53.084967999999996,56.17851170000001],[53.088860399999994,56.1749486],[53.0596427,56.1492549],[53.0641477,56.12980830000001],[53.1015085,56.1146822],[53.108369800000006,56.122271700000006],[53.0880018,56.1411796],[53.1122001,56.14557280000001],[53.1419624,56.1611467],[53.1552317,56.158943],[53.158456900000004,56.14641820000001],[53.16692260000001,56.14473290000001],[53.1760456,56.1323875],[53.174750200000005,56.12885570000001],[53.1791471,56.12311080000001],[53.1744406,56.11914],[53.1760217,56.1138013],[53.1812039,56.1142533],[53.193653100000006,56.1034655],[53.204238800000006,56.1064449],[53.2138115,56.104072200000004],[53.2094465,56.098868200000005],[53.22013420000001,56.09661390000001],[53.22493970000001,56.090383900000006],[53.26317390000001,56.1076177],[53.26335170000001,56.0913047],[53.28816510000001,56.0720284],[53.313467399999986,56.071621099999994],[53.3328297,56.06210630000001],[53.353394099999996,56.0709747],[53.3695877,56.072425700000004],[53.363689099999995,56.0754505],[53.3640567,56.0896223],[53.38350139999999,56.09031200000001],[53.3703409,56.1024242],[53.3471101,56.10933120000001],[53.363894699999996,56.12935840000001],[53.3509439,56.16581620000001],[53.3443513,56.172259200000006],[53.340932800000004,56.183735600000006],[53.329698900000004,56.1939374],[53.3151148,56.21621090000001],[53.289595500000004,56.2304564],[53.2336041,56.23937820000001],[53.23825110000001,56.245413500000005],[53.263329000000006,56.2490778],[53.2732616,56.25351270000001],[53.29765520000001,56.254480099999995],[53.306748,56.25035810000001],[53.335820999999996,56.2616043],[53.3392252,56.25875570000001],[53.3362286,56.25555500000001],[53.3483048,56.2538426],[53.3865433,56.26668],[53.4002291,56.263043700000004],[53.4337925,56.27613390000001],[53.447115700000005,56.271195600000006],[53.4549957,56.2571942],[53.4715013,56.2510717],[53.4761716,56.243397300000005],[53.48720139999999,56.238924100000006],[53.488775000000004,56.23298590000001],[53.5254945,56.239856],[53.536636900000005,56.234726300000005],[53.5434755,56.239256000000005],[53.560763800000004,56.234509700000004],[53.5541282,56.2425645],[53.57533190000001,56.236980800000005],[53.574473999999995,56.231108000000006],[53.564829499999995,56.2252615],[53.5586493,56.22833170000001],[53.5573419,56.22810470000001],[53.5610793,56.2196818],[53.552415200000006,56.218209200000004],[53.5598823,56.21563510000001],[53.5527478,56.1918861],[53.57482939999999,56.180838200000004],[53.5741914,56.176301300000006],[53.5787867,56.171163],[53.5777041,56.1595691],[53.572228800000005,56.156320300000004],[53.573761399999995,56.1509345],[53.5806482,56.146272200000006],[53.5703914,56.1443099],[53.5642301,56.1388775],[53.56805230000001,56.12573140000001],[53.551724099999994,56.118149100000004],[53.52371410000001,56.1172366],[53.504778300000005,56.126640900000005],[53.50186099999999,56.130399800000006],[53.50210510000001,56.1384445],[53.4970021,56.136395400000005],[53.5006082,56.13395190000001],[53.496858,56.132341100000005],[53.498538300000014,56.12711680000001],[53.4906955,56.12025250000001],[53.49239220000001,56.1184485],[53.48933830000001,56.1147105],[53.4775902,56.107141399999996],[53.4809724,56.105387900000004],[53.480176300000004,56.1018381],[53.46815060000001,56.09840510000001],[53.468953500000005,56.094281099999996],[53.453980699999995,56.0806086],[53.45688549999999,56.076852200000005],[53.44768649999999,56.072845],[53.4474386,56.0682443],[53.440391,56.0650235],[53.44167169999999,56.049657599999996],[53.4752718,56.0394454],[53.4648597,56.02619550000001],[53.45160709999999,56.01859590000001],[53.428642,56.012710000000006],[53.4121998,56.0128305],[53.403354,56.007024699999995],[53.3653947,56.0167297],[53.35993,56.005396100000006],[53.3828627,56.0039005],[53.392793700000006,56.000337300000005],[53.3899925,55.99343590000001],[53.3811513,55.99186739999999],[53.371463899999995,55.985362900000005],[53.340591599999996,55.978751800000005],[53.3401073,55.98253830000001],[53.3267416,55.9875052],[53.32375210000001,55.986043099999996],[53.32231650000001,55.979147499999996],[53.3092581,55.969111100000006],[53.30944439999999,55.963436],[53.304788599999995,55.9609668],[53.30559830000001,55.9550742],[53.29579200000001,55.94778759999999],[53.31686409999999,55.9440197],[53.316041899999995,55.9384655],[53.287642399999996,55.9452489],[53.2838209,55.9404548],[53.26927690000001,55.936391900000004],[53.22247680000001,55.94066759999999],[53.20973190000001,55.936238],[53.200002500000004,55.92601320000001],[53.2002238,55.91722149999999],[53.2117261,55.9105162],[53.213330600000006,55.900504399999996],[53.222170200000015,55.8955616],[53.2504172,55.89655870000001],[53.25274830000001,55.891952100000005],[53.253080399999995,55.88448739999998],[53.24875900000001,55.88443949999999],[53.240618500000004,55.8721666],[53.2572311,55.8677263],[53.2700618,55.869868499999995],[53.25895280000001,55.866570100000004],[53.2590202,55.8639034],[53.272147700000005,55.8634278],[53.2717115,55.859568599999996],[53.3302552,55.8583942],[53.3480525,55.8553032],[53.39911130000001,55.859912900000005],[53.4092222,55.850577799999996],[53.434165,55.8563993],[53.41396739999999,55.858483899999996],[53.4159652,55.863149],[53.4350852,55.871536],[53.4369856,55.875152400000005],[53.4789974,55.876710300000006],[53.5076458,55.8867199],[53.52512680000001,55.8976688],[53.5322413,55.9067636],[53.5476554,55.912106200000004],[53.55752139999999,55.912136700000005],[53.584665699999995,55.902058200000006],[53.594165200000006,55.9065486],[53.6234735,55.908909],[53.62432200000001,55.914551499999995],[53.681295,55.9163293],[53.690071200000006,55.923231],[53.7148119,55.92825630000001],[53.723180400000004,55.9219205],[53.7109495,55.907983099999996],[53.7140999,55.9066939],[53.710224499999995,55.8930266],[53.7274833,55.88708979999999],[53.7422594,55.903556200000004],[53.74930500000001,55.9080878],[53.76079260000001,55.9085212],[53.7841061,55.895104],[53.8082518,55.8974364],[53.825436700000004,55.891485499999995],[53.838584499999996,55.87848159999999],[53.840980599999995,55.867247299999995],[53.854126599999994,55.8690708],[53.858342,55.8788927],[53.856336399999996,55.8824452],[53.8647406,55.88748669999999],[53.8795252,55.88698169999999],[53.89371930000001,55.874327699999995],[53.89572520000001,55.8655655],[53.8888098,55.859656599999994],[53.8619291,55.8561538],[53.8561331,55.8497989],[53.991750100000004,55.84744939999999],[53.94231210000001,55.81286759999999],[53.954924299999995,55.782180700000005],[53.95942839999999,55.7786835],[53.975730500000004,55.77795020000001],[54.0030019,55.7946631],[54.0400331,55.8084088],[54.048674399999996,55.8089401],[54.05877580000001,55.8050992],[54.06515380000001,55.7895735],[54.062719400000006,55.785811200000005],[54.0439196,55.77923990000001],[54.0465266,55.77672880000001],[54.051640299999995,55.774897599999996],[54.066865,55.780882399999996],[54.112253300000006,55.77500820000001],[54.1299271,55.780450800000004],[54.13521070000001,55.777005700000004],[54.1216411,55.7698416],[54.116396800000004,55.76276060000001],[54.1164551,55.7572972],[54.12899120000001,55.748753400000005],[54.1664584,55.736442600000004],[54.17091530000001,55.730902400000005],[54.1733224,55.715428300000006],[54.208735300000015,55.702744800000005],[54.220947200000005,55.701346900000004],[54.237487699999996,55.709049],[54.2415456,55.71515010000001],[54.237644599999996,55.720863300000005],[54.2414626,55.722247800000005],[54.24512370000001,55.71912530000001],[54.2419976,55.72670850000001],[54.2565071,55.719982],[54.26234420000001,55.7101945],[54.260873000000004,55.7075213],[54.265697100000004,55.7037564],[54.260999700000006,55.701142100000006],[54.2617034,55.697378500000006],[54.2500433,55.69813180000001],[54.2576762,55.69519720000001],[54.25520590000001,55.691610000000004],[54.258799100000005,55.68561630000001],[54.24825570000001,55.6871316],[54.246923900000006,55.6800904],[54.2414266,55.677134300000006],[54.232463100000004,55.680784499999994],[54.2246918,55.67919990000001],[54.22306890000001,55.6773437],[54.2279805,55.674415700000004],[54.22733190000001,55.671514],[54.19869490000001,55.66093250000001],[54.1974012,55.65489639999999],[54.201554200000004,55.6501232],[54.195726400000005,55.6445807],[54.20543830000001,55.6435742],[54.195224800000005,55.6370663],[54.1879454,55.6398762],[54.175638400000004,55.635040100000005],[54.1834755,55.62979670000001],[54.18291610000001,55.6224466],[54.17184949999999,55.6199696],[54.16512580000001,55.624909],[54.1646443,55.620657800000004],[54.1564586,55.6152196],[54.16530090000001,55.61277210000001],[54.14231970000001,55.6094344],[54.12877800000001,55.5984774],[54.11998749999999,55.597917800000005],[54.1185636,55.5917265],[54.1107017,55.589977399999995],[54.104170700000005,55.58210530000001],[54.089042,55.580172100000006],[54.0830451,55.5824484],[54.0873786,55.5859616],[54.0805062,55.587025399999995],[54.066182000000005,55.5801633],[54.071196300000004,55.57277920000001],[54.0682868,55.569104200000005],[54.055596200000004,55.564133600000005],[54.038262700000004,55.5639236],[54.0311372,55.559312000000006],[54.04257200000001,55.5460772],[54.02343380000001,55.538431700000004],[54.0045659,55.55082649999999],[53.9933611,55.54728949999999],[53.9837039,55.5303004],[53.9664942,55.5310012],[53.9632238,55.51953580000001],[53.972156700000006,55.5159851],[53.9769692,55.49910500000001],[53.9879187,55.492143000000006],[53.9784485,55.4828008],[53.966816,55.4885919],[53.958814499999995,55.4829913],[53.9786236,55.4658699],[53.964847999999996,55.4600683],[53.9413341,55.4608018],[53.926926,55.4550986],[53.9272907,55.4442162],[53.9020904,55.4284899],[53.9084179,55.4234462],[53.9103324,55.417096199999996],[53.896592500000004,55.41488319999999],[53.895196600000006,55.4094809],[53.9000561,55.40768849999999],[53.8823915,55.39593190000001],[53.8727613,55.3943657],[53.87875830000001,55.389169599999995],[53.887644399999985,55.389169599999995],[53.890664699999995,55.381585599999994],[53.8882572,55.376487299999994],[53.88944969999999,55.3613546],[53.897218800000005,55.35686799999999],[53.895764,55.354650899999996],[53.861955800000004,55.3659091],[53.8261632,55.3507207],[53.8247785,55.3459118],[53.8066409,55.35046909999999],[53.78693620000001,55.34146199999999],[53.77323220000001,55.3403597],[53.7724675,55.348197],[53.74239680000001,55.337396],[53.722750900000015,55.3263473],[53.690385400000004,55.32713270000001],[53.685582000000004,55.319290099999996],[53.688802700000004,55.29674320000001],[53.67591390000001,55.29200410000001],[53.6828701,55.2877861],[53.677989399999994,55.2853271],[53.6856286,55.2770416],[53.681698999999995,55.277685999999996],[53.673075600000004,55.288410600000006],[53.6022691,55.26264210000001],[53.6278643,55.22738280000001],[53.616626,55.214322800000005],[53.51635290000001,55.2139794],[53.5080976,55.2194087],[53.482911300000005,55.2165892],[53.4666111,55.22846590000001],[53.42697230000001,55.23003680000001],[53.4199572,55.2242847],[53.4097306,55.224970600000006],[53.386668199999995,55.21090230000001],[53.3732305,55.2082544],[53.3726166,55.20511840000001],[53.36223880000001,55.2020654],[53.364721499999995,55.197706200000006],[53.398238000000006,55.1918831],[53.371332900000006,55.173109800000006],[53.368441499999996,55.179222700000004],[53.3186728,55.16221970000001],[53.29636360000001,55.16519000000001],[53.283467699999996,55.171540900000004],[53.275579400000005,55.171439],[53.2749249,55.174172600000006],[53.2716334,55.171945300000004],[53.25501620000001,55.1753445],[53.2413945,55.1745898],[53.2079893,55.158837],[53.1582942,55.16571650000001],[53.157541599999995,55.132945400000004],[53.164626,55.109103100000006],[53.1702968,55.105199600000006],[53.25879890000001,55.10272260000001],[53.264844399999994,55.09843000000001],[53.26299490000001,55.088416800000005],[53.26949830000001,55.07805200000001],[53.2918061,55.0738307],[53.294045100000005,55.0706749],[53.269504600000005,55.048659],[53.2763835,55.0409764],[53.298459400000006,55.04631070000001],[53.3122954,55.0430785],[53.31727789999999,55.0447012],[53.325754200000006,55.034067199999996],[53.3202964,55.03358],[53.318689199999994,55.02818880000001],[53.314252499999995,55.026217700000004],[53.318392700000004,55.0218952],[53.3722996,55.0249976],[53.3765254,55.023201900000004],[53.37386139999999,55.020958500000006],[53.3807181,55.0200872],[53.3796609,55.0166555],[53.385056999999996,55.018635],[53.3831379,55.012509200000004],[53.394809499999994,55.014981299999995],[53.3992447,55.01315030000001],[53.399210700000005,55.010202],[53.4061848,55.010068999999994],[53.402325700000006,55.0043649],[53.407801799999994,55.002636300000006],[53.4122168,55.0053871],[53.4206779,54.999282],[53.4277966,54.998812400000006],[53.4311941,54.993997],[53.436916700000005,54.9940098],[53.437689199999994,54.9907294],[53.442669599999995,54.9946212],[53.475109700000004,54.978258000000004],[53.47308099999999,54.9757601],[53.484646299999994,54.9669214],[53.4786073,54.9662576],[53.4809587,54.960339600000005],[53.468701200000005,54.9615969],[53.4750384,54.951276899999996],[53.488227599999995,54.94871320000001],[53.4913175,54.940283099999995],[53.5022609,54.9390505],[53.514918800000004,54.9315801],[53.5181695,54.9250234],[53.507889799999994,54.92229330000001],[53.5081447,54.91328539999999],[53.516659999999995,54.907562399999996],[53.5236775,54.908996],[53.542599200000005,54.8986246],[53.540698,54.8964385],[53.5449565,54.891041799999996],[53.541747099999995,54.8867137],[53.5506362,54.885376900000004],[53.553361599999995,54.878503300000006],[53.5884454,54.8858963],[53.594819300000005,54.89275080000001],[53.6147331,54.8984534],[53.617124399999994,54.906188],[53.6376943,54.9107669],[53.6493044,54.9065858],[53.645639300000006,54.900302100000005],[53.636503700000006,54.8994977],[53.63597020000001,54.8909718],[53.6394778,54.887892199999996],[53.637365800000005,54.880268799999996],[53.62277360000001,54.878513000000005],[53.5978099,54.8192229],[53.5889515,54.815839999999994],[53.5920474,54.80931210000001],[53.613362200000005,54.8103796],[53.6195565,54.813663899999995],[53.62255040000001,54.8095148],[53.62877340000001,54.810621899999994],[53.623983200000005,54.8069797],[53.6263444,54.8001172],[53.622838400000006,54.793460700000004],[53.613835,54.79297850000001],[53.612883399999994,54.7895576],[53.6173334,54.7868143],[53.61503330000001,54.7776899],[53.6175336,54.7652014],[53.63915870000001,54.747265999999996],[53.634911,54.7414619],[53.62806880000001,54.741694599999995],[53.6307044,54.73525080000001],[53.62731900000001,54.7331275],[53.6315627,54.728733800000015],[53.625336800000014,54.72816170000001],[53.629202500000005,54.724705400000005],[53.6246619,54.721603200000004],[53.62873720000001,54.718858000000004],[53.624866999999995,54.71557690000001],[53.627079900000005,54.7115432],[53.62459080000001,54.708493700000005],[53.622659600000006,54.7108986],[53.6198701,54.70931190000001],[53.624247499999996,54.70509680000001],[53.617166399999995,54.70430330000001],[53.6187278,54.69800080000001],[53.615102500000006,54.69517850000001],[53.6045775,54.69569380000001],[53.603801,54.69051760000001],[53.59432230000001,54.6811237],[53.5755611,54.67807620000001],[53.609100500000004,54.67239180000001],[53.6032792,54.663813700000006],[53.597825900000004,54.664716000000006],[53.60201240000001,54.669623],[53.584948499999996,54.67255200000001],[53.5816148,54.66790290000001],[53.574327499999995,54.66836980000001],[53.5677347,54.6644889],[53.5694366,54.6610207],[53.562312300000016,54.660803200000004],[53.5597,54.6579758],[53.56272380000001,54.655416900000006],[53.57235250000001,54.654026699999996],[53.5704657,54.6402984],[53.56072890000001,54.6366219],[53.5497485,54.641708900000005],[53.520728000000005,54.617276499999996],[53.5137661,54.61371880000001],[53.5119192,54.617084999999996],[53.50480759999999,54.61482769999999],[53.5067695,54.6100829],[53.4899334,54.6016423],[53.4864519,54.5952174],[53.4889605,54.59211530000002],[53.4644948,54.588248],[53.4640284,54.5853291],[53.4692976,54.5844783],[53.467746399999996,54.580481799999994],[53.4823618,54.578726200000006],[53.4699694,54.5773915],[53.4699694,54.57171520000001],[53.464812800000004,54.566970700000006],[53.4432403,54.5676967],[53.43541220000001,54.57188709999999],[53.4234906,54.56601800000001],[53.424058300000006,54.5627815],[53.43068139999999,54.56091620000001],[53.4340403,54.553783599999996],[53.4310033,54.5484996],[53.4352906,54.5433544],[53.43294290000001,54.5345924],[53.42819490000001,54.532231200000005],[53.430125000000004,54.5304963],[53.423729,54.5316602],[53.4224044,54.5275534],[53.4248999,54.521595600000005],[53.4300594,54.5206775],[53.426591800000004,54.5101945],[53.423168800000006,54.51068709999999],[53.42138739999999,54.5045288],[53.41675,54.50253240000001],[53.42032280000001,54.50108099999999],[53.420767399999995,54.4968514],[53.42372290000001,54.4972861],[53.4216261,54.4937078],[53.4236808,54.492282900000006],[53.4335115,54.4928177],[53.4290994,54.4899057],[53.4345385,54.48644769999999],[53.43464159999999,54.4809171],[53.425485200000004,54.4769144],[53.4229678,54.472250900000006],[53.41444309999999,54.4698825],[53.4150313,54.4643754],[53.420363,54.463215600000005],[53.4234548,54.4551672],[53.414797199999995,54.4573068],[53.40333330000001,54.4507025],[53.4111062,54.4459785],[53.4128053,54.438872],[53.41746419999999,54.4385276],[53.4165603,54.4359899],[53.425233000000006,54.4366438],[53.4295404,54.4304591],[53.4242017,54.4230767],[53.401173,54.42223510000001],[53.388487899999994,54.4201065],[53.386340499999996,54.4172179],[53.38906139999999,54.4135687],[53.403987699999995,54.413836599999996],[53.412552700000006,54.404948],[53.4088098,54.4042452],[53.4120698,54.40275530000001],[53.4082785,54.398200800000005],[53.412576900000005,54.39803210000001],[53.4004393,54.388318700000006],[53.39857290000001,54.3825824],[53.381847599999986,54.37380739999999],[53.4189806,54.3607543],[53.42019390000001,54.35856439999999],[53.4063747,54.35444309999999],[53.411997099999994,54.353046199999994],[53.40510230000001,54.35128719999999],[53.408712400000006,54.348648399999995],[53.4063747,54.3470789],[53.3999238,54.349458999999996],[53.4031848,54.3443903],[53.412862399999995,54.3439156],[53.422293700000004,54.3387377],[53.421877099999996,54.334994599999995],[53.4282735,54.33531250000001],[53.4320477,54.328759700000006],[53.42809580000001,54.3213866],[53.43011020000001,54.3185057],[53.42486759999999,54.315587099999995],[53.4274889,54.3124422],[53.42298230000001,54.3092292],[53.42579090000001,54.3063626],[53.4198251,54.3075869],[53.4217868,54.30398739999999],[53.4191268,54.301851299999996],[53.4272167,54.295747600000006],[53.427700900000005,54.29861870000001],[53.43851520000001,54.29813700000001],[53.432242200000005,54.293277700000004],[53.4352514,54.2879039],[53.42764639999999,54.28890580000001],[53.4256146,54.284628399999995],[53.4315624,54.279704900000006],[53.42919510000001,54.2764914],[53.438782700000004,54.272517400000005],[53.437746999999995,54.268542900000014],[53.4460985,54.258577800000005],[53.4398286,54.2558428],[53.42993920000001,54.2588546],[53.42295560000001,54.2562791],[53.421723,54.2508193],[53.431857799999996,54.2500043],[53.429017,54.246304300000006],[53.43677,54.24025230000001],[53.4311651,54.23514480000001],[53.42805920000001,54.237070700000004],[53.427680499999994,54.233019500000005],[53.423514000000004,54.2307946],[53.4263015,54.22131410000001],[53.436558500000004,54.222426600000006],[53.4307744,54.213166300000005],[53.431068399999994,54.20529220000001],[53.440015200000005,54.19530460000001],[53.4374107,54.185293200000004],[53.452912500000004,54.1764536],[53.456192,54.16858010000001],[53.45398749999999,54.1665434],[53.45811260000001,54.16397090000001],[53.452474099999996,54.154412],[53.4697432,54.143176100000005],[53.466543300000005,54.1416639],[53.4697535,54.1384614],[53.4626686,54.13819220000001],[53.46819610000001,54.131278800000004],[53.465611,54.12927820000001],[53.468693300000005,54.1290894],[53.4635886,54.1215794],[53.46854270000001,54.12090920000001],[53.46552560000001,54.1175603],[53.4724738,54.1124981],[53.4666808,54.10894090000001],[53.4690086,54.10811730000001],[53.46565880000001,54.1045896],[53.4732473,54.09657210000001],[53.4696041,54.09575060000001],[53.4662394,54.0893178],[53.4886595,54.076962200000004],[53.4868269,54.071087999999996],[53.491649499999994,54.070539000000004],[53.487746099999995,54.0675712],[53.495388000000005,54.058006],[53.5006057,54.0561286]],[[47.8425486,54.9091206],[47.8415969,54.915425],[47.8224536,54.9137423],[47.819619499999995,54.903472],[47.8425486,54.9091206]],[[47.853860299999994,54.741635200000005],[47.85065939999999,54.773181],[47.8375543,54.7704243],[47.840298399999995,54.7575661],[47.846640199999996,54.7522335],[47.848049399999994,54.7416192],[47.853860299999994,54.741635200000005]],[[48.1208296,55.0172757],[48.1132026,55.0246078],[48.0764236,55.0142208],[48.0523802,55.002720200000006],[48.0506318,54.98908769999999],[48.102709000000004,54.9910608],[48.1009891,55.000594],[48.1193078,55.01275230000001],[48.1208296,55.0172757]]]]}}