{"type":"Feature","properties":{"regionId":"respublika_mariy_el","name":"Марий Эл","name:en":"Mari El","timezone":"Europe/Moscow","name_ru":"Республика Марий Эл","name_en":"Mari El","name_zh":"马里埃尔共和国"},"geometry":{"type":"Polygon","coordinates":[[[48.3955848,55.82993270000001],[48.3311542,55.83628139999999],[48.3000334,55.8475456],[48.2827624,55.8451451],[48.2506517,55.8630747],[48.219798700000005,55.8750232],[48.21057630000001,55.883676599999994],[48.22238130000001,55.884842299999995],[48.22827520000001,55.8938481],[48.23920530000001,55.90168899999999],[48.238048500000005,55.9058043],[48.242141700000005,55.9060288],[48.222159800000014,55.913971499999995],[48.212381300000004,55.92411430000001],[48.196658600000006,55.9296427],[48.19897690000001,55.931207799999996],[48.1438432,55.9409633],[48.11708939999999,55.942486499999994],[48.1042406,55.9383477],[48.0456447,55.9541143],[48.0431827,55.9457809],[48.034867899999995,55.9425406],[47.9682175,55.965684399999994],[47.970151800000004,55.969643399999995],[48.003838300000005,55.9885631],[48.002605200000005,55.995126000000006],[47.9974343,56.001910200000005],[47.98986759999999,55.9994442],[47.9600542,56.0165997],[47.9566752,56.014154],[47.9490531,56.023963300000005],[47.928421900000004,56.0156958],[47.932239100000004,56.035152300000014],[47.92880590000001,56.0573957],[47.9137097,56.07253190000001],[47.9333456,56.0764837],[47.916870599999996,56.10010630000001],[47.8889461,56.1199468],[47.88338159999999,56.12157820000001],[47.876162,56.116668],[47.8211679,56.1260877],[47.687227299999996,56.133363200000005],[47.66872130000001,56.140800399999996],[47.6495054,56.13802570000001],[47.6368706,56.14433210000001],[47.6315476,56.134351900000006],[47.6011872,56.14191520000001],[47.5071213,56.1436449],[47.5012069,56.1582813],[47.4786317,56.1505184],[47.4601864,56.155505000000005],[47.424772600000004,56.156994499999996],[47.4314325,56.2248035],[47.3797968,56.2272042],[47.39252280000001,56.322985900000006],[47.2515505,56.328517700000006],[47.2474162,56.3115233],[47.1505981,56.3154663],[47.1462154,56.277258],[47.0892002,56.279812400000004],[47.0529597,56.274033300000006],[47.01448599999999,56.26232910000001],[47.005423,56.2566101],[46.994298900000004,56.2564011],[46.99511380000001,56.2536712],[46.98486409999999,56.2493612],[46.986172200000006,56.242115800000015],[46.9729947,56.240166200000004],[46.96557080000001,56.234607],[46.9486013,56.23289270000001],[46.9109419,56.2104265],[46.820820499999996,56.19405230000001],[46.79835700000001,56.20551840000001],[46.77728449999999,56.211686099999994],[46.7642271,56.211697799999996],[46.7645244,56.204979800000004],[46.76277190000001,56.210185800000005],[46.757394399999995,56.2096371],[46.75366759999999,56.2072217],[46.76388,56.2020885],[46.767569800000004,56.20407290000001],[46.765552100000015,56.20113920000001],[46.76827010000001,56.1991275],[46.7894861,56.2036838],[46.7914064,56.199927800000005],[46.79935490000001,56.19863850000001],[46.79960880000001,56.1915265],[46.7839662,56.185757],[46.7694224,56.169619000000004],[46.754466699999995,56.163382500000004],[46.7549892,56.1598663],[46.76224620000001,56.1566085],[46.7578773,56.1555885],[46.760199500000006,56.1523891],[46.755089399999996,56.15180169999999],[46.7569079,56.148728500000004],[46.7544499,56.1477618],[46.7575743,56.14532330000001],[46.7421847,56.137308100000006],[46.7407634,56.1315817],[46.706986,56.123682200000005],[46.694391700000004,56.117467899999994],[46.6872387,56.1099471],[46.655703100000004,56.0980241],[46.6441196,56.1124985],[46.6193205,56.127321300000006],[46.5832699,56.13515620000001],[46.5784746,56.1302955],[46.5492006,56.1195635],[46.51655830000001,56.1132113],[46.5168658,56.12250780000001],[46.51447709999999,56.12437190000001],[46.49258510000001,56.1192297],[46.48740939999999,56.12495530000001],[46.443692,56.113177],[46.415213900000005,56.12964530000001],[46.387749799999995,56.10959080000001],[46.394579,56.1077878],[46.3980144,56.1125376],[46.408461499999994,56.1098155],[46.359634899999996,56.099066300000004],[46.333026499999995,56.087142300000004],[46.321002,56.08729939999999],[46.305838900000005,56.072450100000005],[46.2846419,56.064497499999995],[46.27818320000001,56.067972700000006],[46.2845426,56.070972600000005],[46.23865220000001,56.06537920000001],[46.241812800000005,56.0624484],[46.213881799999996,56.055584399999994],[46.20549210000001,56.048476300000004],[46.200185100000006,56.0426288],[46.2038418,56.036181],[46.2006977,56.0326688],[46.149210100000005,56.033901],[46.146120100000005,56.01855280000001],[46.13839540000001,56.0177852],[46.13410390000001,56.0264195],[46.1358205,56.029872700000006],[46.1559048,56.0490515],[46.1440602,56.0526943],[46.13599210000001,56.046367],[46.1193297,56.0410164],[46.0874969,56.0377918],[46.083853999999995,56.0439904],[46.0864881,56.04831010000001],[46.1138203,56.068706500000005],[46.10652210000001,56.070016],[46.0800225,56.064826499999995],[46.060213000000005,56.068900500000005],[46.054452999999995,56.073778000000004],[46.053502,56.09992330000001],[46.043779,56.102438500000005],[46.0525886,56.11488729999999],[46.047044299999996,56.121547],[46.0575193,56.1268917],[46.061153700000006,56.123471300000006],[46.069170500000006,56.124005800000006],[46.0805005,56.13426749999999],[46.110598700000004,56.1444517],[46.1108391,56.1501036],[46.086141,56.1568],[46.095636400000004,56.1668073],[46.09851500000001,56.17250550000001],[46.09699570000001,56.1770457],[46.066530500000006,56.173039700000004],[46.046220399999996,56.1607075],[46.0307879,56.16876620000001],[46.00872210000001,56.17297590000001],[45.963528800000006,56.162499100000005],[45.936750100000005,56.187196],[45.9388266,56.2028175],[45.9326071,56.21217310000001],[45.91768379999999,56.21919890000001],[45.897548,56.2198316],[45.89313870000001,56.2337415],[45.89815500000001,56.2354746],[45.88974939999999,56.2366802],[45.88683449999999,56.2337415],[45.88168269999999,56.23675550000001],[45.86628639999999,56.254836499999996],[45.8665,56.2587915],[45.9204404,56.2564092],[45.92626739999999,56.29661170000001],[45.923174,56.3125391],[45.93348099999999,56.3161432],[45.9431836,56.314046899999994],[45.944479699999995,56.3186288],[45.946586599999996,56.3163396],[45.9559316,56.319239499999995],[45.958159300000005,56.31694399999999],[45.9700406,56.3184562],[45.9582962,56.33364039999999],[45.946735800000006,56.363196300000006],[45.9342632,56.3738063],[45.952967599999994,56.4038427],[45.9744522,56.412608],[45.963762300000006,56.428534500000005],[45.9161962,56.42650290000001],[45.895779700000006,56.4343056],[45.8026693,56.4288896],[45.753244699999996,56.412820599999996],[45.7520045,56.41984099999999],[45.766597000000004,56.425635500000006],[45.76847260000001,56.4462754],[45.751156,56.4553608],[45.72785390000001,56.453970999999996],[45.71812680000001,56.45675],[45.687663099999995,56.452901499999996],[45.66190220000001,56.460917800000004],[45.64875320000001,56.4910607],[45.627259800000004,56.5076738],[45.62373980000001,56.514041799999994],[45.62887030000001,56.517782999999994],[45.652172500000006,56.5173557],[45.656874699999996,56.5360617],[45.6533473,56.537664899999996],[45.644154900000004,56.5340305],[45.62865530000001,56.5430091],[45.625555100000014,56.5523085],[45.637847099999995,56.5610736],[45.62576850000001,56.5612873],[45.627050800000006,56.568021300000005],[45.6462905,56.5813829],[45.6550547,56.59805790000001],[45.6700657,56.614485699999996],[45.67091390000001,56.6113949],[45.678004,56.61293030000001],[45.681919,56.6100201],[45.6815209,56.6123818],[45.6861692,56.6105624],[45.69227500000001,56.61553330000001],[45.70893580000001,56.6137096],[45.7115686,56.615931800000006],[45.71557210000001,56.6119107],[45.7182704,56.615340200000006],[45.7318488,56.612484599999995],[45.7364917,56.6068088],[45.74227990000001,56.60841080000001],[45.7409394,56.605614],[45.7446286,56.605220800000005],[45.7506136,56.62317850000001],[45.8861506,56.6260664],[45.8863633,56.6473376],[45.95474639999999,56.6504307],[45.9533037,56.656148800000004],[45.935348600000005,56.663168500000005],[45.9349756,56.6740784],[45.9319154,56.677505200000006],[45.8998147,56.67873110000001],[45.891575,56.6842943],[45.8982698,56.6929676],[45.92013820000001,56.69875230000002],[45.9189622,56.703990000000005],[45.901859599999995,56.706662],[45.890716700000006,56.69673790000001],[45.870697699999994,56.6905635],[45.8607397,56.69213540000001],[45.858837099999995,56.6978341],[45.86198949999999,56.706301700000004],[45.8768303,56.7128299],[45.8821911,56.7193816],[45.8789841,56.7271845],[45.873318700000006,56.7311394],[45.86519510000001,56.72803940000001],[45.8638052,56.7338115],[45.8660499,56.735842500000004],[45.878556,56.73755290000001],[45.892452000000006,56.7316741],[45.8946969,56.726543400000004],[45.918533700000005,56.722481900000005],[45.9415086,56.8591948],[45.968827499999996,56.85780429999999],[45.9705241,56.8706623],[46.098674200000005,56.863213800000004],[46.1491875,56.8792384],[46.2073441,56.8827145],[46.23973130000001,56.89896230000001],[46.2708067,56.90211480000001],[46.3035454,56.887419099999995],[46.31476609999999,56.9452468],[46.447952,56.93883530000001],[46.464092900000004,56.9304981],[46.4815157,56.9378738],[46.4982976,56.9363776],[46.5140107,56.933598700000005],[46.505353500000005,56.9130756],[46.53881020000001,56.9133968],[46.546826499999995,56.922803300000005],[46.546719200000005,56.9327441],[46.59310970000001,56.9299656],[46.5926825,56.923979700000004],[46.6064714,56.92333850000001],[46.6242145,56.9390517],[46.658619,56.9437385],[46.67317020000001,56.942033],[46.6722077,56.95166539999999],[46.6814003,56.951772399999996],[46.66952570000001,56.971116900000006],[46.715861399999994,56.9728207],[46.728372600000014,56.948013700000004],[46.7036626,56.940716300000005],[46.79056390000001,56.93615690000001],[46.8101335,56.931098999999996],[46.82559620000001,56.9186165],[46.8389905,56.9183296],[46.840482699999995,56.9276168],[46.84794539999999,56.930270300000004],[46.853832399999995,56.93831370000001],[46.8673487,56.9343337],[46.872323900000005,56.93599220000001],[46.871494299999995,56.944201299999996],[46.8943801,56.95183039999999],[46.910384099999995,56.9457774],[46.9004338,56.942460399999995],[46.9072338,56.9313491],[46.89786399999999,56.92571040000001],[46.909390300000005,56.91949149999999],[46.926802900000006,56.935329700000004],[46.9302856,56.9342517],[46.93567530000001,56.93939290000001],[46.963868399999996,56.9403883],[46.9661071,56.9432906],[46.992462,56.941487399999986],[46.9943395,56.9261214],[47.02561820000001,56.9266625],[47.0300802,56.9216201],[47.043195600000004,56.924744],[47.047116700000004,56.92233340000001],[47.0582941,56.9238585],[47.0618997,56.9310156],[47.101873999999995,56.9232065],[47.15546749999999,56.8961801],[47.1535304,56.895550400000005],[47.1614716,56.884170999999995],[47.16205220000001,56.87944449999999],[47.14215090000001,56.884502399999995],[47.135517500000006,56.879029499999994],[47.1270595,56.8826779],[47.1195971,56.8700738],[47.1244896,56.8694935],[47.129466300000004,56.838315400000006],[47.11180459999999,56.8262087],[47.1067698,56.8262385],[47.127390500000004,56.821626099999996],[47.1346918,56.8061008],[47.1525294,56.8003784],[47.1560191,56.79659240000001],[47.1747015,56.79921900000001],[47.19816690000001,56.8237638],[47.2459635,56.8103168],[47.25271230000001,56.8127799],[47.26530620000001,56.807166699999996],[47.26837350000001,56.81106979999999],[47.2666084,56.815851499999994],[47.29035410000001,56.8270342],[47.30184709999999,56.828838700000006],[47.3120021,56.835025800000004],[47.31415,56.8403821],[47.3379658,56.84923739999999],[47.3597037,56.847731599999996],[47.389758900000004,56.8595737],[47.3836333,56.8666883],[47.418651,56.87748619999999],[47.42838020000001,56.876242],[47.434905,56.8829222],[47.446926999999995,56.872558000000005],[47.480863299999996,56.85744269999999],[47.48702339999999,56.859467399999986],[47.494767499999995,56.8563335],[47.492852400000004,56.85470359999999],[47.5109343,56.850756399999995],[47.4886827,56.8713304],[47.4930225,56.8760302],[47.5130996,56.8833525],[47.50857020000001,56.88987749999999],[47.513352700000006,56.8944761],[47.5317306,56.893615200000006],[47.532217,56.9006951],[47.5454707,56.900802],[47.546812700000004,56.92507680000001],[47.6023514,56.9247713],[47.60611680000001,56.928605100000006],[47.6008673,56.93003230000001],[47.6014059,56.93766109999999],[47.612365000000004,56.94578739999999],[47.6186749,56.944943499999994],[47.62375110000001,56.955719300000005],[47.61764339999999,56.95902749999999],[47.6429478,56.9690885],[47.66343990000001,56.983787899999996],[47.6874933,56.976274599999996],[47.70563310000001,56.99297130000001],[47.68531900000001,56.99931370000001],[47.6850695,57.0016358],[47.78267280000001,56.998603900000006],[47.76890310000001,57.0016367],[47.744067599999994,57.0259495],[47.76437880000001,57.039320200000006],[47.800799999999995,57.02950330000001],[47.832835200000005,57.000228],[47.83465999999999,56.9899458],[47.8647709,56.9904437],[47.8719967,56.985535000000006],[47.887541999999996,56.9873924],[47.8947305,56.9847725],[47.90830520000001,56.9646287],[47.91504449999999,56.9663976],[47.9143058,56.985013200000004],[47.91768009999999,56.989462399999994],[47.9492569,56.9867135],[47.94532280000001,56.964590300000005],[47.95207739999999,56.96291540000001],[47.95406769999999,56.9577743],[47.9809336,56.96805680000001],[47.98483099999999,56.96515470000001],[47.9973515,56.9780905],[47.9877324,56.9825681],[47.9831439,56.99691320000001],[47.9884778,57.0019716],[48.0138517,56.99915260000001],[48.02040220000001,57.0049571],[48.0262067,57.0045425],[48.0248055,56.994257499999996],[48.049756800000004,56.9935145],[48.0523268,57.0052892],[48.070652300000006,57.005123700000006],[48.0850807,57.00205580000001],[48.09287580000001,56.9916908],[48.091968800000004,56.9879362],[48.106619300000006,56.9884829],[48.14213060000001,56.9958375],[48.1404717,57.0071977],[48.1489296,57.0070319],[48.15199739999999,57.0116756],[48.1582164,57.012256],[48.1592113,57.0181435],[48.1770395,57.013085499999995],[48.1852486,57.015822],[48.2060619,57.0135005],[48.2112413,57.0215869],[48.2046425,57.02281320000001],[48.20581210000001,57.0335673],[48.2032413,57.038957200000006],[48.20771880000001,57.04252280000001],[48.167501900000005,57.0498193],[48.161199700000004,57.052887299999995],[48.16451610000001,57.0619257],[48.1461077,57.0626716],[48.139473800000005,57.06507630000001],[48.1375297,57.0696622],[48.2024934,57.07088159999999],[48.2099211,57.0740361],[48.24768649999999,57.0962425],[48.22413360000001,57.116737],[48.2296976,57.12973630000001],[48.245295500000005,57.130389300000004],[48.26274810000001,57.12301840000001],[48.27675910000001,57.12357560000001],[48.26997200000001,57.1336712],[48.2814588,57.13933660000001],[48.2794045,57.14813510000001],[48.323650900000004,57.1544039],[48.3303468,57.1584701],[48.325025600000004,57.16240520000001],[48.32893610000001,57.166090000000004],[48.363622,57.1665244],[48.3729276,57.16271760000001],[48.366061599999995,57.1562331],[48.3778167,57.1529075],[48.3675204,57.1430618],[48.3712156,57.13919570000001],[48.361658399999996,57.1334961],[48.377501499999994,57.1298904],[48.3784579,57.12656630000001],[48.402382200000005,57.13093330000001],[48.41983999999999,57.12552600000001],[48.4168423,57.110189],[48.424305200000006,57.1105208],[48.549928200000004,57.1574142],[48.5541155,57.1623895],[48.5507984,57.16877430000001],[48.555441599999995,57.17171820000001],[48.58106439999999,57.17213300000001],[48.59590790000001,57.157332000000004],[48.6143992,57.1583272],[48.63231060000001,57.150491499999994],[48.654408999999994,57.14991130000001],[48.6645667,57.153352700000006],[48.67256820000001,57.1619765],[48.6735214,57.169024900000004],[48.707933700000005,57.1674913],[48.7161011,57.17395930000001],[48.72974190000001,57.1675745],[48.77617240000001,57.171857499999994],[48.792959300000014,57.16611410000001],[48.81110739999999,57.16923620000001],[48.82551600000001,57.16577010000001],[48.81894449999999,57.1585879],[48.81466979999999,57.139183100000004],[48.81965039999999,57.137410900000006],[48.8299375,57.140950700000005],[48.8443659,57.13193580000001],[48.8423242,57.12594870000001],[48.856924299999996,57.12315860000001],[48.865173500000004,57.11466849999999],[48.8586052,57.11503820000001],[48.8607146,57.106433],[48.8469547,57.10670530000001],[48.83386339999999,57.097391300000005],[48.853579399999994,57.091298300000005],[48.8753843,57.092130200000014],[48.910319900000005,57.081743599999996],[48.9493743,57.0826018],[48.965057800000004,57.0963897],[48.968849399999996,57.0963496],[48.984603699999994,57.1165684],[49.002940300000006,57.12453210000001],[49.0020611,57.129409700000004],[48.9832902,57.145409],[48.9966037,57.15535380000001],[48.99191690000001,57.173445300000004],[48.9801211,57.17571260000001],[48.9733688,57.180684799999995],[48.9854961,57.18113890000001],[48.9894162,57.1862449],[49.012813300000005,57.188369],[49.015835900000006,57.186043999999995],[49.044719900000004,57.19046290000001],[49.038740600000004,57.196967900000004],[49.04008749999999,57.1995044],[49.0342325,57.19910730000001],[49.0364063,57.20253790000001],[49.03397890000001,57.205876200000006],[49.0543707,57.207145600000004],[49.0472347,57.21355030000001],[49.0326013,57.20987],[49.0270094,57.21501200000001],[49.015197900000004,57.21468469999999],[49.0074249,57.2198172],[49.0122335,57.2272091],[49.0094636,57.232149500000006],[49.010919200000004,57.2382877],[49.0075291,57.23885220000001],[49.009750100000005,57.2523685],[49.0056743,57.258254900000004],[49.006411,57.263299700000005],[49.0115828,57.2670294],[49.0059646,57.2744003],[49.013001599999996,57.2794625],[49.0030803,57.2797813],[49.0074199,57.288946900000006],[49.04531060000001,57.297337000000006],[49.045303800000006,57.3010203],[49.08597230000001,57.295150000000014],[49.08168419999999,57.30268449999999],[49.08724709999999,57.30788459999999],[49.1079067,57.31466209999999],[49.12757990000001,57.3282071],[49.151316900000005,57.3300943],[49.152461599999995,57.334491699999994],[49.16867630000001,57.34286459999999],[49.1770596,57.3421378],[49.174230200000004,57.334223099999996],[49.1704821,57.3326105],[49.1809493,57.320776200000005],[49.214661799999995,57.3123266],[49.21691250000001,57.3082987],[49.21015390000001,57.3022621],[49.215045800000006,57.301665099999994],[49.211243499999995,57.298860100000006],[49.214203499999996,57.29064590000001],[49.2076663,57.28250220000001],[49.192569000000006,57.284094499999995],[49.1832993,57.278620200000006],[49.19117590000001,57.274898300000004],[49.1890008,57.260344],[49.191201,57.257624199999995],[49.178234800000006,57.248667399999995],[49.195223500000004,57.2416324],[49.1808066,57.236619700000006],[49.18671560000001,57.22276910000001],[49.2000836,57.22293110000001],[49.18442339999999,57.214258900000004],[49.183133000000005,57.19554960000001],[49.14281630000001,57.1852084],[49.13852380000001,57.1801873],[49.1480807,57.16802620000001],[49.15646939999999,57.167753600000005],[49.1538384,57.1592459],[49.1628867,57.1543852],[49.159114200000005,57.1535224],[49.160409,57.142351700000006],[49.1648652,57.1418629],[49.1822245,57.15768759999999],[49.19545380000001,57.15748189999999],[49.20305080000001,57.160827499999996],[49.208231000000005,57.15788979999999],[49.1865612,57.13899520000001],[49.1716319,57.133327200000004],[49.17810250000001,57.12869430000001],[49.205071600000004,57.1290046],[49.2179261,57.12523350000001],[49.221751600000005,57.1180774],[49.21035020000001,57.11513360000001],[49.206951100000005,57.10319320000001],[49.210157800000005,57.1028811],[49.2117608,57.0942379],[49.218243900000004,57.094212500000005],[49.218746100000004,57.0871609],[49.2269774,57.07786159999999],[49.236765600000005,57.07767449999999],[49.23273150000001,57.076998100000004],[49.2349631,57.075855100000005],[49.2308862,57.0696966],[49.242645,57.0632572],[49.2400271,57.0614137],[49.2434174,57.06034030000001],[49.2377097,57.0602237],[49.239726700000006,57.0573533],[49.2490807,57.056916300000005],[49.246292800000006,57.0537124],[49.248104000000005,57.0509092],[49.2419085,57.051047999999994],[49.2416858,57.045668],[49.247709,57.04211080000001],[49.26603380000001,57.0394725],[49.27811490000001,57.034168],[49.32847290000001,57.03951280000001],[49.33028049999999,57.0282836],[49.33615270000001,57.02333080000001],[49.360864799999995,57.0250606],[49.3915891,57.019305],[49.390415100000006,57.00541890000001],[49.40068599999999,57.0112293],[49.4162367,57.008446],[49.422974200000006,57.024352500000006],[49.4298278,57.0240761],[49.4315425,57.0319686],[49.4224212,57.03271470000001],[49.4224211,57.0356998],[49.401110800000005,57.03437280000001],[49.3973792,57.03951380000001],[49.4029346,57.044820599999994],[49.432762100000005,57.0401499],[49.4334693,57.0438261],[49.46802580000001,57.057756999999995],[49.4844521,57.044494099999994],[49.48551030000001,57.0513299],[49.5206402,57.049302600000004],[49.52237880000001,57.0587915],[49.53299500000001,57.0582236],[49.5373833,57.054140999999994],[49.557684499999986,57.0577111],[49.5586056,57.06292630000001],[49.572903100000005,57.0632778],[49.5748147,57.0587038],[49.5842931,57.057291199999995],[49.60211430000001,57.0779707],[49.6171829,57.0718562],[49.6499806,57.0660486],[49.65535220000001,57.0602612],[49.64513810000001,57.052702100000005],[49.6477742,57.05064039999999],[49.66530990000001,57.0484164],[49.6836273,57.06219570000001],[49.6882478,57.057623899999996],[49.69538300000001,57.0577191],[49.673873,57.0473305],[49.6895605,57.02414890000001],[49.702854800000004,57.0197207],[49.69141820000001,57.012687699999994],[49.70355520000001,57.0108333],[49.7171785,56.986043599999995],[49.73959490000001,56.9843566],[49.747583,56.962115200000014],[49.7610097,56.9523291],[49.7406801,56.9405116],[49.730652000000006,56.940378900000006],[49.7052272,56.932225200000005],[49.711171900000004,56.91796409999999],[49.726962400000005,56.9198569],[49.72636880000001,56.9173781],[49.7342047,56.9179172],[49.737025100000004,56.91186089999999],[49.7462716,56.91446259999999],[49.7488818,56.91129539999999],[49.749473800000004,56.90464949999999],[49.7549242,56.902874499999996],[49.7308636,56.891184599999995],[49.73841830000001,56.8862121],[49.759534300000006,56.88069749999999],[49.76754230000001,56.873767799999996],[49.804682299999996,56.880388399999994],[49.80833020000001,56.884419099999995],[49.82731630000001,56.8799686],[49.8271824,56.888079],[49.845887999999995,56.88719939999999],[49.845199300000004,56.8832383],[49.8711125,56.885460099999996],[49.87718639999999,56.881819899999996],[49.900805,56.880542999999996],[49.908748200000005,56.875944],[49.9092961,56.8723693],[49.9219371,56.8691632],[49.9244725,56.872166],[49.9336049,56.8714198],[49.9343861,56.8670031],[49.9468026,56.862743900000005],[49.9454263,56.85948789999999],[49.9573154,56.8556951],[49.9861066,56.8591053],[50.0130462,56.8699893],[50.020649399999996,56.86933030000001],[50.0190368,56.85448779999999],[50.0410107,56.8522493],[50.057294999999996,56.8343822],[50.06603330000001,56.8354461],[50.0704066,56.831478399999995],[50.051370999999996,56.825648300000005],[50.047313700000004,56.8269175],[50.0429146,56.795976300000014],[50.1044368,56.79225860000001],[50.09851860000001,56.7833604],[50.102831,56.779197100000005],[50.096051300000006,56.7308231],[50.0797813,56.7271245],[50.0747235,56.7210714],[50.0609616,56.659213300000005],[50.02603520000001,56.657554499999996],[50.033445,56.6498292],[50.051423699999994,56.649708000000004],[50.0538725,56.6482264],[50.0506598,56.64533530000001],[50.0557271,56.6444213],[50.04979290000001,56.64247530000001],[50.050597599999996,56.63902230000001],[50.0640086,56.6378512],[50.08426349999999,56.62650190000001],[50.08142349999999,56.6111768],[50.0618568,56.61313990000001],[50.05358149999999,56.59967890000001],[50.169562400000004,56.592931500000006],[50.173314700000006,56.59531060000001],[50.202985000000005,56.5832536],[50.202147700000005,56.57881220000001],[50.19285800000001,56.572799200000006],[50.2012285,56.566455100000006],[50.201345200000006,56.5571242],[50.19465280000001,56.557410999999995],[50.18597320000001,56.5480019],[50.1604547,56.5336017],[50.160043200000004,56.5306073],[50.12685520000001,56.52241780000001],[50.1192621,56.5171077],[50.08973290000001,56.5166067],[50.077885499999994,56.512754900000004],[50.0830305,56.505663],[50.056578300000005,56.497185],[50.0539301,56.48658939999999],[50.039934200000005,56.485033300000005],[50.0369821,56.472936000000004],[50.0380446,56.45795139999999],[50.0185817,56.455639399999995],[49.970483699999996,56.4313809],[49.946481799999994,56.42892530000001],[49.9367472,56.45108269999999],[49.92853770000001,56.4584413],[49.953818399999996,56.460836900000004],[49.974551399999996,56.467311900000006],[49.9888357,56.4902068],[49.987235,56.494623399999995],[49.93339230000001,56.4968576],[49.929749900000004,56.49171820000001],[49.91089649999999,56.4835996],[49.9039853,56.4764429],[49.919404799999995,56.4673395],[49.9083315,56.4626878],[49.89751030000001,56.4478659],[49.8857513,56.447703999999995],[49.86766839999999,56.4355832],[49.8610596,56.42531320000001],[49.8036056,56.4372786],[49.7855575,56.4482111],[49.7537607,56.454254199999994],[49.7505477,56.462909800000006],[49.8060638,56.4893354],[49.813884499999986,56.5011655],[49.77739570000001,56.5313924],[49.75610280000001,56.5372145],[49.7440205,56.5306736],[49.732620100000005,56.531461099999994],[49.707402800000004,56.5174125],[49.684930900000005,56.515410100000004],[49.6646961,56.5274251],[49.6505251,56.526428200000005],[49.6364504,56.517510300000005],[49.6188077,56.515194300000005],[49.6115298,56.502162000000006],[49.5707865,56.4960643],[49.5690237,56.4922917],[49.5614782,56.490407],[49.5798967,56.4779443],[49.582131000000004,56.4591699],[49.5653446,56.4591966],[49.546379800000004,56.42931600000001],[49.52693270000001,56.428354500000005],[49.5152315,56.422563000000004],[49.4740481,56.424963999999996],[49.465482900000005,56.4212606],[49.4555742,56.42553170000001],[49.439945900000005,56.440824199999994],[49.44360139999999,56.4431891],[49.4411312,56.4490135],[49.45092399999999,56.46814800000001],[49.460278,56.469107900000004],[49.4756819,56.4764538],[49.4382665,56.4687837],[49.4358407,56.4770055],[49.4238042,56.478095700000004],[49.41762859999999,56.4734827],[49.421681099999994,56.462841399999995],[49.4342177,56.4645656],[49.4410124,56.468814200000004],[49.4354831,56.447501599999995],[49.4094547,56.45029459999999],[49.4033773,56.436392100000006],[49.4057114,56.4302072],[49.4000142,56.4210932],[49.4003954,56.410163],[49.4064972,56.405146900000005],[49.409293999999996,56.397521499999996],[49.3994337,56.3741531],[49.4003505,56.3647584],[49.394665599999996,56.3560999],[49.38147479999999,56.3492933],[49.3676959,56.353832999999995],[49.36977230000001,56.356914599999996],[49.3593712,56.363938700000006],[49.3351747,56.36482959999999],[49.331732300000006,56.362188800000006],[49.3313658,56.354365699999995],[49.33988109999999,56.3493955],[49.34255,56.343053499999996],[49.3347554,56.330072900000005],[49.312289299999996,56.332410800000005],[49.2892801,56.3451304],[49.25293670000001,56.3499282],[49.25164139999999,56.3611081],[49.22589330000001,56.3806033],[49.2234847,56.39428439999999],[49.2158505,56.3900754],[49.1670291,56.390401499999996],[49.17071180000001,56.3693917],[49.1919934,56.36553930000001],[49.1779861,56.35480309999999],[49.17052830000001,56.3608791],[49.144532100000006,56.3561823],[49.133501,56.356408699999996],[49.128349500000006,56.3683074],[49.11444939999999,56.3692239],[49.1153491,56.3639292],[49.108433000000005,56.35722839999999],[49.109320200000006,56.3466353],[49.0974142,56.3395306],[49.080152700000006,56.334948],[49.0792591,56.3459934],[49.068537600000006,56.34140769999999],[49.0697236,56.3450892],[49.0515639,56.344789899999995],[49.0411164,56.3250219],[49.055362200000005,56.32164139999999],[49.0317697,56.3084306],[49.029591,56.3026798],[49.038115800000014,56.29244330000001],[49.0318057,56.2846569],[48.9734006,56.275231500000004],[48.9224213,56.2561808],[48.9375374,56.22537890000002],[49.0010922,56.220115700000015],[49.0098649,56.22233880000002],[49.024169900000004,56.23534120000001],[49.028425000000006,56.22783810000001],[49.0401905,56.22395390000001],[49.04571290000001,56.21553090000001],[49.0696524,56.20655520000001],[49.06150830000001,56.206707900000005],[49.0613619,56.2011048],[49.050321499999995,56.19641510000001],[49.052945300000005,56.195256400000005],[49.051586099999994,56.1902619],[49.0438956,56.188095100000005],[49.0099712,56.20453500000001],[49.005451,56.20075130000001],[48.984553,56.20054280000001],[48.980718,56.162363000000006],[48.9587543,56.1630576],[48.9539693,56.1606335],[48.94769959999999,56.139045800000005],[48.92919590000001,56.13201970000001],[48.9034534,56.1302412],[48.894515600000005,56.133042800000005],[48.848632200000004,56.115987],[48.8451248,56.094245300000004],[48.836562,56.0932742],[48.8299487,56.0809567],[48.835294,56.076778600000004],[48.8365019,56.06937920000001],[48.831677199999994,56.06265380000001],[48.829928100000004,56.050319300000005],[48.8212318,56.0499396],[48.8180191,56.05487039999999],[48.812392100000004,56.0557608],[48.777082300000004,56.057727699999994],[48.74834390000001,56.0413269],[48.7407495,56.041345],[48.7378296,56.0530339],[48.71653310000001,56.0594979],[48.725164500000005,56.0675669],[48.7177798,56.071226499999995],[48.6936776,56.0604276],[48.6918517,56.0591262],[48.70558330000001,56.0558206],[48.7142582,56.04832290000001],[48.71131880000001,56.040409399999994],[48.701463499999996,56.038514600000006],[48.687021699999995,56.026188100000006],[48.712245300000006,56.0137907],[48.72621920000001,56.0136379],[48.72503180000001,56.008075000000005],[48.714882599999996,55.997875],[48.7034943,55.9941272],[48.70542820000001,55.985654],[48.701191900000005,55.977087299999994],[48.703634900000004,55.9744829],[48.69505060000001,55.954844499999986],[48.66810850000001,55.946122800000005],[48.66619510000001,55.938391300000006],[48.6563256,55.937473399999995],[48.6268286,55.944749699999996],[48.6177517,55.9418959],[48.6018081,55.9456689],[48.5775941,55.9452236],[48.5760602,55.940412200000004],[48.571037,55.944617599999994],[48.521925800000005,55.9315318],[48.474071599999995,55.9361796],[48.4154202,55.91485449999999],[48.386065699999996,55.8719462],[48.38427099999999,55.8643431],[48.3994096,55.86225580000001],[48.398017100000004,55.857718399999996],[48.4061919,55.856918],[48.40162599999999,55.845173200000005],[48.405362000000004,55.8397117],[48.421398200000006,55.8346182],[48.45126769999999,55.832142000000005],[48.3955848,55.82993270000001]]]}}