{"type":"Feature","properties":{"regionId":"respublika_dagestan","name":"Дагестан","name:en":"Dagestan","timezone":"Europe/Moscow","name_ru":"Республика Дагестан","name_en":"Dagestan","name_zh":"达吉斯坦共和国"},"geometry":{"type":"Polygon","coordinates":[[[47.29360880000001,44.7188913],[46.9785465,44.76646290000001],[46.89843630000001,44.811999699999994],[46.8869125,44.810512700000004],[46.8649803,44.79936030000001],[46.826133600000006,44.80828149999999],[46.81368049999999,44.8077237],[46.807732800000004,44.80382039999999],[46.809963399999994,44.7950846],[46.816654699999994,44.79471300000001],[46.82501890000001,44.788951100000006],[46.8229746,44.7804012],[46.837658399999995,44.768505800000014],[46.8296662,44.76218610000001],[46.817956599999995,44.76032730000001],[46.812566399999994,44.762929400000004],[46.8129379,44.77055000000001],[46.7978824,44.77761280000001],[46.795466000000005,44.7835606],[46.756061599999995,44.79880130000001],[46.75513210000001,44.802890399999995],[46.772789200000005,44.819433],[46.76981520000001,44.82631010000001],[46.690077200000005,44.8465688],[46.6770662,44.8588359],[46.657735900000006,44.85920739999999],[46.63933480000001,44.8642257],[46.63505990000001,44.8610659],[46.584874799999994,44.889874899999995],[46.5705625,44.907346399999994],[46.5045787,44.934296499999995],[46.484505,44.930393],[46.449375700000004,44.9391284],[46.4343204,44.938756500000004],[46.4270717,44.93448139999999],[46.38320649999999,44.9473058],[46.3688947,44.9465622],[46.358672,44.9408001],[46.3473338,44.9510228],[46.325959000000005,44.949721399999994],[46.22614730000001,44.972953800000006],[46.20031200000001,44.9584557],[46.1614654,44.963101900000005],[46.159792700000004,44.9584552],[46.15533190000001,44.9588269],[46.117414499999995,44.969792700000006],[46.0830289,44.968677],[46.0767095,44.9647737],[46.0666725,44.971278999999996],[46.031914900000004,44.9807579],[46.016302,44.9796425],[45.9993878,44.9872629],[45.9824738,44.9891213],[45.969277399999996,44.9807571],[45.9490176,44.98633290000001],[45.9308026,44.9846599],[45.88136159999999,44.9880049],[45.874112800000006,44.9854026],[45.846046699999995,44.985774],[45.8137055,44.991721399999996],[45.79363180000001,44.9876321],[45.7973494,44.9768517],[45.7834095,44.968487499999995],[45.748837900000005,44.9753642],[45.73471200000001,44.9727619],[45.70511590000002,44.9773628],[45.6134741,44.873984899999996],[45.655536500000004,44.803691699999995],[45.52191620000001,44.679397800000004],[45.4123297,44.5941606],[45.3843154,44.6068143],[45.34750739999999,44.6022576],[45.3425734,44.59358280000001],[45.33513210000001,44.596527300000005],[45.31364429999999,44.591911100000004],[45.26072030000001,44.5893439],[45.239471800000004,44.5567733],[45.26812340000001,44.517956],[45.2648607,44.504326999999996],[45.23111660000001,44.5067937],[45.226740400000004,44.46751830000001],[45.3584139,44.4646549],[45.3727394,44.45462729999999],[45.386666899999994,44.452080699999996],[45.3977296,44.4362832],[45.4290863,44.428802600000004],[45.425903700000006,44.394063599999996],[45.3715098,44.290144500000004],[45.2176724,44.2708631],[45.2168767,44.26393910000001],[45.13667230000001,44.2537973],[45.103421499999996,44.19090810000001],[45.1666746,44.1917497],[45.29081220000001,44.1840741],[45.290662100000006,44.1804619],[45.3105758,44.1805809],[45.31078639999999,44.1836089],[45.39501200000001,44.17693810000001],[45.5029861,44.1756877],[45.5026409,44.12961430000001],[45.490015500000005,44.129559400000005],[45.4906809,44.0076503],[45.5463944,43.99875910000001],[45.7107493,43.96188299999999],[45.715124700000004,43.952935100000005],[45.79580930000001,43.9523821],[45.79580890000001,43.970576200000004],[45.8588196,43.9713796],[45.8861114,43.9511791],[46.0711977,43.930545800000004],[46.0580213,43.8853949],[46.034743399999996,43.887936499999995],[46.002636100000004,43.880979499999995],[46.0440427,43.819842599999994],[46.078290700000004,43.81716739999999],[46.079092800000005,43.8411141],[46.09514660000001,43.8402112],[46.0948785,43.8610809],[46.215883399999996,43.85920939999999],[46.25013080000001,43.881952399999996],[46.25200220000001,43.94492939999999],[46.3588932,43.94386039999999],[46.3547459,43.947204899999996],[46.3575552,43.951084499999986],[46.3523377,43.9533587],[46.35126729999999,43.9597802],[46.3425713,43.971017499999995],[46.3453806,43.977305300000005],[46.3406981,43.982656399999996],[46.343106,43.9889441],[46.3356142,43.992021],[46.3325371,43.9971045],[46.325312900000014,43.99844230000001],[46.32108149999999,44.00859560000001],[46.4401773,44.00212630000001],[46.436083599999996,43.9940288],[46.4276489,43.9874503],[46.4292346,43.98469539999999],[46.4364991,43.985019],[46.434829799999996,43.98031520000001],[46.4410393,43.976561499999995],[46.43407739999999,43.9741449],[46.43368469999999,43.970561499999995],[46.4448368,43.9682204],[46.4437487,43.965206],[46.4342651,43.9656486],[46.436734200000004,43.9606968],[46.4328317,43.9533058],[46.4363006,43.95183299999999],[46.43894,43.9554181],[46.4437706,43.9555256],[46.4570708,43.9443622],[46.4539506,43.9357941],[46.461632800000004,43.9324912],[46.4580462,43.9237442],[46.4486251,43.9192052],[46.4533799,43.9084472],[46.4489975,43.8933764],[46.454217899999996,43.8905055],[46.4513381,43.882806599999995],[46.4451692,43.87817870000001],[46.4491967,43.8756992],[46.4952741,43.8790062],[46.4929674,43.8673979],[46.49881530000001,43.86234],[46.49376290000001,43.858518600000004],[46.5392955,43.8582981],[46.561930200000006,43.871454199999995],[46.59015820000001,43.8736768],[46.588926,43.870378200000005],[46.60505520000001,43.8479124],[46.616684199999995,43.8503148],[46.6217017,43.835385200000005],[46.6194413,43.8299601],[46.637280399999995,43.832924],[46.648605700000005,43.8304219],[46.662041200000004,43.8362951],[46.6474257,43.814856799999994],[46.649811,43.79981130000001],[46.65513250000001,43.79353860000001],[46.646171,43.783706900000006],[46.6327465,43.777107],[46.630512900000014,43.7704272],[46.6141512,43.765869200000004],[46.6078279,43.76872330000001],[46.5856334,43.76816190000001],[46.55539530000001,43.75889],[46.5445998,43.7474965],[46.53715220000001,43.72852600000001],[46.518030800000005,43.7134263],[46.5136163,43.704730500000004],[46.482311900000006,43.6873266],[46.474696099999996,43.6740917],[46.4551281,43.66314090000001],[46.4464341,43.6421575],[46.453845799999996,43.6312519],[46.4458889,43.628051000000006],[46.4409738,43.6185516],[46.42655920000001,43.6160776],[46.425425800000006,43.6117687],[46.4297174,43.605073000000004],[46.412530800000006,43.5941775],[46.4133097,43.590019500000004],[46.428537000000006,43.5799693],[46.430784499999994,43.574892399999996],[46.424921499999996,43.55178479999999],[46.433823499999995,43.5412999],[46.4332256,43.5362457],[46.409629699999996,43.526337700000006],[46.411179,43.5099287],[46.407133800000004,43.502241399999996],[46.381269999999994,43.49494],[46.386732,43.4886069],[46.3867218,43.479868599999996],[46.3709284,43.471947899999996],[46.3550258,43.470087299999996],[46.3338732,43.457201899999994],[46.3275714,43.4497803],[46.3352492,43.4005605],[46.343226599999994,43.392973600000005],[46.35420779999999,43.3722324],[46.3591493,43.3709043],[46.3630255,43.35425099999999],[46.3705017,43.3497736],[46.369918000000006,43.341746699999995],[46.396109700000004,43.335664099999995],[46.402063399999996,43.327519800000005],[46.4095268,43.324279499999996],[46.41482599999999,43.3110551],[46.41425639999999,43.30366969999999],[46.4240663,43.29514770000001],[46.42055290000001,43.2879361],[46.42381580000001,43.27887080000001],[46.4167338,43.26157810000001],[46.4090166,43.255368700000005],[46.409608999999996,43.233021300000004],[46.39217070000001,43.202840200000004],[46.42189439999999,43.201153600000005],[46.421185200000004,43.1908804],[46.4368393,43.1862372],[46.4072726,43.1597262],[46.3861927,43.148312900000015],[46.3990712,43.1296006],[46.421390800000005,43.123785000000005],[46.4244238,43.120161800000005],[46.4194167,43.1165208],[46.42513860000001,43.1109803],[46.417605699999996,43.10653930000001],[46.43301580000001,43.082961399999995],[46.457477899999994,43.087303399999996],[46.48676699999999,43.087076599999996],[46.4907868,43.091566300000004],[46.5044513,43.085951800000004],[46.5051879,43.0829839],[46.4967484,43.0755819],[46.515551200000004,43.06510240000001],[46.5228954,43.040563],[46.5171115,43.045231900000005],[46.4956541,43.03821860000001],[46.49035320000001,43.040713200000006],[46.48813520000001,43.03933430000001],[46.489228499999996,43.02916080000001],[46.49543070000001,43.02515650000001],[46.5028026,43.03084749999999],[46.5002526,43.0331676],[46.50257560000001,43.035036600000005],[46.509119000000005,43.0302986],[46.5175467,43.0304325],[46.5198522,43.02379030000001],[46.5066669,43.02921370000001],[46.504802,43.0167667],[46.4795174,43.018438700000004],[46.466458800000005,43.0129067],[46.4766019,43.0048712],[46.47871520000001,42.9942412],[46.4944349,42.97551220000001],[46.4974453,42.96287],[46.4930643,42.9479702],[46.511927699999994,42.9331877],[46.533858800000004,42.9234564],[46.5244905,42.915226],[46.5045701,42.9159467],[46.4904473,42.911695099999996],[46.4373454,42.8856303],[46.435230600000004,42.87692],[46.425685300000005,42.877891999999996],[46.435185600000004,42.86575270000001],[46.43873120000001,42.866078],[46.429479900000004,42.858073999999995],[46.39751330000001,42.8549083],[46.3680797,42.8409702],[46.369272800000005,42.849977499999994],[46.3740357,42.85424489999999],[46.3709622,42.8642969],[46.3371538,42.8943966],[46.324330100000005,42.8972202],[46.3086888,42.9120962],[46.304393999999995,42.9074403],[46.31199099999999,42.883949199999996],[46.302117300000006,42.8658767],[46.297200600000004,42.8760938],[46.279340600000005,42.88626059999999],[46.26633840000001,42.879049099999996],[46.2580443,42.8664737],[46.23974990000001,42.861844899999994],[46.22670610000001,42.8672092],[46.21254230000001,42.890145200000006],[46.18331080000001,42.88782899999999],[46.1896682,42.8775686],[46.18217020000001,42.873352700000005],[46.1640714,42.851253799999995],[46.1597848,42.85062459999999],[46.129484,42.823885],[46.1147686,42.8015228],[46.13692520000001,42.796392900000015],[46.15164059999999,42.7850576],[46.1563714,42.7757844],[46.167562200000006,42.7774683],[46.162392900000015,42.7722934],[46.16527190000001,42.75669439999999],[46.16893620000001,42.7548141],[46.16309820000001,42.749922000000005],[46.179365100000005,42.742582600000006],[46.1756194,42.7341544],[46.1144361,42.7198716],[46.1065774,42.7260014],[46.100154700000004,42.72563990000001],[46.097704,42.71397230000001],[46.094715400000005,42.7122754],[46.077251499999996,42.718521800000005],[46.076005800000004,42.7143241],[46.085970800000005,42.69395290000001],[46.0773346,42.6811603],[46.04212820000001,42.682495200000005],[46.015303,42.67503810000001],[46.0217046,42.61863830000001],[46.001226599999995,42.594233300000006],[45.992046200000004,42.594810800000005],[45.97057830000001,42.58162039999999],[45.964558200000006,42.581352800000005],[45.95328699999999,42.587974499999994],[45.9466482,42.59815460000001],[45.9258085,42.604551300000004],[45.9134999,42.58988439999999],[45.89532330000001,42.5840393],[45.905428,42.560207399999996],[45.9133479,42.553423699999996],[45.900256399999996,42.5522921],[45.8822293,42.538220100000004],[45.859334499999996,42.535257200000004],[45.8415943,42.5158364],[45.8221294,42.5072742],[45.822664599999996,42.502725700000006],[45.81918639999999,42.49897980000001],[45.80360099999999,42.4978426],[45.773526100000005,42.4882012],[45.776394,42.48758599999999],[45.777145000000004,42.473818],[45.773614,42.461559],[45.781574,42.446946],[45.77563800000001,42.438869],[45.770822,42.421727],[45.75515500000001,42.408183],[45.752114000000006,42.397766999999995],[45.734701,42.378317],[45.742794,42.362114000000005],[45.74231200000001,42.334194],[45.756161,42.325801],[45.752271,42.308012000000005],[45.73816000000001,42.29377200000001],[45.721866,42.288985000000004],[45.717085999999995,42.29299600000001],[45.701961,42.29673000000001],[45.688205,42.285638000000006],[45.669949,42.283016],[45.658097,42.292184000000006],[45.652429,42.29221600000001],[45.634242,42.266044],[45.618181,42.252142000000006],[45.62270300000001,42.244994],[45.60819300000001,42.232447],[45.60861200000001,42.21231300000001],[45.622504000000006,42.209167],[45.647516,42.186408],[45.671679999999995,42.186383],[45.68352,42.17801000000001],[45.701363,42.173694],[45.72082,42.163450000000005],[45.725601000000005,42.153752000000004],[45.745720000000006,42.14873200000001],[45.747982,42.146101],[45.740253,42.138644],[45.738947,42.131543],[45.745207,42.131048],[45.748371000000006,42.127274],[45.769147000000004,42.126909000000005],[45.769484,42.116896999999994],[45.786030000000004,42.102069],[45.791241,42.10351200000001],[45.793294,42.10895800000001],[45.803923999999995,42.11605],[45.822892,42.10613300000001],[45.834103999999996,42.11083],[45.850378,42.111655],[45.85398099999999,42.115988],[45.87978,42.104033],[45.897218,42.106021],[45.905796,42.097119000000006],[45.913585999999995,42.09512900000001],[45.91386599999999,42.08778399999999],[45.920696,42.080788],[45.912556,42.071616999999996],[45.911837999999996,42.064523],[45.930243999999995,42.054393999999995],[45.934245999999995,42.043835],[45.927909,42.031495],[45.94382399999999,42.035783],[45.943813,42.029874],[45.957575999999996,42.024080999999995],[45.987334,42.045341],[46.004748,42.036872],[46.020830000000004,42.04166299999999],[46.023431,42.026266],[46.040485,42.019917],[46.060634,42.02873900000001],[46.073375000000006,42.04061],[46.083631,42.028223000000004],[46.085935000000006,42.005384],[46.10629,41.986028999999995],[46.111788999999995,41.988328],[46.115234,41.991852],[46.113771,41.996168000000004],[46.124878200000005,42.004193300000004],[46.147179,42.010812],[46.150327,42.007897299999996],[46.150739,41.994943],[46.159265,41.99015300000001],[46.173844599999995,41.997688999999994],[46.191339000000006,41.998831],[46.201570100000005,42.0070331],[46.2185044,42.009201499999996],[46.22157500000001,42.0155484],[46.244797,42.007163],[46.256503800000004,42.0061291],[46.258221,41.997551],[46.249774,41.994259],[46.245231000000004,41.982111],[46.262001000000005,41.982559],[46.267753000000006,41.970219],[46.278757000000006,41.961169],[46.284082999999995,41.95078399999999],[46.282439000000004,41.945439],[46.311449999999994,41.936276],[46.320047499999994,41.9292699],[46.324201699999996,41.934772],[46.330749,41.936972000000004],[46.330726999999996,41.943282999999994],[46.338853,41.946056],[46.356312100000004,41.9394241],[46.35636459999999,41.93366339999999],[46.3604947,41.9324306],[46.399361,41.940573],[46.404596,41.921786999999995],[46.412130000000005,41.92203800000001],[46.453184099999994,41.893094],[46.4766983,41.882737399999996],[46.5071298,41.8895432],[46.53703590000001,41.88045449999999],[46.5384346,41.8717067],[46.551597799999996,41.8671492],[46.5539293,41.8602761],[46.5507593,41.849797599999995],[46.5520988,41.83686049999999],[46.5553967,41.8352212],[46.5524051,41.8316151],[46.5547354,41.8226604],[46.5642394,41.819561799999995],[46.566853900000005,41.8130381],[46.5736901,41.8122981],[46.582208,41.8032352],[46.613325700000004,41.81718739999999],[46.62131120000001,41.824175600000004],[46.6184035,41.8293491],[46.6242822,41.8345913],[46.64592030000001,41.82893550000001],[46.66500230000001,41.8339655],[46.666115900000015,41.8389415],[46.6779037,41.83279230000001],[46.70090870000001,41.8325696],[46.708564,41.826579800000005],[46.7219034,41.828314500000005],[46.71541870000001,41.839565900000004],[46.7163808,41.8473683],[46.7330236,41.8558142],[46.7599041,41.861688799999996],[46.760651,41.8488085],[46.76493270000001,41.8404386],[46.7740688,41.8253034],[46.78372830000001,41.816614599999994],[46.7808578,41.811865299999994],[46.77031820000001,41.8106532],[46.765941500000004,41.8010102],[46.79320580000001,41.780257],[46.79227040000001,41.77363630000001],[46.8077925,41.7614619],[46.823647199999996,41.7632211],[46.831209799999996,41.76005810000001],[46.8316033,41.7478341],[46.8583779,41.73365810000001],[46.86415280000001,41.7200804],[46.868958600000006,41.71897320000001],[46.8767766,41.726863300000005],[46.89816590000001,41.732829800000005],[46.914974199999996,41.72658230000001],[46.92870500000001,41.71033620000001],[46.92533300000001,41.69141320000001],[46.9211854,41.68613570000001],[46.9274145,41.6766516],[46.940831499999994,41.67805130000001],[46.9443068,41.66534560000001],[46.956219999999995,41.654961799999995],[46.999511500000004,41.6413435],[47.0011866,41.6342478],[47.00891890000001,41.62731250000001],[47.008861599999996,41.622829800000005],[47.0003054,41.614105800000004],[46.995976600000006,41.6014412],[46.9910621,41.599810100000006],[47.0074589,41.57913430000001],[47.0163024,41.5799603],[47.022685,41.576166300000004],[47.0156426,41.5644587],[47.0152114,41.5593061],[47.0186459,41.55586449999999],[47.0307661,41.5647892],[47.05142839999999,41.55462119999999],[47.0582228,41.558033900000005],[47.06545860000001,41.5556561],[47.0725274,41.558973300000005],[47.0679825,41.5706227],[47.0752774,41.57837290000001],[47.0856724,41.5792798],[47.1027615,41.591725200000006],[47.1128639,41.5948054],[47.11158149999999,41.5843738],[47.12411990000001,41.58313220000001],[47.1154731,41.5695016],[47.121394800000004,41.5665485],[47.12939370000001,41.5517428],[47.147553800000004,41.5420713],[47.147213300000004,41.53876230000001],[47.15653890000001,41.535693800000004],[47.157949699999996,41.53113220000001],[47.173068300000004,41.5300024],[47.1718586,41.52191620000001],[47.1567514,41.5066032],[47.158089,41.499121800000005],[47.17273010000001,41.493907300000004],[47.1830001,41.485963],[47.19193820000001,41.488305100000005],[47.1982015,41.47513670000001],[47.19443390000001,41.4702332],[47.200237300000005,41.4686736],[47.20968,41.4517763],[47.2160897,41.4494104],[47.2172782,41.445949],[47.22800720000001,41.4494828],[47.242124700000005,41.4463479],[47.2358664,41.434400499999995],[47.22307910000001,41.4218582],[47.22871580000002,41.4084281],[47.22430310000001,41.4018327],[47.2187646,41.400037499999996],[47.222732600000015,41.3979147],[47.2346745,41.4015911],[47.24294390000001,41.3959544],[47.2529477,41.3987841],[47.26012000000001,41.395647499999995],[47.2644441,41.38698169999999],[47.2608608,41.378635],[47.2710797,41.3524181],[47.2585266,41.3393678],[47.270973100000006,41.3280565],[47.29001990000001,41.32458739999999],[47.29023220000001,41.31965459999999],[47.30100399999999,41.307971699999996],[47.3236398,41.30208699999999],[47.328295600000004,41.2960544],[47.3441202,41.29225930000001],[47.3549259,41.282571600000004],[47.3745102,41.27277280000001],[47.432632600000005,41.265958300000015],[47.44118769999999,41.2720514],[47.453549699999996,41.2742355],[47.4707206,41.257112000000006],[47.481014599999995,41.26477220000001],[47.49835950000001,41.26843930000001],[47.5062978,41.261288900000004],[47.504807099999994,41.2505514],[47.5081495,41.243773700000006],[47.501011399999996,41.23421580000001],[47.50388139999999,41.227439000000004],[47.520608300000006,41.21937520000001],[47.536438000000004,41.205874],[47.545325500000004,41.20550250000001],[47.556836,41.198513800000015],[47.565078500000006,41.19901110000001],[47.5674517,41.2105405],[47.57630830000001,41.2172261],[47.594361,41.21599580000001],[47.601489599999994,41.2195242],[47.610438800000004,41.2171797],[47.611086799999995,41.22507160000001],[47.620491200000004,41.23713520000001],[47.6265574,41.23257330000001],[47.6460652,41.228798900000015],[47.6521096,41.222956300000014],[47.701102600000006,41.22573830000002],[47.704959800000005,41.2142406],[47.7128717,41.208785600000006],[47.727000100000005,41.20671720000001],[47.727263300000004,41.192687],[47.7482544,41.187447799999994],[47.756828999999996,41.19252190000001],[47.76200010000001,41.18855190000001],[47.7820917,41.1858711],[47.79027920000001,41.1936231],[47.7948486,41.2049948],[47.8083934,41.2115486],[47.8115524,41.2193638],[47.827276399999995,41.221298000000004],[47.8475221,41.21554870000001],[47.8585428,41.220921800000006],[47.878010200000006,41.2174823],[47.88560939999999,41.2194184],[47.903583,41.23830310000001],[47.904070399999995,41.2450934],[47.910599,41.255376000000005],[47.9077373,41.26600620000001],[47.91171739999999,41.2768984],[47.892924900000004,41.2882948],[47.893610200000005,41.29137680000001],[47.897412,41.29219910000001],[47.8984036,41.29882810000001],[47.9166556,41.3008108],[47.9360965,41.3140132],[47.962149800000006,41.3163116],[47.97062939999999,41.322937800000005],[47.958054,41.33236290000001],[47.9501433,41.351124199999994],[47.9555808,41.358267299999994],[47.962434,41.3608165],[47.980642599999996,41.353184199999994],[47.9834208,41.3555737],[47.9814989,41.3616713],[47.985272900000005,41.3660433],[48.0014051,41.37318139999999],[48.0041762,41.381383799999995],[47.99977560000001,41.39462759999999],[48.00688439999999,41.405030200000006],[48.0022662,41.41060459999999],[48.0054496,41.4199368],[48.002228900000006,41.429959100000005],[48.03659530000001,41.4389866],[48.063734100000005,41.4575127],[48.06433810000001,41.459991499999994],[48.05418399999999,41.4671418],[48.0647888,41.4922877],[48.076911,41.4977745],[48.1195408,41.499395400000004],[48.138164800000006,41.50813430000001],[48.16737820000001,41.512362200000005],[48.2029665,41.5122831],[48.224275500000005,41.5169331],[48.252321,41.528401900000006],[48.2595195,41.53555820000001],[48.259546,41.54138939999999],[48.284465399999995,41.5608481],[48.29192880000001,41.56395590000001],[48.3144089,41.564105000000005],[48.34868719999999,41.576390800000006],[48.3553435,41.582055700000005],[48.3773438,41.5910141],[48.412772600000004,41.62315500000001],[48.41772739999999,41.6354611],[48.4155384,41.6379072],[48.42017390000001,41.658281499999994],[48.4339995,41.664984],[48.456652999999996,41.690394600000005],[48.47517270000001,41.704975600000004],[48.49111890000001,41.72774510000001],[48.5115822,41.7412773],[48.554181899999996,41.780365800000006],[48.55706169999999,41.8017366],[48.5679713,41.8028669],[48.57834570000001,41.81464009999999],[48.576716600000005,41.8217978],[48.58231880000001,41.8367184],[48.8140959,41.95029469999999],[48.745158300000014,41.9916493],[48.71809230000001,42.022634200000006],[48.68513260000001,42.0513572],[48.6618825,42.063265200000004],[48.55725439999999,42.14106949999999],[48.540841199999996,42.179591300000006],[48.5189687,42.2117969],[48.438850800000004,42.291626],[48.33768499999999,42.4271819],[48.29375260000001,42.468122400000006],[48.24653430000001,42.5003819],[48.221373500000006,42.5220848],[48.1975494,42.548869399999994],[48.1740397,42.5815196],[48.1495564,42.63950530000001],[48.12000270000001,42.6841077],[48.0776852,42.72345930000001],[47.9839909,42.8317689],[47.976881899999995,42.87718039999999],[47.9652504,42.9145231],[47.936266499999995,42.96510820000001],[47.9039024,42.9995665],[47.8130731,43.060684499999994],[47.777339600000005,43.1377219],[47.79666290000001,43.1617041],[47.8157104,43.19707890000001],[47.8217112,43.21559830000001],[47.83188769999999,43.27551190000001],[47.8314958,43.319541599999994],[47.814044399999986,43.3840322],[47.7936849,43.4810758],[47.8218343,43.529072500000005],[47.8288498,43.546666699999996],[47.836536100000004,43.577123300000004],[47.845126,43.63576520000001],[47.89718739999999,43.7118689],[47.932872,43.7536972],[48.07615210000001,43.8533037],[48.1064346,43.88406449999999],[48.118442200000004,43.9008553],[48.135648100000004,43.936512500000006],[48.140689099999996,43.955061199999996],[48.1434117,43.99277330000001],[48.1362621,44.03018230000001],[48.1194772,44.06595240000001],[48.090976500000004,44.1033245],[48.05761449999999,44.131779800000004],[48.0174727,44.1552713],[47.971947199999995,44.1729775],[47.8881231,44.189243399999995],[47.69835460000001,44.1994495],[47.6635877,44.21037330000001],[47.7276936,44.262232800000014],[47.7729471,44.29263040000001],[47.79270850000001,44.3106508],[47.8180156,44.342306900000004],[47.8275564,44.35924369999999],[47.84000739999999,44.394632],[47.843213399999996,44.4455834],[47.8358526,44.48364699999999],[47.82210250000001,44.52712280000001],[47.79852600000001,44.572951100000004],[47.7816102,44.593998400000004],[47.755791900000006,44.6180041],[47.7142771,44.64639280000001],[47.64815350000001,44.674151800000004],[47.5896313,44.689055],[47.504103900000004,44.69507530000001],[47.451726699999995,44.69078280000001],[47.40553870000001,44.6810287],[47.35102259999999,44.661885399999996],[47.3107193,44.6403884],[47.1647917,44.6052575],[47.1532593,44.6434241],[47.23931300000001,44.680016200000004],[47.29360880000001,44.7188913]]]}}