{"type":"Feature","properties":{"regionId":"respublika_ingushetiya","name":"Ингушетия","name:en":"Ingushetia","timezone":"Europe/Moscow","name_ru":"Республика Ингушетия","name_en":"Ingushetia","name_zh":"印古什共和国"},"geometry":{"type":"Polygon","coordinates":[[[45.086794,42.712221],[45.070438,42.704954],[45.069506000000004,42.699381],[45.064569,42.696086],[45.038047,42.692800000000005],[45.032267,42.696483],[45.03042,42.704218000000004],[44.996417,42.72332900000001],[44.993331000000005,42.730494],[44.983148,42.736634],[44.979751,42.744936],[44.97573800000001,42.746414],[44.945952000000005,42.750839],[44.922499,42.748096000000004],[44.909533,42.750703],[44.88747099999999,42.747043999999995],[44.869156000000004,42.72423500000001],[44.87118699999999,42.71184099999999],[44.864568999999996,42.70557800000001],[44.868441,42.697962000000004],[44.866605,42.691022000000004],[44.85384499999999,42.675695000000005],[44.848148,42.67295800000001],[44.836123,42.674307],[44.837222,42.666347],[44.830800999999994,42.647529],[44.823576,42.641717],[44.829035000000005,42.617159],[44.803788,42.61473],[44.794222000000005,42.620628],[44.777525000000004,42.638723000000006],[44.76657300000001,42.64279500000001],[44.764678,42.655231],[44.755229,42.667836],[44.757208,42.674095],[44.747443,42.687722],[44.744617,42.70011300000001],[44.7528491,42.7140979],[44.741342200000005,42.72741220000001],[44.73003870000001,42.72854600000001],[44.718011000000004,42.735848000000004],[44.714347,42.7420096],[44.695444,42.744206],[44.687545,42.7530833],[44.6799687,42.755909900000006],[44.678349100000005,42.765261200000005],[44.6666994,42.7732314],[44.66800080000001,42.79757530000001],[44.658576700000005,42.811262899999996],[44.6662145,42.8317991],[44.6465076,42.8447951],[44.6478922,42.858971399999994],[44.633696900000004,42.8772538],[44.631861199999996,42.8919938],[44.647010200000004,42.8811403],[44.6638663,42.8786412],[44.674539700000004,42.87022939999999],[44.693849300000004,42.8660673],[44.7016858,42.8679345],[44.704157,42.864470999999995],[44.70051270000001,42.85964759999999],[44.70279690000001,42.856580799999996],[44.7338897,42.8520369],[44.750835900000006,42.842615],[44.753472200000004,42.8433205],[44.7543906,42.8498989],[44.766696200000005,42.8507438],[44.7770436,42.8597981],[44.79579850000001,42.8603862],[44.8100336,42.854929799999994],[44.8301341,42.840044199999994],[44.85365139999999,42.835576200000006],[44.8595638,42.8447038],[44.857528699999996,42.852214399999994],[44.859630599999996,42.856113],[44.85656409999999,42.85668599999999],[44.860673999999996,42.8603254],[44.8688141,42.8586383],[44.8700554,42.8611071],[44.864931,42.8639004],[44.8599306,42.8835093],[44.878849699999996,42.8825262],[44.8817182,42.915109300000005],[44.905317700000005,42.9242657],[44.90532830000001,42.936993900000004],[44.9258471,42.9307633],[44.9428969,42.9396412],[44.941015300000004,42.948813],[44.95385939999999,42.946579],[44.946217499999996,42.97913810000001],[44.92549330000001,42.979502800000006],[44.9438366,42.98479439999999],[44.93466449999999,42.999610200000006],[44.93525220000001,43.0109867],[44.9322431,43.0161657],[44.9341937,43.02251020000001],[44.9375879,43.02655890000001],[44.9564133,43.03214500000001],[44.9600242,43.041069099999994],[44.953887399999985,43.052554300000004],[44.9324004,43.0632305],[44.9311954,43.071260499999994],[44.9145124,43.0788836],[44.901747699999994,43.096071900000005],[44.870542300000004,43.09823560000001],[44.8662198,43.10510820000001],[44.85164629999999,43.10893520000001],[44.8341258,43.1186946],[44.846707499999994,43.1196355],[44.842121399999996,43.130100600000006],[44.843649899999996,43.133863399999996],[44.8314209,43.1398601],[44.79825060000001,43.146350600000005],[44.801123499999996,43.1521824],[44.797917500000004,43.152225300000005],[44.800212200000004,43.1547535],[44.797186200000006,43.1589436],[44.79910990000001,43.16673510000001],[44.7734072,43.1577287],[44.751316800000005,43.1906794],[44.7476057,43.190180100000006],[44.7374377,43.2016421],[44.69356810000001,43.26945090000001],[44.682270200000005,43.2773115],[44.669618500000006,43.278164000000004],[44.66872080000001,43.23441630000001],[44.681986699999996,43.233699200000004],[44.6812008,43.2108851],[44.677734300000004,43.2097046],[44.6662696,43.215819],[44.6630948,43.2137024],[44.65368779999999,43.219463999999995],[44.643928200000005,43.2169946],[44.644516,43.22099250000001],[44.635932300000015,43.218523100000006],[44.6324047,43.22193310000001],[44.620763700000005,43.220757000000006],[44.60937690000001,43.22657810000001],[44.570720800000004,43.2360974],[44.5777037,43.413603099999996],[44.5624977,43.4191543],[44.5560281,43.4160379],[44.534559900000005,43.4163185],[44.5169087,43.4102566],[44.5124704,43.4057541],[44.489596399999996,43.4344709],[44.49331380000001,43.4428782],[44.4901495,43.444826799999994],[44.4916091,43.4482981],[44.486261999999996,43.4482472],[44.48168129999999,43.4526985],[44.482216,43.4603294],[44.4848152,43.4613639],[44.478436,43.4676932],[44.4824118,43.475518400000006],[44.494609,43.47326939999999],[44.4970598,43.47579220000001],[44.4916337,43.4773662],[44.493923,43.479831499999996],[44.488072800000005,43.4849531],[44.4921944,43.489415900000004],[44.49051630000001,43.498003600000004],[44.4834953,43.5017224],[44.4850043,43.5045418],[44.4807386,43.5158439],[44.5002312,43.528800800000006],[44.5074918,43.5426105],[44.49997530000001,43.561696],[44.503345700000004,43.5879191],[44.63106739999999,43.614089299999996],[44.621897,43.5467642],[44.6563854,43.5424224],[44.671637,43.5507538],[44.692660100000005,43.547207099999994],[44.7079005,43.550916900000004],[44.69550160000001,43.5949647],[44.79521480000001,43.59674230000001],[44.79895680000001,43.592714400000006],[44.79819490000001,43.58706469999999],[44.802416,43.587056999999994],[44.8024608,43.5819219],[44.7976114,43.581293099999996],[44.79894540000001,43.569757],[44.78931570000001,43.5571222],[44.79276870000001,43.555693],[44.811991799999994,43.558285399999995],[44.815626599999995,43.5547903],[44.827732100000006,43.5531756],[44.8479393,43.56553380000001],[44.85679759999999,43.564906900000004],[44.85949099999999,43.548484699999996],[44.8700998,43.535780700000004],[44.89851220000001,43.52227270000001],[44.9062826,43.5279754],[44.9238473,43.5215794],[44.928437900000006,43.52545290000001],[44.9441267,43.519597499999996],[44.97013820000001,43.52861920000001],[45.017776,43.523092500000004],[45.0273655,43.512002300000006],[45.0588011,43.51127749999999],[45.07843270000001,43.49911620000001],[45.090077300000004,43.48211690000001],[45.0854367,43.4825828],[45.08096439999999,43.4786378],[45.057324599999994,43.4805426],[45.0679418,43.45187139999999],[45.1005261,43.450972],[45.1317476,43.4184038],[45.158521,43.4110355],[45.15871290000001,43.40362749999999],[45.1454635,43.401801199999994],[45.1442502,43.39359],[45.134584,43.3885824],[45.1316043,43.323049499999996],[45.10919390000001,43.315047899999996],[45.114433,43.26530300000001],[45.13316230000001,43.21142639999999],[45.133101700000005,43.193994200000006],[45.140146800000004,43.1852097],[45.155232000000005,43.1768971],[45.176568700000004,43.1802149],[45.191957300000006,43.163832600000006],[45.1889205,43.150400499999996],[45.1809419,43.1431444],[45.18593570000001,43.143207],[45.18752,43.137858900000005],[45.1854717,43.110685399999994],[45.1747878,43.0973485],[45.1892194,43.1039273],[45.194218500000005,43.1014147],[45.17679530000001,43.06746739999999],[45.175865300000005,43.0600862],[45.18749139999999,43.057460899999995],[45.1842658,43.0533513],[45.189508000000004,43.035517600000006],[45.186661599999994,43.0266663],[45.17874810000001,43.0195771],[45.178482200000005,43.011912800000005],[45.18451090000001,42.999383],[45.1878909,42.981505399999996],[45.19123530000001,42.97816290000001],[45.210281599999995,42.9738042],[45.2107945,42.94436439999999],[45.2446668,42.9318723],[45.245658000000006,42.927358700000006],[45.240622,42.9175512],[45.2471818,42.909318400000004],[45.23983280000001,42.89154739999999],[45.2123846,42.8765217],[45.20290930000001,42.85724569999999],[45.1888606,42.8521354],[45.1835211,42.8462173],[45.18417,42.839567699999996],[45.1872426,42.8380001],[45.169294,42.83535680000001],[45.184158200000006,42.8251678],[45.192643600000004,42.82932530000001],[45.197077300000004,42.8275235],[45.19651970000001,42.807221899999995],[45.1858916,42.8030589],[45.175695700000006,42.781837499999995],[45.1608486,42.7840334],[45.15487699999999,42.78111030000001],[45.14825200000001,42.7777825],[45.141653,42.7646491],[45.1174219,42.75265580000001],[45.1100364,42.7418057],[45.0894988,42.727476200000005],[45.086794,42.712221]]]}}