{"type":"Feature","properties":{"regionId":"respublika_adygeya","name":"Адыгея","name:en":"Adygea","timezone":"Europe/Moscow","name_ru":"Республика Адыгея (Адыгея)","name_en":"Adygea","name_zh":"阿迪格共和国"},"geometry":{"type":"Polygon","coordinates":[[[40.7756376,44.4847132],[40.77573900000001,44.4650237],[40.619524,44.465084],[40.619703,44.4832],[40.6612499,44.4827091],[40.6588131,44.5304396],[40.66810000000001,44.538816000000004],[40.670221,44.545973000000004],[40.643364,44.584312000000004],[40.643729900000004,44.635810500000005],[40.618458800000006,44.635833000000005],[40.618710400000005,44.6537713],[40.5684248,44.654439399999994],[40.56859000000001,44.73886280000001],[40.5641394,44.74419830000001],[40.532637300000005,44.74419],[40.518736700000005,44.741185900000005],[40.521191,44.7524945],[40.527497,44.76261500000001],[40.4299974,44.762461800000004],[40.429827599999996,44.735372300000016],[40.405953600000004,44.73495270000001],[40.4039547,44.7175062],[40.3677556,44.7167071],[40.366842999999996,44.7078499],[40.3731919,44.7039618],[40.3645072,44.69711500000001],[40.3706703,44.69807050000001],[40.3660639,44.693617200000006],[40.3661648,44.6890472],[40.373531,44.6877546],[40.376244199999995,44.6810106],[40.38442049999999,44.680483499999994],[40.3819788,44.6766803],[40.388528900000004,44.678499200000005],[40.39236590000001,44.671305800000006],[40.396357900000005,44.6734006],[40.3933813,44.67536290000001],[40.3971718,44.67601890000001],[40.4042993,44.673173500000004],[40.397642,44.6596981],[40.40140749999999,44.6594384],[40.40176639999999,44.655044399999994],[40.396458200000005,44.6539962],[40.396014300000004,44.649538400000004],[40.386497199999994,44.64729739999999],[40.387753599999996,44.64277390000001],[40.37766969999999,44.6353444],[40.350460299999995,44.649307],[40.3428751,44.6452636],[40.3396582,44.62932310000001],[40.343262599999996,44.6199442],[40.3486091,44.6184825],[40.351895799999994,44.6129868],[40.3482621,44.60334220000001],[40.354494399999986,44.5972829],[40.3415409,44.579779300000006],[40.3403597,44.5727035],[40.3368931,44.573484699999995],[40.336645499999996,44.5675627],[40.341385499999994,44.567487099999994],[40.342234499999996,44.5579603],[40.3496522,44.5579079],[40.3495819,44.5479173],[40.38726599999999,44.5488575],[40.396911700000004,44.5325411],[40.415038200000005,44.5349946],[40.4104165,44.527727399999996],[40.419640799999996,44.52316810000001],[40.416966599999995,44.5208469],[40.418013,44.514518300000006],[40.4243456,44.51391590000001],[40.4122207,44.5088618],[40.4120269,44.50513030000001],[40.4068334,44.50513030000001],[40.4098565,44.502504300000005],[40.4028704,44.49953090000001],[40.4025942,44.49475280000001],[40.3972069,44.4920434],[40.39782699999999,44.487674899999995],[40.3840137,44.4825174],[40.3860725,44.4812963],[40.383443199999995,44.4772787],[40.3908304,44.4771857],[40.388628999999995,44.4716323],[40.3929648,44.470864199999994],[40.4003803,44.4607454],[40.3968146,44.45853230000001],[40.40788379999999,44.451560699999995],[40.4093426,44.446875],[40.4036049,44.443813399999996],[40.41076739999999,44.4385004],[40.40837280000001,44.435531100000006],[40.4155661,44.4248209],[40.4119725,44.422941300000005],[40.434918200000006,44.421516600000004],[40.462765000000005,44.348228999999996],[40.4829016,44.315372100000005],[40.454634199999994,44.305362900000006],[40.451545599999996,44.295047600000004],[40.4423407,44.2854242],[40.42431010000001,44.2811601],[40.35982939999999,44.24674530000001],[40.39619390000001,44.1914038],[40.39510090000001,44.184447299999995],[40.406097599999995,44.16731270000001],[40.399557200000004,44.1595626],[40.402925700000004,44.15213370000001],[40.410176,44.1496364],[40.405573700000005,44.1406524],[40.4055461,44.1328484],[40.4184413,44.12773680000001],[40.4294591,44.1141592],[40.432670800000004,44.1140168],[40.42532580000001,44.106638100000005],[40.42618280000001,44.09551760000001],[40.420540300000006,44.07535030000001],[40.413294199999996,44.06331360000001],[40.4294008,44.0524368],[40.4295314,44.0373004],[40.4402155,44.0213074],[40.4488013,44.017659099999996],[40.450625699999996,44.007350300000006],[40.457038399999995,44.002900700000005],[40.4683414,43.9855697],[40.47257520000001,43.9694803],[40.4804755,43.964505900000006],[40.47668959999999,43.9590513],[40.45526039999999,43.95785239999999],[40.450344699999995,43.9483497],[40.445457399999995,43.9464937],[40.4129408,43.941899799999995],[40.409686699999995,43.9387685],[40.402758000000006,43.8948156],[40.41991590000001,43.88044159999999],[40.4156102,43.872556700000004],[40.404216399999996,43.864867999999994],[40.393716000000005,43.8277568],[40.3802336,43.8200994],[40.382040999999994,43.801973],[40.3736351,43.79123800000001],[40.3713286,43.7772619],[40.3656669,43.773268800000004],[40.3477257,43.77219810000001],[40.3235494,43.7778198],[40.3195726,43.781877699999995],[40.3040556,43.781756],[40.29852610000001,43.779058000000006],[40.2944915,43.77055860000001],[40.2762564,43.7607877],[40.2494067,43.76211650000001],[40.23310190000001,43.77538290000001],[40.216864799999996,43.77911630000001],[40.2152606,43.7818859],[40.2143962,43.79224510000001],[40.20548230000001,43.801506999999994],[40.20811790000001,43.818781599999994],[40.2004658,43.823717800000004],[40.199654100000004,43.835012000000006],[40.1888365,43.8458073],[40.19714200000001,43.860907],[40.189061699999996,43.8729207],[40.1684415,43.87166069999999],[40.158305500000004,43.8607085],[40.150901399999995,43.85769489999999],[40.112671399999996,43.8681344],[40.104578200000006,43.866871499999995],[40.1043605,43.8619736],[40.09818330000001,43.85421759999999],[40.099052500000006,43.849501499999995],[40.09135380000001,43.8453821],[40.075790700000006,43.8560382],[40.0680637,43.867676599999996],[40.0434752,43.880652],[40.0269076,43.8796596],[40.0124249,43.884576599999995],[40.0028056,43.898786900000005],[39.978070200000005,43.912624099999995],[39.953483899999995,43.933295300000005],[39.9426361,43.948078100000004],[39.94213270000001,43.9563263],[39.92810610000001,43.9613032],[39.9254835,43.9644779],[39.9268081,43.969244499999995],[39.9229854,43.9725405],[39.9089201,43.9738829],[39.9027475,43.9537373],[39.9126762,43.9394982],[39.883770399999996,43.935031200000005],[39.8796519,43.9312488],[39.866976300000005,43.9303881],[39.85145749999999,43.92423],[39.807743699999996,43.9336363],[39.790605400000004,43.95454459999999],[39.7777748,43.961767099999996],[39.8191219,43.9836543],[39.797083,43.9971935],[39.79899690000001,44.0103748],[39.7967834,44.017459499999994],[39.8086093,44.0432088],[39.8284936,44.06534330000001],[39.8309651,44.078819900000006],[39.801186799999996,44.12237680000001],[39.794054,44.1272276],[39.776672600000005,44.129454],[39.773993700000005,44.1368656],[39.7618047,44.1488176],[39.7646012,44.1634565],[39.7763276,44.1697696],[39.76859620000001,44.180348],[39.8220494,44.180419900000004],[39.8650268,44.1843066],[39.8771006,44.168288100000005],[39.8756356,44.16296930000001],[39.8805339,44.1550998],[39.8780371,44.1481471],[39.88564949999999,44.1424298],[39.895369300000006,44.1249407],[39.920878900000005,44.1171219],[39.93533580000001,44.105114500000006],[39.95026549999999,44.099460300000004],[39.9647738,44.1046591],[39.9706827,44.0979966],[39.9660261,44.089509],[39.97891980000001,44.084441299999995],[39.9813863,44.0819036],[39.979747399999994,44.0795475],[39.9878187,44.0761516],[40.017851799999995,44.08784119999999],[40.0193649,44.09413680000001],[40.0161267,44.1064376],[40.0546729,44.13651020000001],[40.0569377,44.13755590000001],[40.0624775,44.12915120000001],[40.0744628,44.122049000000004],[40.0839005,44.1263415],[40.08706539999999,44.1238745],[40.0930244,44.129584],[40.086110600000005,44.13574830000001],[40.0872088,44.139242800000005],[40.0807291,44.1386685],[40.06875210000001,44.1456636],[40.0764598,44.154207899999996],[40.0705485,44.160946200000005],[40.073273300000004,44.1711415],[40.0875585,44.1786975],[40.0796205,44.196962600000006],[40.075869,44.198481],[40.0758407,44.2146912],[40.080352000000005,44.22145690000001],[40.0795618,44.22943980000001],[40.0762855,44.22999220000001],[40.09351730000001,44.246828900000004],[40.0771821,44.2520404],[40.060988900000005,44.26866890000001],[40.0102118,44.267078100000006],[39.989762999999996,44.261309700000005],[39.9740573,44.27541380000001],[39.9746021,44.2910771],[39.968458600000005,44.293466],[39.96630290000001,44.3064517],[39.971904099999996,44.32251420000001],[39.977208399999995,44.3268149],[39.9746113,44.33857390000001],[39.961862399999994,44.3479281],[39.9444727,44.3479752],[39.9405666,44.3407741],[39.9222574,44.3373143],[39.90728119999999,44.35102319999999],[39.8954986,44.35163759999999],[39.8784658,44.346915],[39.8697712,44.338186300000004],[39.8443135,44.3533926],[39.8790917,44.396542100000005],[39.8630586,44.407026099999996],[39.8625972,44.4143147],[39.87062649999999,44.43166899999999],[39.8794056,44.4327656],[39.884822899999996,44.5550654],[39.8723947,44.55555390000001],[39.8741643,44.591394300000005],[39.92912820000001,44.5902936],[39.932877399999995,44.602892100000005],[39.924037,44.6107606],[39.91487839999999,44.608468300000006],[39.9111083,44.6208797],[39.9203841,44.62610850000001],[39.9044178,44.641770900000004],[39.915962300000004,44.6510738],[39.896247599999995,44.6618048],[39.9273565,44.68731030000001],[39.92513810000001,44.6917746],[39.9161601,44.6896098],[39.9181454,44.697970100000006],[39.915864299999996,44.70093980000001],[39.9088098,44.69869490000001],[39.9123441,44.708191600000006],[39.9100781,44.713003900000004],[39.942818300000006,44.73630270000001],[39.9608172,44.723619400000004],[39.969720900000006,44.73005280000001],[39.9875098,44.7174554],[40.029016500000004,44.746997900000004],[40.0083475,44.759887899999995],[39.994173,44.785127800000005],[39.990725700000006,44.783985200000004],[39.98141699999999,44.8004363],[39.9579109,44.79375670000001],[39.9454682,44.809625],[39.948496,44.81046249999999],[39.9390725,44.8270301],[39.95076649999999,44.830508300000005],[39.9554547,44.82214520000001],[39.98539,44.8304558],[39.975723900000006,44.8473542],[39.95768319999999,44.84231880000001],[39.933944399999994,44.8838526],[39.9634786,44.892425300000006],[39.94189359999999,44.92975810000001],[39.924413200000004,44.9270935],[39.903691099999996,45.002109100000006],[39.8912365,45.0004978],[39.885147499999995,45.023049900000004],[39.8612535,45.0198793],[39.856363699999996,45.014963599999994],[39.764099800000004,44.9903734],[39.77375270000001,44.973710100000005],[39.69242520000001,44.9514029],[39.688278600000004,44.9539803],[39.69192880000001,44.9589086],[39.6854077,44.95789419999999],[39.681733200000004,44.96371890000001],[39.6885894,44.96257880000001],[39.689446399999994,44.9660716],[39.69623240000001,44.9684177],[39.678472500000005,44.9733991],[39.68931890000001,44.976904499999996],[39.690909500000004,44.981443899999995],[39.687508900000005,44.983538900000006],[39.6744548,44.978340100000004],[39.6714623,44.9801197],[39.6772472,44.984817699999994],[39.677567399999994,44.993689599999996],[39.670444599999996,44.991106200000004],[39.666544200000004,44.9932914],[39.64455,44.9832324],[39.651649299999995,44.9756472],[39.62001330000001,44.960311000000004],[39.598587900000005,44.9827514],[39.644204699999996,45.00486409999999],[39.639987,45.0072083],[39.64513390000001,45.00989439999999],[39.6446118,45.014323399999995],[39.6568283,45.0143603],[39.6533304,45.0184568],[39.643933100000005,45.01546749999999],[39.635527800000006,45.017497299999995],[39.6406963,45.02258990000001],[39.650878999999996,45.0232037],[39.6524243,45.0336827],[39.62212920000001,45.0490368],[39.607981099999996,45.0423972],[39.604726,45.047609599999994],[39.596354500000004,45.0435281],[39.582171800000005,45.0469886],[39.588108600000005,45.050005399999996],[39.58760739999999,45.0539239],[39.5830299,45.0550568],[39.5794881,45.053380999999995],[39.579249,45.0462273],[39.566092700000006,45.0470757],[39.5718355,45.038074900000005],[39.56870310000001,45.033278800000005],[39.561968300000004,45.0326147],[39.5602977,45.039329200000005],[39.556852,45.0396612],[39.5569042,45.0298843],[39.545418600000005,45.03357390000001],[39.5526232,45.039329200000005],[39.5504882,45.0426819],[39.554450499999994,45.046817499999996],[39.5473279,45.0429656],[39.52977320000001,45.0432422],[39.531992,45.0516337],[39.5424987,45.052371300000004],[39.5442505,45.0550851],[39.52317980000001,45.054617799999995],[39.52605260000001,45.049373300000006],[39.5239643,45.047897899999995],[39.5137367,45.04874530000001],[39.5194796,45.0453795],[39.518370100000006,45.042889499999994],[39.5061802,45.04515560000001],[39.506556100000005,45.04211600000001],[39.5131134,45.039341900000004],[39.5090621,45.0365972],[39.49511300000001,45.040023999999995],[39.4939826,45.0451647],[39.486960999999994,45.037741],[39.48743399999999,45.03225880000001],[39.479981699999996,45.036171],[39.4712487,45.035690800000005],[39.473908200000004,44.999852800000006],[39.47644759999999,44.9992434],[39.4747769,44.995179500000006],[39.4705001,44.9947778],[39.476545200000004,44.992645800000005],[39.4736082,44.9910638],[39.475028300000005,44.987666899999994],[39.4803568,44.98645749999999],[39.4858736,44.990418500000004],[39.49151200000001,44.98194049999999],[39.4869716,44.9802809],[39.4945097,44.975210800000006],[39.5016372,44.979933100000004],[39.5063213,44.9792796],[39.5043432,44.9831556],[39.5107165,44.98774649999999],[39.519018100000004,44.9872393],[39.517146999999994,44.9834392],[39.5113198,44.9835904],[39.522782600000006,44.980095],[39.5119007,44.976484899999996],[39.50911680000001,44.9738526],[39.5119395,44.9713262],[39.5044561,44.9680277],[39.5175659,44.9672311],[39.5246828,44.9614627],[39.535413000000005,44.962441],[39.5369882,44.9557707],[39.547837799999996,44.952005],[39.551379499999996,44.94488709999999],[39.56531260000001,44.9432316],[39.559504,44.9391216],[39.5663641,44.93431390000001],[39.570016900000006,44.9339441],[39.57486959999999,44.9416169],[39.57726739999999,44.9341097],[39.573692300000005,44.931862599999995],[39.572990600000004,44.92590130000001],[39.5795395,44.9224237],[39.58077290000001,44.927798800000005],[39.585411,44.923096],[39.593851,44.923320700000005],[39.5916926,44.9186481],[39.6007475,44.9141289],[39.59753980000001,44.9111238],[39.6136292,44.9071268],[39.617673999999994,44.9090751],[39.6161771,44.905629499999996],[39.6260673,44.902354200000005],[39.62391380000001,44.8990573],[39.630661399999994,44.89803210000001],[39.62659850000001,44.8960932],[39.6409238,44.8955618],[39.6455661,44.8862769],[39.6394516,44.8835781],[39.637110400000005,44.878531900000006],[39.6422699,44.8747501],[39.652909900000004,44.874174399999994],[39.6509568,44.8686643],[39.648960300000006,44.87172739999999],[39.6436948,44.8712143],[39.6418518,44.8692707],[39.6452294,44.8681818],[39.641949499999996,44.8656063],[39.6185494,44.8602135],[39.614614499999995,44.85460259999999],[39.607071399999995,44.85179109999999],[39.607593800000004,44.8461567],[39.60211620000001,44.84846709999999],[39.55778709999999,44.836637499999995],[39.56890030000001,44.8277084],[39.565757100000006,44.81248299999999],[39.559578200000004,44.806958800000004],[39.482990300000004,44.820153100000006],[39.483515800000006,44.8177537],[39.477975300000004,44.8153496],[39.483086799999995,44.81389339999999],[39.4809191,44.810769799999996],[39.4868351,44.8095203],[39.4843287,44.80444189999999],[39.4697971,44.811762099999996],[39.459596999999995,44.8064349],[39.456120999999996,44.81752399999999],[39.392658600000004,44.8132528],[39.3697761,44.81492399999999],[39.368380200000004,44.809415300000005],[39.3617098,44.81152719999999],[39.361572300000006,44.80891090000001],[39.35718939999999,44.808711300000006],[39.3533083,44.8093819],[39.35367659999999,44.8159999],[39.3049311,44.8254649],[39.256344,44.8248743],[39.24813080000001,44.820278300000005],[39.152771800000004,44.835918500000005],[39.1458094,44.83593290000001],[39.09075910000001,44.817163099999995],[39.0871685,44.8245719],[39.07539130000001,44.8231407],[39.02258810000001,44.84118539999999],[38.9880453,44.8442168],[38.9862986,44.8552628],[38.9790259,44.858569499999994],[38.9528141,44.863292300000005],[38.9296463,44.8750856],[38.8957466,44.8857525],[38.854754699999994,44.8938467],[38.855063099999995,44.8974409],[38.861732100000005,44.89837860000001],[38.8618452,44.9062598],[38.85174339999999,44.9091145],[38.8527107,44.9166081],[38.8438309,44.917750399999996],[38.845829599999995,44.9244145],[38.8367962,44.926368700000005],[38.8349779,44.932241499999996],[38.8159298,44.94406479999999],[38.806926999999995,44.938943],[38.7866078,44.9441349],[38.782493200000005,44.9522627],[38.7873268,44.956532300000006],[38.7878753,44.964439999999996],[38.7816019,44.967617399999995],[38.775187800000005,44.964076999999996],[38.7758647,44.959128],[38.77195520000001,44.9612028],[38.7638594,44.955117],[38.75789739999999,44.95499459999999],[38.75371510000001,44.95084609999999],[38.757178700000004,44.94808939999999],[38.684018200000004,44.9514152],[38.685906800000005,45.039156000000006],[38.689105000000005,45.0391916],[38.689717800000004,45.0599755],[38.69892250000001,45.06654880000001],[38.70779290000001,45.064562300000006],[38.7180811,45.0557335],[38.719475200000005,45.0429578],[38.7232848,45.0402795],[38.732806200000006,45.043156],[38.74801290000001,45.059552200000006],[38.76011000000001,45.060145500000004],[38.767909700000004,45.0566392],[38.76871750000001,45.0488689],[38.755905000000006,45.03890080000001],[38.7564685,45.03312270000001],[38.77001090000001,45.0273808],[38.77517470000001,45.0160066],[38.785869399999996,45.0045624],[38.8060531,44.9956857],[38.811752399999996,44.9982046],[38.813559,45.009571],[38.81740449999999,45.0125034],[38.8305219,45.005817900000004],[38.8463106,45.008073],[38.8561379,45.001298999999996],[38.8603849,45.001621099999994],[38.8658921,45.0066273],[38.8660764,45.0118957],[38.855289799999994,45.0212239],[38.85463789999999,45.029783],[38.8583566,45.0336293],[38.87798469999999,45.0380234],[38.8881344,45.0487244],[38.899565,45.05400899999999],[38.90767399999999,45.052170100000005],[38.909418900000006,45.044447899999994],[38.9002051,45.031667899999995],[38.8997742,45.022454200000006],[38.9071594,45.02226590000001],[38.938360200000005,45.0356296],[38.9533705,45.035442700000004],[38.957934099999996,45.028263900000006],[38.9471379,45.0165492],[38.953488099999994,44.998205000000006],[38.9628998,44.992082800000006],[38.969578600000006,44.99188779999999],[38.97344759999999,45.007383399999995],[38.978450300000006,45.0103925],[38.9977685,45.00331220000001],[39.014225499999995,45.003978700000005],[39.019277599999995,44.999928100000005],[39.0151745,44.9956035],[39.019833999999996,44.9829216],[39.0189092,44.97168699999999],[39.02245890000001,44.967958900000006],[39.028620700000005,44.970111700000004],[39.0336055,44.980208],[39.0414767,44.9848709],[39.049011300000004,44.983391],[39.059938800000005,44.97428759999999],[39.0703064,44.975543300000005],[39.075968200000005,44.9787164],[39.0786882,44.9886031],[39.0988601,44.9880797],[39.1167719,44.998242000000005],[39.127742700000006,44.9950278],[39.1399966,44.998949],[39.1490225,44.9940524],[39.17921930000001,44.989816399999995],[39.202230500000006,45.000621599999995],[39.21488739999999,44.990231],[39.221442200000006,44.9889885],[39.22370320000001,45.0092839],[39.230468200000004,45.0180078],[39.239331500000006,45.0160596],[39.23270860000001,45.010013900000004],[39.2558262,45.001998],[39.26234620000001,45.0034397],[39.2645819,45.0199981],[39.2716741,45.0298716],[39.2770447,45.0304064],[39.27270610000001,45.0192009],[39.2797642,45.0160267],[39.28909530000001,45.01782959999999],[39.30187039999999,45.03015070000001],[39.3220735,45.0301747],[39.3269998,45.033850900000004],[39.3260697,45.0448117],[39.34482909999999,45.042470800000004],[39.376052300000005,45.056553900000004],[39.3822498,45.0761041],[39.3990867,45.076703300000005],[39.402504,45.0794285],[39.3994072,45.0875968],[39.403393200000004,45.093676900000006],[39.42399220000001,45.0896768],[39.429235600000005,45.097673900000004],[39.4295448,45.1040967],[39.4399271,45.1109098],[39.462905500000005,45.101960999999996],[39.4672669,45.1107172],[39.454524799999994,45.1212092],[39.471519900000004,45.121248200000004],[39.46891970000001,45.131348],[39.498147900000006,45.14032220000001],[39.513307499999996,45.16117630000001],[39.5386919,45.1612681],[39.5456117,45.1885878],[39.570840499999996,45.2004262],[39.5828473,45.20093930000001],[39.595049100000004,45.210616800000004],[39.6203276,45.21711330000001],[39.670456300000005,45.203953000000006],[39.68811990000001,45.19277070000001],[39.691650200000005,45.187104399999996],[39.6894971,45.185844499999995],[39.6774001,45.1870539],[39.68530390000001,45.1820992],[39.687391,45.174775200000006],[39.68595580000001,45.169320500000005],[39.6795645,45.166920100000006],[39.68831130000001,45.16075850000001],[39.6879161,45.154832999999996],[39.70214690000001,45.156150000000004],[39.69806500000001,45.1490175],[39.699828100000005,45.1470497],[39.7117831,45.153170300000006],[39.713708700000005,45.151066099999994],[39.710838300000006,45.1462105],[39.7152478,45.143511200000006],[39.7176398,45.14955520000001],[39.72713900000001,45.15178469999999],[39.7405978,45.1360948],[39.7478185,45.1322449],[39.7537724,45.1322816],[39.76098890000001,45.137193100000005],[39.780904,45.1332455],[39.78073090000001,45.12355010000001],[39.785177600000004,45.12825610000001],[39.8006592,45.1306312],[39.8084498,45.12229090000001],[39.81086779999999,45.1142001],[39.8151317,45.114732200000006],[39.81560699999999,45.12263200000001],[39.8192033,45.1219095],[39.8223825,45.115329800000005],[39.8282463,45.121556700000006],[39.8312926,45.11317280000001],[39.84428469999999,45.116847799999995],[39.840743599999996,45.1103416],[39.8443378,45.1070005],[39.849516900000005,45.1095254],[39.851805899999995,45.1180278],[39.8587712,45.112429],[39.8705943,45.112585200000005],[39.873733200000004,45.105409],[39.9001473,45.0966772],[39.8940739,45.084694199999994],[39.9008423,45.08708959999999],[39.899723,45.09119890000001],[39.907427199999994,45.09375980000001],[39.9334773,45.09599270000001],[39.9363664,45.09212990000001],[39.9484206,45.09451250000001],[39.9532082,45.0913675],[39.9485344,45.0884657],[39.9500339,45.0851285],[39.9567134,45.0833264],[39.96366439999999,45.08571680000001],[39.9694458,45.0808132],[39.9764942,45.09137230000001],[39.984800799999995,45.0868543],[39.9906746,45.0884285],[39.9904697,45.09293730000001],[39.994494599999996,45.09530680000001],[40.0064052,45.08986099999999],[40.0138722,45.09620030000001],[40.02653590000001,45.092675500000006],[40.02942,45.097593100000005],[40.040385,45.1031896],[40.0469699,45.094382800000005],[40.0505751,45.100554900000006],[40.0614038,45.09854970000001],[40.065039000000006,45.094959900000006],[40.076326200000004,45.103630300000006],[40.070742200000005,45.10786099999999],[40.0738084,45.1099091],[40.0790076,45.1098863],[40.083679499999995,45.1008501],[40.089461099999994,45.09914630000001],[40.090482800000004,45.10453690000001],[40.086879499999995,45.10748759999999],[40.0892318,45.110053300000004],[40.1019641,45.10923590000001],[40.10933380000001,45.114762],[40.11933090000001,45.1166449],[40.131021,45.11273990000001],[40.134661699999995,45.1196823],[40.144704,45.12215460000001],[40.1552576,45.1209434],[40.162423800000006,45.1145346],[40.166282800000005,45.1218718],[40.1678106,45.117086199999996],[40.1740473,45.115537800000006],[40.1740829,45.1105972],[40.179048900000005,45.11031090000001],[40.178677300000004,45.1159515],[40.188540200000006,45.1182841],[40.193402000000006,45.11402449999999],[40.200435600000006,45.1164231],[40.2048989,45.11252220000001],[40.2124145,45.1164731],[40.2177962,45.1140728],[40.22065090000001,45.1173666],[40.227033000000006,45.1177569],[40.2431891,45.1131295],[40.23877060000001,45.1090848],[40.2493675,45.10335430000001],[40.2486596,45.0973474],[40.2530831,45.101201399999994],[40.261257300000004,45.1000564],[40.269940000000005,45.1056795],[40.27651220000001,45.10557080000001],[40.2946642,45.086083599999995],[40.284040999999995,45.086218900000006],[40.2904666,45.0821516],[40.2844809,45.07845290000001],[40.29315560000001,45.075896300000004],[40.286268,45.072554700000005],[40.2938294,45.0697236],[40.288202000000005,45.065836100000006],[40.31070139999999,45.0597655],[40.3223877,45.06050830000001],[40.3217823,45.0522767],[40.32815730000001,45.0536463],[40.32948759999999,45.057556399999996],[40.3369969,45.05116339999999],[40.34709169999999,45.0558429],[40.3459426,45.051476799999996],[40.3376288,45.04697290000001],[40.338943300000004,45.0443725],[40.34709169999999,45.04768139999999],[40.3507372,45.045170000000006],[40.3595019,45.05233880000001],[40.3889458,45.033996800000004],[40.424497699999996,45.0032901],[40.4336704,45.00075030000001],[40.4341279,44.996098200000006],[40.4504159,44.9800512],[40.49827930000001,44.953976],[40.527814,44.9334741],[40.530938600000006,44.9169054],[40.5396291,44.9063808],[40.5331795,44.900424599999994],[40.54386739999999,44.893576900000006],[40.5679001,44.8675376],[40.5788262,44.86761],[40.5879384,44.8635346],[40.5794806,44.8553063],[40.586528900000005,44.828765000000004],[40.5964884,44.8242933],[40.5945714,44.8216821],[40.5975972,44.81992739999999],[40.600500000000004,44.8081686],[40.610540900000004,44.8058165],[40.6197464,44.79812420000001],[40.62881670000001,44.77839870000001],[40.6330714,44.775982500000005],[40.6264078,44.761382700000006],[40.63915580000001,44.74673130000001],[40.63683,44.739720000000005],[40.6405742,44.734183],[40.6405091,44.72657790000001],[40.6504073,44.714331900000005],[40.649245900000004,44.706231900000006],[40.6531712,44.7007612],[40.6488791,44.69586230000001],[40.652451,44.6878529],[40.66378280000001,44.685754300000006],[40.664378600000006,44.6804113],[40.67259730000001,44.6770507],[40.6696425,44.6705671],[40.6798062,44.6645212],[40.6835996,44.648502400000005],[40.6960647,44.63448459999999],[40.714893499999995,44.627000900000006],[40.7334655,44.60819820000001],[40.735290600000006,44.6022212],[40.7306947,44.59567890000001],[40.73073270000001,44.5754432],[40.728634500000005,44.5677647],[40.72370210000001,44.56648],[40.72699500000001,44.5622805],[40.72380090000001,44.560708600000005],[40.724393600000006,44.55756459999999],[40.7308477,44.5521677],[40.73594490000001,44.529605600000004],[40.7460665,44.5248232],[40.742448200000005,44.52059130000001],[40.758546900000006,44.4915436],[40.7756376,44.4847132]]]}}