{"type":"Feature","properties":{"regionId":"respublika_altay","name":"Республика Алтай","name:en":"Altai Republic","timezone":"Asia/Omsk","name_ru":"Республика Алтай","name_en":"Altai Republic","name_zh":"阿尔泰共和国"},"geometry":{"type":"Polygon","coordinates":[[[88.79153120000001,51.5537609],[88.77289139999999,51.5503096],[88.76672390000002,51.5603862],[88.7630754,51.5614286],[88.75178269999999,51.556390300000004],[88.7541281,51.54857230000001],[88.75039279999999,51.54535820000001],[88.7321507,51.54553190000001],[88.72719930000001,51.54066739999999],[88.710347,51.5348255],[88.67864049999999,51.5374316],[88.658053,51.528049900000006],[88.66569729999999,51.52231670000001],[88.66873759999999,51.51597530000001],[88.6670872,51.50835270000001],[88.67212549999999,51.49957920000001],[88.68532929999999,51.49228230000001],[88.6865454,51.484898599999994],[88.6924524,51.4808158],[88.694016,51.468502400000006],[88.6829839,51.46025],[88.6805516,51.444440199999995],[88.69384229999999,51.440444299999996],[88.6965352,51.42650210000001],[88.6923655,51.422245600000004],[88.6983594,51.4105185],[88.6975776,51.398140000000005],[88.70287649999999,51.39336230000001],[88.70087849999999,51.390930000000004],[88.6877616,51.3856311],[88.6719517,51.391885499999994],[88.66778209999998,51.3862391],[88.65397019999999,51.38206949999999],[88.6414613,51.387433599999994],[88.6313847,51.3853488],[88.6197445,51.371449999999996],[88.62165560000001,51.3534033],[88.59548749999999,51.3360551],[88.59038340000001,51.3233473],[88.57283619999998,51.319959499999996],[88.5547678,51.32534520000001],[88.54000040000001,51.3194383],[88.53669950000001,51.31344439999999],[88.5190355,51.30686849999999],[88.5103552,51.3000796],[88.4693774,51.306495],[88.46112500000002,51.29415990000001],[88.4454889,51.28512570000001],[88.42160040000002,51.2872105],[88.403532,51.29919820000001],[88.4014472,51.3080586],[88.37338909999998,51.3107732],[88.3485451,51.32234830000001],[88.3392503,51.3210453],[88.32526460000001,51.32452],[88.3201395,51.32834210000001],[88.32187679999998,51.336942],[88.3151012,51.3444126],[88.3024186,51.3404167],[88.28799860000001,51.34762669999999],[88.2690615,51.35188319999999],[88.25863749999999,51.35344679999999],[88.24274079999999,51.3502327],[88.233446,51.354575999999994],[88.1873195,51.3590063],[88.17289949999999,51.347366099999995],[88.15639479999999,51.3484953],[88.1577846,51.3530993],[88.1532675,51.355879099999996],[88.15370189999999,51.3626547],[88.14727370000001,51.3712111],[88.13328809999999,51.37416459999999],[88.14327779999999,51.386152300000006],[88.1252094,51.3940572],[88.13354869999999,51.406001399999994],[88.13215879999998,51.41746789999999],[88.1391082,51.421985],[88.1411061,51.4285435],[88.11904179999999,51.4306283],[88.1062724,51.443919],[88.0957614,51.444201299999996],[88.0969776,51.4486315],[88.0836,51.453409199999996],[88.0736972,51.450803199999996],[88.0707437,51.4595768],[88.05232779999999,51.466460999999995],[88.02270609999998,51.4670039],[88.0178415,51.4706524],[88.0002478,51.46661],[87.9904784,51.473084699999994],[87.98639560000001,51.4678726],[87.98022800000001,51.4664827],[87.9457417,51.475191200000005],[87.94139840000001,51.4789265],[87.9517356,51.4853547],[87.93418840000001,51.518581399999995],[87.93444900000001,51.52631250000001],[87.9103868,51.5476384],[87.90456670000002,51.5475516],[87.900397,51.55154749999999],[87.9500851,51.551330300000004],[87.95086690000001,51.5610594],[87.9590324,51.576348100000004],[87.9747554,51.5779117],[87.98144420000001,51.586555000000004],[87.98978340000001,51.5907246],[88.00394279999999,51.589269599999994],[88.0062013,51.5917018],[88.00133679999999,51.597435100000006],[88.00124990000002,51.63239910000001],[88.00411650000001,51.6419545],[88.0195789,51.6566568],[88.01914450000001,51.664388],[88.02887369999999,51.667971300000005],[88.0543258,51.66692890000001],[88.0619701,51.6730964],[88.0760426,51.6748338],[88.07882229999998,51.67839530000001],[88.0759557,51.6852578],[88.0778668,51.6911648],[88.08455560000002,51.69073050000001],[88.0979331,51.69639860000001],[88.1011472,51.69961270000001],[88.10053909999999,51.704824699999996],[88.1067936,51.708560000000006],[88.10184209999998,51.7192881],[88.10827029999999,51.72701930000001],[88.1100945,51.7402665],[88.1000179,51.74130890000001],[88.08412120000001,51.75833490000001],[88.0501561,51.7568582],[88.0292211,51.7506037],[87.99117330000001,51.7513855],[87.9837027,51.7568582],[87.97197560000001,51.7590516],[87.96328890000001,51.76730390000001],[87.94878209999999,51.76834630000001],[87.9438307,51.77850980000001],[87.9327117,51.7845471],[87.91846540000002,51.7819411],[87.9025687,51.783852100000004],[87.8889306,51.7803775],[87.88258929999999,51.7828966],[87.8895386,51.7914965],[87.89144970000001,51.8125618],[87.89857279999998,51.822290900000006],[87.91516450000002,51.832454399999996],[87.91464330000002,51.840315800000006],[87.91733620000001,51.8424007],[87.93453590000001,51.8485682],[87.93140860000001,51.85829739999999],[87.94435190000002,51.8678962],[87.94522050000002,51.8706759],[87.93931360000002,51.875714200000004],[87.9453074,51.885704],[87.95929300000002,51.8862252],[87.96980400000001,51.890264499999994],[87.9850057,51.901991599999995],[87.9895228,51.9020784],[88.00142360000002,51.9161726],[88.0062882,51.931635],[88.00177109999998,51.9417116],[87.98926220000001,51.940148],[87.9877855,51.9454903],[87.9768402,51.952265999999995],[87.9934318,51.956261899999994],[87.99265000000001,51.964687999999995],[88.0000338,51.9680975],[88.0165385,51.963840999999995],[88.0286131,51.9642754],[88.03443320000001,51.9754812],[88.05632370000001,51.987403799999996],[88.07274159999999,51.9907916],[88.08759590000001,52.0000212],[88.07699809999998,52.006015100000006],[88.06839829999998,52.0172427],[88.05762670000001,52.0168083],[88.0572793,52.03631000000001],[88.06153570000001,52.0443887],[88.06666090000002,52.04968759999999],[88.0846424,52.0522502],[88.1264256,52.06823370000001],[88.14015060000001,52.0826971],[88.1397162,52.0871273],[88.15179079999999,52.0959878],[88.1744631,52.0738367],[88.17828529999998,52.06575800000001],[88.18827499999999,52.0654974],[88.19522440000001,52.05833090000001],[88.25246990000001,52.0458003],[88.2565527,52.0520547],[88.2538598,52.0596121],[88.2559446,52.065606],[88.24838709999999,52.077550200000005],[88.2588112,52.0863238],[88.27079889999999,52.09031970000001],[88.2770533,52.0972908],[88.289041,52.1015473],[88.2862613,52.1117325],[88.30207109999998,52.113556700000004],[88.3064145,52.10990830000001],[88.3486319,52.118443],[88.366874,52.1156632],[88.37825360000001,52.1246105],[88.3702619,52.1312993],[88.36122770000001,52.13251550000001],[88.362965,52.136337600000004],[88.3601853,52.1462839],[88.3745184,52.154623199999996],[88.3635731,52.1690649],[88.37583179999997,52.177457399999994],[88.37534769999998,52.19350480000001],[88.38419540000001,52.2009048],[88.3857235,52.215543600000004],[88.38274729999998,52.222863100000005],[88.3969438,52.239673800000006],[88.38286779999999,52.2502104],[88.38664809999999,52.25857560000001],[88.38174149999999,52.26332120000001],[88.38037399999999,52.2732145],[88.4020912,52.27675370000001],[88.40152820000002,52.2822231],[88.3913933,52.29227730000001],[88.405067,52.3030554],[88.40329740000001,52.31166179999999],[88.4271058,52.3155227],[88.43032320000002,52.3222791],[88.42726670000002,52.325416000000004],[88.44190560000003,52.3356311],[88.45622290000001,52.3365964],[88.46394450000001,52.3415028],[88.4327359,52.35718729999999],[88.42252060000001,52.3587155],[88.4213141,52.3643458],[88.4279901,52.3704588],[88.4060315,52.3783412],[88.41769440000003,52.383971599999995],[88.44262870000001,52.4060104],[88.44150260000002,52.4134103],[88.44833940000001,52.425797100000004],[88.44568500000001,52.43295570000001],[88.43619370000002,52.4330361],[88.4108971,52.44534230000001],[88.37136360000001,52.4409184],[88.3172713,52.4642438],[88.3153409,52.4613482],[88.31799540000002,52.4533853],[88.30826300000001,52.4436528],[88.31087709999998,52.436896399999995],[88.30122510000001,52.4311855],[88.2821622,52.4277269],[88.2810363,52.414455399999994],[88.26736240000001,52.4149379],[88.25208009999999,52.3998967],[88.23152910000002,52.400057499999996],[88.2027737,52.411559399999994],[88.18676729999999,52.4102724],[88.15889669999999,52.4303807],[88.14361420000002,52.428852400000004],[88.1279293,52.44686939999999],[88.1309857,52.4513738],[88.1234649,52.4626344],[88.0920954,52.477433999999995],[88.071826,52.48185769999999],[88.0571065,52.48893590000001],[88.04624770000001,52.4997944],[88.0260989,52.503976800000004],[88.0211118,52.5110549],[88.01145970000002,52.51169839999999],[88.00019879999999,52.5193395],[87.9879728,52.52135030000001],[87.9708002,52.518695900000004],[87.93633390000001,52.535426],[87.90363740000001,52.535345400000004],[87.8913689,52.5394791],[87.8926179,52.525854200000005],[87.8649084,52.5188564],[87.84512190000001,52.4910262],[87.82420900000001,52.49496739999999],[87.81946330000001,52.4989891],[87.81415460000002,52.4979435],[87.80279869999998,52.47936],[87.75530479999999,52.48486769999999],[87.75077259999999,52.4791218],[87.736938,52.47550210000001],[87.73677719999999,52.467780499999996],[87.73291640000001,52.46271320000001],[87.7167491,52.4609436],[87.71144040000001,52.4649653],[87.70082310000001,52.4643218],[87.673154,52.442041599999996],[87.6688509,52.4264375],[87.65332709999998,52.42241570000001],[87.6456858,52.425069900000004],[87.6420261,52.430137300000005],[87.6322131,52.42933290000001],[87.61797609999999,52.4383414],[87.61837819999998,52.4444543],[87.6225607,52.4491999],[87.6106563,52.456438999999996],[87.62335129999998,52.4647911],[87.61162140000002,52.47147999999999],[87.58379129999999,52.462149600000004],[87.5768739,52.46834290000001],[87.5599022,52.470112400000005],[87.5524219,52.4668951],[87.550974,52.474938300000005],[87.53999460000001,52.483464299999994],[87.52052950000001,52.47815560000001],[87.5006623,52.4777533],[87.494308,52.4742142],[87.4779312,52.48188619999999],[87.443779,52.486024699999994],[87.4282712,52.4994701],[87.41242570000001,52.50164169999999],[87.3718064,52.498746000000004],[87.3779995,52.525449900000005],[87.37828079999998,52.5408931],[87.366296,52.549016800000004],[87.36854809999998,52.55810590000001],[87.37490229999999,52.56301230000001],[87.37538489999999,52.570573100000004],[87.3711903,52.5736912],[87.35322520000001,52.57017080000001],[87.3336797,52.5727447],[87.32442970000001,52.58006399999999],[87.3137319,52.5811096],[87.29716230000001,52.59237030000001],[87.2738364,52.587785499999995],[87.24906270000001,52.5877049],[87.2417029,52.591565700000004],[87.2184574,52.58875030000001],[87.1971364,52.573210200000005],[87.1706394,52.580465499999995],[87.17401749999999,52.588911100000004],[87.17023699999999,52.591887099999994],[87.1382643,52.5992065],[87.12764709999999,52.59510420000001],[87.1188797,52.59856290000001],[87.1270838,52.60652580000001],[87.1341621,52.6066063],[87.1310251,52.61424749999999],[87.1344837,52.61633870000001],[87.12202429999999,52.613750800000005],[87.1174512,52.619643599999996],[87.0990706,52.6192257],[87.0955198,52.626327200000006],[87.07379709999998,52.636770500000004],[87.06883619999999,52.65744839999999],[87.0527532,52.660268],[87.0127547,52.64251410000001],[86.98946560000002,52.6584924],[86.9797531,52.652852900000006],[86.9715028,52.652121900000004],[86.93672590000001,52.6545237],[86.934978,52.6485647],[86.93828460000002,52.6372794],[86.93299360000002,52.63515460000001],[86.89021660000002,52.6304886],[86.88122760000002,52.636526800000006],[86.84494480000001,52.626400200000006],[86.8098159,52.6480984],[86.82119209999999,52.6086406],[86.78150370000002,52.604151200000004],[86.7751376,52.595800800000006],[86.7828579,52.586755100000005],[86.7825605,52.5674756],[86.79322890000002,52.5595118],[86.7790874,52.5529711],[86.7864849,52.5292066],[86.79491660000002,52.5148083],[86.76415370000002,52.51591030000001],[86.7633472,52.524257399999996],[86.7545453,52.52335610000001],[86.7521685,52.5173899],[86.74260520000001,52.5131401],[86.7221288,52.508722600000006],[86.71197400000001,52.5180827],[86.6899214,52.5137977],[86.6686938,52.5152717],[86.6306089,52.52829890000001],[86.62793819999999,52.5268304],[86.6618593,52.4988954],[86.6494086,52.494793800000004],[86.65660679999999,52.49311960000001],[86.6541005,52.4853914],[86.67671089999999,52.46617570000001],[86.6794266,52.4368297],[86.65702540000001,52.425446300000004],[86.6229796,52.42377520000001],[86.62297979999998,52.40602139999999],[86.6424048,52.40257510000001],[86.64282279999999,52.3770932],[86.6544153,52.3551621],[86.6670522,52.3427345],[86.68376169999999,52.3480607],[86.6896101,52.341376999999994],[86.6836574,52.336573],[86.6935792,52.2947994],[86.78339340000001,52.2930244],[86.7718012,52.279448],[86.77295009999999,52.27203310000001],[86.7681462,52.2620074],[86.76710200000001,52.2430004],[86.7581207,52.2376742],[86.756241,52.22879730000001],[86.74506650000001,52.22514200000001],[86.73162570000002,52.2139657],[86.723874,52.197202600000004],[86.8056392,52.1877549],[86.80104440000001,52.15872220000001],[86.74015870000001,52.171358500000004],[86.7403678,52.1528737],[86.72635829999999,52.13899070000001],[86.71269260000001,52.14211680000001],[86.6939987,52.1392971],[86.6887247,52.1410724],[86.68433869999998,52.12603380000001],[86.66888229999998,52.125407100000004],[86.65614129999999,52.11861890000001],[86.6488309,52.1056691],[86.61274859999999,52.10911520000001],[86.60878009999998,52.1049379],[86.5917572,52.1088018],[86.56690160000001,52.1082796],[86.5618887,52.1125614],[86.53024490000001,52.11872280000001],[86.52303889999999,52.1156942],[86.49199250000001,52.12955890000001],[86.4765379,52.130164300000004],[86.46824660000001,52.126240800000005],[86.45642060000002,52.12839010000001],[86.4560438,52.1173648],[86.4417363,52.111829699999994],[86.44758470000002,52.1042061],[86.45426860000002,52.1016997],[86.45071779999999,52.099611],[86.45124000000001,52.094076],[86.44225860000002,52.0944937],[86.45416430000002,52.084468099999995],[86.4525558,52.07422739999999],[86.41698570000001,52.06535650000001],[86.40398370000001,52.0506312],[86.40304390000001,52.036219300000006],[86.39573349999999,52.033190600000005],[86.37672629999999,52.0394566],[86.3587635,52.039143200000005],[86.34758900000001,52.035174700000006],[86.2938572,52.038203100000004],[86.28142500000001,52.045038000000005],[86.2585316,52.03951910000001],[86.2417705,52.0422026],[86.2286495,52.0135925],[86.2047089,52.0133817],[86.17289239999998,52.0197428],[86.1592392,52.03510980000001],[86.16851209999999,52.03979520000001],[86.1307293,52.0682794],[86.1438879,52.084257799999996],[86.10451590000001,52.0864508],[86.0849345,52.0773649],[86.02759950000001,52.0873903],[86.0121431,52.084361599999994],[85.99271809999999,52.0919852],[85.9804991,52.100548800000006],[85.94546120000001,52.1005486],[85.9188426,52.1056625],[85.91533829999999,52.0998637],[85.92164720000001,52.09311200000001],[85.9203499,52.0803164],[85.91085360000002,52.074975300000006],[85.91276990000001,52.0598191],[85.8743937,52.0580437],[85.85173129999998,52.0633697],[85.84462970000003,52.0619075],[85.82854689999999,52.051046299999996],[85.80161520000001,52.054437099999994],[85.798574,52.0516728],[85.83403,52.0260866],[85.86243629999998,52.02399810000001],[85.86932900000001,52.0272355],[85.8907514,52.026239000000004],[85.887083,52.0236849],[85.8858299,52.0161656],[85.87538639999998,52.013137],[85.86024350000001,51.996636300000006],[85.84013990000001,51.986297199999996],[85.82912209999999,51.9743917],[85.81752990000003,51.9711542],[85.81888779999998,51.9489097],[85.82651179999999,51.93073820000001],[85.83695540000001,51.9216525],[85.8574248,51.91444669999999],[85.86588409999999,51.906092],[85.86504869999999,51.896692900000005],[85.8535609,51.8910534],[85.74990950000002,51.867241899999996],[85.74092820000001,51.8539788],[85.73173799999999,51.8524122],[85.72119020000001,51.84499739999999],[85.7213991,51.8413422],[85.73518460000001,51.8308988],[85.7719458,51.8272438],[85.7769587,51.819515700000004],[85.74040670000001,51.8031194],[85.7367516,51.79862860000001],[85.74450420000002,51.78599200000001],[85.74336530000001,51.781562300000004],[85.7336188,51.77335560000001],[85.7298593,51.76437430000001],[85.70283709999998,51.7324695],[85.6899394,51.72813540000001],[85.687668,51.7188408],[85.67633689999998,51.7173786],[85.6685042,51.72254810000001],[85.66853019999999,51.72844870000001],[85.63135129999999,51.74139830000001],[85.626286,51.7472466],[85.61722650000002,51.7359677],[85.6062087,51.7319991],[85.5898909,51.7098068],[85.58957769999999,51.7038018],[85.5823195,51.6972224],[85.55626300000002,51.691739600000005],[85.51542900000001,51.6969611],[85.50294889999999,51.7012428],[85.4852115,51.693557000000006],[85.48099160000001,51.6864131],[85.490182,51.6745076],[85.4731593,51.66338530000001],[85.4784856,51.65513500000001],[85.4790601,51.6461015],[85.4740473,51.6377467],[85.4798958,51.62307380000001],[85.44600700000001,51.601769],[85.4540488,51.5722664],[85.44746940000003,51.56934220000001],[85.44997590000001,51.56631370000001],[85.44425810000001,51.5633895],[85.32948409999999,51.5616136],[85.30588189999999,51.555556300000006],[85.29543849999999,51.5463661],[85.3026969,51.538690200000005],[85.29912000000002,51.5306487],[85.2848386,51.5260535],[85.2608185,51.52871650000001],[85.2528033,51.5179598],[85.25081920000001,51.504383399999995],[85.244031,51.4991616],[85.2058601,51.493208700000004],[85.19557049999999,51.4855017],[85.1668538,51.4865247],[85.16580929999999,51.4901277],[85.1488124,51.501406499999995],[85.1410319,51.5021375],[85.13588839999998,51.5128419],[85.1139309,51.519473399999995],[85.1110375,51.5240955],[85.0859945,51.52297180000001],[85.0610869,51.51205830000001],[84.98962730000001,51.51362449999999],[84.97751300000002,51.5066796],[84.96821820000001,51.5060007],[84.9569915,51.498481399999996],[84.9485323,51.499160200000006],[84.94205740000001,51.492998500000006],[84.92057,51.482868399999994],[84.92312890000001,51.465532300000014],[84.9057147,51.4427655],[84.89798660000001,51.437752700000004],[84.87166900000001,51.4310688],[84.84952870000001,51.442452],[84.8277019,51.432582800000006],[84.8174673,51.432582800000006],[84.81381209999999,51.427831],[84.788095,51.42616],[84.76655540000002,51.41702179999999],[84.74206540000002,51.4217735],[84.7336583,51.426211900000006],[84.71615650000001,51.426799100000004],[84.71431190000001,51.4186403],[84.69115350000001,51.410546599999996],[84.68306,51.391487299999994],[84.6647579,51.38668319999999],[84.6565337,51.3796339],[84.6412863,51.374725399999996],[84.63972,51.35326419999999],[84.63371509999999,51.3470503],[84.60703199999999,51.3426118],[84.59452600000002,51.3361891],[84.58000940000001,51.3437082],[84.54865290000001,51.3389041],[84.4588914,51.31702479999999],[84.45753400000001,51.303604899999996],[84.46014480000001,51.30036749999999],[84.4529129,51.28773090000001],[84.43380140000001,51.2792716],[84.41886720000001,51.2800549],[84.41291450000001,51.2712823],[84.3856048,51.26564280000001],[84.37693679999998,51.26731370000001],[84.364039,51.272639700000006],[84.36056640000001,51.27953240000001],[84.3425514,51.2836575],[84.3317944,51.29034120000001],[84.3052942,51.2850671],[84.29422410000002,51.27801780000001],[84.28691360000002,51.2826651],[84.25647079999999,51.28261260000001],[84.24365160000002,51.2730046],[84.2398399,51.26130800000001],[84.23430490000001,51.2558775],[84.21759530000001,51.24903690000001],[84.2064731,51.24731370000001],[84.1961862,51.2502378],[84.19232219999999,51.247157],[84.19232219999999,51.2429274],[84.19921500000001,51.238280100000004],[84.20088609999999,51.2279411],[84.1963432,51.221883999999996],[84.18550809999998,51.21932530000001],[84.18550829999998,51.2078375],[84.179634,51.19238120000001],[84.1538648,51.182773100000006],[84.15449149999999,51.170554300000006],[84.15987009999998,51.1604765],[84.1539697,51.153009399999995],[84.1455107,51.1299294],[84.1469732,51.104134200000004],[84.14420560000002,51.1006879],[84.13397099999999,51.10293320000001],[84.1206559,51.071237399999994],[84.11726180000001,51.070976300000005],[84.101753,51.087528999999996],[84.09764620000001,51.0876308],[84.0891685,51.098285600000004],[84.07736729999999,51.098651100000005],[84.07585289999999,51.10768469999999],[84.06969120000001,51.1106088],[84.0919878,51.1314957],[84.096635,51.143349],[84.0744947,51.1480484],[84.05721080000001,51.1476828],[84.0420415,51.153739900000005],[84.00880509999999,51.1508155],[83.99924940000002,51.13990210000001],[83.9481025,51.144496999999994],[83.94773690000001,51.14011080000001],[83.93280279999999,51.1369254],[83.9563794,51.1101905],[83.95418640000001,51.0936376],[83.94541390000002,51.08784149999999],[83.93961800000001,51.078129100000005],[83.93951360000003,51.07275070000001],[83.94311660000002,51.0691478],[83.9661707,51.0654405],[83.9785261,51.0694985],[84.02016370000001,51.05452739999999],[84.0382831,51.0576083],[84.03447129999999,51.0487836],[84.0207904,51.0441885],[84.045881,51.03766139999999],[84.0522515,51.039750100000006],[84.06162460000003,51.032231],[84.10138809999998,51.042256800000004],[84.1274972,51.014216399999995],[84.1458516,51.014268699999995],[84.1692712,51.002624399999995],[84.2221677,50.9873773],[84.2295303,50.9881606],[84.24796300000003,50.999074],[84.2805989,50.99515790000001],[84.3059243,51.003878300000004],[84.3409103,50.980694199999995],[84.41712180000002,50.968945600000005],[84.49069640000002,50.9480592],[84.47952190000001,50.943777399999995],[84.4789476,50.9355271],[84.43827060000001,50.908374],[84.43628650000001,50.8885837],[84.4383231,50.8806989],[84.43315370000002,50.8740152],[84.43798390000002,50.86513830000001],[84.4373573,50.8599165],[84.4555029,50.8569925],[84.46907940000001,50.8600211],[84.48406600000001,50.85338959999999],[84.49620660000002,50.85260649999999],[84.5028644,50.8460793],[84.5152398,50.8473326],[84.52001779999999,50.84315530000001],[84.5398082,50.84764609999999],[84.54735360000002,50.840022399999995],[84.5588937,50.840544599999994],[84.5636978,50.835688499999996],[84.589885,50.8239919],[84.56928540000001,50.81198189999999],[84.5680844,50.804097199999994],[84.5713742,50.79516810000001],[84.55756290000001,50.779920600000004],[84.54184550000001,50.781173800000005],[84.52894799999999,50.766344100000005],[84.51129840000002,50.76545630000001],[84.5060507,50.7533941],[84.50834839999999,50.7404442],[84.5039101,50.731097399999996],[84.51435370000002,50.721437300000005],[84.4981403,50.703683399999996],[84.4808304,50.6984094],[84.47983829999998,50.691099],[84.473729,50.6870783],[84.4457927,50.6802116],[84.4259501,50.68219570000001],[84.4133395,50.68851390000001],[84.40452770000002,50.7009416],[84.40424040000002,50.70733810000001],[84.3977392,50.7100534],[84.3856248,50.70188139999999],[84.3547645,50.6937876],[84.3438511,50.6862682],[84.313591,50.69091540000001],[84.2713342,50.681986099999996],[84.2693892,50.6770778],[84.2490375,50.667051900000004],[84.19880429999999,50.666634],[84.12797149999999,50.6596365],[84.08041829999999,50.639877],[84.0826229,50.6336146],[84.0940578,50.63111250000001],[84.107825,50.62309030000001],[84.1152943,50.6091944],[84.14496050000001,50.6059665],[84.15687099999998,50.587340499999996],[84.15174869999998,50.5739441],[84.1675084,50.57015090000001],[84.1668552,50.5674962],[84.17208179999997,50.563411],[84.1691364,50.55174459999999],[84.17615079999999,50.551610499999995],[84.1967257,50.54162169999999],[84.21563520000001,50.543326300000004],[84.2305773,50.5402423],[84.24324170000001,50.517622599999996],[84.2487069,50.5155657],[84.23530629999999,50.5042146],[84.2375128,50.5009828],[84.23257109999999,50.483065499999995],[84.2089086,50.472740800000004],[84.2040314,50.4676535],[84.20654350000001,50.4541438],[84.2164508,50.4342309],[84.2267093,50.4307652],[84.24198790000001,50.408661499999994],[84.245728,50.39275060000001],[84.23968620000001,50.387524899999995],[84.24202650000001,50.376854599999994],[84.2604326,50.36611250000001],[84.26955910000001,50.3537549],[84.26597849999999,50.348339900000006],[84.2695448,50.338338500000006],[84.2617622,50.325568200000006],[84.27202940000001,50.3206594],[84.26321610000001,50.31443109999999],[84.25971179999999,50.301052399999996],[84.2507044,50.29513280000002],[84.26059440000002,50.2788624],[84.30049799999999,50.2484516],[84.31831940000001,50.247027599999996],[84.32086009999999,50.2401855],[84.3249793,50.23890240000001],[84.32584849999998,50.22858110000001],[84.35746040000001,50.2138081],[84.3625226,50.2054649],[84.3765497,50.2144663],[84.39106520000001,50.2158311],[84.4098473,50.2092264],[84.41256900000002,50.21645290000001],[84.43155820000001,50.23001550000001],[84.4338384,50.236084],[84.4469701,50.24635030000001],[84.4568009,50.247256300000004],[84.50280769999999,50.2314659],[84.5157846,50.215063],[84.5302577,50.206035400000005],[84.54136020000001,50.2073965],[84.5675221,50.1968412],[84.56966380000001,50.2012537],[84.5811688,50.20806880000001],[84.6055569,50.2119278],[84.62818689999999,50.210678900000005],[84.64982390000002,50.20010860000001],[84.65849379999999,50.1997841],[84.6626991,50.19373730000001],[84.6920117,50.1886227],[84.69947109999998,50.1778279],[84.72718040000001,50.1642278],[84.7323641,50.1537314],[84.74926860000002,50.140002900000006],[84.7577173,50.1368998],[84.80522560000001,50.147200399999996],[84.82537449999998,50.1429846],[84.81342440000002,50.13616210000001],[84.8139079,50.12077200000001],[84.81661480000001,50.116697099999996],[84.83258129999999,50.1142754],[84.8335,50.10510000000001],[84.85069999999999,50.093900000000005],[84.8563631,50.09211280000002],[84.8643733,50.0960678],[84.87277999999998,50.095991000000005],[84.87684509999998,50.10207990000001],[84.8865853,50.104215100000005],[84.90528350000001,50.09540810000001],[84.92399490000001,50.09215960000001],[84.94583109999999,50.0966095],[84.9663,50.072500000000005],[84.97482740000001,50.06695810000001],[85.0062455,50.058167],[85.0241391,50.06021820000001],[85.026135,50.05407459999999],[85.0355435,50.0524943],[85.03948229999999,50.048421399999995],[85.03352240000001,50.04182649999999],[85.0323637,50.03335580000001],[85.03738229999999,50.020194800000006],[85.03536509999999,50.018875900000005],[85.04925820000001,50.010397399999995],[85.0378305,50.0090701],[85.0321626,49.99905590000001],[85.0252916,49.9999241],[84.99346530000001,49.988835],[84.983576,49.98396699999999],[84.97804629999999,49.9762943],[84.99472610000001,49.9701275],[84.97294649999999,49.9542789],[84.98492660000002,49.9499191],[84.978111,49.9425262],[84.98713790000001,49.92341570000001],[84.9854889,49.906772200000006],[84.99520890000001,49.905593700000004],[85.004756,49.89827580000001],[85.0114973,49.898290700000004],[85.02327109999999,49.8910524],[85.05969879999999,49.8850363],[85.0803856,49.86857620000001],[85.0845827,49.86017580000001],[85.1004266,49.852115600000005],[85.1008287,49.8453266],[85.10549869999998,49.843115700000006],[85.1049324,49.8344193],[85.09975209999999,49.828144],[85.101607,49.8242126],[85.10844199999998,49.8232939],[85.1124649,49.818315600000005],[85.1212802,49.81796099999999],[85.1285916,49.81286139999999],[85.1355603,49.8003481],[85.14456510000001,49.79641860000001],[85.1396815,49.790645100000006],[85.1395003,49.78537870000001],[85.1448704,49.7811213],[85.14312560000002,49.778634000000004],[85.1481531,49.77376590000001],[85.14874769999999,49.767909700000004],[85.1656995,49.7690824],[85.17528769999998,49.7545638],[85.1819553,49.7545221],[85.2033689,49.7452678],[85.20405040000001,49.7417661],[85.19857889999999,49.73719080000001],[85.21552600000001,49.718529600000004],[85.21334970000001,49.71514680000001],[85.20682980000001,49.7154085],[85.2054614,49.7098626],[85.2103348,49.7025264],[85.208002,49.6978015],[85.21494090000002,49.6890682],[85.21412060000003,49.6752514],[85.2083133,49.67275800000001],[85.21008540000001,49.661842],[85.20362980000002,49.657440199999996],[85.2053279,49.64807510000001],[85.2163452,49.637015500000004],[85.21012460000003,49.6270855],[85.254512,49.62725830000001],[85.26467140000001,49.619787599999995],[85.2549831,49.6039977],[85.2586463,49.59921690000001],[85.25751910000001,49.5885235],[85.3212611,49.5908468],[85.38843999999999,49.6348027],[85.49020510000001,49.59812920000001],[85.52387929999999,49.595679700000005],[85.5325438,49.598487],[85.5532877,49.5944136],[85.5667422,49.6030825],[85.5739539,49.6041236],[85.5837034,49.6136727],[85.5899141,49.6143806],[85.60722460000002,49.6092699],[85.62164809999999,49.600868999999996],[85.62284289999998,49.5858793],[85.6272319,49.5777868],[85.6776892,49.550395900000005],[85.68412670000001,49.558939],[85.6939273,49.564120700000004],[85.75689,49.5771504],[85.7617812,49.573108700000006],[85.78060540000001,49.5749996],[85.8099119,49.5658807],[85.80550079999999,49.5573542],[85.8160024,49.5469945],[85.82622500000001,49.5442537],[85.84106320000002,49.5476503],[85.88373719999998,49.566906800000005],[85.8901753,49.5619632],[85.91726750000002,49.56516860000001],[85.92792680000001,49.5587965],[85.94428130000001,49.5613256],[85.94944980000001,49.5537785],[85.9294085,49.535865900000005],[85.9378281,49.5279],[85.94443820000001,49.51328939999999],[85.95503599999999,49.5077376],[85.95338879999998,49.502749800000004],[85.9689905,49.4871162],[85.98646420000001,49.4889455],[86.0245069,49.5037268],[86.03283699999999,49.508074],[86.03326950000002,49.516782],[86.03719940000002,49.5218458],[86.1129225,49.5243832],[86.1663447,49.503303800000005],[86.1706147,49.497643999999994],[86.1739095,49.4789794],[86.20203749999999,49.46611280000001],[86.21715850000001,49.4777627],[86.2282702,49.4951895],[86.2387547,49.51768099999999],[86.23940520000001,49.5254418],[86.25382920000001,49.5338981],[86.255045,49.538720100000006],[86.26700420000002,49.5465394],[86.26624990000002,49.568623200000005],[86.2716,49.5827],[86.28661190000001,49.5918468],[86.3159148,49.599279700000004],[86.3313998,49.593203300000006],[86.3618183,49.592400100000006],[86.37135079999999,49.5936219],[86.38677589999999,49.6013724],[86.4200029,49.60759],[86.4286117,49.62935210000001],[86.44775380000002,49.637768900000005],[86.4562683,49.638315900000016],[86.4884508,49.6579097],[86.5083639,49.67821570000001],[86.50923920000001,49.69095050000001],[86.51827990000001,49.69332790000001],[86.526557,49.702045000000005],[86.56430920000001,49.7145812],[86.58229209999999,49.7241416],[86.5784234,49.73391900000001],[86.5860133,49.7396669],[86.6024097,49.74404749999999],[86.6105005,49.76892910000001],[86.60295049999999,49.779866],[86.604765,49.7842966],[86.59731920000002,49.787514900000005],[86.59669400000001,49.79595470000001],[86.590297,49.801023099999995],[86.5902125,49.8055899],[86.64337749999999,49.80627439999999],[86.65544479999998,49.812686199999995],[86.6762148,49.8075773],[86.68837459999999,49.8108988],[86.71082900000002,49.8012137],[86.7153406,49.79421630000001],[86.7285086,49.79285780000001],[86.7358617,49.7871536],[86.74651100000001,49.7865978],[86.7551037,49.791785000000004],[86.76387179999999,49.79038530000001],[86.7810989,49.79434690000001],[86.7835282,49.7918056],[86.7760349,49.7775466],[86.7747529,49.767995600000006],[86.76447460000001,49.75814080000001],[86.76458450000001,49.750232600000004],[86.75299749999999,49.74239480000001],[86.7580186,49.73712520000001],[86.75683849999999,49.73221570000001],[86.76633629999999,49.72493570000001],[86.7708979,49.710565],[86.7784569,49.7031465],[86.77892360000001,49.696016500000006],[86.76772260000001,49.6891316],[86.75795940000002,49.6877851],[86.74905310000001,49.69077240000001],[86.7384205,49.6884204],[86.7294064,49.67819800000001],[86.72418970000001,49.6766511],[86.7094733,49.687260599999995],[86.6997247,49.684972900000005],[86.7006673,49.680651499999996],[86.6842375,49.67514820000001],[86.6819148,49.668659100000006],[86.66573349999999,49.66550240000001],[86.6632251,49.656808399999996],[86.6532607,49.65248739999999],[86.6591592,49.6437888],[86.63569279999999,49.6319262],[86.6155494,49.62852360000001],[86.60857689999999,49.6170992],[86.5975765,49.609524],[86.60249199999998,49.60555330000001],[86.61824879999999,49.5703775],[86.6295593,49.5656815],[86.6659047,49.5602717],[86.68097449999999,49.56379690000001],[86.68239649999998,49.569059200000005],[86.721383,49.56822090000001],[86.73951260000001,49.571169],[86.75880179999999,49.56877120000001],[86.75962630000001,49.5636907],[86.76457070000001,49.5618355],[86.7771891,49.5634761],[86.77471249999999,49.557548999999995],[86.7902327,49.55277220000001],[86.79837199999999,49.5541162],[86.8044304,49.54915870000001],[86.8271741,49.5454254],[86.8273607,49.53873810000001],[86.81484660000001,49.53232190000001],[86.82481809999999,49.5230345],[86.85104940000001,49.51062439999999],[86.855415,49.4991404],[86.8297196,49.4817399],[86.8342578,49.4771334],[86.83095279999999,49.46975290000001],[86.8386619,49.46271960000001],[86.83337739999999,49.452246599999995],[86.84705070000001,49.451702399999995],[86.8510814,49.4445937],[86.85756310000001,49.444321099999996],[86.86830509999999,49.4348227],[86.90650160000001,49.427642999999996],[86.91444360000003,49.4166369],[86.93012130000001,49.4200618],[86.94732820000002,49.4096239],[86.9477722,49.406417499999996],[86.93626590000002,49.4001947],[86.94507320000001,49.391479399999994],[86.94920010000001,49.379941599999995],[86.93677629999999,49.36891820000001],[86.9247153,49.3698176],[86.9231005,49.362329200000005],[86.927097,49.35978399999999],[86.92496930000001,49.3582505],[86.92646920000001,49.3488781],[86.94036770000001,49.33971890000001],[86.95412600000002,49.335238000000004],[86.96270799999999,49.32541200000001],[86.958967,49.31762199999999],[86.970987,49.305851],[86.98214300000001,49.300889999999995],[87.0060455,49.298863600000004],[87.01853320000001,49.26901660000001],[87.0307157,49.252880399999995],[87.04717500000001,49.250485],[87.060354,49.254605999999995],[87.09470900000001,49.252063],[87.12827399999999,49.256051],[87.141721,49.24590800000001],[87.16577899999999,49.250170000000004],[87.175643,49.246746],[87.198325,49.252499],[87.23202300000001,49.24483],[87.24329800000001,49.237868999999996],[87.25526500000001,49.240168000000004],[87.26932500000001,49.23257000000001],[87.309671,49.233885],[87.3156316,49.2310833],[87.29159290000001,49.201769],[87.29269470000001,49.19010420000001],[87.300761,49.184045999999995],[87.303812,49.172181],[87.29312700000001,49.163160000000005],[87.28996500000001,49.155999],[87.29945900000001,49.148658000000005],[87.29405700000001,49.13991300000001],[87.297042,49.13245200000001],[87.286276,49.120791000000004],[87.28578999999999,49.115872],[87.322206,49.104775000000004],[87.321315,49.100963],[87.33192500000001,49.09899200000001],[87.34633799999999,49.102459],[87.361482,49.094554],[87.365279,49.097027],[87.38042999999999,49.093075000000006],[87.397845,49.086648999999994],[87.406902,49.075278000000004],[87.427347,49.071318000000005],[87.43948,49.073786],[87.44632700000001,49.08275580000001],[87.4544663,49.085688399999995],[87.476686,49.089586],[87.48955500000001,49.08611500000001],[87.503232,49.09253000000001],[87.507844,49.104391],[87.505639,49.117245999999994],[87.492796,49.127146],[87.49054600000001,49.132091],[87.49285400000001,49.13851600000001],[87.51410500000001,49.139485],[87.52323799999999,49.144419],[87.53460000000001,49.140945],[87.555084,49.140423999999996],[87.565671,49.13497],[87.569507,49.141391],[87.58164000000001,49.140383],[87.599157,49.149252000000004],[87.60598699999998,49.14924],[87.615056,49.144279],[87.62648099999998,49.149695],[87.640892,49.148676],[87.649281,49.153602],[87.670519,49.15207],[87.679683,49.158474],[87.68587099999998,49.17131200000001],[87.695023,49.17573800000001],[87.737548,49.17611300000001],[87.75112300000002,49.167174],[87.77092,49.172549000000004],[87.7785039,49.178729000000004],[87.80586249999999,49.168484],[87.8145375,49.170182700000005],[87.823228,49.177823],[87.861318,49.177937],[87.874966,49.171426999999994],[87.90392000000001,49.177252],[87.92442100000001,49.173654],[87.93195900000002,49.18005],[87.94823500000001,49.180963999999996],[87.956573,49.18553300000001],[87.97656,49.186561],[87.98843799999999,49.18302],[88.003017,49.200025000000004],[88.000847,49.208763000000005],[88.006101,49.209391000000004],[88.012611,49.217557],[88.01986400000001,49.220641],[88.01797900000001,49.22629500000001],[88.056412,49.241085],[88.05755400000001,49.244282999999996],[88.0519,49.256104],[88.054756,49.258389],[88.081596,49.260673000000004],[88.08707799999999,49.254734],[88.10670579999999,49.2565686],[88.12631099999999,49.278605000000006],[88.148469,49.281459999999996],[88.17011199999999,49.293567],[88.16246,49.29899200000001],[88.16617199999999,49.30704399999999],[88.15812,49.31646699999999],[88.166001,49.318408],[88.16999799999999,49.32549],[88.164344,49.332285],[88.15439799999999,49.337235],[88.16559099999999,49.340375],[88.166733,49.35048299999999],[88.15993699999999,49.355909],[88.160451,49.362761],[88.12413099999999,49.372926],[88.124189,49.377494999999996],[88.117107,49.379436999999996],[88.118763,49.390800999999996],[88.15296999999998,49.407019],[88.18437899999999,49.415928],[88.18517899999999,49.418612],[88.178669,49.425065000000004],[88.17821199999999,49.435402],[88.17267199999998,49.439742],[88.16633399999999,49.439513000000005],[88.16559099999999,49.445452],[88.17375699999998,49.45384699999999],[88.188663,49.45636],[88.221784,49.479659999999996],[88.237432,49.474633999999995],[88.24479900000001,49.480116],[88.250685,49.478722000000005],[88.26324900000002,49.482377],[88.297742,49.470898],[88.31790000000001,49.475124],[88.33120000000001,49.493500000000004],[88.3603207,49.4882937],[88.3680043,49.483846299999996],[88.389,49.4875],[88.396,49.4928],[88.4059,49.4946],[88.44500000000001,49.4726],[88.49490000000002,49.4719],[88.5173,49.4841],[88.54490000000001,49.4856],[88.57289999999999,49.4978],[88.59920000000001,49.5009],[88.63229999999999,49.495400000000004],[88.66069999999999,49.4786],[88.67399999999999,49.465900000000005],[88.6836,49.4622],[88.7328,49.451499999999996],[88.7383,49.451499999999996],[88.74960000000002,49.460300000000004],[88.7897,49.457699999999996],[88.8022,49.4604],[88.8143,49.4584],[88.8319,49.444599999999994],[88.8429,49.441599999999994],[88.8628,49.4595],[88.8534,49.4667],[88.8686,49.4674],[88.8801,49.478100000000005],[88.8571,49.4918],[88.85869999999998,49.496300000000005],[88.8749074,49.5014101],[88.87967509999999,49.513766499999996],[88.87989809999998,49.52205870000001],[88.87537159999998,49.53019510000001],[88.8776747,49.5409209],[88.86961490000002,49.5467406],[88.90009040000001,49.558961],[88.91310000000001,49.5466],[88.9295,49.5429],[88.93260000000001,49.516799999999996],[88.9595,49.5],[88.962,49.4946],[88.959,49.48759999999999],[88.96000000000001,49.477599999999995],[88.9708,49.465700000000005],[88.98450000000001,49.4637],[89.00269999999999,49.4705],[89.01360000000001,49.4696],[89.035,49.4861],[89.08460000000001,49.4861],[89.12239999999998,49.499100000000006],[89.14760000000001,49.502100000000006],[89.1621,49.517399999999995],[89.1911,49.5194],[89.2009,49.522800000000004],[89.2327,49.5537],[89.21820000000001,49.57],[89.1914689,49.586019900000004],[89.1902833,49.588745],[89.19963109999999,49.6043267],[89.18244979999999,49.6194319],[89.18239809999997,49.6228975],[89.1936369,49.63468339999999],[89.23410000000001,49.6444],[89.2506,49.642300000000006],[89.2709,49.63290000000001],[89.2989,49.611399999999996],[89.345,49.5918],[89.3431,49.5828],[89.36,49.584399999999995],[89.391,49.59530000000001],[89.3846,49.6062],[89.4052688,49.6211274],[89.41102030000002,49.62243780000001],[89.4227153,49.61746649999999],[89.4273522,49.6193806],[89.4377751,49.628697800000005],[89.43580390000001,49.6382254],[89.46156410000002,49.666216600000006],[89.47154809999999,49.661231],[89.49656330000002,49.665041300000006],[89.5044553,49.670317100000005],[89.512334,49.671246599999996],[89.51311370000002,49.67515030000001],[89.5205,49.67913330000001],[89.55305990000001,49.685414300000005],[89.57883029999998,49.681521399999994],[89.6074,49.686],[89.6608,49.69990000000001],[89.67784199999998,49.7142725],[89.71920000000001,49.72830000000001],[89.71430000000001,49.7412],[89.7207967,49.7522651],[89.71241260000001,49.761816],[89.71347709999999,49.76800420000001],[89.7190741,49.7719084],[89.7125329,49.7773804],[89.71450690000002,49.785734600000005],[89.7118805,49.7900976],[89.699812,49.79092370000001],[89.69487529999999,49.7861971],[89.67345159999999,49.783475200000005],[89.62446249999999,49.8063691],[89.62929999999999,49.8095],[89.62504949999999,49.818012800000005],[89.6435753,49.819068699999995],[89.65103709999998,49.8264402],[89.63977449999999,49.835508000000004],[89.6431873,49.8433518],[89.6303507,49.845156300000006],[89.62590049999999,49.853123499999995],[89.6117415,49.86352],[89.614875,49.87783949999999],[89.62094209999998,49.883216],[89.63076099999999,49.8853364],[89.6308796,49.899345000000004],[89.62594429999999,49.905418700000006],[89.60996970000001,49.905396800000005],[89.59172050000001,49.91262699999999],[89.5965628,49.92210490000001],[89.6147145,49.939182300000006],[89.60478649999999,49.9482211],[89.60871309999999,49.9637426],[89.62479029999999,49.9708552],[89.6058235,49.9780046],[89.5987109,49.98452439999999],[89.60145209999999,49.99393370000001],[89.59404310000001,50.0036763],[89.59574709999998,50.013011399999996],[89.5929317,50.0155304],[89.56788960000002,50.0199201],[89.5439589,50.015030100000004],[89.5388466,50.02903280000001],[89.5246955,50.0393496],[89.5255105,50.0437579],[89.536031,50.053908],[89.53395640000001,50.065854800000004],[89.55536809999998,50.068299800000005],[89.5621842,50.0760235],[89.57922470000001,50.07670890000001],[89.59204199999999,50.0841919],[89.58455900000001,50.088044499999995],[89.5852258,50.09473090000001],[89.5807804,50.103047399999994],[89.58241029999999,50.106974],[89.56581440000001,50.10593680000001],[89.55796090000001,50.108603900000006],[89.55677539999999,50.1150496],[89.548922,50.113012100000006],[89.51150700000001,50.1193095],[89.51002510000001,50.12857060000001],[89.5229166,50.134942200000005],[89.524991,50.14216590000001],[89.5324739,50.1478707],[89.52669490000001,50.1632996],[89.52854699999999,50.173394200000004],[89.52017479999999,50.191731000000004],[89.47786990000002,50.201918000000006],[89.44060310000002,50.203696],[89.4169688,50.192212200000014],[89.4034847,50.1779316],[89.3934086,50.1854886],[89.36725520000002,50.1819508],[89.35125190000001,50.19323070000001],[89.30842829999999,50.2079371],[89.3330258,50.2166796],[89.336656,50.23294210000001],[89.33154370000001,50.2443517],[89.3451019,50.2580766],[89.3437683,50.2642445],[89.390296,50.28636],[89.39437079999999,50.29310210000001],[89.3914072,50.3004739],[89.3933335,50.304770999999995],[89.4017055,50.3062528],[89.4065953,50.3140321],[89.37947869999998,50.31492109999999],[89.37666320000001,50.32822],[89.38147889999999,50.3388887],[89.41363360000003,50.3372033],[89.4968353,50.363912500000005],[89.49246390000002,50.374988699999996],[89.5015768,50.3857316],[89.49157470000002,50.3908436],[89.49261190000001,50.3963632],[89.48135040000001,50.3999194],[89.48912950000002,50.4279619],[89.49364890000001,50.434555800000005],[89.49150020000002,50.4452801],[89.49927950000001,50.4495032],[89.51061510000001,50.4499478],[89.5029098,50.45980149999999],[89.5453629,50.4453544],[89.54810420000001,50.4408165],[89.56929380000001,50.4315555],[89.5898905,50.428129000000006],[89.59722540000003,50.419386599999996],[89.6004114,50.399642],[89.60856129999999,50.3906773],[89.61322900000002,50.374266799999994],[89.63278849999998,50.378267599999994],[89.6433833,50.371358900000004],[89.6551635,50.369729],[89.66294279999998,50.374544799999995],[89.66146090000001,50.38262039999999],[89.6647208,50.3850098],[89.707322,50.3841209],[89.7188057,50.3922892],[89.72310279999999,50.4031061],[89.73577199999998,50.409273999999996],[89.754146,50.410755800000004],[89.786671,50.4197947],[89.79445040000002,50.41446039999999],[89.8188998,50.411200599999994],[89.82927209999998,50.43516820000001],[89.83742190000001,50.4357054],[89.8479425,50.4415584],[89.85927799999999,50.4551907],[89.85557349999999,50.46285890000001],[89.8656495,50.472045900000005],[89.86164860000001,50.4825294],[89.84216300000001,50.49988449999999],[89.84342240000001,50.51464669999999],[89.8513499,50.52488939999999],[89.82793769999999,50.5319463],[89.80697049999999,50.533372400000005],[89.7978575,50.5377621],[89.7967461,50.5444301],[89.78955940000002,50.550653499999996],[89.77333399999999,50.546134],[89.7485882,50.552060999999995],[89.7458468,50.5591364],[89.7291026,50.56863820000001],[89.70361600000001,50.568341800000006],[89.69576249999999,50.5756024],[89.6865754,50.576121],[89.664497,50.57011980000001],[89.6494568,50.57693590000001],[89.6440483,50.5813071],[89.6429369,50.591605300000005],[89.6482712,50.599773600000006],[89.6437517,50.6129984],[89.63197149999999,50.6171473],[89.63249009999998,50.6224817],[89.645826,50.63252070000001],[89.6398247,50.6428931],[89.6252291,50.6474309],[89.58277609999998,50.6458008],[89.56692090000001,50.6618965],[89.57069940000001,50.66619360000001],[89.56847669999999,50.671046399999994],[89.5706253,50.6748249],[89.55966000000001,50.6849009],[89.5482503,50.6876422],[89.5378777,50.70257090000001],[89.538174,50.710572500000005],[89.52839409999999,50.72407510000001],[89.5025369,50.735132700000015],[89.49910580000001,50.73345810000001],[89.49631340000002,50.7366885],[89.48579279999998,50.7376516],[89.48445910000001,50.74261560000001],[89.4779393,50.7454494],[89.4658625,50.770139400000005],[89.46652920000002,50.7804747],[89.4583794,50.784493999999995],[89.45341540000001,50.79256960000001],[89.44015340000003,50.79903380000001],[89.4308922,50.80888749999999],[89.4141481,50.801478599999996],[89.40384970000001,50.8073315],[89.3902173,50.809924599999995],[89.3907359,50.812888099999995],[89.37591799999998,50.8264092],[89.37947409999998,50.835022],[89.39866310000001,50.8505251],[89.38243749999998,50.8557853],[89.37917759999999,50.8606937],[89.3600626,50.86271250000001],[89.34857879999998,50.85967479999999],[89.3429479,50.8725662],[89.3469486,50.881253099999995],[89.3219066,50.87964159999999],[89.29760530000001,50.885198100000004],[89.28241709999999,50.876381499999994],[89.2677475,50.8804563],[89.269896,50.8846053],[89.2673769,50.8922364],[89.26997,50.894385],[89.2680435,50.9159818],[89.25270709999998,50.9147222],[89.24196410000002,50.921556800000005],[89.24351990000002,50.926520700000005],[89.23877819999998,50.933429499999995],[89.228628,50.935133500000006],[89.2255903,50.938615600000006],[89.2274425,50.941671799999995],[89.22151530000001,50.948413800000004],[89.2095869,50.9526553],[89.20469700000001,50.9626572],[89.1984734,50.9663246],[89.19921430000001,50.9714367],[89.19247209999997,50.9829574],[89.17409799999999,50.986735900000006],[89.16705940000001,50.9970341],[89.15357519999999,50.998089900000004],[89.15453829999998,51.0002384],[89.14586990000001,51.0030538],[89.1231986,51.0074249],[89.1194941,51.0115738],[89.1177158,51.02581730000001],[89.10134209999998,51.032003700000004],[89.1009716,51.0374862],[89.0878578,51.0380974],[89.05422130000001,51.047136],[89.05422130000001,51.0509886],[89.0615561,51.0582493],[89.05192440000002,51.0647135],[89.0541469,51.0823095],[89.0334018,51.09907200000001],[89.0222884,51.102517000000006],[89.02888229999998,51.1124449],[89.03947699999999,51.112519000000006],[89.04866400000002,51.119576],[89.04495950000002,51.1276516],[89.0391805,51.1308374],[89.0376987,51.1339862],[89.04103260000001,51.140728200000005],[89.03651320000002,51.1443585],[89.0383653,51.1503597],[89.04651510000001,51.1529899],[89.04984900000001,51.159805999999996],[89.0365129,51.1677334],[89.0393283,51.170252500000004],[89.0313265,51.186792700000005],[89.01561970000002,51.1839773],[88.98961430000001,51.1984614],[88.98220540000001,51.197646399999996],[88.96731340000002,51.20292520000001],[88.96316440000003,51.2084818],[88.96753560000002,51.214112500000006],[88.96108980000001,51.222669700000004],[88.96071930000001,51.22830050000001],[88.9765001,51.23993240000001],[88.9603487,51.243525600000005],[88.96012640000002,51.2483414],[88.97457360000001,51.2584175],[88.96701650000001,51.26504830000001],[88.9779815,51.2815701],[88.98146350000002,51.3039819],[88.99124320000003,51.308390200000005],[88.9897613,51.3185403],[88.9976888,51.3215039],[88.99302120000002,51.3275976],[88.99754050000001,51.33537690000001],[88.98620480000001,51.3469902],[88.990576,51.35402869999999],[88.98664920000002,51.3583258],[88.986501,51.3646233],[89.0030969,51.3684019],[89.00843119999999,51.3793299],[89.0062825,51.3884428],[89.0088756,51.3942587],[88.98212920000002,51.4157813],[88.9708676,51.42911720000001],[88.9575315,51.4328401],[88.9320447,51.4471576],[88.92700660000001,51.458437499999995],[88.91989400000001,51.4639201],[88.89129550000001,51.472329],[88.87988579999998,51.4669205],[88.8638826,51.46788359999999],[88.85469540000001,51.4802563],[88.8630674,51.485813],[88.8631415,51.4898508],[88.85388019999999,51.5075764],[88.84610070000001,51.51631880000001],[88.8245408,51.5167818],[88.8145388,51.5206344],[88.8069816,51.5268948],[88.8049071,51.5340073],[88.79409000000001,51.538082100000004],[88.79964660000002,51.5470468],[88.79153120000001,51.5537609]]]}}