{"type":"Feature","properties":{"regionId":"ryazanskaya_oblast","name":"Рязанская область","name:en":"Ryazan Oblast","timezone":"Europe/Moscow","name_ru":"Рязанская область","name_en":"Ryazan Oblast","name_zh":"梁赞州"},"geometry":{"type":"MultiPolygon","coordinates":[[[[42.658586,54.5541117],[42.650065399999995,54.55198159999999],[42.6405468,54.5537901],[42.641682499999995,54.5555746],[42.637134700000004,54.557833599999995],[42.648012400000006,54.5606917],[42.658586,54.5541117]]],[[[42.433575100000006,54.793561200000006],[42.44160469999999,54.79954910000001],[42.4579039,54.80189449999999],[42.466730000000005,54.7911215],[42.4797054,54.7907695],[42.4810022,54.787030800000004],[42.5036683,54.7706626],[42.509725,54.7507417],[42.507043499999995,54.748991100000005],[42.4938091,54.7537819],[42.4770117,54.7500904],[42.45486609999999,54.750434399999996],[42.433575100000006,54.793561200000006]]],[[[42.35096939999999,53.853729099999995],[42.2666264,53.8331311],[42.26209240000001,53.838030800000006],[42.24255220000001,53.833870399999995],[42.23521900000001,53.8367597],[42.2167096,53.833255],[42.2177078,53.8310829],[42.20854280000001,53.8290265],[42.206862900000004,53.825722000000006],[42.200144200000004,53.8256019],[42.19815120000001,53.822265],[42.20634880000001,53.8185767],[42.13755690000001,53.8224842],[42.1436297,53.802798100000004],[42.0588225,53.803032300000005],[42.04597510000001,53.8154342],[42.0344827,53.81498639999999],[42.02433010000001,53.822577300000006],[42.021464599999995,53.81560399999999],[42.006103100000004,53.814918399999996],[41.9829561,53.803328900000004],[41.9441669,53.812206399999994],[41.9156534,53.81116409999999],[41.900862,53.81728709999999],[41.87486049999999,53.819177399999994],[41.8684744,53.8222242],[41.84044479999999,53.8198703],[41.8302772,53.81406869999999],[41.820928,53.8162361],[41.8163311,53.81128929999999],[41.803072,53.8087267],[41.8029913,53.80463459999999],[41.794437300000006,53.811865899999994],[41.7826265,53.8064121],[41.76237360000001,53.8057498],[41.754318000000005,53.806129],[41.7520686,53.8125206],[41.686978,53.812302300000006],[41.685816300000006,53.8035621],[41.678838000000006,53.800466199999995],[41.64913510000001,53.8019586],[41.6573372,53.784107399999996],[41.64552210000001,53.783205200000005],[41.6415304,53.775907600000004],[41.63281590000001,53.7742756],[41.623076700000006,53.776270000000004],[41.6197438,53.77335930000001],[41.6065801,53.7770025],[41.6062306,53.780770100000005],[41.614249099999995,53.7850795],[41.609639800000004,53.788024],[41.613881899999996,53.79155810000001],[41.59991110000001,53.79319330000001],[41.5974985,53.79636870000001],[41.6066325,53.79903040000001],[41.6039819,53.802626],[41.5965848,53.80160139999999],[41.59151060000001,53.8057806],[41.5742981,53.8005318],[41.5696366,53.8023985],[41.56933420000001,53.807698499999994],[41.5543427,53.811923199999995],[41.539585200000005,53.8056652],[41.5394454,53.79971460000001],[41.5248436,53.7854224],[41.513719300000005,53.7852945],[41.510169,53.7795174],[41.5039504,53.77903210000001],[41.4979652,53.772777600000005],[41.4835985,53.7731216],[41.45408069999999,53.7811656],[41.428806200000004,53.7748099],[41.4220935,53.784412200000006],[41.3997431,53.783737300000006],[41.3974727,53.7695877],[41.363106900000005,53.766211500000004],[41.36951830000001,53.74124439999999],[41.3685011,53.6876767],[41.366515400000004,53.642631200000004],[41.3582469,53.5909945],[41.35757339999999,53.538189800000005],[41.353890799999995,53.525445100000006],[41.3188147,53.5262607],[41.279980900000005,53.510663699999995],[41.2559444,53.5130136],[41.25271480000001,53.51756399999999],[41.2472662,53.51635590000001],[41.24591110000001,53.5070859],[41.2615545,53.493906700000004],[41.2541717,53.48406479999999],[41.258590700000006,53.4771072],[41.256090900000004,53.4733671],[41.259871499999996,53.4710559],[41.211715000000005,53.469990200000005],[41.2066601,53.474683899999995],[41.185908700000006,53.4729491],[41.1868556,53.43968399999999],[41.1796511,53.4415202],[41.1510151,53.427260399999994],[41.144902900000005,53.416669999999996],[41.100808,53.4275603],[41.039910000000006,53.429777800000004],[41.0519063,53.452282],[41.042896999999996,53.47644749999999],[41.0019211,53.4935885],[40.958032200000005,53.500083499999995],[40.8962311,53.5053441],[40.868906700000004,53.478235100000006],[40.858558300000006,53.4767813],[40.8516322,53.4715318],[40.8531719,53.460753700000005],[40.83969449999999,53.457597099999994],[40.8330681,53.4621865],[40.82919330000001,53.472694],[40.81468479999999,53.483796399999996],[40.819344099999995,53.486067999999996],[40.8040178,53.506667099999994],[40.8086954,53.509348200000005],[40.801831099999994,53.5113573],[40.8029839,53.520038500000005],[40.7713266,53.524915400000005],[40.77330510000001,53.5388642],[40.77970510000001,53.5482641],[40.7557224,53.550897799999994],[40.7562943,53.553084299999995],[40.700911500000004,53.5561512],[40.6804315,53.5384857],[40.6666836,53.5428597],[40.6526288,53.537832900000005],[40.63877890000001,53.518432000000004],[40.64788179999999,53.5098355],[40.6428572,53.50737290000001],[40.6419238,53.501046099999996],[40.6136432,53.5081545],[40.6019826,53.5057696],[40.5990964,53.5077304],[40.5838639,53.49519720000001],[40.5547628,53.492579400000004],[40.55033230000001,53.4812082],[40.5416155,53.4779755],[40.547001699999996,53.4671624],[40.5031766,53.457708499999995],[40.496489399999994,53.450253599999996],[40.4713761,53.444637699999994],[40.4670506,53.4486515],[40.47498459999999,53.463804499999995],[40.462610600000005,53.47333820000001],[40.4625685,53.4834629],[40.42219180000001,53.4964565],[40.4288785,53.4762175],[40.408242800000004,53.4619377],[40.4201964,53.42051530000001],[40.425341200000005,53.388176800000004],[40.403063599999996,53.38866739999999],[40.3887779,53.369798100000004],[40.3926111,53.3611979],[40.3702957,53.33974],[40.337375800000004,53.3445186],[40.32913330000001,53.35344719999999],[40.3015456,53.362491],[40.300817099999996,53.38196349999999],[40.2729677,53.3767856],[40.268463600000004,53.34754449999999],[40.26164,53.3358769],[40.24573410000001,53.3374939],[40.2505315,53.35147699999999],[40.23335130000001,53.3526983],[40.2328825,53.34109709999999],[40.21311020000001,53.3104521],[40.171373200000005,53.3090699],[40.168780500000004,53.3165098],[40.1778321,53.3270735],[40.17914590000001,53.339145200000004],[40.1737796,53.35428269999999],[40.1560063,53.370295399999996],[40.1417343,53.355058],[40.1379826,53.354483999999985],[40.119969499999996,53.364807899999995],[40.1218417,53.37480359999999],[40.14273530000001,53.381234299999996],[40.135027300000004,53.3910857],[40.1270805,53.3931214],[40.115184,53.3887397],[40.111115000000005,53.38062339999999],[40.084346599999996,53.3853913],[40.062096100000005,53.38562459999999],[40.0597268,53.38184379999999],[40.05146359999999,53.3837176],[40.0536232,53.386868099999994],[40.038290200000006,53.402964499999996],[40.0164997,53.398590600000006],[39.989918900000006,53.4039632],[39.983752900000006,53.415861299999996],[39.982331900000005,53.427263999999994],[39.9882979,53.438366200000004],[39.9234745,53.435506000000004],[39.9228278,53.4459696],[39.9539136,53.467919],[39.9432384,53.4796101],[39.94346139999999,53.49817420000001],[39.93534210000001,53.49831100000001],[39.9331575,53.5136172],[39.8908491,53.52510720000001],[39.894518100000006,53.54104459999999],[39.886265699999996,53.54188049999999],[39.886039999999994,53.550446199999996],[39.8728958,53.5534222],[39.85886469999999,53.54803290000001],[39.836961599999995,53.567792700000005],[39.8235879,53.56333980000001],[39.814433799999996,53.5679954],[39.808632800000005,53.56590490000001],[39.81718959999999,53.556006],[39.807610399999994,53.5527498],[39.7928374,53.556471099999996],[39.78399830000001,53.5547559],[39.782737100000006,53.55778599999999],[39.7768498,53.5585114],[39.7732685,53.572278000000004],[39.768495400000006,53.57646939999999],[39.7506427,53.5794796],[39.752112900000014,53.5823945],[39.758742500000004,53.583009499999996],[39.7577654,53.5866538],[39.680370200000006,53.5582055],[39.683567499999995,53.5561477],[39.66381500000001,53.5464385],[39.597974,53.53317690000001],[39.595049,53.5306412],[39.59977250000001,53.5248537],[39.59550560000001,53.52294390000001],[39.554977799999996,53.52835770000001],[39.553553300000004,53.523780800000004],[39.56835860000001,53.505948700000005],[39.5596281,53.497150100000006],[39.5630097,53.4938654],[39.55551580000001,53.487004999999996],[39.5600915,53.4457235],[39.548162100000006,53.426793100000005],[39.5367802,53.41749709999999],[39.5295806,53.4244981],[39.530202300000006,53.428296200000005],[39.519913200000005,53.43299030000001],[39.4887094,53.430766999999996],[39.473797499999996,53.4337648],[39.468852000000005,53.42533190000001],[39.470158500000004,53.4135206],[39.45645639999999,53.4136179],[39.456745,53.4010967],[39.4463961,53.402306700000004],[39.4365594,53.408613900000006],[39.42937860000001,53.403010300000005],[39.41906899999999,53.406467299999996],[39.389775900000004,53.401442599999996],[39.3900401,53.398262900000006],[39.3854384,53.3968613],[39.3642195,53.4028726],[39.356628199999996,53.3944588],[39.3268822,53.3912507],[39.330215700000004,53.4013022],[39.3126902,53.40935220000001],[39.312836399999995,53.413952300000005],[39.29513960000001,53.403612700000004],[39.265218300000015,53.4051246],[39.23532900000001,53.395419700000005],[39.207837399999995,53.403801599999994],[39.209351700000006,53.389610499999996],[39.193199400000005,53.3905634],[39.189040399999996,53.3935882],[39.1846104,53.407296699999996],[39.1744809,53.4080365],[39.177792000000004,53.423469499999996],[39.162687399999996,53.4273201],[39.16241980000001,53.430455800000004],[39.16977430000001,53.43201810000001],[39.169675100000006,53.4405899],[39.1390195,53.445828],[39.153013800000004,53.459431099999996],[39.147205,53.469150500000005],[39.130763300000005,53.48408599999999],[39.1353815,53.4936936],[39.12262520000001,53.507915600000004],[39.1034336,53.50784149999999],[39.09892810000001,53.512368],[39.09072080000001,53.53213930000001],[39.088571,53.55046439999999],[39.06353530000001,53.568632400000006],[39.053999499999996,53.5792271],[39.01186409999999,53.564790200000004],[38.9966288,53.5702524],[38.9540167,53.56274380000001],[38.94421739999999,53.56807870000001],[38.94466899999999,53.5726105],[38.9374233,53.574421699999995],[38.941914,53.583812900000005],[38.934413,53.5906254],[38.9458926,53.59801860000001],[38.9470336,53.60853770000001],[38.9440562,53.6136739],[38.878656,53.6206242],[38.877005399999994,53.62695830000001],[38.884159499999996,53.6298947],[38.875233,53.637795200000006],[38.91722729999999,53.658101],[38.9152172,53.669586100000004],[38.90801230000001,53.6771435],[38.9100409,53.6817733],[38.9208576,53.682383800000004],[38.9187147,53.7034536],[38.927064099999996,53.718246900000004],[38.949852,53.72542870000001],[38.9515452,53.7302697],[38.943908300000004,53.74600590000001],[38.921417399999996,53.766263200000004],[38.92512490000001,53.7718093],[38.893867799999995,53.7676907],[38.887773499999994,53.763882800000005],[38.867294099999995,53.764496300000005],[38.855917,53.7595634],[38.852576,53.7544588],[38.8353547,53.770167],[38.8155601,53.78090220000001],[38.841822199999996,53.7902764],[38.8493173,53.8002906],[38.849429199999996,53.812366399999995],[38.8383015,53.81986769999999],[38.8285861,53.820916200000006],[38.8159176,53.815469699999994],[38.7988234,53.8145052],[38.79391940000001,53.81686919999999],[38.7897212,53.8266462],[38.793626800000006,53.8310299],[38.817123699999996,53.829250900000005],[38.8269641,53.843685099999995],[38.8344367,53.8455542],[38.8498023,53.8423292],[38.8552572,53.84762169999999],[38.853810499999994,53.853977699999994],[38.834232300000004,53.8662483],[38.8259066,53.866320900000005],[38.8241679,53.870192],[38.793959400000006,53.8808356],[38.793453500000005,53.8958579],[38.797756500000006,53.9102483],[38.8451771,53.9000713],[38.85904749999999,53.9184423],[38.888065499999996,53.9193043],[38.8899688,53.9313418],[38.881074299999995,53.9358873],[38.875310000000006,53.9473773],[38.852837799999996,53.9480609],[38.836643599999995,53.9424931],[38.8358581,53.9396412],[38.8215349,53.9391294],[38.819709599999996,53.9449729],[38.81387719999999,53.9451194],[38.8017931,53.95513510000001],[38.79658860000001,53.955426499999994],[38.79071340000001,53.96484099999999],[38.7793215,53.9694579],[38.781364499999995,53.9749651],[38.778243200000006,53.9784701],[38.7859814,53.981996099999996],[38.778574400000004,53.99271670000001],[38.78633380000001,53.9960575],[38.78426759999999,53.9986654],[38.788371500000004,53.9978788],[38.787002,53.9995884],[38.799468100000006,54.0038797],[38.801204299999995,54.0122171],[38.790062600000006,54.0180785],[38.795957400000006,54.021008900000005],[38.7889614,54.0246621],[38.7837873,54.020236100000005],[38.778491800000005,54.022236500000005],[38.777785300000005,54.0330037],[38.7741374,54.034415700000004],[38.7697835,54.0338273],[38.76631230000002,54.0288849],[38.7597225,54.028826],[38.7547806,54.020588700000005],[38.756134100000004,54.015528700000004],[38.76913720000001,54.0110573],[38.760312100000014,54.002408100000004],[38.7217448,53.9926994],[38.7145097,54.00571910000001],[38.7248625,54.007291099999996],[38.7512501,54.0277079],[38.753368,54.03188539999999],[38.748425700000006,54.0320618],[38.74501290000001,54.038004300000004],[38.752014300000006,54.042652600000004],[38.7463071,54.0418288],[38.7424826,54.0447706],[38.750602,54.0479479],[38.737127900000004,54.0559495],[38.72862560000001,54.065834100000004],[38.7103863,54.0596559],[38.702443200000005,54.0626565],[38.70561990000001,54.0738356],[38.69379380000001,54.0715996],[38.688792500000005,54.0744237],[38.69579380000001,54.080778200000005],[38.682614,54.088838700000004],[38.6848325,54.09818320000001],[38.71800390000001,54.102136400000006],[38.747539100000004,54.12525980000001],[38.7714857,54.126083900000005],[38.77377990000001,54.136203900000005],[38.7819579,54.143440999999996],[38.781427799999996,54.1575619],[38.76554080000001,54.1804493],[38.750978100000005,54.19221650000001],[38.739799500000004,54.1819198],[38.730209,54.1840967],[38.70891010000001,54.1805073],[38.6869018,54.1864778],[38.69807920000001,54.189330500000004],[38.70021680000001,54.1942195],[38.7142087,54.1972511],[38.71433820000001,54.201533000000005],[38.7214637,54.207595000000005],[38.7130261,54.2092978],[38.7167245,54.216364],[38.7090804,54.22055420000001],[38.72604230000001,54.2266485],[38.713580900000004,54.22991410000001],[38.714041699999996,54.23334570000001],[38.7223875,54.237904],[38.711702100000004,54.24440439999999],[38.6711632,54.2470515],[38.665981800000004,54.256714],[38.6938072,54.26282890000001],[38.69609270000001,54.258976000000004],[38.703614200000004,54.2612941],[38.706956700000006,54.26802610000001],[38.7156457,54.271418000000004],[38.705648000000004,54.272809900000006],[38.719932500000006,54.284554],[38.70670880000001,54.28635290000001],[38.703619700000004,54.29080020000001],[38.71052830000001,54.30064169999999],[38.704104,54.316263299999996],[38.712771200000006,54.3330888],[38.70486449999999,54.34308599999999],[38.712983200000004,54.3485324],[38.778134400000006,54.3635743],[38.77393080000001,54.3743728],[38.8195781,54.37462549999999],[38.8215629,54.3829296],[38.8298758,54.38354399999999],[38.8350984,54.392948000000004],[38.85462959999999,54.386905999999996],[38.858195900000005,54.380460299999996],[38.857918399999996,54.3701318],[38.8771427,54.371186599999994],[38.87736459999999,54.3835509],[38.869913100000005,54.392078600000005],[38.8895135,54.402096],[38.902814,54.403528900000005],[38.901906,54.4008748],[38.9056008,54.4003695],[38.9406483,54.407988599999996],[38.931601699999995,54.423388700000004],[38.930666699999996,54.4392803],[38.880352300000006,54.44128769999999],[38.8771364,54.4491114],[38.86936,54.4510192],[38.86384149999999,54.447554399999994],[38.85348009999999,54.457352300000004],[38.85066669999999,54.455256399999996],[38.833077599999996,54.459198900000004],[38.830794,54.4556117],[38.8268433,54.456043099999995],[38.8232208,54.4586565],[38.825177200000006,54.4628246],[38.8009489,54.45342719999999],[38.799513900000015,54.470060499999995],[38.77879120000001,54.4784471],[38.7866184,54.4822249],[38.788040300000006,54.493543200000005],[38.8047087,54.4999698],[38.8015584,54.5156737],[38.8082166,54.5243615],[38.818262999999995,54.52852690000001],[38.8382437,54.5258504],[38.8522387,54.5345141],[38.8512127,54.540496399999995],[38.8465253,54.5429835],[38.8099996,54.537748300000004],[38.798041000000005,54.544979],[38.79719980000001,54.552133500000004],[38.8075431,54.561105000000005],[38.8238257,54.56523390000001],[38.8236886,54.5690407],[38.82873200000001,54.5664317],[38.83428539999999,54.569218500000005],[38.8226318,54.57903090000001],[38.8369755,54.5874228],[38.8268334,54.607859],[38.837118700000005,54.611573],[38.8490231,54.62561990000001],[38.85308129999999,54.625671000000004],[38.86786669999999,54.614828599999996],[38.876395300000006,54.6180826],[38.883895599999995,54.616350600000004],[38.892970500000004,54.62352860000001],[38.9052278,54.627253200000006],[38.9221635,54.6310857],[38.93011510000001,54.62843980000001],[38.9383896,54.6344734],[38.946505300000005,54.6342408],[38.952932000000004,54.617510300000006],[38.952496399999994,54.609956000000004],[38.9666669,54.605765700000006],[38.971764099999994,54.6009771],[38.9771561,54.6042425],[38.9792019,54.6106748],[38.993966900000004,54.6159271],[38.990538400000005,54.622869200000004],[38.992896800000004,54.628108200000014],[39.02361020000001,54.641120300000004],[39.0328297,54.639489399999995],[39.0349771,54.6436492],[39.041497699999994,54.6417785],[39.0447732,54.6354044],[39.061036900000005,54.63813780000001],[39.082055700000005,54.634469599999996],[39.0956679,54.646117800000006],[39.09995490000001,54.6460406],[39.10973810000001,54.6408801],[39.1112281,54.63285020000001],[39.12595660000001,54.63250560000001],[39.131950200000006,54.634658800000004],[39.12735230000001,54.64593370000001],[39.1504937,54.6430673],[39.1565885,54.6511733],[39.15386039999999,54.655936700000005],[39.16281330000001,54.660840900000004],[39.164712400000006,54.655759800000006],[39.1707014,54.654583699999996],[39.16957010000001,54.649801599999996],[39.1822822,54.63805380000001],[39.193927800000004,54.6419304],[39.2215873,54.63872510000001],[39.2260634,54.63570280000001],[39.2342654,54.6415887],[39.230347800000004,54.6440028],[39.2318114,54.6465796],[39.2470448,54.645797900000005],[39.243546800000004,54.653923],[39.2564819,54.6594972],[39.2540549,54.668088700000006],[39.2562073,54.673321900000005],[39.2513826,54.67570980000001],[39.2563206,54.6775577],[39.23889510000001,54.6786856],[39.23241600000001,54.684127399999994],[39.24021290000001,54.6894596],[39.24070890000001,54.69591620000001],[39.23510270000001,54.704117100000005],[39.237409,54.70715130000001],[39.23161830000001,54.7101241],[39.23493090000001,54.715506600000005],[39.23205540000001,54.718611300000006],[39.245571600000005,54.72490570000001],[39.245611200000006,54.7318686],[39.26690570000001,54.73356020000001],[39.26821630000001,54.73583970000001],[39.30049139999999,54.73527020000001],[39.30468719999999,54.724338300000014],[39.3274501,54.72550900000001],[39.3369071,54.7190354],[39.342289699999995,54.721357000000005],[39.330501,54.731397900000005],[39.35138769999999,54.736746100000005],[39.370878999999995,54.747372500000004],[39.3689267,54.752981],[39.361287899999994,54.7556456],[39.321955200000005,54.7537104],[39.3182586,54.7568972],[39.3352334,54.762947800000006],[39.3334952,54.775429],[39.3628209,54.78272880000001],[39.3584528,54.7849794],[39.36128599999999,54.799827300000004],[39.38721159999999,54.8239073],[39.3857913,54.8269635],[39.4151771,54.839912600000005],[39.38948609999999,54.854299999999995],[39.3986015,54.866246],[39.4353774,54.87706299999999],[39.4295274,54.8861325],[39.466207,54.892387],[39.4605497,54.89836590000001],[39.4613828,54.9019581],[39.4864987,54.9014258],[39.4736724,54.9095008],[39.4809362,54.9128292],[39.481986299999996,54.91704149999999],[39.4764213,54.9212549],[39.4694293,54.9185467],[39.4662298,54.9218227],[39.465549800000005,54.931445499999995],[39.4748021,54.9368395],[39.475166300000005,54.945866099999996],[39.504155700000005,54.95778599999999],[39.520583300000006,54.9697545],[39.52166739999999,54.9762392],[39.5175185,54.983877299999996],[39.549097399999994,54.988852],[39.602884599999996,54.988013300000006],[39.6175838,55.0003833],[39.625367700000005,55.025080300000006],[39.66956820000001,55.025425500000004],[39.6692176,55.013972800000005],[39.7012609,55.0079718],[39.7012784,55.005641],[39.76997270000001,55.0039715],[39.77373390000001,55.0350445],[39.795684300000005,55.03061220000001],[39.7909894,55.0216058],[39.804255999999995,55.00521630000001],[39.818155000000004,55.0343639],[39.8494137,55.0827973],[39.8625646,55.1111421],[39.85960299999999,55.11371520000001],[39.8342559,55.1156081],[39.8286725,55.12051270000001],[39.8231044,55.1360545],[39.8077326,55.134428],[39.79905920000001,55.1376079],[39.7809262,55.125482100000006],[39.77513730000001,55.116365],[39.7559655,55.1194703],[39.70563890000001,55.1174141],[39.72635260000001,55.139000300000006],[39.73843220000001,55.147085499999996],[39.75393820000001,55.150412100000004],[39.7550267,55.1562958],[39.76849220000001,55.166448300000006],[39.7719971,55.174869099999995],[39.784906,55.17879250000001],[39.78450290000001,55.1861897],[39.805781599999996,55.188052500000005],[39.81318139999999,55.1908479],[39.812670399999995,55.1948002],[39.8378543,55.204526200000004],[39.882358200000006,55.2037864],[39.92223390000001,55.215293900000006],[39.94126549999999,55.2150813],[39.9529968,55.207478300000005],[39.968180200000006,55.21383530000001],[39.977416399999996,55.2114168],[39.98748369999999,55.21331850000001],[39.993914000000004,55.1998972],[39.996995500000004,55.201508700000005],[39.9970048,55.2099941],[40.003391300000004,55.213541],[40.0073889,55.220623200000006],[40.004694799999996,55.224076700000005],[40.024815200000006,55.23036690000001],[40.03535970000001,55.24191580000001],[40.0344195,55.2374609],[40.0415935,55.23615040000001],[40.056419399999996,55.2392576],[40.06200890000001,55.242796500000004],[40.06005880000001,55.2448686],[40.0636633,55.2480671],[40.0940461,55.256892300000004],[40.1150261,55.25810380000001],[40.1275878,55.2649885],[40.154644299999994,55.264389300000005],[40.156240999999994,55.2713819],[40.15203090000001,55.2737241],[40.1591678,55.27533060000001],[40.1630678,55.2806354],[40.179502400000004,55.312063499999994],[40.205688200000004,55.315762],[40.178899300000005,55.3348338],[40.20214240000001,55.348553700000004],[40.19092260000001,55.3650073],[40.20837650000001,55.36649439999999],[40.2132427,55.361810999999996],[40.224312800000014,55.361263799999996],[40.2168936,55.353784299999994],[40.2072824,55.351531599999994],[40.213791,55.3437461],[40.22795810000001,55.345725300000005],[40.227723100000006,55.351813799999995],[40.2462376,55.3509501],[40.277958700000006,55.360578100000005],[40.278409800000006,55.3467341],[40.295659400000005,55.33521210000001],[40.312643599999994,55.3391018],[40.3300468,55.3484828],[40.363866699999996,55.349775],[40.35536749999999,55.338996],[40.3317756,55.332313400000004],[40.334345,55.3311856],[40.32504230000001,55.316637699999994],[40.325728700000006,55.308121],[40.34664039999999,55.3032068],[40.3580682,55.289607],[40.381273099999994,55.28973080000001],[40.394356,55.3042957],[40.4190421,55.304419499999995],[40.4358288,55.29911230000002],[40.450293499999994,55.3011966],[40.48448629999999,55.325184],[40.496107200000004,55.32819370000001],[40.4936861,55.336092900000004],[40.50630520000001,55.347497999999995],[40.567896499999996,55.356139],[40.5869051,55.348486599999994],[40.5849304,55.34354939999999],[40.5713016,55.3375011],[40.5688284,55.3289976],[40.5591673,55.3238463],[40.545433700000004,55.3238],[40.531486599999994,55.3121973],[40.532597700000004,55.306766399999994],[40.52719530000001,55.302347399999995],[40.52991250000001,55.296146400000005],[40.5405262,55.2902448],[40.5406828,55.286720900000006],[40.555063,55.285907],[40.568267399999996,55.28041880000001],[40.56803200000001,55.27777220000001],[40.555433900000004,55.27208290000001],[40.5576562,55.26060390000001],[40.5882672,55.253939100000004],[40.5896252,55.248014500000004],[40.6077038,55.2406004],[40.6017218,55.239127700000004],[40.6012282,55.23517790000001],[40.6045649,55.22899040000001],[40.613146900000004,55.22337210000001],[40.612954900000005,55.217774399999996],[40.597076200000004,55.206536400000005],[40.600250900000006,55.2004827],[40.6282605,55.212960900000006],[40.6304964,55.211833],[40.62295330000001,55.2058018],[40.63017830000001,55.204622300000004],[40.641473399999995,55.208138800000015],[40.64751590000001,55.2048148],[40.6541809,55.2113567],[40.66252510000001,55.2118505],[40.667757800000004,55.2198736],[40.6762743,55.22332970000001],[40.678989900000005,55.2209846],[40.70715890000001,55.22655260000001],[40.70799590000001,55.222589600000006],[40.701824499999994,55.22012090000001],[40.7000967,55.21469],[40.70293600000001,55.2076545],[40.718488,55.21185139999999],[40.725997500000005,55.208214500000004],[40.7594092,55.2318371],[40.7895705,55.22667250000001],[40.818420599999996,55.2388278],[40.8269146,55.23800980000001],[40.8303794,55.23131270000001],[40.8347105,55.2316904],[40.83198449999999,55.22731720000001],[40.835016200000005,55.22587870000001],[40.8317297,55.2246],[40.8483774,55.216402900000006],[40.85944469999999,55.22518390000001],[40.85426049999999,55.22802280000001],[40.8700593,55.23345390000001],[40.883019499999996,55.232837],[40.9031384,55.2376511],[40.905728700000004,55.275297300000005],[41.002091300000004,55.2718809],[41.0046585,55.2709611],[41.0030233,55.26393610000001],[40.9934488,55.257038900000005],[40.9999401,55.24822230000001],[41.0206439,55.23851680000001],[41.0276794,55.2396278],[41.04261530000001,55.2219775],[41.0523664,55.2188919],[41.059337,55.22243860000001],[41.061376800000005,55.218274900000004],[41.068650700000006,55.217350700000004],[41.07166039999999,55.209294],[41.059525900000004,55.206549],[41.0615012,55.19852600000001],[41.0643405,55.1879111],[41.0728573,55.1854426],[41.074709,55.1797648],[41.07816510000001,55.1797649],[41.0800396,55.1714598],[41.090721,55.176971300000005],[41.0719562,55.19265240000001],[41.0795201,55.1943671],[41.0750247,55.1966942],[41.0798956,55.20035590000001],[41.0809792,55.2056826],[41.07655090000001,55.20975810000001],[41.085302000000006,55.214434399999995],[41.098650000000006,55.2128651],[41.09872680000001,55.20595250000001],[41.1079306,55.21303270000001],[41.1442263,55.2184246],[41.1508182,55.2310831],[41.168088000000004,55.23218120000001],[41.1679677,55.2268765],[41.29441630000001,55.233696300000005],[41.302611399999996,55.2199017],[41.30210280000001,55.21533110000001],[41.320541,55.1977248],[41.3580038,55.181429699999995],[41.359230399999994,55.17671580000001],[41.3922868,55.16731550000001],[41.39843890000001,55.170341300000004],[41.403466599999994,55.167968300000005],[41.4061407,55.158143100000004],[41.423082900000004,55.1528384],[41.436733100000005,55.1440881],[41.426141,55.136583800000004],[41.436209399999996,55.1374379],[41.441971699999996,55.1444621],[41.4530931,55.1500341],[41.480504499999995,55.1574148],[41.4970809,55.17031380000001],[41.5372402,55.172984],[41.555863099999996,55.16952680000001],[41.553381099999996,55.1593015],[41.5726688,55.147193300000005],[41.598988600000006,55.1572195],[41.6140346,55.15428139999999],[41.6125677,55.150334],[41.627653900000006,55.15217030000001],[41.6378287,55.1445364],[41.6344691,55.1413008],[41.641855,55.13214500000001],[41.63819900000001,55.129474800000004],[41.639920100000005,55.126092400000005],[41.631239,55.120260900000005],[41.63841790000001,55.11534270000001],[41.65811200000001,55.1183636],[41.6572198,55.1120514],[41.690168400000005,55.114512500000004],[41.6907446,55.1186171],[41.70201080000001,55.127974200000004],[41.712635500000005,55.131729],[41.7718336,55.13361090000001],[41.78245630000001,55.12996230000001],[41.78216580000001,55.117978900000004],[41.79493510000001,55.098574600000006],[41.7764767,55.098643700000004],[41.7884114,55.085339100000006],[41.792847300000005,55.0852346],[41.8019828,55.07071270000001],[41.8439223,55.0739411],[41.85422499999999,55.067832200000005],[41.855001099999996,55.058973200000004],[41.8580927,55.05728059999999],[41.8970868,55.0640754],[41.898478600000004,55.066911700000006],[41.9318239,55.0788073],[41.9379902,55.085408300000005],[41.960948900000005,55.09531110000001],[41.99565820000001,55.09920090000001],[42.0018559,55.0956479],[42.0022947,55.091143200000005],[41.980718800000005,55.055069599999996],[42.002308400000004,55.0373964],[41.9899491,55.0160409],[41.998344,54.99533780000001],[42.06077230000001,54.977662499999994],[42.1124054,54.979604699999996],[42.22718820000001,54.9589231],[42.255378500000006,54.978983],[42.3002192,54.9918206],[42.322334700000006,54.98782139999999],[42.36911320000001,55.007413],[42.3761672,55.003590300000006],[42.3887032,55.0067515],[42.414453599999995,55.0070131],[42.4288778,55.012760300000004],[42.4452747,55.02552540000001],[42.4854902,55.009354900000005],[42.48531380000001,54.990791900000005],[42.445453,54.9646533],[42.4616342,54.950431599999995],[42.46253110000001,54.942449499999995],[42.4936756,54.9195425],[42.4944196,54.907707099999996],[42.47188449999999,54.898129000000004],[42.45762959999999,54.8779939],[42.4437863,54.88364349999999],[42.424933200000005,54.861604699999994],[42.4429067,54.856080899999995],[42.439604599999996,54.85308619999999],[42.4390987,54.843107599999996],[42.4495742,54.8335097],[42.442326,54.82539860000001],[42.407355800000005,54.842368900000004],[42.396195000000006,54.830854099999996],[42.3891004,54.830206999999994],[42.39368439999999,54.8122633],[42.4268297,54.8148528],[42.41644049999999,54.803280799999996],[42.4218061,54.79894780000001],[42.404156300000004,54.7917604],[42.3891026,54.7896666],[42.388067199999995,54.780685999999996],[42.4156763,54.7604714],[42.4082371,54.7534757],[42.394125900000006,54.75013680000001],[42.42890980000001,54.73914690000001],[42.42855830000001,54.72255750000001],[42.4199078,54.713416],[42.4150626,54.712365000000005],[42.414622599999994,54.7034749],[42.420503100000005,54.70679270000001],[42.4283872,54.706169800000005],[42.4301212,54.70971840000001],[42.441540599999996,54.7143642],[42.4398066,54.70971560000001],[42.4784005,54.69056520000001],[42.4834192,54.69216300000001],[42.4833312,54.70012020000001],[42.490433200000005,54.700619800000005],[42.494069599999996,54.6974204],[42.4958867,54.700523800000006],[42.492599500000004,54.70252070000001],[42.502632000000006,54.703926100000004],[42.5407555,54.684936300000004],[42.5392524,54.678406200000005],[42.5419361,54.67501130000001],[42.569950500000004,54.6802632],[42.5734111,54.6839651],[42.57531850000001,54.69557260000001],[42.5900091,54.7044667],[42.5904625,54.69286530000001],[42.5954248,54.698135100000016],[42.60371210000001,54.699547100000004],[42.6199086,54.6853314],[42.6271897,54.683784499999994],[42.623520000000006,54.6806761],[42.641204099999996,54.6747941],[42.642816800000006,54.6714533],[42.6372291,54.6664637],[42.620712800000014,54.663259100000005],[42.6145063,54.6582072],[42.6041091,54.6416008],[42.598404200000004,54.641644199999995],[42.5975215,54.63557070000001],[42.608720100000006,54.62753330000001],[42.618448300000004,54.6326206],[42.6313295,54.629659700000005],[42.6278297,54.6274254],[42.628984200000005,54.621733500000005],[42.622046600000004,54.6198105],[42.6210344,54.61169949999999],[42.6236774,54.607785],[42.651266699999994,54.5875947],[42.661989,54.58786769999999],[42.691248,54.5805068],[42.684721499999995,54.57466449999999],[42.685157200000006,54.571545],[42.69175210000001,54.5718439],[42.69209370000001,54.5696544],[42.677089599999995,54.5684715],[42.672450700000006,54.57119230000001],[42.66591480000001,54.569017800000005],[42.657690599999995,54.5724888],[42.6512086,54.5684836],[42.634187499999996,54.569684099999996],[42.618617,54.566655700000005],[42.60673560000001,54.5610431],[42.6115486,54.557455499999996],[42.629413500000005,54.55484949999999],[42.61533290000001,54.5478281],[42.59832680000001,54.54626759999999],[42.617425,54.5317174],[42.6314144,54.49310930000001],[42.6113857,54.4892962],[42.605800900000006,54.510068],[42.59206330000001,54.5020067],[42.5636416,54.50571030000001],[42.566036600000004,54.50223590000001],[42.5615955,54.4952935],[42.549925800000004,54.485274],[42.5579955,54.4842128],[42.555335500000005,54.48121999999999],[42.562248600000004,54.4797195],[42.559512500000004,54.4790457],[42.5596322,54.4747828],[42.563048800000004,54.4737076],[42.546239,54.4528423],[42.5454977,54.443668699999996],[42.53577190000001,54.4367618],[42.552132400000005,54.42851110000001],[42.5674364,54.4427095],[42.5834195,54.4448122],[42.583645999999995,54.42570220000001],[42.6048171,54.4080064],[42.620873700000004,54.401895499999995],[42.62917130000001,54.3759237],[42.6108256,54.37511870000001],[42.5762482,54.3651714],[42.5436422,54.3728194],[42.5294824,54.3704169],[42.496360900000006,54.341516],[42.487848699999994,54.32873290000001],[42.493424499999996,54.3165223],[42.4934335,54.3083176],[42.4902691,54.3053826],[42.4774518,54.29883000000001],[42.4420239,54.28975590000001],[42.4054716,54.2847249],[42.399291399999996,54.272138100000014],[42.398669399999996,54.262941500000004],[42.38736439999999,54.253939900000006],[42.334506999999995,54.2536231],[42.327581599999995,54.249228900000006],[42.3223277,54.234661599999995],[42.3012319,54.226274700000005],[42.260524200000006,54.23857600000001],[42.24010270000001,54.2394804],[42.20719020000001,54.254411],[42.1918768,54.2532746],[42.164255100000005,54.258241399999996],[42.196699800000005,54.231292800000006],[42.2262217,54.22401370000001],[42.2077954,54.21835610000001],[42.2171236,54.2119808],[42.2174037,54.206729200000005],[42.202561800000005,54.1885745],[42.233726600000004,54.18402639999999],[42.2368838,54.18230200000001],[42.223020600000005,54.1747819],[42.245937100000006,54.167273900000005],[42.2549306,54.17650830000001],[42.23881550000001,54.1820854],[42.23673250000001,54.18905590000001],[42.2536739,54.18876890000001],[42.256478300000005,54.1856842],[42.2539603,54.1833896],[42.255514600000005,54.17630810000001],[42.24210690000001,54.16279300000001],[42.260422000000005,54.158520700000004],[42.26316510000001,54.16237190000001],[42.288780900000006,54.153744399999994],[42.312082999999994,54.1526576],[42.3128135,54.1496939],[42.3236681,54.1579306],[42.3443233,54.1591858],[42.3499596,54.163033500000004],[42.353812399999995,54.175762600000006],[42.339547599999996,54.19145890000001],[42.387229299999994,54.2067892],[42.391277599999995,54.205406700000005],[42.3928318,54.2095841],[42.36554520000001,54.2186206],[42.391729,54.241036],[42.39593080000001,54.254559300000004],[42.434501499999996,54.2571117],[42.4599919,54.2396546],[42.4669858,54.22873720000001],[42.4822118,54.218894399999996],[42.489690499999995,54.2150477],[42.5141956,54.2124669],[42.544442399999994,54.19336890000001],[42.5702892,54.183396900000005],[42.572213600000005,54.17883830000001],[42.58550530000001,54.178230400000004],[42.5994884,54.184884999999994],[42.60812310000001,54.1748008],[42.62473560000001,54.171281699999994],[42.632862200000005,54.164872],[42.6503857,54.166465200000005],[42.6540111,54.1614632],[42.668429800000006,54.1566513],[42.6890737,54.129277900000005],[42.6752914,54.1276241],[42.6672647,54.13648739999999],[42.6673974,54.1424704],[42.65521890000001,54.141198200000005],[42.653763399999995,54.145316400000006],[42.596278100000006,54.1536707],[42.596317500000005,54.157631099999996],[42.579342000000004,54.1654296],[42.5554858,54.1535669],[42.560911700000005,54.148872600000004],[42.54631830000001,54.143319500000004],[42.53377590000001,54.1484601],[42.52545270000001,54.1475901],[42.520951600000004,54.1347212],[42.5267679,54.12450090000001],[42.53611520000001,54.116775200000006],[42.551566699999995,54.12123570000001],[42.57214290000001,54.083318000000006],[42.49811610000001,54.070114700000005],[42.485247099999995,54.07833280000001],[42.4747097,54.07733890000001],[42.459688899999996,54.085039200000004],[42.45006709999999,54.1036486],[42.4538355,54.1114348],[42.45182799999999,54.122406500000004],[42.4339967,54.12041880000001],[42.4337819,54.1168312],[42.417403099999994,54.1030404],[42.37624099999999,54.09865090000001],[42.370980599999996,54.0962225],[42.3795724,54.091138400000006],[42.3719225,54.0876125],[42.36184149999999,54.08645],[42.35568649999999,54.09041220000001],[42.3446789,54.0858035],[42.3322235,54.085165800000006],[42.329633900000005,54.0875018],[42.312542900000004,54.082722200000006],[42.30682639999999,54.0844337],[42.3007325,54.09039890000001],[42.308121,54.092712700000014],[42.3032736,54.099907],[42.326841099999996,54.1066057],[42.325446,54.111248599999996],[42.335122600000005,54.12195200000001],[42.3261612,54.12274910000001],[42.283734200000005,54.1049537],[42.289706200000005,54.0964401],[42.261957300000006,54.0876559],[42.292302200000016,54.0628424],[42.3259915,54.0515468],[42.34406109999999,54.0322974],[42.351539599999995,54.02873160000001],[42.356217599999994,54.016038800000004],[42.364858399999996,54.0188226],[42.4172429,54.0100426],[42.434245,54.0041585],[42.44466919999999,53.99607530000001],[42.4379201,53.985907499999996],[42.44042149999999,53.98189109999999],[42.439605900000004,53.958280699999996],[42.44489469999999,53.9424863],[42.4390307,53.9398143],[42.404975300000004,53.938383],[42.393151200000005,53.926537700000004],[42.383272,53.9235291],[42.377956399999995,53.912184399999994],[42.3706385,53.9073196],[42.35742719999999,53.8883016],[42.3495598,53.8667905],[42.35096939999999,53.853729099999995]]]]}}