{"type":"Feature","properties":{"regionId":"sakhalinskaya_oblast","name":"Сахалинская область","name:en":"Sakhalin Oblast","name_ru":"Сахалинская область","name_en":"Sakhalin Oblast","name_zh":"萨哈林州"},"geometry":{"type":"MultiPolygon","coordinates":[[[[141.5598689,46.26873410000001],[141.55617690000003,46.2144392],[141.54551919999997,46.178445200000006],[141.52246650000004,46.14033980000001],[141.4882542,46.1059715],[141.4357385,46.0727819],[141.3621639,46.0438287],[141.3167304,46.0307977],[141.26155489999996,46.02271660000001],[141.20336659999998,46.02239090000001],[141.14452669999997,46.030592500000004],[141.08277710000002,46.048922000000005],[141.0328758,46.072168100000006],[140.9857781,46.10554580000001],[140.95328680000003,46.14071230000001],[140.93245750000003,46.17857620000001],[140.92274830000005,46.222381600000006],[140.92503770000002,46.297343500000004],[140.931624,46.32870230000001],[140.95034580000004,46.3671079],[140.9809906,46.403125100000004],[141.0233292,46.4354901],[141.07505169999996,46.460953200000006],[141.14152769999998,46.4823064],[141.2078206,46.49217110000001],[141.2672913,46.4918293],[141.32638880000005,46.48284759999999],[141.38159690000003,46.465498100000005],[141.4302257,46.4406527],[141.4925733,46.396036],[141.52714600000004,46.360238300000006],[141.55119430000002,46.316458399999995],[141.5576114,46.29277790000001],[141.5598689,46.26873410000001]]],[[[156.3093053,51.071689199999994],[156.5848693,50.85169059999999],[156.83176790000002,50.6867341],[156.7760265,50.649326800000004],[156.69557279999998,50.5484317],[156.6643459,50.516227699999995],[156.6241954,50.4883443],[156.3696568,50.3524463],[156.2887202,50.29074880000001],[156.2340461,50.24013330000001],[156.19195559999997,50.186595800000006],[156.13808509999998,50.127400200000004],[156.09994509999999,50.100101300000006],[156.00657089999999,50.044358700000004],[155.96347419999998,50.022784800000004],[155.91520730000002,50.0063917],[155.86032050000003,49.99233060000001],[155.75655549999996,49.9722304],[155.66128690000002,49.88606839999999],[155.6207904,49.8599507],[155.5640609,49.831554399999995],[155.51425469999995,49.812830999999996],[155.4599705,49.8003924],[155.4030776,49.7946667],[155.22114130000003,49.6597394],[155.2299873,49.62317930000001],[155.2279649,49.5835854],[155.22247480000001,49.5639244],[155.20024569999998,49.518534200000005],[155.1887802,49.4839687],[155.14481179999999,49.29262820000001],[155.1278425,49.251549399999995],[155.0999058,49.207306200000005],[155.08433960000002,49.1896259],[155.0385079,49.152565100000004],[155.00918519999996,49.1357494],[154.8191204,48.9599681],[154.7988343,48.9462293],[154.7508302,48.9216058],[154.6886191,48.899698300000004],[154.48309650000002,48.7672449],[154.45945559999998,48.736834],[154.4113027,48.69450890000001],[154.2495468,48.585911900000006],[154.128892,48.4469273],[154.07167569999996,48.397280499999994],[154.0517916,48.3833292],[154.0064939,48.359542399999995],[153.95523980000004,48.34194719999999],[153.8999082,48.33118739999999],[153.8425228,48.3276561],[153.7851793,48.331482599999994],[153.7038063,48.350640199999994],[153.56908569999996,48.2845997],[153.5981654,48.072519400000004],[153.59632530000002,48.05178409999999],[153.58311559999999,48.011252999999996],[153.56245230000002,47.96830630000001],[153.539334,47.9349926],[153.35262480000003,47.71887220000001],[153.3255831,47.652042200000004],[153.29286069999998,47.607706900000004],[153.24369789999997,47.567350600000005],[153.1402903,47.4737785],[153.1077786,47.440438900000004],[153.07852119999998,47.40167039999999],[153.04881930000002,47.37388439999999],[152.793196,47.2164935],[152.76372659999998,47.1854926],[152.74305659999996,47.16961690000001],[152.6752096,47.1317925],[152.5375034,47.02515730000001],[152.50249950000003,46.988209499999996],[152.47129750000002,46.966175400000004],[152.3767653,46.867763399999994],[152.2373345,46.7614405],[152.21250089999998,46.745832500000006],[152.1270602,46.70532990000001],[152.0749213,46.6722978],[152.02227230000003,46.6319208],[151.98343210000002,46.6100733],[151.89839020000002,46.58066739999999],[151.8449177,46.5711779],[151.78981499999998,46.568822700000005],[151.7481079,46.5716139],[151.6723341,46.584540999999994],[151.63561579999998,46.59515190000001],[151.59947119999998,46.609076200000004],[151.56254730000003,46.628582400000006],[151.5171798,46.66015020000001],[151.48849490000003,46.6870992],[151.43477559999997,46.76454270000001],[151.4258955,46.782273100000005],[151.4155484,46.819053],[151.4141773,46.8377799],[151.41567399999997,46.858824899999995],[151.42612960000002,46.8966971],[151.447012,46.9324872],[151.4716839,46.9603497],[151.5064725,46.990399700000005],[151.5439171,47.0130557],[151.75403469999998,47.1036067],[151.81094280000002,47.1317268],[151.8362959,47.150085499999996],[151.94508499999998,47.2688671],[151.98804570000001,47.301715800000004],[152.1529626,47.4496552],[152.185796,47.4849731],[152.21589409999996,47.5075237],[152.25894900000003,47.5328797],[152.2971492,47.5502101],[152.3278841,47.560878],[152.3847549,47.5732976],[152.5901501,47.6698747],[152.63401199999998,47.704134],[152.6721921,47.76356990000001],[152.68231600000004,47.8045707],[152.7010966,47.8384087],[152.7546271,47.90033290000001],[152.79045219999998,47.93168169999999],[152.86306309999998,48.0882648],[152.86359439999998,48.1174125],[152.8690133,48.145366900000006],[152.94348119999998,48.3429095],[152.9617597,48.37882],[152.97453449999998,48.3958205],[153.00707569999997,48.4270144],[153.03066369999996,48.4441733],[153.09924850000002,48.47752739999999],[153.17919479999998,48.4967346],[153.27486569999994,48.5003462],[153.3173958,48.79967510000001],[153.26340249999998,48.826449399999994],[153.22613630000004,48.8541002],[153.19390399999997,48.8902955],[153.1721116,48.9305621],[153.1637864,48.9729607],[153.1692313,49.0160252],[153.1841713,49.0535283],[153.21797279999998,49.09870210000001],[153.25537549999999,49.129954700000006],[153.3015053,49.15571580000001],[153.3545342,49.174958100000005],[153.42605650000002,49.188785800000005],[153.4890951,49.19297060000001],[153.5207701,49.1918116],[153.56518640000002,49.1863297],[153.8748998,49.16752820000001],[153.94266,49.172639600000004],[154.2179248,49.294117500000006],[154.31604830000003,49.418455800000004],[154.19631180000002,49.5928496],[154.1643353,49.613529],[154.1267877,49.644187499999994],[154.0991262,49.6790068],[154.08935569999997,49.697566],[154.07841840000003,49.73609510000001],[154.08102080000003,49.79911650000001],[154.10236700000002,49.85979139999999],[154.1264451,49.8978782],[154.1621287,49.9319626],[154.186696,49.9488066],[154.2318249,49.972937900000005],[154.28161319999998,49.9918239],[154.35284670000004,50.009510500000005],[154.384372,50.01408639999999],[154.4487845,50.0167688],[154.49211490000002,50.01444169999999],[154.65723680000005,50.1378813],[154.6429989,50.1821015],[154.64179339999998,50.204702600000005],[154.64384569999996,50.22377000000001],[154.6561649,50.260603800000005],[154.67907439999996,50.295296500000006],[154.7000683,50.31700339999999],[154.74007389999997,50.3479926],[154.76354279999998,50.3613933],[154.83155469999997,50.3896022],[155.10059009999998,50.4836422],[155.24195759999998,50.5181818],[155.30533440000002,50.5384854],[155.39102040000003,50.5560049],[155.29390769999998,50.6725841],[155.24501959999998,50.7031264],[155.2063456,50.73865930000001],[155.1838694,50.7715211],[155.1547209,50.8235545],[155.14704,50.843683899999995],[155.1414676,50.8886124],[155.14956429999995,50.929003300000005],[155.1849729,50.995118900000016],[155.21397239999996,51.0274713],[155.2520147,51.0558639],[155.27402819999998,51.06825930000001],[155.30360569999996,51.0817546],[155.35664780000005,51.099723600000004],[155.4141575,51.111027699999994],[155.50421640000002,51.1210405],[155.6078995,51.11831720000001],[155.6592885,51.111718800000006],[155.77317619999997,51.088334100000004],[156.1108269,50.9696706],[156.1502044,50.984008499999995],[156.2058319,51.010838],[156.27197379999998,51.0324746],[156.3093053,51.071689199999994]]],[[[151.20800069999999,46.5435095],[151.207867,46.523042100000005],[151.1985476,46.4826699],[151.17755709999997,46.44444769999999],[151.1509257,46.4091994],[151.0714826,46.3216452],[150.82227550000002,46.10221070000001],[150.7807417,46.075483999999996],[150.67660429999998,46.02937000000001],[150.61014830000002,45.9883314],[150.55141350000002,45.9569012],[150.5357471,45.9433116],[150.4178149,45.81586119999999],[150.324058,45.7443605],[150.2615489,45.7097295],[150.20077549999996,45.669021],[150.17654199999998,45.6567699],[150.06530830000003,45.6194957],[150.0181679,45.59377880000001],[149.87971109999998,45.4910092],[149.8359796,45.4630827],[149.70167299999997,45.4096829],[149.63089409999998,45.385079499999996],[149.603748,45.3786175],[149.5473922,45.371605699999996],[149.40810810000002,45.3736382],[149.14585599999998,45.326270300000004],[149.1105413,45.2668054],[149.0732089,45.22021480000001],[149.0368565,45.1908697],[148.99472169999999,45.167632600000005],[148.9471887,45.1503966],[148.61974969999997,45.074795200000004],[148.5117138,45.04630230000001],[148.4088002,45.01125139999999],[148.31473269999998,44.9646599],[148.260727,44.930165200000005],[148.2303101,44.906338600000005],[148.21472299999996,44.889002999999995],[148.18211780000004,44.8615491],[148.08343940000003,44.806366499999996],[148.0544007,44.791876800000004],[148.0053122,44.774507],[147.9766985,44.767961],[147.90446640000002,44.759058200000005],[147.7882802,44.703425900000006],[147.75903259999998,44.6798355],[147.7222016,44.6573125],[147.64466199999995,44.61498459999999],[147.5598661,44.5738107],[147.5461085,44.562149500000004],[147.5088658,44.503438100000004],[147.4748487,44.4707963],[147.37487449999998,44.4066334],[147.17814130000002,44.3029683],[147.146187,43.9564108],[147.174418,43.9157447],[147.18803380000003,43.8855032],[147.193627,43.864466699999994],[147.1953591,43.821702],[147.18113000000002,43.76526390000001],[147.1619121,43.729871],[147.14040930000002,43.7035844],[147.12320019999999,43.686046399999995],[147.08155019999998,43.6554747],[146.95503880000004,43.581572],[146.91263030000002,43.56413560000001],[146.77690219999997,43.5213544],[146.6043166,43.4196119],[146.55551469999997,43.396568300000006],[146.37849050000003,43.28928439999999],[146.3565033,43.270692100000005],[146.3154812,43.2449073],[146.2683543,43.22550380000001],[146.11750089999998,43.17773390000001],[146.0592882,43.1775632],[145.841593,43.381510999999996],[145.834822,43.395604],[145.7594155,43.5020499],[145.44735830000002,43.62330000000001],[145.27875089999998,43.73555670000001],[145.27635909999998,43.83973220000001],[145.32012500000002,43.94042739999999],[145.51388289999997,44.132048100000006],[145.63749660000002,44.30161],[145.72781750000001,44.43855820000001],[145.83894830000006,44.5739821],[145.88311790000003,44.6163435],[145.9473717,44.6602491],[145.9933728,44.6834431],[146.02443490000002,44.6946043],[146.0932986,44.7101375],[146.1566067,44.7169025],[146.21932309999997,44.713672800000005],[146.2711089,44.70331730000001],[146.33791700000003,44.67671530000001],[146.51968329999997,44.66579070000001],[146.7248315,44.75165],[146.74426669999997,44.7684274],[146.86749230000004,44.9275977],[146.91398469999996,44.967393300000005],[146.9427782,44.9845738],[146.9841643,45.0028806],[147.1394434,45.049500200000004],[147.1909045,45.0749297],[147.23096059999997,45.1805271],[147.25330419999997,45.214050300000004],[147.2840411,45.2440772],[147.32212250000003,45.26957090000001],[147.35236850000004,45.2852284],[147.52013620000002,45.34228459999999],[147.61969579999996,45.494286699999996],[147.6368603,45.51449409999999],[147.69989219999997,45.569821],[147.75775359999997,45.601944399999994],[147.7978226,45.61788709999999],[147.84466329999998,45.63037580000001],[147.92570419999998,45.63834010000001],[147.97865299999998,45.6348113],[148.0480217,45.6186488],[148.3479337,45.61086339999999],[148.38983950000002,45.6417624],[148.4638089,45.6875262],[148.52138860000002,45.715405200000006],[148.5819746,45.731989],[148.67884740000002,45.7498455],[148.73090019999998,45.755875800000005],[148.81990269999997,45.753818300000006],[148.89610760000002,45.7459695],[148.9636397,45.72945290000001],[149.20086899999998,45.7576543],[149.2361904,45.7890931],[149.2622441,45.8061925],[149.33100940000003,45.8676993],[149.40826130000002,45.9462252],[149.44983569999997,45.9814123],[149.5080796,46.0174336],[149.64472469999995,46.080921499999995],[149.75548880000002,46.185324],[149.79769309999998,46.216776800000005],[149.82221770000004,46.229952300000015],[149.89040790000004,46.256902600000004],[150.04302539999998,46.3467146],[150.1720003,46.3975971],[150.22075589999997,46.41214],[150.27545619999998,46.421564],[150.3649049,46.4274737],[150.4766863,46.52214230000001],[150.45690030000003,46.62306890000001],[150.43492790000002,46.655661599999995],[150.42098040000002,46.69535420000001],[150.4190693,46.740574200000005],[150.42537840000003,46.769899300000006],[150.44060589999998,46.805995900000006],[150.46542830000004,46.839493],[150.50802610000002,46.8758117],[150.57101459999998,46.9105637],[150.61977549999995,46.9265044],[150.68041700000003,46.9370402],[150.7110376,46.9388859],[150.77227630000002,46.93590880000001],[150.82221260000003,46.9271416],[150.87366169999996,46.9131457],[150.920294,46.892723800000006],[150.94435199999998,46.8783195],[150.990169,46.8400062],[151.01571819999998,46.8072859],[151.1677255,46.6376334],[151.1881529,46.6075419],[151.1991923,46.583937],[151.20800069999999,46.5435095]]],[[[141.41440459999998,51.56133280000001],[141.4167061,51.621619700000004],[141.5900396,52.126620200000005],[141.59170640000002,52.2116202],[141.52337319999998,52.4282871],[141.6367072,53.1632876],[141.708374,53.2382876],[141.59170740000002,53.338287799999996],[141.4682567,53.59107830000001],[141.62354919999999,53.599386],[141.7589442,53.62538000000001],[141.79480059999997,53.635946700000005],[142.0373855,53.7099884],[142.25693730000003,53.812246099999996],[142.30717930000003,53.843466899999996],[142.2961991,53.916046599999994],[142.15034710000003,54.0244262],[142.1114305,54.0646581],[142.093422,54.0898238],[142.0296178,54.1529066],[141.9974731,54.17245270000001],[141.9665203,54.1979442],[141.9338693,54.240098],[141.91791930000002,54.2819202],[141.91575339999997,54.3056207],[141.9206629,54.340330200000004],[141.9391282,54.3797906],[141.9540515,54.3993704],[141.99501,54.4361234],[142.04296680000002,54.464378800000006],[142.09985849999998,54.48688919999999],[142.47663119999999,54.5823005],[142.53735840000002,54.604534],[142.5984007,54.617841299999995],[142.6983543,54.62598080000001],[142.7960334,54.6189455],[142.85315630000002,54.6066335],[142.9026584,54.5918852],[142.95612080000004,54.568768600000006],[143.0008366,54.5400764],[143.03512930000002,54.50689739999999],[143.1007928,54.407523999999995],[143.1480962,54.351388099999994],[143.18472269999998,54.3206042],[143.22004600000002,54.2835448],[143.26876019999997,54.239188000000006],[143.2921995,54.209159400000004],[143.3181029,54.1615796],[143.3355105,54.095041],[143.3335965,54.05528699999999],[143.30830080000004,53.9908984],[143.24021499999998,53.8567343],[143.2611271,53.814639199999995],[143.4625931,53.491958600000004],[143.5019821,53.422298500000004],[143.53449650000002,53.355718],[143.56991119999998,53.26675300000001],[143.5926608,53.19033660000001],[143.6206429,53.04825590000001],[143.646209,52.9384806],[143.6515349,52.8944987],[143.66346519999996,52.8595408],[143.666187,52.8235797],[143.653125,52.7590541],[143.64379889999998,52.570754],[143.63450539999997,52.5200237],[143.6079001,52.4247184],[143.5929619,52.3891973],[143.55360589999998,52.3232807],[143.51223740000003,52.2749847],[143.48638350000002,52.23917860000001],[143.4677015,52.20538580000001],[143.4652838,52.13919080000001],[143.4791033,52.06831450000001],[143.50671359999998,51.9994478],[143.5527045,51.91127469999999],[143.5869666,51.8558127],[143.62969479999998,51.7972695],[143.6489099,51.764134500000004],[143.7500992,51.5362177],[143.7851972,51.4115043],[143.79740890000002,51.3541343],[143.8455249,51.2458219],[143.91138030000002,51.0492995],[143.94722810000002,50.9203545],[143.9794275,50.8434157],[143.98422030000003,50.8232213],[143.98607280000002,50.75915820000001],[144.01184980000002,50.682056900000006],[144.01348969999998,50.611838999999996],[144.0172696,50.5863366],[144.0354946,50.5228668],[144.06384309999999,50.4416337],[144.09490569999997,50.368394],[144.1363954,50.2916241],[144.1748485,50.235743400000004],[144.2759464,50.1074936],[144.29318569999995,50.0797631],[144.3066818,50.036214300000005],[144.3148138,49.974989199999996],[144.35102490000003,49.908119600000006],[144.4086048,49.8272115],[144.4298885,49.778318700000014],[144.4346164,49.7496807],[144.43347169999998,49.687606699999996],[144.44950949999998,49.6589464],[144.5127075,49.59561250000001],[144.53481119999998,49.5563996],[144.54380769999997,49.5284745],[144.5466306,49.5072402],[144.5520835,49.3992062],[144.5869881,49.2916574],[144.62361439999998,49.2348376],[144.65899480000002,49.164948200000005],[144.72918469999996,49.1113887],[144.86624390000003,49.032671900000004],[144.92716710000002,48.9863454],[144.95898240000002,48.9545396],[144.971282,48.937283199999996],[144.98811670000003,48.9008512],[145.00372549999997,48.8101393],[145.0429918,48.68857080000001],[145.0501452,48.6525345],[145.04977759999997,48.63241890000001],[145.03993830000002,48.59276880000001],[145.0176109,48.5542239],[144.97842330000003,48.5147601],[144.91812960000001,48.478160900000006],[144.8397585,48.45220749999999],[144.7785693,48.44275890000001],[144.65624780000005,48.4394037],[144.57161069999998,48.4505261],[144.5193209,48.4666564],[144.47258469999997,48.4891099],[144.4331135,48.517067899999994],[144.4023606,48.5495098],[144.38146750000004,48.5852492],[144.3749791,48.6039498],[144.3391248,48.73564230000001],[144.289473,48.794046800000004],[144.2532365,48.821391399999996],[144.11582409999997,48.8982704],[144.0319715,48.9666472],[143.95351780000001,49.0386677],[143.8947291,49.07677270000001],[143.71558679999998,49.1038174],[143.5979584,49.11599880000001],[143.564169,49.1167936],[143.5241122,49.1152798],[143.4234012,49.1038633],[143.35939860000002,49.0878312],[143.31056149999998,49.06675560000001],[143.28589549999998,48.9669213],[143.2900966,48.932850800000004],[143.28687680000002,48.9031272],[143.27438279999998,48.852302300000005],[143.2670372,48.835317100000005],[143.2351269,48.788571000000005],[143.13506219999996,48.6671866],[143.0930998,48.6025634],[143.07372999999998,48.555837],[143.03183640000003,48.480290499999995],[143.0181938,48.4456979],[143.0001334,48.3821092],[142.9661356,48.313794599999994],[142.94140230000002,48.248200000000004],[142.91794330000002,48.21113520000001],[142.8691729,48.0914096],[142.82692950000003,47.9346552],[142.82742630000007,47.848980499999996],[142.82343130000004,47.7960415],[142.841158,47.7477463],[142.86291910000003,47.705495400000004],[142.8936633,47.6594362],[142.929041,47.6191917],[143.03813050000002,47.56157280000001],[143.1295175,47.5082899],[143.1685111,47.4804121],[143.2019948,47.44488009999999],[143.2252141,47.40424949999999],[143.2842624,47.3368953],[143.2959078,47.3175593],[143.30999119999998,47.276942600000005],[143.3348744,47.1645801],[143.3351091,47.108296800000005],[143.6012081,47.01584939999999],[143.64864459999998,46.99241520000001],[143.6851441,46.967679499999996],[143.71688569999995,46.9391065],[143.74190569999996,46.9086913],[143.7622738,46.870484299999994],[143.7747968,46.815691099999995],[143.79941,46.73572780000001],[143.8097094,46.6462372],[143.82587469999999,46.545656900000004],[143.83082700000003,46.5311448],[143.8706335,46.477367799999996],[143.89054180000002,46.444328999999996],[143.903048,46.4013623],[143.90358109999997,46.3503733],[143.8986927,46.329602200000004],[143.87964680000002,46.2896957],[143.82940780000004,46.212599100000006],[143.7724492,46.14363290000001],[143.74355219999993,46.047190900000004],[143.72428969999999,46.011079599999995],[143.6782459,45.9403904],[143.6659919,45.9232111],[143.6347323,45.8916926],[143.59546740000002,45.8649056],[143.54963969999997,45.84382769999999],[143.4989252,45.8292272],[143.44517299999998,45.8216363],[143.36314140000002,45.8239255],[143.31041960000002,45.8344883],[143.26152219999997,45.85187039999999],[143.2363255,45.8644258],[143.1970798,45.890275700000004],[143.16543840000003,45.9207996],[143.15283380000002,45.937483199999996],[143.1386359,45.961702200000005],[143.1299948,45.9837564],[143.12241830000005,46.0124179],[143.10998359999996,46.0887891],[143.1118314,46.124324],[143.11923919999998,46.16521470000001],[143.1177928,46.22435000000001],[143.0643016,46.3240195],[142.93380459999997,46.4073699],[142.84726780000003,46.408042],[142.7683721,46.39891900000001],[142.58802130000004,46.335875900000005],[142.55250569999998,46.2614461],[142.54033710000002,46.2424064],[142.53686209999998,46.22949590000001],[142.53290080000002,46.17638230000001],[142.52033960000003,46.126556400000005],[142.49367389999998,46.0614469],[142.47019930000002,46.015484799999996],[142.45783740000005,45.9772487],[142.4307202,45.9300085],[142.34958999999998,45.8222673],[142.2917675,45.6560784],[141.90073880000003,45.71830080000001],[141.71642690000002,45.742254900000006],[141.7628407,45.8529555],[141.6771987,45.939908300000006],[141.6520721,45.9767397],[141.64366449999994,45.996301200000005],[141.6356114,46.0367012],[141.6323796,46.09930070000001],[141.60086419999996,46.276620900000005],[141.5726098,46.358476599999996],[141.54208549999998,46.432745700000005],[141.524919,46.50180769999999],[141.5203692,46.537374],[141.52071469999998,46.6181824],[141.5302066,46.6541879],[141.5714509,46.731222800000005],[141.58720430000002,46.76773580000001],[141.61152429999999,46.805074399999995],[141.64920949999998,46.884957899999996],[141.71686459999995,46.99771590000001],[141.7581661,47.12871240000001],[141.6909229,47.22676630000001],[141.67987049999996,47.251778],[141.67186369999996,47.284023999999995],[141.6602524,47.4417863],[141.6595409,47.5386666],[141.66660159999998,47.63310980000001],[141.675118,47.6696215],[141.6830898,47.6873218],[141.73377989999997,47.78273380000001],[141.7868961,47.8595366],[141.80006219999999,47.9133651],[141.8235906,47.95422839999999],[141.84315409999996,47.976120200000004],[141.8779502,48.05251290000001],[141.86892620000003,48.1177473],[141.86699950000002,48.16318270000001],[141.85245590000002,48.2273611],[141.85140710000005,48.2536291],[141.8396914,48.29032260000001],[141.78827840000002,48.357198499999996],[141.69022950000002,48.4628985],[141.62270610000002,48.5532788],[141.59279850000001,48.60031080000001],[141.5775328,48.631879399999995],[141.55267,48.717438800000004],[141.54556489999996,48.7754045],[141.5510921,48.8134531],[141.5589617,48.83673580000001],[141.5709853,48.8592327],[141.5899676,48.886826299999996],[141.6179338,48.9164422],[141.6788327,49.000847199999995],[141.7124835,49.0569439],[141.7269945,49.1645054],[141.73362049999997,49.1916965],[141.7647488,49.2798742],[141.7633325,49.3487498],[141.7672917,49.3759212],[141.7943574,49.4545712],[141.8316775,49.535808700000004],[141.8349041,49.5611224],[141.8473854,49.769263900000006],[141.8442248,49.8043731],[141.8296695,49.850018399999996],[141.82727400000002,49.8674421],[141.821554,49.962483999999996],[141.829153,50.0418132],[141.85654910000002,50.1304395],[141.844477,50.1873819],[141.8195978,50.26671190000001],[141.79405179999998,50.3773378],[141.75534600000003,50.439497599999996],[141.7421135,50.4720872],[141.73282980000002,50.508328000000006],[141.73062969999998,50.56011240000001],[141.74347669999997,50.6508551],[141.72837750000002,50.748141200000006],[141.7201765,50.77515050000001],[141.71931329999998,50.81469069999999],[141.73076499999996,50.853563799999996],[141.7541118,50.8902442],[141.8385049,50.9884012],[141.9240255,51.06364],[141.9309524,51.0780935],[141.87778930000002,51.1726714],[141.8370576,51.26661030000001],[141.79878730000001,51.3055743],[141.7853675,51.324169],[141.76946359999997,51.356043199999995],[141.7234665,51.41159149999999],[141.6233599,51.478607399999994],[141.5805806,51.5209094],[141.56857259999998,51.5282916],[141.41440459999998,51.56133280000001]]]]}}