{"type":"Feature","properties":{"regionId":"samarskaya_oblast","name":"Самарская область","name:en":"Samara Oblast","timezone":"Europe/Samara","name_ru":"Самарская область","name_en":"Samara Oblast","name_zh":"萨马拉州"},"geometry":{"type":"MultiPolygon","coordinates":[[[[52.3037242,53.32803870000001],[52.22370980000001,53.346327099999996],[52.23210480000001,53.3774033],[52.2408932,53.386909499999994],[52.240171800000006,53.3947711],[52.24673030000001,53.4011453],[52.3143104,53.3893283],[52.285097900000004,53.3397746],[52.3077249,53.3343838],[52.3037242,53.32803870000001]]],[[[50.76816280000001,51.773036600000005],[50.7190964,51.7880574],[50.717552500000004,51.819543499999995],[50.701438,51.81965749999999],[50.70171990000001,51.93297330000001],[50.64937630000001,51.933258300000006],[50.6492612,51.95868719999999],[50.61823210000001,51.9612011],[50.5972605,51.9573151],[50.5972031,51.963486599999996],[50.5212592,51.9638285],[50.52005810000001,51.9937717],[50.406228,51.99297020000001],[50.401999399999994,51.991655900000005],[50.402914,51.983427199999994],[50.3963997,51.98022709999999],[50.352399,51.9815408],[50.3521112,52.0448559],[50.308682,52.0447982],[50.3063401,52.014854899999996],[50.27805420000001,52.0107402],[50.218109600000005,52.03633980000001],[50.202852400000005,52.0309681],[50.183595000000004,52.0308535],[50.1819951,52.02639630000001],[50.1861095,52.0244535],[50.181938300000006,52.018110500000006],[50.175766700000004,52.0193104],[50.175652500000005,52.015824699999996],[50.167252600000005,52.0096531],[50.15639530000001,52.0098243],[50.16153810000001,52.01428159999999],[50.1595926,52.0906825],[50.224736400000005,52.090626300000004],[50.22342080000001,52.12931240000001],[50.17696290000001,52.132340400000004],[50.16370560000001,52.130568800000006],[50.16370530000001,52.1399975],[50.04513220000001,52.139653100000004],[50.039759000000004,52.190110800000014],[49.984901099999995,52.18851010000001],[49.985816,52.1716527],[49.798156200000015,52.17233600000001],[49.75026749999999,52.239021900000004],[49.742324200000006,52.248907700000004],[49.73443830000001,52.2519362],[49.741181,52.2592507],[49.73255190000001,52.26862210000001],[49.743866399999995,52.267193600000006],[49.7464671,52.270037800000004],[49.730245100000005,52.27311030000001],[49.72020290000001,52.26299910000001],[49.71719890000001,52.266676200000006],[49.72312120000001,52.2719286],[49.714752700000005,52.2756574],[49.714580999999995,52.2726114],[49.7014918,52.26578320000001],[49.7058692,52.2579033],[49.709731600000005,52.258743800000005],[49.709002000000005,52.254724599999996],[49.699389000000004,52.2543305],[49.703980900000005,52.246396000000004],[49.695827,52.2460807],[49.6828237,52.2520712],[49.67921880000001,52.251440599999995],[49.6803775,52.248603100000004],[49.669434100000004,52.24555520000001],[49.6702066,52.2405887],[49.6764293,52.24171870000001],[49.67909,52.2372511],[49.6794334,52.231968300000005],[49.67574260000001,52.228919300000015],[49.6696487,52.23202090000001],[49.660078500000004,52.231022100000004],[49.624494,52.247820399999995],[49.625808000000006,52.25850630000001],[49.629258400000005,52.26153660000001],[49.6272934,52.2674207],[49.6593505,52.2822213],[49.6010054,52.3217067],[49.637919600000004,52.3400503],[49.573917,52.3890787],[49.570031,52.39593580000001],[49.5474023,52.388106900000004],[49.53711630000001,52.3946782],[49.5202017,52.395763800000005],[49.5212312,52.3684491],[49.5103755,52.3242199],[49.45020339999999,52.3201619],[49.4454026,52.3398192],[49.450888199999994,52.345362200000004],[49.45088789999999,52.3537623],[49.42877300000001,52.3620478],[49.434657599999994,52.398619800000006],[49.4232858,52.4024483],[49.39168539999999,52.4037622],[49.3859141,52.395704800000004],[49.3457421,52.3978758],[49.32899990000001,52.37158949999999],[49.291341800000005,52.38478919999999],[49.2852846,52.383646199999994],[49.3102558,52.4008468],[49.3203696,52.4169042],[49.3203694,52.42261860000001],[49.314540599999994,52.4270757],[49.316826199999994,52.431704399999994],[49.325569,52.435076],[49.3268832,52.4407903],[49.320768300000005,52.453590399999996],[49.347968699999996,52.4535336],[49.3521398,52.464733800000005],[49.27916690000001,52.479133000000004],[49.2580818,52.496365700000005],[49.1714504,52.4997605],[49.168263200000005,52.472366900000004],[49.152278200000005,52.4793472],[49.1413981,52.477654199999996],[49.1256514,52.4822105],[49.118715400000006,52.48026169999999],[49.108274200000004,52.494800999999995],[49.0376283,52.4806229],[48.960311700000005,52.49251350000001],[48.9565688,52.4719931],[48.9123297,52.46845690000001],[48.923149200000005,52.4076326],[48.8817148,52.40825220000001],[48.8772202,52.4311271],[48.8371203,52.53292830000001],[48.83424769999999,52.54766839999999],[48.79878190000001,52.54291030000001],[48.72701560000001,52.543012700000006],[48.69297930000001,52.63953620000001],[48.635552300000015,52.641022],[48.635225600000005,52.6306642],[48.574395100000004,52.6273274],[48.562456100000006,52.6545637],[48.551073699999996,52.656716200000005],[48.5528258,52.6602314],[48.546356700000004,52.66875920000001],[48.5310298,52.6748908],[48.52713380000001,52.67335430000001],[48.528204,52.66590480000001],[48.52059800000001,52.665135100000015],[48.5192262,52.676613],[48.523237800000004,52.68264],[48.5151873,52.681962],[48.509951300000004,52.6754867],[48.498069,52.6760279],[48.4949484,52.6724805],[48.497751,52.6692074],[48.4864021,52.668787800000004],[48.483954399999995,52.6713809],[48.4750931,52.668037600000005],[48.463459,52.680643599999996],[48.4342379,52.6672996],[48.3494252,52.661996],[48.34442949999999,52.67453630000001],[48.30789749999999,52.683012000000005],[48.3358837,52.69554010000001],[48.3495426,52.7056855],[48.36291730000001,52.727508400000005],[48.36557030000001,52.74913720000001],[48.3755747,52.768161600000006],[48.428632400000005,52.814406899999994],[48.4535731,52.825236100000005],[48.498976600000006,52.83146429999999],[48.5716301,52.859531399999995],[48.5798166,52.8644305],[48.5893013,52.8761335],[48.5924764,52.88468679999999],[48.588748700000004,52.8958018],[48.57615870000001,52.90886139999999],[48.516525900000005,52.952275300000004],[48.51126659999999,52.951577699999994],[48.499645300000005,52.940518700000005],[48.449405,52.952113700000005],[48.43911330000001,52.972606999999996],[48.408605900000005,52.9690603],[48.35983399999999,52.957324199999995],[48.3530569,52.9734513],[48.3717549,52.99315010000001],[48.3479068,52.9965275],[48.3439431,52.991287799999995],[48.325121800000005,52.9973449],[48.3278859,53.00393030000001],[48.334382999999995,53.0032869],[48.339763,53.01086839999999],[48.3395735,53.015846999999994],[48.3456227,53.0217595],[48.34684749999999,53.027652800000006],[48.363359900000006,53.0477602],[48.3637754,53.05535890000001],[48.3199683,53.062312200000015],[48.3274086,53.0693665],[48.2491915,53.065620300000006],[48.224548500000004,53.0047467],[48.19589570000001,53.008790700000006],[48.2045075,53.030565200000005],[48.188828,53.0356],[48.1918754,53.040281799999995],[48.1868379,53.0418288],[48.176026900000004,53.02933800000001],[48.156775,53.040902300000006],[48.153408999999996,53.0386803],[48.136842800000004,53.0505278],[48.12315070000001,53.0515709],[48.152256200000004,53.076100700000005],[48.17031220000001,53.1016602],[48.1887811,53.1092706],[48.20333580000001,53.122203400000004],[48.20803420000001,53.12305870000001],[48.2122017,53.137432100000005],[48.2001665,53.137776900000006],[48.183315400000005,53.144771399999996],[48.165901100000006,53.147342200000004],[48.16210260000001,53.1510522],[48.1708033,53.1567499],[48.1604679,53.165274000000004],[48.150486099999995,53.166819700000005],[48.143538500000005,53.17244590000001],[48.107790900000005,53.1797806],[48.1117787,53.204457],[48.160831800000004,53.23290990000001],[48.1426656,53.246231800000004],[48.099233500000004,53.254308300000005],[48.09957930000001,53.26270520000001],[48.0892451,53.27232380000001],[48.08069739999999,53.2670944],[48.05687339999999,53.26801040000001],[48.0382596,53.2830657],[48.03273200000001,53.283347],[48.0308106,53.2870186],[48.0242295,53.2862657],[48.02271250000001,53.288994900000006],[48.025896700000004,53.291651200000004],[48.0384771,53.291383200000006],[48.0384634,53.299629800000005],[47.9398308,53.3355576],[47.94108359999999,53.3380081],[47.94686949999999,53.337080699999994],[47.9556259,53.3441382],[47.9494354,53.347017099999995],[47.9392886,53.360482999999995],[47.9304408,53.3615992],[47.9454455,53.372315400000005],[47.9547368,53.3732037],[47.956752800000004,53.381230599999995],[47.96961530000001,53.38088009999999],[47.9755984,53.395180100000005],[47.99930690000001,53.40055],[47.9935214,53.416677099999994],[48.0062269,53.4204688],[48.005447499999995,53.432774300000005],[48.017834699999995,53.4354372],[48.0260247,53.422077200000004],[48.030317700000005,53.4228066],[48.0495194,53.4428068],[48.027898900000004,53.4446709],[48.023362600000006,53.449575100000004],[48.023185700000006,53.4569951],[48.03581690000001,53.4713054],[48.0765472,53.4744056],[48.09853710000001,53.4858037],[48.11764699999999,53.4772822],[48.123090100000006,53.4866312],[48.1358071,53.4888099],[48.1475345,53.48406959999999],[48.144569499999996,53.4724057],[48.13996290000001,53.4694077],[48.142127200000004,53.466360200000004],[48.16513340000001,53.469930100000006],[48.1805317,53.4668497],[48.17245830000001,53.47031870000001],[48.1746011,53.479686099999995],[48.1882672,53.48786419999999],[48.19044890000001,53.4862043],[48.208164700000005,53.4919548],[48.209362600000006,53.48785739999999],[48.2132809,53.4913492],[48.23031190000001,53.49071210000001],[48.236504200000006,53.484095399999994],[48.234478700000004,53.4811429],[48.2376524,53.483792300000005],[48.24256890000001,53.4809989],[48.2494628,53.48227],[48.2443061,53.47766839999999],[48.2505571,53.4745767],[48.257049499999994,53.476873499999996],[48.2580655,53.472810100000004],[48.243932400000006,53.4648599],[48.24786339999999,53.4617241],[48.2547531,53.469232500000004],[48.26568210000001,53.472917800000005],[48.26292660000001,53.4700217],[48.269400600000004,53.46363],[48.27457810000001,53.4644148],[48.28437590000001,53.45768089999999],[48.287745,53.464046399999994],[48.29709580000001,53.470410900000005],[48.298952200000016,53.4762221],[48.3050372,53.479331900000005],[48.311156499999996,53.47215030000001],[48.319243699999994,53.469239800000004],[48.326823999999995,53.476950800000004],[48.333114300000005,53.4770963],[48.335595100000006,53.474816999999994],[48.3244038,53.4714226],[48.3346363,53.4720945],[48.341001799999994,53.46861330000001],[48.3693885,53.4738506],[48.372541,53.4826242],[48.3683945,53.48244],[48.3671134,53.4903017],[48.3725007,53.518038700000005],[48.3690554,53.525900400000005],[48.3821281,53.545554900000006],[48.395025000000004,53.542993300000006],[48.400942900000004,53.55513930000001],[48.3949361,53.5557134],[48.405050300000006,53.5591586],[48.4065076,53.56375200000001],[48.4186536,53.56379630000001],[48.4552686,53.5486917],[48.465294300000004,53.55624439999999],[48.4612308,53.55889439999999],[48.4636598,53.5644594],[48.45964059999999,53.5644594],[48.4556653,53.569582700000005],[48.4492172,53.56335510000001],[48.442813,53.5630016],[48.437645399999994,53.564105700000006],[48.434641799999994,53.5689641],[48.3938757,53.5670202],[48.39351820000001,53.5838782],[48.36847890000001,53.5865858],[48.3452026,53.593475600000005],[48.3404782,53.605056600000005],[48.3493967,53.653099399999995],[48.367345900000004,53.6426498],[48.3735017,53.6438625],[48.3758581,53.648171600000005],[48.3837142,53.6462998],[48.38848419999999,53.6484641],[48.3964346,53.639807399999995],[48.39250390000001,53.635479000000004],[48.403811,53.62673410000001],[48.409861899999996,53.627308400000004],[48.4163104,53.6228476],[48.41851880000001,53.6238634],[48.4187391,53.6372902],[48.4106124,53.6366718],[48.4133506,53.6392777],[48.3973618,53.64837580000001],[48.415072900000006,53.6465211],[48.4198393,53.6537145],[48.4170337,53.655634],[48.4409541,53.6557665],[48.4384861,53.65211490000001],[48.445813,53.6496573],[48.457075599999996,53.649745800000005],[48.4608739,53.6528376],[48.4731688,53.6436831],[48.4813099,53.64337630000001],[48.48464699999999,53.644397399999995],[48.48746049999999,53.652827599999995],[48.49921220000001,53.6490443],[48.5329474,53.6668705],[48.5076539,53.670754900000006],[48.51703139999999,53.6771808],[48.5138505,53.6807036],[48.5175287,53.68350530000001],[48.499567,53.688658200000006],[48.4964827,53.69516110000001],[48.5050905,53.709693300000005],[48.5026012,53.715444],[48.5103265,53.7156984],[48.5088673,53.7178358],[48.5151334,53.72027860000001],[48.510068999999994,53.7235865],[48.517021799999995,53.73457870000001],[48.504317900000004,53.7414998],[48.49590590000001,53.741907],[48.4899832,53.73814110000001],[48.491099,53.73457870000001],[48.482172000000006,53.73559650000001],[48.482944499999995,53.7408892],[48.4886956,53.741907],[48.475734200000005,53.7526449],[48.4771935,53.75630890000001],[48.469770700000005,53.7589071],[48.48891030000001,53.7706627],[48.511882799999995,53.7583974],[48.5196562,53.7574258],[48.5204661,53.76070360000001],[48.534220999999995,53.7558591],[48.527650200000004,53.76559680000001],[48.5340543,53.767805300000006],[48.5606438,53.7445296],[48.56201320000001,53.73900880000001],[48.5705817,53.736888900000004],[48.56859430000001,53.73238380000001],[48.5856429,53.729689900000004],[48.606887699999994,53.72032670000001],[48.6404106,53.7162638],[48.6481835,53.72999990000001],[48.657326399999995,53.72271240000001],[48.66951720000001,53.705310800000014],[48.68621220000001,53.708800200000006],[48.68413590000001,53.71931190000001],[48.686609,53.7276595],[48.72534330000001,53.732871800000005],[48.72989270000001,53.72916180000001],[48.7590428,53.73234220000001],[48.7618255,53.72757220000001],[48.7821864,53.73168],[48.789916000000005,53.72156590000001],[48.80104609999999,53.72373020000001],[48.8252941,53.7142788],[48.84384419999999,53.7168407],[48.8515739,53.70601990000001],[48.994807699999996,53.706596000000005],[48.998042700000006,53.8719579],[49.0737899,53.87253390000001],[49.079172400000004,53.8807591],[49.0792881,53.88741939999999],[49.08468729999999,53.8907605],[49.0866542,53.8896923],[49.078092500000004,53.87163639999999],[49.146481699999995,53.87182609999999],[49.153889099999994,53.8779458],[49.1539239,53.87185899999999],[49.2115233,53.872496399999996],[49.21771290000001,53.8674111],[49.219214900000004,53.860697699999996],[49.24973530000001,53.836494599999995],[49.300351,53.83128359999999],[49.311523599999994,53.872624099999996],[49.4183643,53.8620696],[49.4339997,53.8557539],[49.594301900000005,53.83989749999999],[49.5854942,53.821659],[49.5964477,53.8199366],[49.58964649999999,53.8052731],[49.601659999999995,53.8026232],[49.62864530000001,53.8244421],[49.636020900000005,53.834158900000006],[49.6607544,53.835616800000004],[49.7032785,53.8301934],[49.702669,53.83566149999999],[49.726430500000006,53.844539399999995],[49.7242661,53.8501486],[49.7378692,53.859688799999994],[49.727754700000006,53.866887899999995],[49.7367204,53.8723648],[49.8165933,53.8897568],[49.837581899999996,53.861435900000004],[49.82881530000001,53.8485968],[49.82841330000001,53.84098409999999],[49.85044649999999,53.8319962],[50.0358574,53.8191459],[50.0411693,53.844665199999994],[50.051128999999996,53.845252800000004],[50.046730100000005,53.8564155],[50.0400903,53.8612126],[50.0372747,53.88028549999999],[49.92765,53.889398],[49.931195800000005,53.9052688],[49.97804,53.97877230000001],[50.006848399999996,53.9726145],[50.0130125,53.980629799999996],[50.0300072,53.97817620000001],[50.0217577,53.9717138],[50.0272626,53.9696239],[50.01552590000001,53.9672061],[50.0200061,53.9637418],[50.0153394,53.96221510000001],[50.060933600000006,53.9584504],[50.055435100000004,53.977368999999996],[50.08110739999999,54.007111],[50.1117148,54.0033413],[50.1139993,54.019708],[50.1374792,54.024393800000006],[50.1676852,54.027643399999995],[50.182557100000004,54.01706049999999],[50.18868749999999,54.019834599999996],[50.18270290000001,54.023474900000004],[50.22425380000001,54.070350700000006],[50.2123417,54.076149300000004],[50.2136165,54.08487449999999],[50.20679570000001,54.0872253],[50.2075916,54.090639800000005],[50.20210090000001,54.094133500000005],[50.206870800000004,54.097402],[50.20912290000001,54.10857620000001],[50.197683399999995,54.114803599999995],[50.2030716,54.11829290000001],[50.19925820000001,54.12355350000001],[50.193884499999996,54.124557300000006],[50.198683800000005,54.1343018],[50.19394930000001,54.135950400000006],[50.1919966,54.143922800000006],[50.20077380000001,54.1476639],[50.1992278,54.150888099999996],[50.2034234,54.1587941],[50.200807499999996,54.1604278],[50.2072216,54.163785000000004],[50.2019213,54.168069100000004],[50.2074421,54.17230920000001],[50.20585200000001,54.1742967],[50.2179977,54.180126900000005],[50.2175999,54.1872378],[50.220338200000015,54.18851870000001],[50.218262300000006,54.190947900000005],[50.22802300000001,54.1977497],[50.22563780000001,54.2011064],[50.22974530000001,54.2021664],[50.2298777,54.20552310000001],[50.22554930000001,54.20600890000001],[50.232350900000014,54.210514],[50.23274820000001,54.214533200000005],[50.2426415,54.2175809],[50.2429064,54.22067260000001],[50.2417032,54.224186200000005],[50.23614830000001,54.224361],[50.2408487,54.2260464],[50.20859240000001,54.277083499999996],[50.242466,54.28391990000001],[50.2388843,54.29593310000001],[50.2144142,54.334269799999994],[50.19133130000001,54.3604269],[50.1970493,54.36148699999999],[50.188619200000005,54.36832220000001],[50.172586800000005,54.362624399999994],[50.167507300000004,54.3709278],[50.149862399999996,54.3748959],[50.155801,54.421101300000004],[50.103772000000006,54.4237065],[50.1115427,54.4934463],[50.093655000000005,54.4938436],[50.0948526,54.5019167],[50.1013839,54.5020146],[50.0924594,54.506599800000004],[50.19522550000001,54.5011749],[50.22314930000001,54.49217540000001],[50.23587260000001,54.446815300000004],[50.2442619,54.4426711],[50.2510279,54.4476183],[50.2734913,54.441629899999995],[50.29047930000001,54.44452149999999],[50.30748349999999,54.4426548],[50.30252290000001,54.4565297],[50.3434752,54.4626219],[50.3337976,54.4713072],[50.3347508,54.47923230000001],[50.324443699999996,54.480866199999994],[50.3443784,54.481191499999994],[50.3418388,54.4880737],[50.35498679999999,54.4910114],[50.35948149999999,54.48913530000001],[50.35460839999999,54.48444729999999],[50.365300100000006,54.4850943],[50.37424599999999,54.493498800000005],[50.389254799999996,54.4820543],[50.4309442,54.420995600000005],[50.4627544,54.42845230000001],[50.473904399999995,54.40893090000001],[50.477722,54.38346759999999],[50.4870301,54.3665882],[50.49353830000001,54.3642599],[50.5060564,54.350622599999994],[50.483047899999995,54.34589449999999],[50.4935175,54.3327965],[50.5035098,54.32821880000001],[50.508101,54.33055220000001],[50.5212626,54.324949399999994],[50.5484609,54.337253499999996],[50.55968729999999,54.347092599999996],[50.5817199,54.345519200000005],[50.6214647,54.37068939999999],[50.6368425,54.37161139999999],[50.6484426,54.385120300000004],[50.673402800000005,54.3948927],[50.736443,54.4047196],[50.7502437,54.3759015],[50.774475300000006,54.37698439999999],[50.822766,54.363486599999995],[50.854858099999994,54.36997530000001],[50.8547302,54.3723685],[50.8613699,54.373572200000005],[50.8660501,54.3815926],[50.875258200000005,54.38460799999999],[50.8894708,54.3717882],[50.907298499999996,54.3703401],[50.90657230000001,54.35580439999999],[50.8995606,54.34338459999999],[50.95126049999999,54.3426393],[50.9543557,54.3920836],[50.9498712,54.3961418],[50.95720669999999,54.398520600000005],[50.965910400000006,54.3942176],[50.9665681,54.397192600000004],[50.975333500000005,54.3950074],[50.978914800000005,54.39839430000001],[50.98268769999999,54.3970142],[50.98782609999999,54.402598100000006],[50.999408,54.402911100000004],[50.9916761,54.405911],[50.9885691,54.413028499999996],[50.985974,54.4291217],[50.9889064,54.432022],[50.98444439999999,54.4379956],[50.9947778,54.4509798],[51.0208962,54.469650200000004],[51.0122451,54.4743508],[51.00850820000001,54.48140449999999],[51.0008982,54.482101300000004],[51.00057580000001,54.500792600000004],[51.0083646,54.5494356],[51.041894899999996,54.544265599999996],[51.054118900000006,54.545123800000006],[51.0744203,54.5402093],[51.09998230000001,54.571066699999996],[51.09019890000001,54.5773148],[51.1050911,54.5838051],[51.10057260000001,54.586824199999995],[51.14873980000001,54.613979],[51.1500316,54.63961210000001],[51.161213100000005,54.6446049],[51.16880590000001,54.6520575],[51.1902875,54.659564599999996],[51.2003604,54.659004499999995],[51.19816800000001,54.655061599999996],[51.19050300000001,54.6545171],[51.187666199999995,54.6505297],[51.196448000000004,54.648563800000005],[51.19876560000001,54.6531019],[51.206653,54.653156900000006],[51.2070134,54.6502718],[51.225567700000006,54.647673999999995],[51.22820330000001,54.631567499999996],[51.243393600000005,54.635720400000004],[51.252607399999995,54.633607399999995],[51.2616394,54.640505100000006],[51.2791094,54.64169939999999],[51.2869965,54.6479331],[51.28843880000001,54.652738500000005],[51.302069599999996,54.6532199],[51.3049499,54.65165699999999],[51.303294699999995,54.648968100000005],[51.3149569,54.646703800000004],[51.3303698,54.6562259],[51.3365226,54.652048],[51.3559508,54.652573800000006],[51.365428200000004,54.6563056],[51.3624411,54.6612609],[51.38102349999999,54.6644076],[51.3809552,54.67299980000001],[51.388873,54.677156200000006],[51.4039598,54.6681675],[51.3984514,54.663439100000005],[51.3940802,54.6511638],[51.3895692,54.648436700000005],[51.39253050000001,54.647401099999996],[51.3960174,54.6370217],[51.3882364,54.62693430000001],[51.3870709,54.620419000000005],[51.3826338,54.617752700000004],[51.38128269999999,54.612092600000004],[51.38762339999999,54.5992504],[51.381751599999994,54.588079300000004],[51.495554600000006,54.5966862],[51.5131596,54.595378300000014],[51.5189456,54.6506098],[51.5338198,54.65104839999999],[51.542832600000004,54.6462683],[51.54272530000001,54.6437712],[51.5378052,54.644232800000005],[51.5412403,54.64127439999999],[51.5553697,54.6390945],[51.5575391,54.6348731],[51.555506900000005,54.633631300000005],[51.56291820000001,54.628521500000005],[51.560262,54.625899000000004],[51.5801964,54.6234314],[51.578452600000006,54.6192063],[51.5820683,54.617825499999995],[51.5827036,54.613372600000005],[51.5871166,54.613279999999996],[51.5833026,54.6090216],[51.586441199999996,54.60827510000001],[51.5849025,54.60641220000001],[51.60951120000001,54.5864141],[51.61203230000001,54.580393900000004],[51.61875390000001,54.5775626],[51.6194005,54.5733984],[51.63353000000001,54.568859200000006],[51.6336446,54.5650035],[51.6632095,54.56909830000001],[51.69069210000001,54.5557882],[51.708220700000005,54.5570555],[51.72674920000001,54.5525648],[51.777251,54.5568526],[51.789260999999996,54.5366255],[51.8020803,54.535368000000005],[51.8064371,54.539049399999996],[51.8152562,54.535750400000005],[51.8230007,54.53915090000001],[51.86003,54.5347603],[51.865284599999995,54.528787900000005],[51.875861699999994,54.52759220000001],[51.9064592,54.5378187],[51.928782600000005,54.535055400000005],[51.9315487,54.5296291],[51.9209067,54.524169],[51.9378859,54.5165375],[51.940415800000004,54.4836389],[51.95153749999999,54.4734449],[51.945399300000005,54.45349749999999],[51.9419829,54.4557134],[51.9313036,54.4523848],[51.9437478,54.4498055],[51.9423517,54.4473086],[51.945939200000005,54.448562200000005],[51.941980599999994,54.442129300000005],[51.928434300000006,54.445692300000005],[51.92539120000001,54.4433441],[51.9254075,54.4376993],[51.908101900000005,54.441004099999994],[51.9095991,54.4375068],[51.9145582,54.4365671],[51.915259999999996,54.434112600000006],[51.91186689999999,54.4331669],[51.9157725,54.4294971],[51.911842199999995,54.42095810000001],[51.905176700000005,54.417540499999994],[51.9042719,54.412539300000006],[51.951043899999995,54.4141361],[51.9565208,54.4192309],[51.954142499999996,54.426875800000005],[51.9634898,54.4315973],[51.9756601,54.4283264],[51.965950600000006,54.419112500000004],[51.9717566,54.403013900000005],[51.975948,54.4039401],[51.9745257,54.40764169999999],[51.98184369999999,54.412063999999994],[51.988357900000004,54.4129824],[51.9966371,54.4086141],[52.01622739999999,54.413999499999996],[52.0062649,54.4159336],[51.994012600000005,54.4131366],[51.9853437,54.4159336],[51.973568300000004,54.411965499999994],[51.9806659,54.4216394],[51.990581399999996,54.4191173],[52.0010722,54.420852800000006],[51.9914706,54.427097599999996],[51.99535790000001,54.42990230000001],[52.0078433,54.42968749999999],[52.017789199999996,54.4249335],[52.02672570000001,54.42605830000001],[52.03488339999999,54.41428789999999],[52.0662232,54.418204499999995],[52.058303,54.400010800000004],[52.046004599999996,54.3873549],[52.0468728,54.3804127],[52.061177300000004,54.3773868],[52.0362737,54.3551629],[52.05338,54.345897199999996],[52.054751599999996,54.342525200000004],[52.09254250000001,54.32830200000001],[52.1072395,54.339378700000005],[52.1120956,54.348479499999996],[52.114015900000005,54.346787199999994],[52.1168316,54.355353900000004],[52.1164637,54.3612372],[52.101113000000005,54.3641701],[52.1042311,54.3815956],[52.097268,54.3807187],[52.09552820000001,54.3911912],[52.11786759999999,54.3915906],[52.1258824,54.379162900000004],[52.12545220000001,54.3737219],[52.135603,54.3711286],[52.1446166,54.363566399999996],[52.1579119,54.364848099999996],[52.1771034,54.375017],[52.1845673,54.38498249999999],[52.18252030000001,54.391688699999996],[52.19275400000001,54.39259090000001],[52.19277010000001,54.39659520000001],[52.1979698,54.398934000000004],[52.198535800000016,54.406980999999995],[52.190639000000004,54.411057299999996],[52.18895630000001,54.417848199999995],[52.221793500000004,54.430969],[52.2170498,54.43561590000001],[52.239888300000004,54.4433743],[52.2428893,54.4396819],[52.293817700000005,54.4348336],[52.298148200000014,54.4470319],[52.326719700000005,54.44408779999999],[52.3323447,54.4482209],[52.343376,54.439080999999995],[52.3324531,54.4363065],[52.33168749999999,54.4333314],[52.350913399999996,54.4266141],[52.36722159999999,54.3986609],[52.3970943,54.412728200000004],[52.3944392,54.41813990000001],[52.400088399999994,54.4184958],[52.3938981,54.4240662],[52.391815,54.4337346],[52.38907759999999,54.433844799999996],[52.386907199999996,54.4456629],[52.431903399999996,54.474154],[52.4359601,54.464313800000006],[52.465894399999996,54.467960399999996],[52.486742,54.4665996],[52.50211730000001,54.45906179999999],[52.4850033,54.44167149999999],[52.484836699999995,54.4361246],[52.491684199999995,54.439693399999996],[52.504079999999995,54.4373736],[52.501823699999996,54.391239],[52.4900777,54.3922275],[52.489178200000005,54.390070200000004],[52.5060966,54.373703],[52.568276000000004,54.3401279],[52.5324871,54.30688719999999],[52.52113830000001,54.3005194],[52.5004948,54.302344],[52.460976,54.2978955],[52.450254799999996,54.3051946],[52.4359414,54.3038258],[52.4293831,54.310896899999996],[52.39334290000001,54.3049658],[52.3944268,54.29561360000001],[52.38986479999999,54.29373170000001],[52.368708000000005,54.29721000000001],[52.34544149999999,54.29407320000001],[52.330786399999994,54.27907530000001],[52.3732146,54.2554672],[52.368481599999996,54.25158939999999],[52.3669993,54.2409825],[52.355366599999996,54.22524330000001],[52.3497786,54.2117281],[52.350748599999996,54.196844399999996],[52.362666999999995,54.19701560000001],[52.36255320000001,54.191199000000005],[52.34898139999999,54.1808201],[52.3432222,54.16935790000001],[52.33404109999999,54.1678751],[52.310888199999994,54.176599700000004],[52.30478649999999,54.1737484],[52.302676999999996,54.161944],[52.2942945,54.155557],[52.294237700000004,54.14951230000001],[52.30689769999999,54.1427264],[52.304217699999995,54.1362824],[52.307525399999996,54.12995260000001],[52.326458,54.131036300000005],[52.328625200000005,54.124307300000005],[52.333016300000004,54.12185530000001],[52.347671899999995,54.12573320000001],[52.342824099999994,54.140902000000004],[52.3456181,54.1480873],[52.348355500000004,54.144152500000004],[52.3467019,54.1390772],[52.35189149999999,54.1330896],[52.3580502,54.135256700000006],[52.37219220000001,54.1486579],[52.373504399999995,54.131664199999996],[52.3811551,54.1337376],[52.3828767,54.126862200000005],[52.3790372,54.097905000000004],[52.386735800000004,54.09505390000001],[52.3891881,54.089693499999996],[52.381432999999994,54.07840230000001],[52.4788906,54.070534],[52.4888138,54.0543958],[52.48168559999999,54.0533692],[52.481799699999996,54.050803099999996],[52.4583056,54.033923200000004],[52.42631430000001,54.0266234],[52.4131987,54.0173851],[52.4015085,54.0141345],[52.4054435,54.008546],[52.402706300000006,54.007462499999995],[52.40213630000001,54.0015318],[52.3845727,53.9898983],[52.3815506,53.98231380000001],[52.3719706,53.974387099999994],[52.3719136,53.971878],[52.377216999999995,53.9719351],[52.3894209,53.964464899999996],[52.390618200000006,53.9699964],[52.394438900000004,53.971764199999996],[52.396663,53.969084099999996],[52.393925800000005,53.9682286],[52.39552270000001,53.9624691],[52.3924435,53.958078],[52.38446009999999,53.952261299999996],[52.39250090000001,53.9475283],[52.4077267,53.95009459999999],[52.408924,53.956253399999994],[52.4032212,53.963153500000004],[52.41588099999999,53.9622412],[52.4208421,53.966233100000004],[52.42232510000001,53.9581354],[52.4140563,53.9589337],[52.4185049,53.9413698],[52.4177068,53.9349259],[52.4127458,53.9295654],[52.4121766,53.9002542],[52.408185,53.893011800000004],[52.3864582,53.891528900000004],[52.379159,53.8879932],[52.373000999999995,53.866437399999995],[52.3694085,53.863586],[52.373058300000004,53.8595373],[52.3703785,53.8485883],[52.3663297,53.84784689999999],[52.36507520000001,53.8438551],[52.3672997,53.8306251],[52.351153499999995,53.8121684],[52.344135900000005,53.81046449999999],[52.3391915,53.8035735],[52.3383279,53.8001667],[52.344707299999996,53.8000988],[52.342299499999996,53.79954240000001],[52.343530200000004,53.792842400000005],[52.338731200000005,53.79013650000001],[52.3395867,53.7872852],[52.318088599999996,53.76937880000001],[52.3077098,53.770177000000004],[52.300011399999995,53.767154600000005],[52.29995480000001,53.7578023],[52.29294070000001,53.75563530000001],[52.2778863,53.741435700000004],[52.27834280000001,53.734421499999996],[52.2752065,53.731056900000006],[52.2794267,53.7231874],[52.27874280000001,53.7117823],[52.27361080000001,53.70237300000001],[52.2571306,53.69336270000001],[52.2566748,53.6833261],[52.26175010000001,53.6825278],[52.26522890000001,53.6775096],[52.26426,53.661428300000004],[52.24719,53.6585275],[52.24764,53.6530711],[52.2347625,53.661839300000004],[52.2277618,53.62872520000001],[52.2143004,53.6157264],[52.188836900000005,53.5558802],[52.1684476,53.544268699999996],[52.13816220000001,53.55066709999999],[52.1220635,53.545953000000004],[52.1114151,53.5546023],[52.0976691,53.5582733],[52.1008736,53.5505541],[52.094149800000004,53.545534700000005],[52.09016820000001,53.529610000000005],[52.097724,53.5196018],[52.0846539,53.5179381],[52.0783614,53.4987885],[52.0887973,53.4950819],[52.1012968,53.4996073],[52.1163641,53.4917663],[52.0913885,53.470991399999996],[52.095233400000005,53.4644772],[52.104108800000006,53.4644722],[52.10453690000001,53.459704599999995],[52.1093275,53.4608456],[52.129202400000004,53.4509306],[52.12275710000001,53.4411693],[52.14509290000001,53.444657799999995],[52.1522517,53.4386035],[52.154146999999995,53.431105300000006],[52.159431399999995,53.429109700000005],[52.1507973,53.4226945],[52.1515086,53.4167248],[52.14571500000001,53.415515400000004],[52.14312,53.410299499999994],[52.1444282,53.4032507],[52.153074499999995,53.396333500000004],[52.152981399999994,53.3867858],[52.160639,53.3851032],[52.16296830000001,53.3904347],[52.211862399999994,53.38084709999999],[52.17611380000001,53.324583399999995],[52.188005700000005,53.3219986],[52.17331200000001,53.2973835],[52.1424778,53.30144949999999],[52.1496698,53.281930200000005],[52.164962300000006,53.281345],[52.1717715,53.235245400000004],[52.12691790000001,53.233200700000005],[52.1317516,53.19852000000001],[52.13087230000001,53.19559160000001],[52.127362500000004,53.1968243],[52.126332300000016,53.19025560000001],[52.13393830000001,53.1837773],[52.13651930000001,53.16598820000001],[52.1214436,53.1648956],[52.10250310000001,53.168048600000006],[52.090892000000004,53.16513450000001],[52.0667174,53.149316600000006],[52.0665877,53.144193200000004],[52.07006139999999,53.141072],[52.0682666,53.12881050000001],[52.070048,53.125688800000006],[52.079533500000004,53.125772900000015],[52.080247099999994,53.1228804],[52.148853900000006,53.12520000000001],[52.166583800000005,53.121943800000004],[52.1622667,53.0877586],[52.0500116,53.090567300000004],[52.0418152,52.964568],[52.0046198,52.9647992],[51.9819331,52.9707032],[51.9136362,52.9712761],[51.9129946,52.94955590000001],[51.895500500000004,52.94402149999999],[51.8869998,52.9465205],[51.8799819,52.9377492],[51.8675622,52.936992200000006],[51.85744509999999,52.9245242],[51.85404259999999,52.9062308],[51.8486253,52.901668699999995],[51.8438356,52.8873552],[51.8459456,52.884104699999995],[51.84395,52.875322700000005],[51.8368792,52.864886899999995],[51.7589245,52.87469439999999],[51.7150145,52.876347499999994],[51.72573780000001,52.804381199999995],[51.76651150000001,52.80033290000001],[51.72619870000001,52.66957230000001],[51.719754900000005,52.666949],[51.7234617,52.664611],[51.72431930000001,52.6532467],[51.6167669,52.6458481],[51.611924099999996,52.6817917],[51.5232279,52.6767634],[51.530492100000004,52.6319995],[51.471709499999996,52.628533800000014],[51.47535880000001,52.6047436],[51.4861824,52.6037012],[51.494110500000005,52.5976679],[51.5070693,52.5946401],[51.513750900000005,52.5608448],[51.502452500000004,52.56021630000001],[51.499232400000004,52.565077300000006],[51.483101,52.56572520000001],[51.47790749999999,52.5704267],[51.451672499999994,52.56876220000001],[51.461006,52.510296],[51.49021230000001,52.512062900000004],[51.493254,52.494043999999995],[51.5142433,52.49541890000001],[51.5323814,52.475261599999996],[51.5314452,52.46303220000001],[51.5490754,52.4637872],[51.5480647,52.4288666],[51.47315210000001,52.4286634],[51.462051300000006,52.406721],[51.465938400000006,52.394701399999995],[51.4604491,52.391027099999995],[51.4585809,52.38156609999999],[51.4610278,52.3656237],[51.37108039999999,52.365157800000006],[51.38449239999999,52.35774739999999],[51.3972722,52.3374728],[51.3998771,52.3224949],[51.399225900000005,52.27221250000001],[51.4068682,52.24871800000001],[51.4078182,52.22538360000001],[51.461711300000005,52.22517950000001],[51.4470166,52.18353810000001],[51.432304300000006,52.1744138],[51.4337534,52.1501779],[51.40675890000001,52.10655280000001],[51.3914202,52.0692577],[51.26225910000001,52.0190035],[51.2100237,51.9879367],[51.1437596,51.988392000000005],[51.153398100000004,51.9563437],[51.1268821,51.92611970000001],[51.0885034,51.93296230000001],[51.0334738,51.923495300000006],[50.9996585,51.891218300000006],[50.9099579,51.8606513],[50.76816280000001,51.773036600000005]]]]}}