{"type":"Feature","properties":{"regionId":"smolenskaya_oblast","name":"Смоленская область","name:en":"Smolensk Oblast","timezone":"Europe/Moscow","name_ru":"Смоленская область","name_en":"Smolensk Oblast","name_zh":"斯摩棱斯克州"},"geometry":{"type":"Polygon","coordinates":[[[35.33422149999999,55.271752000000006],[35.329810200000004,55.2708613],[35.325293200000004,55.2575609],[35.3208928,55.254089699999994],[35.29734620000001,55.2534918],[35.29559770000001,55.2500037],[35.308391,55.23913880000001],[35.323486499999994,55.2427441],[35.32395270000001,55.238989200000006],[35.342516100000005,55.233721800000005],[35.334443799999995,55.230581],[35.3311799,55.22660890000001],[35.3363671,55.2234675],[35.329098200000004,55.2198819],[35.3329104,55.2168961],[35.3301079,55.2138278],[35.3452124,55.205879800000005],[35.338350500000004,55.19943560000001],[35.3266254,55.197824399999995],[35.321576900000004,55.2010115],[35.3123853,55.1970849],[35.3039367,55.18591020000001],[35.280357,55.17874530000001],[35.279018400000005,55.175260300000005],[35.2896925,55.1623844],[35.2844585,55.1482797],[35.2872197,55.1476909],[35.275201200000005,55.13654830000001],[35.279528500000005,55.13505230000001],[35.27655320000001,55.127056200000006],[35.27291390000001,55.12659370000001],[35.2756046,55.12383080000001],[35.2732291,55.1162052],[35.2768281,55.11545520000001],[35.275851900000006,55.1126217],[35.25515260000001,55.1115225],[35.2560748,55.1059871],[35.2475905,55.099246],[35.249007,55.0976279],[35.24571310000001,55.0960042],[35.254231,55.093416000000005],[35.253731300000005,55.0913394],[35.2316633,55.09220210000001],[35.2211974,55.083237399999994],[35.224213500000005,55.080777],[35.2232664,55.0709421],[35.211697099999995,55.075839],[35.208554500000005,55.0740394],[35.2129211,55.069590500000004],[35.2067284,55.06523520000001],[35.20892860000001,55.06255680000001],[35.19453260000001,55.0606542],[35.19950610000001,55.054854299999995],[35.194075700000006,55.05384419999999],[35.192853400000004,55.057093599999995],[35.1835813,55.0593147],[35.1824591,55.05486499999999],[35.1875737,55.0497166],[35.16673730000001,55.051836699999996],[35.1570039,55.0469619],[35.162063,55.0434067],[35.15460649999999,55.0422531],[35.1553734,55.0370593],[35.1484945,55.03630880000001],[35.1339673,55.0432887],[35.130543200000005,55.0422451],[35.13261220000001,55.0392144],[35.121456200000004,55.043149],[35.114697299999996,55.037646699999996],[35.12357800000001,55.023442100000004],[35.119187,55.022766000000004],[35.117465499999994,55.0169778],[35.10164639999999,55.0141561],[35.09990820000001,55.0094793],[35.1065764,55.006793300000005],[35.1107237,55.0110199],[35.1156291,55.010803499999994],[35.126777700000005,55.0048573],[35.10510670000001,54.9974026],[35.1098735,54.992786100000004],[35.1214085,54.993030600000004],[35.1147711,54.98253020000001],[35.1242912,54.9774926],[35.12379670000001,54.9750446],[35.1011296,54.9715319],[35.092955300000014,54.9761213],[35.0894338,54.9729472],[35.081478,54.973198100000005],[35.081800699999995,54.9697619],[35.075858100000005,54.9671986],[35.0714133,54.970802],[35.0526018,54.970272800000004],[35.049263499999995,54.9686286],[35.0535291,54.9640862],[35.0521896,54.960383300000004],[35.030923900000005,54.9585613],[35.034159100000004,54.9524202],[35.043905900000006,54.950230999999995],[35.0435144,54.945520800000004],[35.0364258,54.9454143],[35.02871900000001,54.940739],[35.0131611,54.9454498],[35.0065465,54.9426802],[35.010443499999994,54.9360769],[35.021663999999994,54.9331604],[35.0234031,54.9254245],[35.018293,54.9234619],[35.005267399999994,54.926167],[34.999684099999996,54.92203890000001],[35.001096399999994,54.9156905],[34.9728068,54.9122242],[34.9796224,54.9037961],[34.990610800000006,54.8994933],[34.98308459999999,54.89391390000001],[34.9537786,54.8946062],[34.952774,54.903322],[34.94086769999999,54.911622799999996],[34.9438103,54.920561],[34.9240661,54.92654530000001],[34.9163517,54.934924699999996],[34.9098177,54.9330755],[34.9046367,54.926913500000005],[34.923574300000006,54.9126943],[34.90786939999999,54.901249699999994],[34.899556100000005,54.90484139999999],[34.89379890000001,54.9011366],[34.86893920000001,54.9026622],[34.872815700000004,54.9013019],[34.8678752,54.8937291],[34.8702711,54.893187399999995],[34.8629677,54.890621599999996],[34.8759573,54.88682449999999],[34.874992999999996,54.881989299999994],[34.8805803,54.8759062],[34.8715889,54.868009300000004],[34.87786949999999,54.853397199999996],[34.876071499999995,54.85192949999999],[34.88780119999999,54.8473453],[34.8789484,54.84114709999999],[34.8850467,54.830299],[34.8798558,54.825539400000004],[34.8850194,54.81745169999999],[34.8953636,54.822208200000006],[34.8994499,54.817039799999996],[34.888350700000004,54.8091666],[34.892672600000004,54.8015701],[34.9002354,54.801840299999995],[34.904557399999995,54.793872400000005],[34.9084738,54.79319720000001],[34.903477099999996,54.7910364],[34.905368,54.7875251],[34.9242748,54.7896862],[34.9284617,54.78371030000001],[34.903479999999995,54.77800690000001],[34.907529499999995,54.7719268],[34.9067194,54.767740200000006],[34.89915690000001,54.7615278],[34.89373560000001,54.7575312],[34.871430399999994,54.753879399999995],[34.866458800000004,54.74545200000001],[34.8673824,54.736434900000006],[34.8326011,54.72201050000001],[34.8340506,54.7152276],[34.8292561,54.711938700000005],[34.8335385,54.7069935],[34.826694499999995,54.70310800000001],[34.8243424,54.69711390000001],[34.814409299999994,54.69355130000001],[34.811062799999995,54.69959570000001],[34.789936100000006,54.707520800000005],[34.773456100000004,54.709909800000005],[34.77147,54.7054872],[34.7587886,54.70503830000001],[34.73412090000001,54.7111591],[34.7063374,54.711552600000005],[34.7034242,54.7066213],[34.705685700000004,54.697672600000004],[34.70275010000001,54.6944706],[34.7023865,54.6824684],[34.69611240000001,54.682403],[34.6846161,54.67457590000001],[34.6776868,54.6745394],[34.669630100000006,54.679804],[34.63571190000001,54.669083300000004],[34.6318882,54.66229010000001],[34.6258575,54.6606499],[34.608092500000005,54.6648413],[34.605067,54.67313860000001],[34.5870513,54.683530700000006],[34.58271020000001,54.678711400000005],[34.5682264,54.675419000000005],[34.542704,54.681138700000005],[34.5341205,54.671761499999995],[34.5129419,54.6768818],[34.5093296,54.6858272],[34.4991664,54.69133530000001],[34.475936000000004,54.69131250000001],[34.47525220000001,54.688383200000004],[34.4641299,54.6831074],[34.4474051,54.6798567],[34.441274699999994,54.679737700000004],[34.4415165,54.68513000000001],[34.4347981,54.6888726],[34.42057560000001,54.6912372],[34.406122100000005,54.688705500000005],[34.4028966,54.6806781],[34.4409978,54.678443900000005],[34.4644334,54.682852100000005],[34.473413900000004,54.6678573],[34.479893,54.6704472],[34.4831271,54.6644656],[34.4767565,54.6614366],[34.48124359999999,54.6585954],[34.5178703,54.660966],[34.518556100000005,54.648688],[34.512470900000004,54.646878],[34.5131484,54.63721230000001],[34.518973700000004,54.637374],[34.520689499999996,54.598645000000005],[34.48819230000001,54.597902000000005],[34.489350200000004,54.5784942],[34.45831270000001,54.5778148],[34.467255200000004,54.56552020000001],[34.4526583,54.5534083],[34.44704649999999,54.55235530000001],[34.4428747,54.545484699999996],[34.43507580000001,54.545137600000004],[34.44468199999999,54.51663739999999],[34.435542600000005,54.510293399999995],[34.4185262,54.51366939999999],[34.3103063,54.5156992],[34.3019792,54.5156373],[34.29371480000001,54.511384299999996],[34.285348400000004,54.5176322],[34.2724861,54.520822700000004],[34.252478800000006,54.521314800000006],[34.246946200000004,54.5149438],[34.2484632,54.512301900000004],[34.24275220000001,54.5081574],[34.22249570000001,54.5042197],[34.218301600000004,54.5083646],[34.1815837,54.520074],[34.17455330000001,54.5185235],[34.167301900000005,54.525920400000004],[34.16719200000001,54.530128500000004],[34.159061699999995,54.5334436],[34.1649946,54.5410928],[34.156424799999996,54.5468287],[34.1536781,54.5539657],[34.14032890000001,54.5550808],[34.134341,54.5646051],[34.1195237,54.5624854],[34.0798456,54.544279499999995],[34.077263699999996,54.5461915],[34.0780877,54.5587442],[34.06253250000001,54.566536000000006],[34.02870130000001,54.557374499999995],[34.003651,54.56801300000001],[33.98546749999999,54.57992230000001],[33.9627794,54.575655700000006],[33.96151590000001,54.582182800000005],[33.952122100000004,54.5844749],[33.9152058,54.5777572],[33.889752,54.555341],[33.86817190000001,54.558308600000004],[33.8586378,54.5732468],[33.8248682,54.567557900000004],[33.8258496,54.56193520000001],[33.8203079,54.5587219],[33.79259950000001,54.556947799999996],[33.771183300000004,54.573882499999996],[33.760831200000005,54.570819],[33.7606964,54.5648768],[33.7108022,54.545933100000006],[33.707800399999996,54.5347145],[33.69860870000001,54.5408219],[33.700108500000006,54.5365265],[33.694432000000006,54.5344387],[33.69525410000001,54.5147349],[33.649148000000004,54.507816399999996],[33.6596309,54.4934482],[33.64952890000001,54.4917048],[33.64428739999999,54.4818529],[33.6342315,54.4774135],[33.6706227,54.4696988],[33.6874533,54.47555290000001],[33.702964200000004,54.470097499999994],[33.7022245,54.4658842],[33.66153490000001,54.449375100000005],[33.65764759999999,54.4417463],[33.64311590000001,54.43413830000001],[33.6315946,54.441506499999996],[33.618792500000005,54.4445208],[33.616713000000004,54.44154939999999],[33.62675430000001,54.4317699],[33.63329,54.4294888],[33.62651660000001,54.4208473],[33.62943510000001,54.415273],[33.6374032,54.41068139999999],[33.631626399999995,54.4089535],[33.630675700000005,54.404561599999994],[33.63659330000001,54.4019031],[33.625387700000005,54.398163200000006],[33.59615500000001,54.39875120000001],[33.574333100000004,54.3947501],[33.59832080000001,54.38326599999999],[33.599509100000006,54.3767258],[33.603371200000005,54.3744763],[33.62915770000001,54.3708768],[33.6415756,54.351177899999996],[33.63824830000001,54.3485114],[33.646269499999995,54.3457408],[33.648819,54.34154439999999],[33.6599469,54.3401998],[33.6678656,54.33555930000001],[33.681639399999995,54.3359031],[33.6762742,54.3335602],[33.6898259,54.330013900000004],[33.685295,54.32651490000001],[33.68875190000001,54.32232220000001],[33.6815857,54.3117129],[33.6716625,54.305131800000005],[33.6877771,54.29533230000002],[33.6734986,54.287369],[33.64491230000001,54.29281510000001],[33.647349,54.28164459999999],[33.654326999999995,54.280532400000006],[33.6518181,54.269477],[33.6212038,54.26850710000001],[33.623094800000004,54.261720800000006],[33.6302879,54.2576702],[33.6033777,54.25888449999999],[33.60270260000001,54.25510310000001],[33.6076996,54.251996999999996],[33.6041887,54.2424084],[33.60959090000001,54.23859330000001],[33.62525670000001,54.236837900000005],[33.6113708,54.223627900000004],[33.62863430000001,54.2077684],[33.62093660000001,54.204257],[33.6337667,54.1964242],[33.633766900000005,54.1932843],[33.629445600000004,54.187206999999994],[33.617021099999995,54.185046],[33.6106739,54.1807243],[33.5986544,54.1836952],[33.5642171,54.175693],[33.558651,54.179861499999994],[33.568944300000005,54.164213800000006],[33.5628672,54.161478900000006],[33.559221199999996,54.1541861],[33.565298600000006,54.1499997],[33.55908649999999,54.1471635],[33.5728626,54.1239014],[33.5363994,54.12035570000001],[33.5238401,54.11333290000001],[33.523705400000004,54.105229900000005],[33.527039200000004,54.10273970000001],[33.562986300000006,54.106191300000006],[33.558345800000005,54.1019534],[33.5238495,54.08899590000001],[33.5120973,54.093549700000004],[33.506555000000006,54.0857486],[33.4946396,54.088716000000005],[33.484923099999996,54.09815550000001],[33.478599200000005,54.09560690000001],[33.4702307,54.097196800000006],[33.4693942,54.0859626],[33.4565839,54.08460469999999],[33.4528256,54.0811597],[33.450944899999996,54.0717868],[33.4571334,54.069071900000004],[33.4488576,54.0622271],[33.4538389,54.0600426],[33.4460002,54.0599518],[33.4456272,54.056718000000004],[33.44176469999999,54.05704649999999],[33.4420906,54.0529686],[33.448951300000004,54.0548302],[33.466200900000004,54.0496973],[33.4753241,54.0528209],[33.47953830000001,54.058829499999995],[33.4903794,54.058942800000004],[33.495816000000005,54.05228459999999],[33.4947286,54.0458179],[33.5018059,54.038825],[33.49875620000001,54.03563990000001],[33.4711743,54.0345215],[33.4694419,54.02923320000001],[33.4591637,54.0268678],[33.492699300000005,54.0334655],[33.4951075,54.02595780000001],[33.501915200000006,54.0272093],[33.502256200000005,54.0248887],[33.5099511,54.0241064],[33.50728039999999,54.01599890000001],[33.503029399999996,54.0108121],[33.493218500000005,54.0076482],[33.4527701,54.001493399999994],[33.4394166,54.004275],[33.43270390000001,54.001723399999996],[33.4432632,53.9914047],[33.4310791,53.9890207],[33.4498787,53.978516000000006],[33.450943099999996,53.9749823],[33.443305,53.971243699999995],[33.4300654,53.97364639999999],[33.429863499999996,53.966557900000005],[33.41686759999999,53.959007799999995],[33.4087091,53.946289099999994],[33.3864069,53.9401511],[33.38298449999999,53.93548139999999],[33.373673499999995,53.9350097],[33.370313700000004,53.9390892],[33.36603830000001,53.9389471],[33.3573555,53.929730000000006],[33.34463699999999,53.92781],[33.340607299999995,53.944604999999996],[33.326638200000005,53.9455678],[33.323284799999996,53.9491999],[33.302353800000006,53.9404902],[33.293741700000005,53.943196],[33.2820034,53.9405277],[33.275540400000004,53.92833100000001],[33.288723700000006,53.9172503],[33.3036023,53.911971099999995],[33.2892042,53.9054916],[33.29202720000001,53.900114300000006],[33.286896399999996,53.8966535],[33.2714466,53.895412400000005],[33.2582893,53.890038000000004],[33.2486494,53.8910925],[33.246957300000005,53.8804325],[33.25368939999999,53.878134],[33.245515300000015,53.870104],[33.2714481,53.864215800000004],[33.257627899999996,53.85585739999999],[33.2632265,53.8433948],[33.2894469,53.8440582],[33.288149700000005,53.83235320000001],[33.3030757,53.8266286],[33.298769400000005,53.81664759999999],[33.290023000000005,53.81378049999999],[33.2838659,53.80725699999999],[33.2679205,53.80669449999999],[33.265722900000014,53.8019286],[33.245831100000004,53.8020628],[33.23313820000001,53.79595360000001],[33.225787700000005,53.79738590000001],[33.22343860000001,53.80499399999999],[33.198280200000006,53.8076789],[33.19172530000001,53.80447939999999],[33.195877100000004,53.796885],[33.2189915,53.79208250000001],[33.2111673,53.7800617],[33.2218631,53.767046900000004],[33.222791400000006,53.755751700000005],[33.23007090000001,53.7505047],[33.22932540000001,53.746101700000004],[33.22477080000001,53.743836],[33.23516600000001,53.73835340000001],[33.221180700000005,53.732299600000005],[33.19673720000001,53.730909700000005],[33.1840112,53.72615470000001],[33.1409316,53.72576630000001],[33.1406086,53.72190630000001],[33.12219130000001,53.7161494],[33.1288794,53.7072976],[33.1188324,53.699591100000006],[33.113792800000006,53.7048705],[33.0942004,53.694210600000005],[33.0825511,53.694021],[33.0609577,53.684076],[33.0697664,53.668449],[33.083783399999994,53.668449200000005],[33.0818782,53.6635944],[33.045642300000004,53.6616741],[33.037723,53.66551350000001],[33.0360435,53.6592742],[33.044006499999995,53.6542233],[33.043723,53.6508752],[33.0334043,53.64847530000001],[33.024148200000006,53.6419766],[33.02567590000001,53.63433070000001],[33.0127911,53.620059100000006],[33.0046939,53.6172377],[32.9743767,53.61831510000001],[32.97555130000001,53.6145687],[32.9524228,53.60573070000001],[32.9564539,53.59543980000001],[32.951452599999996,53.588190000000004],[32.918219900000004,53.5858403],[32.90613030000001,53.573351800000005],[32.9074124,53.566869399999995],[32.8949384,53.5591792],[32.91409949999999,53.5425804],[32.9097831,53.53593670000001],[32.9209895,53.5378134],[32.9165608,53.5411318],[32.933258300000006,53.553739300000004],[32.9447316,53.5464138],[32.9464202,53.5415457],[32.93054,53.5339684],[32.9097803,53.5347218],[32.9051619,53.5279941],[32.89517090000001,53.52437260000001],[32.8799421,53.52521000000001],[32.879003399999995,53.5274769],[32.87286769999999,53.52392630000001],[32.87511260000001,53.52218820000001],[32.866253,53.5190857],[32.8692683,53.518886699999996],[32.8687413,53.512255800000005],[32.86231270000001,53.511241999999996],[32.8708561,53.504804699999994],[32.865299,53.5011067],[32.864860199999995,53.49517200000001],[32.868570600000005,53.49235120000001],[32.8715569,53.4946407],[32.87706659999999,53.49254560000001],[32.88126799999999,53.497153600000004],[32.891104,53.4992827],[32.907895599999996,53.49534810000001],[32.90462649999999,53.49237600000001],[32.8980679,53.4950976],[32.8904375,53.4880172],[32.88180339999999,53.4906084],[32.8692924,53.48096759999999],[32.8733496,53.4795311],[32.869055900000006,53.4736028],[32.8813951,53.47128669999999],[32.8636347,53.4720666],[32.884148999999994,53.466092700000004],[32.890056300000005,53.470357],[32.900838300000004,53.464354900000004],[32.8975724,53.4634717],[32.8987876,53.4617734],[32.9030632,53.4620972],[32.89873320000001,53.458609499999994],[32.900683699999995,53.45704349999999],[32.8867542,53.4498753],[32.88268719999999,53.4509657],[32.8890099,53.4442583],[32.8842029,53.44346109999999],[32.88184089999999,53.435501],[32.861732800000006,53.4337463],[32.8586112,53.42851260000001],[32.84709459999999,53.4289879],[32.8310307,53.434752800000005],[32.79023420000001,53.438937300000006],[32.79950090000001,53.426023300000004],[32.7700595,53.4086906],[32.76635660000001,53.4203017],[32.75291000000001,53.434839999999994],[32.74879000000001,53.44522],[32.757110000000004,53.45818],[32.74114,53.461619999999996],[32.68407,53.46256],[32.655914200000005,53.469859],[32.66037520000001,53.478956800000006],[32.6741079,53.47745739999999],[32.6870468,53.481390399999995],[32.6540733,53.4950477],[32.647068399999995,53.5041217],[32.6384236,53.50252330000001],[32.636990600000004,53.486241799999995],[32.62510000000001,53.475],[32.617459999999994,53.47878],[32.6042425,53.478813800000005],[32.60983590000001,53.4914486],[32.6033878,53.49335570000001],[32.603302000000006,53.5128687],[32.588190000000004,53.518010000000004],[32.582888499999996,53.515551300000006],[32.5676778,53.5192596],[32.5422706,53.5167911],[32.5436554,53.522441300000004],[32.5511739,53.527194800000004],[32.5266916,53.5349425],[32.518562900000006,53.5434473],[32.4942368,53.54930890000001],[32.477915700000004,53.5488798],[32.47553250000001,53.559309],[32.4818125,53.5673681],[32.4591627,53.575017100000004],[32.44263,53.593630000000005],[32.42984,53.597750000000005],[32.4258,53.60744],[32.438154700000005,53.6142609],[32.4401227,53.6307472],[32.4497967,53.637345700000004],[32.43768359999999,53.643163900000005],[32.4319136,53.6519486],[32.42895690000001,53.6448798],[32.4338551,53.64031520000001],[32.429338400000006,53.6390651],[32.43213260000001,53.630905500000004],[32.41835830000001,53.6349761],[32.419527499999994,53.6397344],[32.41689339999999,53.64092290000001],[32.4210639,53.6476626],[32.4138982,53.6506627],[32.414996599999995,53.6649624],[32.425814100000004,53.664343900000006],[32.427300200000005,53.670671],[32.43729139999999,53.67247210000001],[32.45462619999999,53.668156900000014],[32.47221530000001,53.67839540000001],[32.485983399999995,53.682321800000004],[32.4893427,53.6772566],[32.49895130000001,53.6811348],[32.4969472,53.683881099999994],[32.500916100000005,53.6869995],[32.49876280000001,53.706909800000005],[32.481159999999996,53.71902],[32.462540000000004,53.721000000000004],[32.45876,53.72692000000001],[32.4606829,53.7376525],[32.4461669,53.73657070000001],[32.42297000000001,53.72890000000001],[32.41421,53.72829000000001],[32.4130706,53.73151230000001],[32.395115300000015,53.729842000000005],[32.3691746,53.717398900000006],[32.3580351,53.72059350000001],[32.35406659999999,53.72935100000001],[32.3563202,53.73920580000001],[32.351124199999994,53.740624],[32.3438728,53.7505748],[32.33393890000001,53.7517317],[32.314417199999994,53.76077670000001],[32.2952846,53.759731800000004],[32.283593700000004,53.76254520000001],[32.27235610000001,53.758498900000006],[32.26842260000001,53.76272980000001],[32.29069560000001,53.76996870000001],[32.284844199999995,53.77593040000001],[32.2614218,53.772581900000006],[32.2567714,53.765615300000015],[32.2297044,53.76598030000001],[32.219799,53.770276800000005],[32.216077,53.77950890000001],[32.224226,53.7816761],[32.22351430000001,53.783885],[32.2080495,53.799566500000005],[32.19974580000001,53.7943775],[32.186452800000005,53.79857340000001],[32.1774221,53.79271880000002],[32.175017100000005,53.799566500000005],[32.140930000000004,53.80537],[32.1409818,53.812784699999995],[32.13290860000001,53.813100999999996],[32.1268411,53.818491599999994],[32.121892900000006,53.8155576],[32.1001084,53.814590499999994],[32.09235000000001,53.8058],[32.089,53.80812],[32.0805,53.80347999999999],[32.0428261,53.8056755],[32.048907,53.801148999999995],[32.04832880000001,53.79849790000001],[31.989693799999994,53.804133],[31.983608299999997,53.8025575],[31.9768191,53.79414680000001],[31.968735599999995,53.792479400000005],[31.968062199999995,53.7885806],[31.951974100000005,53.7896273],[31.950231199999998,53.78331850000001],[31.927402199999996,53.789370000000005],[31.925072999999998,53.7865619],[31.9205512,53.788895600000004],[31.9173855,53.7860405],[31.906077,53.786929],[31.898116499999997,53.7744337],[31.887813700000002,53.77819690000001],[31.8849458,53.7832482],[31.875752,53.7836663],[31.8733273,53.7866176],[31.867957900000004,53.7822991],[31.861870900000003,53.78351070000001],[31.850344,53.79253540000001],[31.845112099999998,53.79032170000001],[31.838746499999996,53.796676700000006],[31.8340323,53.794729600000004],[31.8215893,53.8021979],[31.8082885,53.8003956],[31.806331999999998,53.8021498],[31.8108395,53.802731900000005],[31.811383900000003,53.8065628],[31.789538699999998,53.80677],[31.785755799999997,53.801667499999986],[31.7792891,53.8052601],[31.775570799999997,53.8034961],[31.7790515,53.8027207],[31.7771721,53.800464899999994],[31.779790199999997,53.799800000000005],[31.7761159,53.7976514],[31.7794051,53.796319900000015],[31.7688676,53.79552430000001],[31.772127199999996,53.79271050000001],[31.770055700000004,53.79195790000001],[31.761219499999996,53.79616180000001],[31.7669999,53.7976412],[31.7634587,53.8015025],[31.769536699999996,53.801400599999994],[31.7669243,53.807430399999994],[31.7713576,53.8056427],[31.7743089,53.81124339999999],[31.7716256,53.82271890000001],[31.7617253,53.82253480000001],[31.7646697,53.826570800000006],[31.756555000000002,53.832601399999994],[31.7765745,53.8360497],[31.782408899999997,53.831676099999996],[31.785402699999995,53.8347547],[31.7899489,53.8339008],[31.7942874,53.8395061],[31.7813571,53.842501],[31.789549299999994,53.8555772],[31.811888100000008,53.8533321],[31.814059500000003,53.858984299999996],[31.819397400000003,53.8614102],[31.8329352,53.8585901],[31.838343,53.8655014],[31.817599100000002,53.864626799999996],[31.818885100000006,53.867156],[31.815315100000003,53.869304],[31.818143799999998,53.872945300000005],[31.811217100000004,53.86991510000001],[31.7986856,53.8757996],[31.830239799999998,53.8825293],[31.825975900000003,53.897730200000005],[31.830984000000004,53.905585800000004],[31.8415484,53.90428179999999],[31.845421199999997,53.9068336],[31.8438705,53.910695],[31.8376968,53.911285299999996],[31.841264900000002,53.91743639999999],[31.850739199999996,53.914339999999996],[31.856830600000002,53.91709779999999],[31.851916000000003,53.92106939999999],[31.8554156,53.925168600000006],[31.850677700000002,53.931032],[31.8553384,53.934172700000005],[31.849339999999998,53.9368324],[31.854364800000003,53.938908100000006],[31.8484648,53.941825099999996],[31.851410400000002,53.9485877],[31.8447668,53.9501916],[31.851860300000006,53.9509458],[31.858579799999998,53.95469599999999],[31.8556516,53.95815210000001],[31.865797799999996,53.958591399999996],[31.874083400000004,53.9648652],[31.8917451,53.966173100000006],[31.8909434,53.9939916],[31.873970700000005,53.99631110000001],[31.853830000000002,54.00441],[31.878890000000002,54.02870000000001],[31.8861,54.03213000000001],[31.889324199999997,54.0465431],[31.8945134,54.045904],[31.893176,54.051096699999995],[31.899091400000003,54.052502800000006],[31.8848142,54.056999399999995],[31.891892400000003,54.06020230000001],[31.8817119,54.0694673],[31.8981045,54.0829484],[31.8947885,54.086817599999996],[31.8732489,54.0841498],[31.864938400000003,54.07873010000001],[31.852766,54.0881485],[31.8383153,54.08166649999999],[31.820633799999996,54.089223399999995],[31.827781100000003,54.095493100000006],[31.823476,54.0968415],[31.813669700000002,54.08746769999999],[31.8030404,54.0856761],[31.798947499999997,54.081053399999995],[31.7952211,54.0822002],[31.785786199999993,54.0761145],[31.78165,54.08037],[31.7533635,54.078444],[31.754558400000004,54.084275],[31.764139999999998,54.08552],[31.767999999999997,54.090160000000004],[31.7742933,54.112754900000006],[31.7478738,54.1118459],[31.7362015,54.104508100000004],[31.727123499999998,54.105762600000006],[31.7276211,54.1150943],[31.677118700000005,54.1027295],[31.6716308,54.106174200000005],[31.6762106,54.1177221],[31.674674900000003,54.120293800000006],[31.667917600000003,54.1226854],[31.659850000000006,54.13221000000001],[31.647856300000004,54.136052400000004],[31.6535434,54.13797580000001],[31.654814900000005,54.1418398],[31.63024,54.13376],[31.61754,54.13608],[31.59419,54.13290000000001],[31.58338,54.13805000000001],[31.56346,54.13711000000001],[31.55866,54.13968],[31.553250000000002,54.150839999999995],[31.539,54.15393],[31.5293,54.151439999999994],[31.520629999999997,54.15616],[31.495139999999996,54.1589],[31.492739999999994,54.16492],[31.499429999999997,54.17831000000001],[31.491013499999998,54.185232500000005],[31.478757899999998,54.179728000000004],[31.4726641,54.1866565],[31.464210799999996,54.1869649],[31.457964200000003,54.193004300000005],[31.4616914,54.19440290000001],[31.459960100000004,54.19551720000001],[31.444777499999997,54.19807470000001],[31.442189999999997,54.20302],[31.432229999999997,54.20826],[31.400389999999998,54.21135],[31.38416,54.2092],[31.37901,54.21306],[31.389139999999998,54.221560000000004],[31.40648,54.21676],[31.4106,54.21839000000001],[31.4106,54.222330000000014],[31.39669,54.22216000000001],[31.39326,54.22517000000001],[31.384850000000004,54.22328],[31.38288,54.23246],[31.357380000000003,54.23847000000001],[31.33644,54.24877000000001],[31.32451,54.24362],[31.317820000000005,54.24414],[31.311980000000005,54.25246],[31.308980000000002,54.26988],[31.31044,54.282500000000006],[31.32039,54.29589000000001],[31.311120000000003,54.305679999999995],[31.32022,54.31193999999999],[31.31258,54.31623],[31.28906,54.314769999999996],[31.2858,54.319669999999995],[31.3185,54.33761],[31.31867,54.340439999999994],[31.308980000000002,54.34516],[31.310860000000005,54.35821],[31.298614399999998,54.36830630000001],[31.268289999999997,54.37829],[31.249239999999997,54.37803],[31.269463,54.4011792],[31.25679,54.40927],[31.248379999999997,54.429790000000004],[31.235419999999998,54.43434],[31.237798400000003,54.4402062],[31.23259,54.46627],[31.219450000000002,54.47004],[31.204950000000004,54.46678],[31.201978100000005,54.479827099999994],[31.1671,54.473819999999996],[31.137660000000004,54.48901],[31.108729999999998,54.49167],[31.084699999999998,54.51012],[31.095519999999997,54.5133],[31.09835,54.532180000000004],[31.13362,54.548410000000004],[31.136370000000003,54.55699],[31.131820000000005,54.56248],[31.14221,54.570550000000004],[31.145039999999998,54.581019999999995],[31.1695,54.59029],[31.176370000000002,54.60025],[31.18615,54.60462],[31.19328,54.61647],[31.19954,54.618790000000004],[31.19868,54.624970000000005],[31.206239999999998,54.626340000000006],[31.20778,54.63647],[31.198860000000003,54.644279999999995],[31.2004,54.65003],[31.1955591,54.6590772],[31.1769342,54.6697974],[31.1615724,54.665685100000005],[31.1436334,54.66752890000001],[31.1357676,54.6647084],[31.109815300000005,54.66919030000001],[31.093796799999996,54.660963200000005],[31.085607499999995,54.66552110000001],[31.076775400000002,54.66592090000001],[31.070346499999996,54.6737277],[31.065185,54.6724967],[31.071054600000004,54.66751990000001],[31.067094100000002,54.664543],[31.0387864,54.6686017],[31.0304726,54.6728273],[30.991364,54.672782600000005],[30.986339999999995,54.68822],[31.0017,54.696380000000005],[31.00299,54.70178],[31.01852,54.70384],[31.0181,54.70994],[31.0121343,54.71706749999999],[30.989611699999998,54.7213872],[30.977807100000003,54.71290810000001],[30.970267,54.718251],[30.969560799999996,54.72541710000001],[30.956870700000003,54.731165600000004],[30.959552,54.734037300000004],[30.951095000000002,54.7397575],[30.9533836,54.7432297],[30.9396816,54.745484499999996],[30.930646999999997,54.751423599999995],[30.922291999999995,54.747541],[30.914257000000003,54.755842],[30.896046199999997,54.754395900000006],[30.85527,54.773450000000004],[30.8321,54.78873000000001],[30.76035,54.80341],[30.7515697,54.809524599999996],[30.79193,54.874559999999995],[30.80343,54.87903],[30.8218025,54.879798900000004],[30.814590000000003,54.887269999999994],[30.814160000000005,54.89387],[30.834760000000003,54.90752],[30.8285,54.925540000000005],[30.81811,54.928380000000004],[30.82026,54.93061],[30.816820000000003,54.93696],[30.81871,54.94022],[30.834604900000002,54.94851290000001],[30.863241999999996,54.950943499999994],[30.908414899999997,54.9490092],[30.9020749,54.9587935],[30.9147331,54.9618432],[30.9437553,54.9584662],[30.936747099999998,54.9672107],[30.935582999999998,54.9756548],[30.9412457,54.97931080000001],[30.963774799999996,54.9793012],[30.9623504,54.9852548],[30.952836899999998,54.988671599999996],[30.9526786,54.997555000000006],[30.948100599999997,55.0012599],[30.910357400000002,55.0184938],[30.9202637,55.0217877],[30.921452499999997,55.02871550000001],[30.9268019,55.0332576],[30.945029599999994,55.0377992],[30.9579078,55.0330305],[30.969677299999997,55.036263999999996],[30.981515499999997,55.0311255],[30.9859986,55.03237010000001],[30.988555199999997,55.0254612],[31.0163996,55.0294795],[31.0107958,55.03959570000001],[31.0163296,55.040559],[31.016055300000005,55.0468105],[31.027887600000003,55.062307600000004],[31.0066629,55.063791800000004],[31.0046315,55.06856510000001],[30.998327099999997,55.070410100000004],[30.999237799999996,55.07293680000001],[30.990301799999997,55.0768499],[30.990084,55.0874119],[30.984235299999998,55.094194300000005],[30.985609499999992,55.105769800000004],[31.0023973,55.116030900000005],[30.9899301,55.1199919],[30.9970872,55.136096],[31.003755100000003,55.140982],[30.996240699999998,55.144277499999994],[30.972971400000002,55.144375700000005],[30.982413899999994,55.151629099999994],[30.9830521,55.158101900000005],[30.992466199999996,55.162963500000004],[30.986349699999995,55.165697800000004],[30.985332399999994,55.1717824],[30.964615799999997,55.1712043],[30.9694649,55.177600399999996],[30.9609144,55.1934917],[30.94727,55.192868700000005],[30.942326299999994,55.2013764],[30.923523299999996,55.2006601],[30.9175457,55.2130711],[30.9213608,55.217747599999996],[30.9186341,55.22873940000001],[30.905285,55.24035090000001],[30.905648899999996,55.24895890000001],[30.908559699999998,55.2518106],[30.8812119,55.26516300000001],[30.881880000000002,55.275220000000004],[30.875619999999998,55.28054],[30.82111,55.279770000000006],[30.82326,55.30869],[30.8189248,55.3162172],[30.827070600000003,55.323430200000004],[30.8305905,55.3341764],[30.8637116,55.344467499999986],[30.874169000000002,55.3509328],[30.87673,55.35856],[30.8977091,55.3690174],[30.9001569,55.3748739],[30.922139999999995,55.3765],[30.93355,55.395810000000004],[30.93467,55.39985],[30.923599999999997,55.41298],[30.92016,55.42362],[30.91304,55.42851000000001],[30.905489999999997,55.44053],[30.904539999999997,55.444649999999996],[30.9125913,55.4562317],[30.911920000000002,55.45975],[30.9018,55.4619],[30.89965,55.46396],[30.90111,55.47332],[30.892439999999997,55.476839999999996],[30.91819,55.476839999999996],[30.9274645,55.4843408],[30.958619999999996,55.49709],[30.95733,55.50362],[30.940929999999998,55.50679],[30.94608,55.51323],[30.93029,55.51117],[30.927970000000002,55.51297],[30.93184,55.51846],[30.92815,55.52104],[30.91536,55.51992],[30.9139,55.52207000000001],[30.913639999999997,55.53194],[30.92617,55.53074],[30.929,55.53623],[30.940679999999997,55.541039999999995],[30.955009999999998,55.542410000000004],[30.949599999999997,55.552279999999996],[30.948659999999997,55.568160000000006],[30.93527,55.58687],[30.93767,55.5964],[30.93355,55.61271000000001],[30.935373,55.6145955],[30.9269645,55.616859399999996],[30.925132399999995,55.62262520000001],[30.932622099999996,55.6247424],[30.928006499999995,55.6418131],[30.9517007,55.649331200000006],[30.948568599999998,55.654075],[30.951065500000002,55.655342000000005],[30.949725299999997,55.6590751],[30.953627799999996,55.6664445],[30.9613913,55.6706118],[30.955008499999998,55.671549399999996],[30.962675499999996,55.671945],[30.961422699999996,55.6770031],[30.9646677,55.67073630000001],[31.041752199999998,55.701602900000005],[31.060559499999997,55.698767100000005],[31.060032399999997,55.7045641],[31.030153000000002,55.72501600000001],[31.0356976,55.72804990000001],[31.032311999999997,55.73691860000001],[31.036255100000005,55.73958580000001],[31.0326973,55.747682],[31.0274193,55.7513967],[31.031018900000003,55.757883099999994],[31.0380608,55.760840800000004],[31.0698772,55.759713500000004],[31.0693217,55.7542687],[31.0779728,55.750538600000006],[31.0777833,55.747679399999996],[31.0815916,55.7501078],[31.072630599999997,55.7541573],[31.074302199999998,55.7593896],[31.1401348,55.758001],[31.1369478,55.75233790000001],[31.1391379,55.7501891],[31.1524156,55.747341],[31.155744799999997,55.7426777],[31.1655782,55.74054580000001],[31.167467000000002,55.73671130000001],[31.176987600000004,55.737208800000005],[31.1702427,55.746082900000005],[31.1812489,55.74581190000001],[31.2031261,55.72770890000001],[31.2127147,55.726619500000005],[31.212808600000002,55.720868200000005],[31.215643099999998,55.72030480000001],[31.2208418,55.729200000000006],[31.2169178,55.730895800000006],[31.2398178,55.741519100000005],[31.2441632,55.73965870000001],[31.259517,55.74397330000001],[31.262041999999994,55.741052800000006],[31.278759899999997,55.739496200000005],[31.305333899999997,55.725512500000015],[31.3128069,55.730288800000004],[31.3088103,55.735341000000005],[31.311021000000004,55.74221280000001],[31.331267000000004,55.7417354],[31.3340292,55.73791830000001],[31.342599999999997,55.73655280000001],[31.366618999999996,55.7414919],[31.3702578,55.7402251],[31.371973900000004,55.731546300000005],[31.384994000000003,55.73221360000001],[31.388344299999996,55.73525250000001],[31.4014903,55.731348800000006],[31.406639999999996,55.72832950000001],[31.4063504,55.724768100000006],[31.410506799999997,55.72698690000001],[31.4188245,55.7244885],[31.429112599999996,55.72898360000001],[31.419254300000002,55.72799220000001],[31.426329699999997,55.730280300000004],[31.426299099999998,55.733351400000004],[31.4302776,55.73399860000001],[31.4275701,55.734616300000006],[31.4290874,55.73631950000001],[31.4348208,55.735874200000005],[31.4362579,55.7408632],[31.448315899999997,55.736444],[31.4564254,55.74015020000001],[31.4670719,55.729344600000005],[31.422182699999997,55.7160375],[31.4372012,55.70531530000002],[31.455785199999998,55.70243830000001],[31.4563635,55.705187200000005],[31.489142399999995,55.707138500000006],[31.483133699999996,55.718642300000006],[31.488461899999997,55.724892200000006],[31.4962946,55.72750330000001],[31.525871900000002,55.725464],[31.543740199999995,55.7336235],[31.5544698,55.72978890000001],[31.5701758,55.73931500000001],[31.571725700000002,55.7462096],[31.574132799999997,55.7442515],[31.572705199999998,55.73821360000001],[31.563526499999995,55.73033980000001],[31.5737254,55.7327877],[31.575561,55.73735690000001],[31.589135499999998,55.7444455],[31.604352300000002,55.74872930000001],[31.5913797,55.73612310000001],[31.596846799999998,55.7291674],[31.6070458,55.72912680000001],[31.614898800000006,55.733777700000005],[31.616408400000005,55.731044399999995],[31.6277905,55.731044499999996],[31.6325027,55.7260675],[31.6391929,55.7328806],[31.6530023,55.73479820000001],[31.659856500000004,55.72623110000001],[31.6763529,55.72815760000001],[31.6925249,55.72177430000001],[31.7351164,55.7169985],[31.7268346,55.705130300000015],[31.7357287,55.6942175],[31.776789199999996,55.69894290000001],[31.779271400000003,55.712431300000006],[31.786281499999998,55.7164719],[31.7861555,55.72065680000001],[31.780714099999997,55.72311220000002],[31.7801977,55.73927520000001],[31.7703506,55.7454245],[31.7855641,55.7496902],[31.786602099999996,55.7592718],[31.806001300000002,55.76071510000001],[31.844409799999998,55.77571810000001],[31.874834700000005,55.7718916],[31.881865800000003,55.7796704],[31.865855700000004,55.7844297],[31.876095900000003,55.786552500000006],[31.889709399999997,55.77405220000001],[31.8987655,55.77145530000001],[32.0340033,55.76610810000001],[32.0426732,55.753975700000005],[32.054295999999994,55.7528336],[32.057634099999994,55.7488295],[32.05776439999999,55.74371200000001],[32.047094799999996,55.73324220000001],[32.049764399999994,55.7310231],[32.0449505,55.72816690000001],[32.0473699,55.72677620000001],[32.044986699999995,55.7210611],[32.0622446,55.7472524],[32.0658014,55.737585200000005],[32.0536523,55.730343500000004],[32.06850920000001,55.722203400000005],[32.0688415,55.719275100000004],[32.09013780000001,55.7195632],[32.1008925,55.723683300000005],[32.1166394,55.71697230000001],[32.1142951,55.712793600000005],[32.1188287,55.7102773],[32.101496499999996,55.7105776],[32.091503700000004,55.6872791],[32.0715555,55.68425439999999],[32.058085399999996,55.688308500000005],[32.0517168,55.6941611],[32.0425947,55.6897998],[32.046988999999996,55.6833716],[32.041752800000005,55.67785739999999],[32.0453041,55.6709046],[32.025771000000006,55.6610765],[32.0260776,55.6580595],[32.0375396,55.651227199999994],[32.055126800000004,55.6520117],[32.0580562,55.659444799999996],[32.0715981,55.66601630000001],[32.09496,55.671032000000004],[32.09092090000001,55.6730956],[32.0906691,55.6792535],[32.08631880000001,55.68277390000001],[32.101129300000004,55.6857436],[32.10579310000001,55.69073550000001],[32.12627390000001,55.6879281],[32.1268273,55.67221070000001],[32.14744939999999,55.67216220000001],[32.16984,55.690129500000005],[32.1590669,55.69723510000001],[32.1748303,55.69936560000001],[32.19969290000001,55.6966271],[32.201336500000004,55.6910886],[32.197015400000005,55.688228],[32.1966504,55.683967599999995],[32.20956890000001,55.67855090000001],[32.22273040000001,55.6797684],[32.23491860000001,55.672160700000006],[32.248628100000005,55.6696047],[32.25631190000001,55.6724045],[32.259050900000005,55.6700918],[32.263554600000006,55.6736828],[32.263858400000004,55.682507900000004],[32.27269810000001,55.6947416],[32.28811150000001,55.698332700000016],[32.3121832,55.6896906],[32.3249795,55.69407290000001],[32.3156059,55.70763],[32.324004599999995,55.71473590000001],[32.3413052,55.708771600000006],[32.3827979,55.7216601],[32.386769599999994,55.7125915],[32.383057099999995,55.710948200000004],[32.38086639999999,55.70334020000001],[32.398836700000004,55.69252210000001],[32.404862099999995,55.69373950000001],[32.4131081,55.713154900000006],[32.4336796,55.7161984],[32.440816,55.71066],[32.433817399999995,55.699217600000004],[32.44154749999999,55.689357900000005],[32.430835800000004,55.6856603],[32.4306533,55.6832258],[32.441571599999996,55.6748372],[32.452108100000004,55.6726666],[32.4568152,55.6837642],[32.464067699999994,55.684666099999994],[32.4583496,55.6978956],[32.458314200000004,55.7096865],[32.473484199999994,55.7117561],[32.4812139,55.70907820000001],[32.4851851,55.7119997],[32.4829938,55.7158949],[32.485747599999996,55.720261900000004],[32.481973999999994,55.723974500000004],[32.485746999999996,55.73266280000001],[32.4911635,55.73891650000001],[32.497858,55.740422],[32.5129824,55.7164077],[32.522554500000005,55.71730530000001],[32.5331242,55.7073594],[32.5424221,55.7077584],[32.5437194,55.6875422],[32.522283,55.6649575],[32.52268290000001,55.6430463],[32.527967499999995,55.642647499999995],[32.53813720000001,55.6559091],[32.5441201,55.6499266],[32.5478093,55.6509238],[32.5479088,55.6564078],[32.5630893,55.660396500000004],[32.5541145,55.679241499999996],[32.5722613,55.6870192],[32.5774707,55.69537000000001],[32.5847498,55.688689499999995],[32.6318628,55.68480159999999],[32.6426561,55.6900864],[32.67957380000001,55.6868963],[32.6971472,55.693377700000006],[32.7090376,55.69297900000001],[32.7150206,55.6847032],[32.721726200000006,55.682011200000005],[32.76505020000001,55.6786217],[32.77212990000001,55.67243980000001],[32.7896039,55.6748331],[32.79658380000001,55.6698478],[32.8161516,55.67513270000001],[32.824627199999995,55.669249900000004],[32.82233430000001,55.660674900000004],[32.836917,55.658307],[32.8428001,55.6534213],[32.8615971,55.6518533],[32.86142159999999,55.6539613],[32.8919365,55.660970000000006],[32.891592200000005,55.64931670000001],[32.8831508,55.64755230000001],[32.908623399999996,55.63203490000001],[32.908231,55.636326100000005],[32.9125968,55.63933910000001],[32.9114159,55.64877390000001],[32.916784699999994,55.6520515],[32.9211715,55.6610254],[32.9416369,55.659231],[32.94253390000001,55.668404300000006],[32.947319900000004,55.66850410000001],[32.9465224,55.66501420000001],[32.95382609999999,55.66571230000002],[32.95851280000001,55.65893210000001],[32.9724968,55.6644164],[32.9747899,55.66890330000001],[32.9880166,55.666816000000004],[33.002914200000006,55.6568347],[33.00168909999999,55.6526686],[32.997155600000006,55.6510756],[33.0061005,55.6475224],[33.027573800000006,55.65389439999999],[33.044775,55.6550655],[33.046551900000004,55.6573411],[33.0377434,55.6618591],[33.0526003,55.66271700000001],[33.0522324,55.6688436],[33.07024439999999,55.6689664],[33.07456439999999,55.654875399999995],[33.0940468,55.6541405],[33.096988,55.6464211],[33.1172367,55.636496300000005],[33.123608100000006,55.6417653],[33.1341765,55.6390698],[33.1530977,55.6509235],[33.1518509,55.6547541],[33.1578549,55.653773900000004],[33.170343,55.659308700000004],[33.16533110000001,55.66237960000001],[33.168024100000004,55.6711736],[33.172189900000006,55.6761974],[33.184106,55.6782806],[33.18373820000001,55.6824467],[33.19571660000001,55.6866048],[33.196036600000006,55.70279220000001],[33.20280230000001,55.708236600000006],[33.2104398,55.7098296],[33.2210735,55.70613030000001],[33.2246275,55.7115271],[33.232848100000005,55.708537400000004],[33.24668449999999,55.713592000000006],[33.2504702,55.70991730000001],[33.2567347,55.70995620000001],[33.2590626,55.7137547],[33.2649442,55.711916800000004],[33.266046700000004,55.7159604],[33.280781499999996,55.7072609],[33.2862954,55.707996200000004],[33.27710580000001,55.7030947],[33.266567900000005,55.708608500000004],[33.2579911,55.700766300000005],[33.304828699999995,55.69794890000001],[33.3097298,55.7022375],[33.30911690000001,55.70713880000001],[33.3039704,55.7110597],[33.309851699999996,55.7144907],[33.323942800000005,55.7144909],[33.32786349999999,55.718534500000004],[33.32250260000001,55.72319060000001],[33.3145069,55.723338900000016],[33.3192107,55.726845000000004],[33.328261499999996,55.7247836],[33.3451412,55.726645700000006],[33.3453031,55.72946830000001],[33.4210766,55.727271800000004],[33.410638,55.73219120000001],[33.3904986,55.73373350000001],[33.39255880000001,55.7406831],[33.3959896,55.74215360000001],[33.391578200000005,55.7477899],[33.4060367,55.7524464],[33.41878,55.7510987],[33.4333794,55.7561595],[33.4488088,55.75592530000001],[33.45128679999999,55.7528096],[33.453464999999994,55.7617994],[33.487103399999995,55.760779600000006],[33.5119528,55.779654300000004],[33.522171400000005,55.77911860000001],[33.53573840000001,55.783734],[33.54152439999999,55.787201499999995],[33.5328803,55.789633200000004],[33.537327399999995,55.8137583],[33.56951170000001,55.8129347],[33.5757611,55.848673],[33.6480694,55.84448459999999],[33.6598025,55.90178409999999],[33.675536400000006,55.89921270000001],[33.662547700000005,55.908279900000004],[33.67345230000001,55.9206251],[33.6707564,55.924423499999996],[33.6729617,55.929814900000004],[33.6460048,55.9301821],[33.6469841,55.94926639999999],[33.635343500000005,55.9522988],[33.638774000000005,55.9596508],[33.69627210000001,55.95324939999999],[33.696026700000004,55.95851830000001],[33.714437,55.95962139999999],[33.72240190000001,55.952392100000004],[33.74019930000001,55.95668099999999],[33.7344406,55.950799399999994],[33.756036800000004,55.9504322],[33.77824590000001,55.9440609],[33.77983880000001,55.942468],[33.774937900000005,55.936341399999996],[33.76893400000001,55.9336456],[33.7772663,55.930092300000005],[33.8025076,55.93291090000001],[33.803273,55.9401403],[33.816751,55.950065599999995],[33.821651599999996,55.962073700000005],[33.79604230000001,55.96819990000001],[33.81172599999999,55.974204199999996],[33.810132700000004,55.9801776],[33.803148300000004,55.982995700000004],[33.802045,55.99365590000001],[33.813273699999996,56.0005297],[33.814583799999994,56.0042857],[33.79273180000001,56.0095236],[33.79861300000001,56.014915],[33.8638609,56.01442599999999],[33.8636135,56.0598239],[33.8686826,56.0571721],[33.8760421,56.058511],[33.8769697,56.0544327],[33.890487699999994,56.056735200000006],[33.888763,56.060804499999996],[33.8918262,56.062029900000006],[33.915505100000004,56.0670541],[33.9361839,56.06010990000001],[33.9292714,56.05408239999999],[33.9632482,56.051870799999996],[33.981642599999994,56.0421812],[33.9998754,56.0400781],[34.014824999999995,56.04406949999999],[34.01331520000001,56.048368100000005],[34.0168393,56.0483084],[34.02970530000001,56.04512280000001],[34.0293684,56.042182000000004],[34.035250000000005,56.0400991],[34.0595932,56.037373800000005],[34.066526700000004,56.0290717],[34.07875390000001,56.0311492],[34.0855314,56.026788800000006],[34.09571930000001,56.03813950000001],[34.10221330000001,56.0402227],[34.1011104,56.04230570000001],[34.1088605,56.0426734],[34.1190301,56.051618399999995],[34.142954200000005,56.0541919],[34.158250100000004,56.063054],[34.172759500000005,56.0625245],[34.2089817,56.0520082],[34.204526900000005,56.039979200000005],[34.217107399999996,56.03923890000001],[34.2156802,56.0354664],[34.2306668,56.0406089],[34.23641380000001,56.0394969],[34.23513460000001,56.0358604],[34.22413560000001,56.0309],[34.248045000000005,56.02611820000001],[34.243314100000006,56.0216057],[34.2504687,56.016587099999995],[34.2640297,56.02619550000001],[34.291101700000006,56.0169226],[34.29625190000001,56.0073105],[34.30276739999999,56.0076396],[34.3092438,56.00053630000001],[34.301752300000004,55.99801530000001],[34.3069716,55.9947832],[34.32335080000001,55.9950466],[34.3323445,56.00379590000001],[34.3386099,56.005190000000006],[34.3375407,56.0139978],[34.348893,56.014127599999995],[34.35338709999999,56.018013200000006],[34.36786849999999,56.0154454],[34.3728308,56.02285930000001],[34.379656,56.02354820000001],[34.3817527,56.0215696],[34.3797935,56.015537],[34.3910207,56.012964],[34.3976809,56.005845900000004],[34.395400800000004,56.00122399999999],[34.40731280000001,55.9991447],[34.4111403,55.98984709999999],[34.431855399999996,55.990051300000005],[34.4480607,55.979146300000004],[34.4606813,55.98147459999999],[34.468370500000006,55.9738165],[34.472537200000005,55.961931],[34.492387,55.965729800000005],[34.510314300000005,55.9600366],[34.517901499999994,55.95482069999999],[34.515294,55.9450998],[34.52323690000001,55.939172600000006],[34.537996,55.936624099999996],[34.53941880000001,55.9314081],[34.556963399999994,55.93662439999999],[34.5739879,55.934587099999995],[34.587251599999995,55.9426115],[34.596972400000006,55.9430858],[34.620405600000005,55.92334820000001],[34.616914200000004,55.9167807],[34.600530000000006,55.9189617],[34.60112290000001,55.9144569],[34.60553890000001,55.911878599999994],[34.62332090000001,55.910456399999994],[34.62841810000001,55.9150797],[34.6315004,55.9131831],[34.6576988,55.919585],[34.6827418,55.916384599999994],[34.696166700000006,55.9262242],[34.6845487,55.9355892],[34.71875000000001,55.956454599999994],[34.72325260000001,55.96312220000001],[34.7450448,55.9778568],[34.767380700000004,55.97604439999999],[34.776034900000006,55.970472900000004],[34.7754424,55.9643085],[34.78471880000001,55.961345],[34.827068499999996,55.979720300000004],[34.81367349999999,55.966205800000004],[34.8528239,55.9555373],[34.858661899999994,55.9628872],[34.859300399999995,55.972885],[34.869212000000005,55.9728453],[34.869804499999994,55.9761646],[34.8934249,55.9743868],[34.9101282,55.9646136],[34.925254,55.98481939999999],[34.9321296,55.98766459999999],[34.937849799999995,55.9805519],[34.9447255,55.9794851],[34.957054799999995,55.969290300000004],[34.9788969,55.9710689],[34.997745300000005,55.9794859],[35.0171764,55.977456399999994],[35.045766900000004,55.9803964],[35.052573100000004,55.985995700000004],[35.0656084,55.9898453],[35.06875820000001,55.984246199999994],[35.06518890000001,55.98088669999999],[35.067708700000004,55.9768973],[35.0727655,55.9761275],[35.0778051,55.96863870000001],[35.0910087,55.960576200000006],[35.100377200000004,55.95829],[35.1049442,55.952786499999995],[35.121111600000006,55.9562163],[35.12573100000001,55.9539767],[35.1434024,55.95906659999999],[35.151440799999996,55.9559179],[35.1600784,55.945039200000004],[35.18553060000001,55.9329605],[35.19851060000001,55.9211498],[35.2044862,55.9194568],[35.2044284,55.91482959999999],[35.189813,55.9071534],[35.199279100000005,55.8891257],[35.204201499999996,55.89883880000001],[35.226927100000005,55.9088826],[35.212895100000004,55.901035],[35.208637200000005,55.8941466],[35.21823830000001,55.896906300000005],[35.22745690000001,55.8926045],[35.230579500000005,55.8869161],[35.22343610000001,55.880217599999995],[35.23565610000001,55.871332300000006],[35.2345224,55.86836],[35.2495471,55.8600748],[35.246935400000005,55.851905699999996],[35.2500778,55.847058999999994],[35.26994890000001,55.8367457],[35.269271800000006,55.8273263],[35.279216600000005,55.8274358],[35.284598700000004,55.822459200000004],[35.2883075,55.8158409],[35.2814683,55.8090731],[35.28316890000001,55.799829900000006],[35.3029334,55.79978130000001],[35.30748969999999,55.795897200000006],[35.3137681,55.7974806],[35.319422599999996,55.79375210000001],[35.330122100000004,55.79394130000001],[35.3322134,55.78733870000001],[35.328124200000005,55.7848928],[35.335618000000004,55.7766237],[35.33178339999999,55.77331100000001],[35.338711100000005,55.7694144],[35.3297685,55.765294100000006],[35.32706439999999,55.75833630000001],[35.342900300000004,55.751516300000006],[35.3447524,55.743729900000005],[35.3425737,55.74151930000001],[35.3164323,55.744981499999994],[35.3161982,55.7411833],[35.30409699999999,55.734377],[35.3049369,55.7304492],[35.3128108,55.72843020000001],[35.306040599999996,55.7218457],[35.317374599999994,55.721040300000006],[35.3130312,55.717416300000004],[35.3165005,55.70815320000001],[35.324463599999994,55.705690100000005],[35.32742739999999,55.70804880000001],[35.337021199999995,55.702770400000006],[35.33759,55.7005944],[35.329750700000005,55.697327],[35.3308538,55.69300030000001],[35.338390600000004,55.69151970000001],[35.3316513,55.687850999999995],[35.331606699999995,55.6846723],[35.3355544,55.6835805],[35.323250300000005,55.6659814],[35.3370767,55.665767],[35.3426592,55.65821510000001],[35.346555800000004,55.6579433],[35.3511319,55.6430166],[35.359541199999995,55.6452435],[35.354216799999996,55.64215250000001],[35.3553403,55.639211700000004],[35.352081899999995,55.63751870000001],[35.35428959999999,55.635545400000005],[35.36053090000001,55.6378587],[35.3826398,55.63067],[35.39015890000001,55.611149499999996],[35.38877,55.598857900000006],[35.395002700000006,55.5940825],[35.386856599999994,55.5946437],[35.364621299999996,55.58786639999999],[35.37213810000001,55.575828],[35.3638517,55.57431530000001],[35.3485767,55.572621],[35.341364199999994,55.5822278],[35.3003672,55.58168059999999],[35.29695100000001,55.5756835],[35.3000629,55.57253560000001],[35.295322800000015,55.56739580000001],[35.29430850000001,55.555006],[35.29814690000001,55.5507207],[35.303805,55.549026999999995],[35.314326599999994,55.5518028],[35.3066302,55.5465234],[35.3388021,55.53837300000001],[35.3382285,55.5350764],[35.34468509999999,55.5275857],[35.3300041,55.524903200000004],[35.32590090000001,55.522537500000006],[35.3258561,55.5169532],[35.3153441,55.5173952],[35.3135699,55.51462659999999],[35.32543520000001,55.50184099999999],[35.31886749999999,55.4964364],[35.318356,55.49229390000001],[35.326108700000006,55.48720639999999],[35.32033130000001,55.4836311],[35.324761599999995,55.4802053],[35.314256099999994,55.475294],[35.2940675,55.4760754],[35.2890047,55.472355400000005],[35.2910364,55.463160800000004],[35.30934439999999,55.45749409999999],[35.3133942,55.450466299999995],[35.303873599999996,55.4350076],[35.3127166,55.43533980000001],[35.329658300000006,55.428692100000006],[35.31131739999999,55.4238908],[35.3090341,55.41726619999999],[35.29779280000001,55.4124335],[35.3049653,55.4046002],[35.30551390000001,55.397652300000004],[35.3002768,55.3915624],[35.28619220000001,55.3890081],[35.2909614,55.35185799999999],[35.2807584,55.349624999999996],[35.282800300000005,55.3419032],[35.274107,55.3310688],[35.2586455,55.32988159999999],[35.262267800000004,55.3282267],[35.2598412,55.326044499999995],[35.2614247,55.322553600000006],[35.27378590000001,55.32231840000001],[35.295403500000006,55.3107693],[35.299363400000004,55.30463099999999],[35.29045500000001,55.29641090000001],[35.2939244,55.291095500000004],[35.309886899999995,55.291157500000004],[35.318975,55.286477],[35.31792649999999,55.2831449],[35.3343746,55.27902],[35.33422149999999,55.271752000000006]]]}}