{"type":"Feature","properties":{"regionId":"stavropolskiy_kray","name":"Ставропольский край","name:en":"Stavropol Krai","timezone":"Europe/Moscow","name_ru":"Ставропольский край","name_en":"Stavropol Krai","name_zh":"斯塔夫罗波尔边疆区"},"geometry":{"type":"Polygon","coordinates":[[[41.71441,45.9824283],[41.701661099999995,45.9797868],[41.6934094,45.982912000000006],[41.666926700000005,45.9749025],[41.65863220000001,45.9786806],[41.6433746,45.9797667],[41.6240791,45.9767217],[41.59815250000001,45.98166199999999],[41.54126159999999,45.985922900000006],[41.5247661,45.9916318],[41.5062175,45.9911616],[41.495071,45.99507890000001],[41.4962493,46.0062013],[41.47144839999999,46.0059941],[41.4714199,45.997885999999994],[41.3928064,45.9972041],[41.3930819,45.9523072],[41.16089830000001,45.951688299999994],[41.161177200000004,45.8798408],[41.2490098,45.88005139999999],[41.24890620000001,45.865111500000005],[41.250827699999995,45.8695247],[41.25521560000001,45.869181],[41.254749399999994,45.86513250000001],[41.262803600000005,45.857267499999985],[41.25073210000001,45.84948979999999],[41.23863570000001,45.8466422],[41.2435234,45.841741899999995],[41.239036600000006,45.838558600000006],[41.24033850000001,45.8352278],[41.233466,45.8313933],[41.239209,45.822751200000006],[41.2569371,45.818059],[41.260045000000005,45.79494690000001],[41.27279830000001,45.7948098],[41.272135900000016,45.7588342],[41.16937360000001,45.7596507],[41.1672375,45.6744391],[41.0531344,45.675001800000004],[41.0532558,45.693132100000014],[41.02911010000001,45.69319890000001],[41.0326145,45.6984835],[41.009815,45.70751870000001],[41.0077442,45.7130575],[41.000647699999995,45.709825300000006],[40.9790724,45.7136093],[40.9634575,45.705951500000005],[40.963033900000006,45.69373330000001],[40.8479682,45.694229],[40.8460433,45.516919900000005],[40.8822909,45.514764099999994],[40.923175400000005,45.516861999999996],[40.9224905,45.4471008],[40.9313548,45.4461426],[40.9406382,45.4358546],[40.9784026,45.4244194],[40.9792796,45.4137483],[40.9750195,45.4119305],[40.97355030000001,45.414358],[40.97348399999999,45.4115337],[40.9816168,45.4020085],[40.9757517,45.40174739999999],[40.9777539,45.397594],[40.9740332,45.39253910000001],[40.9791445,45.3904808],[40.9895587,45.39572830000001],[40.99531980000001,45.3930134],[40.991038800000005,45.377283199999994],[41.0071564,45.3780887],[41.0071945,45.3732388],[40.999548600000004,45.375449599999996],[41.0012033,45.367913],[40.9919687,45.3672282],[40.9894889,45.363835300000005],[40.99816830000001,45.3634226],[41.007195900000006,45.3495026],[41.0009092,45.3465926],[41.002075500000004,45.3432786],[40.9945213,45.34053],[41.003105700000006,45.3335452],[41.00257070000001,45.3297594],[40.9934772,45.322803],[40.996348600000005,45.32093090000001],[41.0065954,45.323718500000005],[41.00287530000001,45.3174333],[41.014858999999994,45.3179739],[41.0161208,45.30922939999999],[41.0246085,45.305722900000006],[41.019700300000004,45.301830499999994],[41.0202869,45.291492600000005],[41.0240854,45.29136630000001],[41.02335780000001,45.2886371],[41.0274601,45.290332000000014],[41.0266514,45.2873767],[41.03203250000001,45.280794300000004],[41.0203174,45.281707399999995],[41.034908,45.278034100000006],[41.0269892,45.2741075],[41.0145311,45.2778253],[41.0113569,45.275685700000004],[41.0154667,45.2712652],[41.0277072,45.271501300000004],[41.0249462,45.264346200000006],[41.016883699999994,45.2634004],[41.0181916,45.25832630000001],[41.021898,45.255982100000004],[41.031308700000004,45.2590154],[41.0388466,45.2556243],[41.0274564,45.23927280000001],[41.036945200000005,45.229535200000015],[41.0354076,45.225643100000006],[41.23271300000001,45.22398520000001],[41.2328846,45.233000800000006],[41.2582609,45.2328494],[41.258531000000005,45.250751300000005],[41.2648312,45.2506795],[41.26511220000002,45.257960399999995],[41.27899670000001,45.2638468],[41.2886438,45.249261],[41.29063910000001,45.23562390000001],[41.2974904,45.22356890000001],[41.35348039999999,45.22305390000001],[41.3531712,45.186895],[41.36591080000001,45.186898],[41.365587,45.177906],[41.352951499999996,45.1778773],[41.35187249999999,45.0902765],[41.3899316,45.0772689],[41.396649499999995,45.06923220000001],[41.4076506,45.06292590000001],[41.408832700000005,45.058350700000005],[41.4121803,45.0579172],[41.4092011,45.052870399999996],[41.4165176,45.0449209],[41.422554600000005,45.026613000000005],[41.43904739999999,45.012407499999995],[41.4462518,44.995151400000005],[41.4564792,44.9882632],[41.6539743,44.986253],[41.652161,44.90531790000001],[41.639563200000005,44.90539690000001],[41.6386764,44.8641035],[41.630521800000004,44.85064059999999],[41.62581280000001,44.851642899999995],[41.622329500000006,44.8475584],[41.616942,44.848898399999996],[41.6136937,44.8404259],[41.614857199999996,44.834324499999994],[41.609271,44.8347457],[41.61182099999999,44.827474099999996],[41.605790400000004,44.8259697],[41.6152512,44.79997820000001],[41.584451099999995,44.79421220000001],[41.5942248,44.76823880000001],[41.586294099999996,44.772360600000006],[41.57850880000001,44.7572273],[41.5638498,44.76161270000001],[41.5668312,44.7536338],[41.555177300000004,44.751347499999994],[41.559886199999994,44.73838830000001],[41.517138300000006,44.7302074],[41.5207235,44.72656090000001],[41.427092900000005,44.70847620000001],[41.4477758,44.6571982],[41.45688929999999,44.650612300000006],[41.476111,44.6475041],[41.49493280000001,44.595691300000006],[41.53164949999999,44.602582500000004],[41.5274524,44.6139404],[41.55196639999999,44.61815230000001],[41.5897072,44.515928900000006],[41.638335900000015,44.525138300000016],[41.6511304,44.490340700000004],[41.69995720000001,44.4996747],[41.703855100000006,44.4895424],[41.7366406,44.4834389],[41.736078000000006,44.473664899999996],[41.752919500000004,44.4711282],[41.7926696,44.4711851],[41.79439210000001,44.476224099999996],[41.802216,44.478717800000005],[41.8036188,44.4839341],[41.8645704,44.48716949999999],[41.865349200000004,44.4976366],[41.92457230000001,44.49611030000001],[41.9277849,44.4930773],[41.9213979,44.486764599999994],[41.9244239,44.4775564],[41.9292858,44.4732149],[41.922895800000006,44.4637435],[41.925246800000004,44.460191900000005],[41.92231790000001,44.4452421],[41.9268667,44.434993399999996],[41.9208206,44.409874499999994],[41.9347042,44.4005293],[41.978104900000005,44.388483199999996],[41.989477199999996,44.380357499999995],[42.0149829,44.37248739999999],[42.021492900000005,44.366584499999995],[42.0232681,44.3556722],[42.02965330000001,44.352749599999996],[42.214535100000006,44.351273799999994],[42.2396018,44.3372582],[42.286608900000004,44.3272735],[42.30129109999999,44.3285807],[42.3393534,44.31434149999999],[42.3413922,44.31088659999999],[42.4084443,44.308226],[42.407824899999994,44.32535250000001],[42.48211930000001,44.32599820000001],[42.486215200000004,44.33831630000001],[42.495164800000005,44.347299899999996],[42.494134200000005,44.3634378],[42.5010932,44.3669699],[42.5534177,44.36831840000001],[42.5535809,44.352130200000005],[42.5817369,44.3431449],[42.58108119999999,44.3197321],[42.6085684,44.31184979999999],[42.610061599999995,44.269443],[42.55313530000001,44.26910600000001],[42.5520233,44.22379520000001],[42.50321580000001,44.2243835],[42.5032093,44.2150005],[42.4777633,44.21486649999999],[42.4674106,44.204252600000004],[42.4715209,44.193315100000014],[42.4488379,44.19717190000001],[42.440252300000004,44.20214130000001],[42.4411547,44.170092600000004],[42.3793683,44.1694297],[42.37868709999999,44.1534907],[42.3351649,44.13251250000001],[42.35160189999999,44.114091699999996],[42.3249777,44.0973714],[42.3221674,44.0821891],[42.3237826,44.074730300000006],[42.320218700000005,44.0649377],[42.29963550000001,44.05468239999999],[42.292978800000014,44.0399613],[42.3024513,44.0294499],[42.3167355,44.0307516],[42.3224348,44.0261846],[42.3302273,44.02713520000001],[42.3383046,44.02363690000001],[42.3485742,44.02823870000001],[42.350573399999995,44.036888],[42.35828409999999,44.037804099999995],[42.370381699999996,44.0040711],[42.367827199999994,44.000233],[42.38138769999999,43.996765700000005],[42.369612200000006,43.9897049],[42.3708726,43.987183699999996],[42.367754399999995,43.98456169999999],[42.373982,43.9736134],[42.3965647,43.9728401],[42.4124663,43.9789471],[42.420475200000006,43.974796],[42.42811560000001,43.9771806],[42.4248982,43.9738512],[42.4278362,43.972811300000004],[42.4386657,43.9742531],[42.4433828,43.971409099999995],[42.443563,43.9741478],[42.4475387,43.97469759999999],[42.453149499999995,43.9698453],[42.45494749999999,43.97655280000001],[42.46331020000001,43.96801290000001],[42.467229599999996,43.969882],[42.4665564,43.9757048],[42.46891590000001,43.9762487],[42.478537200000005,43.9720986],[42.479283699999996,43.9665231],[42.490828300000004,43.9671461],[42.495718900000014,43.9783145],[42.4813346,43.9803947],[42.4770482,43.991176700000004],[42.481796599999996,44.015738500000005],[42.5026366,44.02639690000001],[42.58456749999999,44.02637730000001],[42.580024599999994,44.018722800000006],[42.578141800000004,44.00213790000001],[42.579146,43.9733541],[42.58422959999999,43.9713324],[42.62491570000001,43.9735778],[42.6270611,43.951811299999996],[42.6198739,43.9530988],[42.617898499999995,43.945250200000004],[42.660931500000004,43.936160300000004],[42.651862599999994,43.926756600000004],[42.6471745,43.916275],[42.640156100000006,43.917482099999994],[42.63919320000001,43.89239020000001],[42.628037000000006,43.8908686],[42.6551447,43.856186099999995],[42.63953500000001,43.8460938],[42.6490584,43.824137],[42.66030190000001,43.81551880000001],[42.672121800000006,43.816005999999994],[42.6782891,43.809695],[42.7161454,43.8186958],[42.73215250000001,43.81926369999999],[42.763201900000006,43.810295499999995],[42.801232999999996,43.8071173],[42.8242789,43.80064659999999],[42.854703699999995,43.801895699999996],[42.8543622,43.84049449999999],[42.87184489999999,43.84776039999999],[42.872298900000004,43.853465099999994],[42.8661055,43.8676908],[42.9185035,43.86527230000001],[42.93496449999999,43.87333290000001],[42.954433699999996,43.889851099999994],[42.981440799999994,43.8988742],[43.02351370000001,43.8995017],[43.048489399999994,43.89655030000001],[43.069605100000004,43.898934600000004],[43.10570630000001,43.893826399999995],[43.147710700000005,43.89507570000001],[43.140103800000006,43.92277590000001],[43.14339590000001,43.9307796],[43.155429399999996,43.93838590000001],[43.1448713,43.9480355],[43.1474821,43.958934],[43.1764311,43.959842599999995],[43.1890325,43.955869299999996],[43.22500810000001,43.959046099999995],[43.316638999999995,43.79976010000001],[43.3353176,43.8121734],[43.353782499999994,43.818784099999995],[43.3738003,43.837863299999995],[43.400228399999996,43.845707499999996],[43.413516,43.85949899999999],[43.4241935,43.8583579],[43.4344769,43.862554100000004],[43.4738702,43.865619800000005],[43.504522200000004,43.86028449999999],[43.51235560000001,43.85472179999999],[43.54550530000001,43.8431426],[43.5712187,43.8496139],[43.5894579,43.847978],[43.61154739999999,43.839888099999996],[43.6447985,43.8365364],[43.657065499999995,43.832117200000006],[43.6598791,43.8344539],[43.675523600000005,43.8313681],[43.6835514,43.83328739999999],[43.69351540000001,43.828450100000005],[43.7120475,43.830316200000006],[43.73270380000001,43.8183973],[43.735263700000004,43.8233914],[43.74488759999999,43.81946769999999],[43.7464201,43.8307825],[43.75517910000001,43.843089299999995],[43.750283599999996,43.8535993],[43.75591860000001,43.852876499999994],[43.76597560000001,43.872730700000005],[43.7705477,43.874457299999996],[43.77050020000001,43.927526900000004],[43.777027399999994,43.92865220000001],[43.78315130000001,43.939308600000004],[43.79313360000001,43.9421047],[43.799079600000006,43.9489954],[43.819675999999994,43.959766099999996],[43.85792479999999,43.96022],[43.85658659999999,43.968050700000006],[43.85869769999999,43.975243],[43.8634726,43.9776783],[43.8629678,43.987562399999995],[43.8766152,43.9914361],[43.892618600000006,44.0032453],[43.89611610000001,44.0102588],[43.907614099999996,44.0106572],[43.922163600000005,44.02031430000001],[43.9320896,44.018281599999995],[43.932006,44.0099486],[43.9444726,44.0098399],[43.94468009999999,43.986449799999995],[43.987164699999994,43.9862639],[43.9873376,43.970684199999994],[44.1440452,43.970237],[44.1439037,43.928471200000004],[44.224762600000005,43.9282484],[44.22533740000001,43.91846399999999],[44.26856980000001,43.9181546],[44.269029700000004,43.9640218],[44.3184398,43.96393200000001],[44.318496399999994,43.97297230000001],[44.368847599999995,43.9726069],[44.3692043,44.0045631],[44.3807656,44.005438100000006],[44.3855335,44.009298],[44.412666099999996,44.0112283],[44.4131201,44.0172452],[44.419363999999995,44.0164506],[44.4189116,43.9454969],[44.3437927,43.9457964],[44.3435766,43.9043784],[44.3190103,43.893415700000006],[44.293240000000004,43.89123],[44.29252300000001,43.809673],[44.314622199999995,43.8065916],[44.35147679999999,43.80788699999999],[44.359428799999996,43.811858699999995],[44.3797325,43.813442699999996],[44.3796052,43.8014629],[44.472547,43.80118449999999],[44.4728011,43.80738749999999],[44.504538600000004,43.8072987],[44.5046155,43.814516399999995],[44.5535237,43.8141513],[44.5536307,43.819741799999996],[44.581695999999994,43.821507],[44.596925000000006,43.8286943],[44.603449399999995,43.8275701],[44.603541,43.824915100000005],[44.61599880000001,43.8249886],[44.616471,43.8272859],[44.6664447,43.8265796],[44.66635910000001,43.83511580000001],[44.703064499999996,43.83460399999999],[44.702296600000004,43.81742499999999],[44.79372790000001,43.81699699999999],[44.796335100000015,43.8088257],[44.8033927,43.807048599999995],[44.802939900000005,43.7194098],[44.826273,43.706756600000006],[44.830997399999994,43.7072147],[44.835549900000004,43.713568200000005],[44.84481399999999,43.713384399999995],[44.8474989,43.704728100000004],[44.83859330000001,43.697641],[44.83648759999999,43.6908994],[44.8248786,43.68594830000001],[44.83944339999999,43.6809972],[44.853344899999996,43.69552510000001],[44.8615039,43.69521120000001],[44.8655442,43.6899418],[44.853572,43.67575260000001],[44.8533456,43.66719380000001],[44.887959099999996,43.6585777],[44.908647699999996,43.66657260000001],[44.9122178,43.672996600000005],[44.910165,43.680348300000006],[44.9141754,43.682416800000006],[44.9368213,43.67245630000001],[44.9564506,43.6813607],[44.9622867,43.686365300000006],[44.96231880000001,43.69714530000001],[44.97830570000001,43.700181],[44.979317200000004,43.711311200000004],[44.993359600000005,43.7216004],[45.02237910000001,43.72753380000001],[45.030521300000004,43.7184491],[45.0405718,43.721761900000004],[45.0447005,43.719939000000004],[45.0409438,43.712099],[45.0442524,43.708994700000005],[45.0656947,43.72032380000001],[45.065848800000005,43.88847439999999],[45.0531686,43.8897365],[45.0539422,43.9582513],[45.2017545,43.957293299999996],[45.2011412,43.87644739999999],[45.4384542,43.8758653],[45.4397494,44.0077115],[45.4906809,44.0076503],[45.490015500000005,44.129559400000005],[45.5026409,44.12961430000001],[45.5029861,44.1756877],[45.39501200000001,44.17693810000001],[45.31078639999999,44.1836089],[45.3105758,44.1805809],[45.290662100000006,44.1804619],[45.29081220000001,44.1840741],[45.1666746,44.1917497],[45.103421499999996,44.19090810000001],[45.13667230000001,44.2537973],[45.2168767,44.26393910000001],[45.2176724,44.2708631],[45.3715098,44.290144500000004],[45.425903700000006,44.394063599999996],[45.4290863,44.428802600000004],[45.3977296,44.4362832],[45.386666899999994,44.452080699999996],[45.3727394,44.45462729999999],[45.3584139,44.4646549],[45.226740400000004,44.46751830000001],[45.23111660000001,44.5067937],[45.2648607,44.504326999999996],[45.26812340000001,44.517956],[45.239471800000004,44.5567733],[45.26072030000001,44.5893439],[45.31364429999999,44.591911100000004],[45.33513210000001,44.596527300000005],[45.3425734,44.59358280000001],[45.34750739999999,44.6022576],[45.3843154,44.6068143],[45.4123297,44.5941606],[45.52191620000001,44.679397800000004],[45.655536500000004,44.803691699999995],[45.6134741,44.873984899999996],[45.70511590000002,44.9773628],[45.71595330000001,44.9958415],[45.5863284,45.12111990000001],[45.5900272,45.12578380000001],[45.3511726,45.218374100000005],[45.13634630000001,45.3060591],[44.89511260000001,45.38743169999999],[44.8931824,45.403513800000006],[44.877570399999996,45.405308000000005],[44.871555,45.4117178],[44.8373769,45.428279700000004],[44.8306221,45.437285599999996],[44.8058558,45.4313349],[44.79701080000001,45.425706000000005],[44.7880047,45.430208900000004],[44.761308400000004,45.4308518],[44.74281390000001,45.4348722],[44.72367590000001,45.4451645],[44.7133834,45.4450035],[44.699874300000005,45.4504713],[44.6328115,45.464140300000004],[44.59839550000001,45.478292100000004],[44.5749149,45.506114000000004],[44.5540083,45.49935920000001],[44.5475754,45.503218800000006],[44.5368005,45.4988765],[44.534066499999994,45.499037300000005],[44.536157100000004,45.5030579],[44.5339055,45.5048269],[44.5146069,45.5104554],[44.497720900000004,45.5017708],[44.470863699999995,45.503378700000006],[44.4517259,45.5070773],[44.4097512,45.524123900000006],[44.3819288,45.539723200000005],[44.365846499999996,45.5447085],[44.3642381,45.551945399999994],[44.33464709999999,45.549854399999994],[44.3159918,45.552748900000005],[44.29733610000001,45.56931330000001],[44.2780375,45.5749418],[44.2788414,45.5808922],[44.274499,45.5892549],[44.234615100000006,45.59922530000001],[44.2141905,45.6146639],[44.20711430000001,45.616111200000006],[44.1714113,45.644254499999995],[44.171572000000005,45.6479534],[44.131043999999996,45.69201800000001],[44.119303,45.734796300000006],[44.105954700000005,45.73817340000001],[44.103703,45.748466],[44.0932491,45.767442800000005],[44.0885848,45.7864196],[44.091157700000004,45.79639060000001],[44.071858999999996,45.8007325],[44.0638177,45.8105425],[44.060762200000006,45.8098992],[44.059314900000004,45.8044313],[44.042106700000005,45.8195483],[44.032778500000006,45.8406158],[44.035512200000014,45.84946099999999],[44.016856399999995,45.87085],[44.001739,45.8806599],[43.9827619,45.890148100000005],[43.973595100000004,45.8890223],[43.9449688,45.894811499999996],[43.92293610000001,45.9030131],[43.931459399999994,45.9105718],[43.92711690000001,45.9252065],[43.9206839,45.931156800000004],[43.919372900000006,45.9439519],[43.9152155,45.9465956],[43.90315390000001,45.9483645],[43.8931831,45.944182999999995],[43.84702709999999,45.957369799999995],[43.82451210000001,45.9591385],[43.8179186,45.9567261],[43.81438039999999,45.9592992],[43.8100383,45.95640439999999],[43.7871413,45.962897],[43.78563830000001,45.967811499999996],[43.7789866,45.968599600000005],[43.77639830000001,45.972931800000005],[43.7662946,45.9713602],[43.7486041,45.97891860000001],[43.7330045,45.978275100000005],[43.72319430000001,45.9826172],[43.691834300000004,45.9792395],[43.665781200000005,45.982938100000005],[43.645357000000004,45.9793997],[43.6384416,45.98084699999999],[43.6394065,45.9839027],[43.63522520000001,45.982294399999994],[43.6360292,45.9877623],[43.62895310000001,45.984384999999996],[43.623163500000004,45.9859931],[43.622680900000006,45.9911394],[43.6193037,45.9904961],[43.614640099999995,45.982615800000005],[43.60708149999999,45.98181159999999],[43.60676,45.97891680000001],[43.59421570000001,45.98888759999999],[43.589551900000004,45.9867968],[43.5887479,45.982133000000005],[43.570092800000005,45.9790771],[43.5118753,45.9892081],[43.469740200000004,45.988885999999994],[43.359737499999994,46.033110400000005],[43.3103639,46.0898798],[43.2817374,46.1040317],[43.2574532,46.110464199999996],[43.21837370000001,46.11223280000001],[43.19264220000001,46.1175395],[43.1644431,46.128764700000005],[43.06993490000001,46.1514713],[43.03326739999999,46.163693200000004],[43.0017463,46.1693216],[42.9785877,46.182508600000006],[42.961861999999996,46.196499900000006],[42.93178739999999,46.2360616],[42.9137754,46.23622220000001],[42.881605799999996,46.2082575],[42.8751212,46.20902280000001],[42.876006399999994,46.2049613],[42.871890799999996,46.208187],[42.856622599999994,46.19911370000001],[42.852038,46.20227630000001],[42.8487032,46.2009806],[42.845038200000005,46.19216590000001],[42.8393776,46.190603100000004],[42.85705169999999,46.184155700000005],[42.855051599999996,46.17810630000001],[42.862964,46.1778457],[42.737763,46.0910085],[42.6720445,46.08989139999999],[42.5567887,46.0080411],[42.3180347,45.969723900000005],[42.319547199999995,46.04162049999999],[42.3296764,46.13521870000001],[42.3219373,46.135449300000005],[42.1706684,46.1099034],[42.167570700000006,46.069923100000004],[42.1802755,46.0713707],[42.176230100000005,46.040629499999994],[42.1636345,46.0387676],[42.15156939999999,45.9430799],[42.0832996,45.9322266],[42.0800939,45.9337535],[42.0829478,45.96635190000001],[41.9272893,45.9745191],[41.9028017,45.9679672],[41.819694999999996,45.9753624],[41.8098889,45.978956100000005],[41.7947295,45.9768372],[41.71441,45.9824283]]]}}