{"type":"Feature","properties":{"regionId":"sverdlovskaya_oblast","name":"Свердловская область","name:en":"Sverdlovsk Oblast","timezone":"Asia/Yekaterinburg","name_ru":"Свердловская область","name_en":"Sverdlovsk Oblast","name_zh":"斯维尔德洛夫斯克州"},"geometry":{"type":"Polygon","coordinates":[[[65.95045990000001,58.6145443],[65.65541119999999,58.658297],[65.37268479999999,58.89895220000001],[65.3398476,59.008879300000004],[65.2363033,59.20557520000001],[65.2150855,59.215886499999996],[65.18574879999997,59.2117056],[65.16309709999999,59.213238000000004],[65.15222229999999,59.20943030000001],[65.13647929999999,59.2096657],[65.12591839999999,59.2167648],[65.121715,59.21633550000001],[65.1206,59.220802500000005],[65.12451779999999,59.22269800000001],[65.1169079,59.22557450000001],[65.1186306,59.22689880000001],[65.1153614,59.23053560000001],[65.1219108,59.234111600000006],[65.1098293,59.2375236],[65.1046733,59.2349641],[65.10604209999998,59.23913340000001],[65.10031869999999,59.23971370000001],[65.1099429,59.241862],[65.0957145,59.2420035],[65.09508179999999,59.245070000000005],[65.0877653,59.2471742],[65.0863219,59.2533778],[65.093449,59.26439620000001],[65.08599009999999,59.2716436],[65.08725470000002,59.2774177],[65.07847369999999,59.288638600000006],[65.07894889999999,59.29392360000001],[65.0734002,59.3035428],[65.0760677,59.30722399999999],[65.07186060000001,59.31186579999999],[65.0459951,59.3175252],[64.9073505,59.3339979],[64.4896702,59.3767548],[64.0204659,59.38185669999999],[63.99931120000001,59.3904218],[63.8743126,59.461300900000005],[63.8487334,59.5667345],[63.824946499999996,59.74473230000001],[63.8026787,59.8017427],[63.6776195,59.998091200000005],[63.60593630000001,60.1017036],[63.6107261,60.103045900000005],[63.6111584,60.10818210000001],[63.6182266,60.115541300000004],[63.604881799999994,60.125358100000014],[63.610715400000004,60.129904200000006],[63.606047,60.1371648],[63.53478139999999,60.13073320000001],[63.5263774,60.13281550000001],[63.516049499999994,60.140398100000006],[63.499936500000004,60.142244399999996],[63.49277370000001,60.1478703],[63.4442743,60.150102600000004],[63.1808401,60.224473800000005],[63.22573050000001,60.294206300000006],[62.9066591,60.6215214],[62.8673828,60.653825],[62.814433599999994,60.756567],[62.76015570000001,60.8533213],[62.826001,61.0005295],[62.645589,61.1706512],[62.4835549,61.26097310000001],[62.24953090000001,61.31835290000001],[62.20031670000001,61.3337221],[61.8905215,61.4068089],[61.88651,61.436579300000005],[61.461353300000006,61.582788300000004],[61.22947530000001,61.6544982],[61.16613840000001,61.6693264],[60.9974192,61.694800900000004],[60.8385985,61.69846630000001],[60.7106827,61.7170594],[60.514609699999994,61.73569990000001],[59.989130700000004,61.7194807],[59.979230300000005,61.724606900000005],[59.97651270000001,61.7306843],[59.9509736,61.745442800000006],[59.943910900000006,61.7544427],[59.9491812,61.767068300000005],[59.9591725,61.778046200000006],[59.9405807,61.79451130000001],[59.941154499999996,61.803594],[59.95042459999999,61.8187038],[59.9445396,61.8333991],[59.9673905,61.84116339999999],[59.9752278,61.85058939999999],[59.9798,61.871935],[59.973237399999995,61.8825724],[59.9504987,61.886609899999996],[59.926947,61.89915230000001],[59.88498409999999,61.90498649999999],[59.82519490000001,61.9064024],[59.806537399999996,61.912477599999995],[59.774085,61.917289999999994],[59.758371700000005,61.924902100000004],[59.7434446,61.9240462],[59.7180224,61.9304868],[59.6636479,61.9188028],[59.62950920000001,61.91755],[59.58295570000001,61.9454251],[59.5408113,61.936225900000004],[59.524150500000005,61.93559230000001],[59.505342000000006,61.9373698],[59.4866989,61.9460689],[59.4558109,61.9373263],[59.4479708,61.933122000000004],[59.447061999999995,61.92812250000001],[59.4021235,61.908123800000006],[59.39632890000001,61.899488],[59.3967839,61.89073890000001],[59.403715600000005,61.88380769999999],[59.3870128,61.8764219],[59.3645146,61.8735809],[59.356789299999996,61.86446169999999],[59.344630599999995,61.85926369999999],[59.3380407,61.849491799999996],[59.32758739999999,61.8422195],[59.330655900000004,61.832675],[59.334860299999995,61.83017530000001],[59.32577030000001,61.824266699999995],[59.326452700000004,61.81460839999999],[59.3156587,61.802336600000004],[59.32815850000001,61.7875654],[59.327818,61.783702100000006],[59.3422485,61.785179400000004],[59.354861599999985,61.779498200000006],[59.3597481,61.76961280000001],[59.3910527,61.76518180000001],[59.4185512,61.75370590000001],[59.40162169999999,61.737911600000004],[59.399747399999995,61.727571600000005],[59.369295900000004,61.7138224],[59.367364699999996,61.7056413],[59.3713419,61.700982700000004],[59.3452081,61.68984699999999],[59.3605043,61.673065300000005],[59.3489689,61.6630673],[59.357757299999996,61.644822399999995],[59.3555609,61.63677070000001],[59.3808155,61.62443280000001],[59.40351570000001,61.620528500000006],[59.413994699999996,61.60215120000001],[59.4011031,61.5916226],[59.4041821,61.58428839999999],[59.4021978,61.575357000000004],[59.41333590000001,61.551429999999996],[59.402861699999995,61.532574800000006],[59.412455300000005,61.523312800000014],[59.4420342,61.5173808],[59.446197,61.5109637],[59.4360619,61.4856324],[59.423031800000004,61.47545],[59.3997213,61.4648502],[59.4031966,61.4582573],[59.4277668,61.4453601],[59.4452098,61.416497799999995],[59.42674590000001,61.3986935],[59.3692386,61.393886099999996],[59.3626231,61.3855932],[59.3343961,61.3709278],[59.3121235,61.35438799999999],[59.31388839999999,61.3431411],[59.320615000000004,61.333548300000004],[59.291898,61.319460199999995],[59.2568826,61.313628699999995],[59.253613,61.30964159999999],[59.26173550000001,61.29947620000001],[59.261405,61.29319120000001],[59.2582546,61.291031800000006],[59.261736400000004,61.28271610000001],[59.251842599999996,61.260599400000004],[59.257189399999994,61.2514348],[59.26278290000001,61.25015330000001],[59.264274900000004,61.2366261],[59.268244700000004,61.231995000000005],[59.271883599999995,61.22890770000001],[59.284012800000006,61.22813600000001],[59.28930580000001,61.222512600000016],[59.28555850000001,61.19009520000001],[59.293203000000005,61.1772458],[59.2848979,61.171460599999996],[59.29217590000002,61.1612062],[59.3159936,61.15194439999999],[59.325808200000004,61.1320971],[59.3253674,61.12757630000001],[59.337276599999996,61.1163296],[59.3441136,61.1048623],[59.3473124,61.0832507],[59.3400352,61.078068200000004],[59.358670599999996,61.066270200000005],[59.34180049999999,61.0582208],[59.34334449999999,61.0520461],[59.3624208,61.043556],[59.3597749,61.034624599999994],[59.37091230000001,61.022054700000005],[59.374001299999996,60.9910708],[59.3661735,60.9730977],[59.383596,60.95909449999999],[59.3873458,60.944870599999994],[59.390874399999994,60.9429961],[59.4370751,60.9464149],[59.47688109999999,60.9378148],[59.4769917,60.9320811],[59.471589099999996,60.9248036],[59.4765516,60.912785],[59.4742368,60.898561],[59.476993900000004,60.8897399],[59.47048899999999,60.875956900000006],[59.4730148,60.8647196],[59.469608300000004,60.84772949999999],[59.477658,60.84122399999999],[59.482730800000006,60.8278822],[59.4645384,60.80428559999999],[59.450635999999996,60.774182100000004],[59.44170439999999,60.7699446],[59.437685599999995,60.761050600000004],[59.4265424,60.7500828],[59.4452237,60.7342054],[59.432042100000004,60.722986500000005],[59.4201677,60.69715620000001],[59.4204402,60.66693060000001],[59.42724739999999,60.659081099999995],[59.429726,60.64221020000001],[59.4265619,60.6316308],[59.4156371,60.62200200000001],[59.4120622,60.612880499999996],[59.413641299999995,60.60399830000001],[59.3839962,60.58724659999999],[59.38724009999999,60.578729700000004],[59.3797409,60.5714413],[59.378355000000006,60.56590320000001],[59.3815919,60.5600648],[59.3638203,60.542506100000004],[59.36511540000001,60.5385064],[59.35964909999999,60.5263405],[59.36185999999999,60.52352320000001],[59.2840507,60.499405],[59.2670978,60.482218100000004],[59.25087739999999,60.47579820000001],[59.242435400000005,60.4668853],[59.243125000000006,60.4610006],[59.23532790000001,60.4569599],[59.232130300000016,60.4497941],[59.22035760000001,60.4431517],[59.22643870000001,60.428321000000004],[59.22330280000001,60.418859999999995],[59.2075663,60.4088887],[59.2109807,60.397677699999996],[59.19954020000001,60.3859496],[59.2022467,60.383823199999995],[59.183826999999994,60.3729147],[59.182003,60.3691266],[59.1856449,60.360231399999996],[59.17753930000001,60.3566323],[59.1749055,60.350659699999994],[59.14803630000001,60.341706099999996],[59.142217900000006,60.3349223],[59.13975280000001,60.3295455],[59.16507070000001,60.323128000000004],[59.167413100000005,60.3189055],[59.1806229,60.31654399999999],[59.182528600000005,60.3135347],[59.1790262,60.3061216],[59.1614764,60.294488900000005],[59.1575222,60.287386999999995],[59.16294930000001,60.2808829],[59.15011690000001,60.261687699999996],[59.157394,60.2478657],[59.14893240000001,60.2445891],[59.1491295,60.23871000000001],[59.1535725,60.23475590000001],[59.14870260000001,60.23039080000001],[59.147460599999995,60.21955390000001],[59.13935270000001,60.206734100000006],[59.118475600000004,60.19401590000001],[59.104922200000004,60.1814987],[59.1025274,60.17591720000001],[59.10415630000001,60.168892500000005],[59.089153100000004,60.1515069],[59.087355900000006,60.128422400000005],[59.0662972,60.1173395],[59.0756705,60.10234380000001],[59.0298047,60.015235100000005],[58.9841567,59.98513260000001],[58.971586499999994,59.98425039999999],[58.9634273,59.9779653],[58.980077699999995,59.967711],[58.978314100000006,59.9558025],[58.9887916,59.9076173],[58.839456,59.931981699999994],[58.800246099999995,59.8430025],[58.69344890000001,59.8566101],[58.602324800000005,59.6934811],[58.5058425,59.7101297],[58.4790481,59.7116731],[58.36293530000001,59.46464039999999],[58.416209499999994,59.45938949999999],[58.458440599999996,59.4633595],[58.4591026,59.455641099999994],[58.5249315,59.435022700000005],[58.5403699,59.4071262],[58.59870240000001,59.35276699999999],[58.60917820000001,59.33766109999999],[58.6247274,59.2979664],[58.6812162,59.26849000000001],[58.740540900000006,59.253117700000004],[58.748307200000006,59.2475803],[58.789186900000004,59.239541900000006],[58.9674527,59.23544820000001],[58.9897788,59.22277000000001],[58.9877221,59.213068],[58.994558700000006,59.208547300000006],[59.100083399999995,59.173154000000004],[59.1519083,59.16245910000001],[59.1967866,59.147133000000004],[59.092924200000006,59.00048139999999],[59.20693980000001,58.953951599999996],[59.181690599999996,58.924952000000005],[59.1708849,58.9189976],[59.16890050000001,58.910286799999994],[59.080027599999994,58.9060957],[59.0875284,58.8439072],[59.081684399999986,58.843576399999996],[59.105835400000004,58.77377990000001],[59.145751100000005,58.774993300000006],[59.1535825,58.7175461],[59.22856220000001,58.7198625],[59.23451630000001,58.72350130000001],[59.26759620000001,58.71269590000001],[59.2862311,58.700304100000004],[59.31776729999999,58.69439280000001],[59.3438999,58.696929100000006],[59.35084609999999,58.70685290000001],[59.398590600000006,58.7080664],[59.40223,58.691968],[59.415573300000005,58.66285860000001],[59.396059900000004,58.5853431],[59.4536227,58.4780575],[59.3849301,58.429651],[59.35196119999999,58.4259016],[59.3193229,58.42634230000001],[59.2874568,58.419284999999995],[59.275769600000004,58.3995477],[59.27775530000001,58.3771643],[59.269927,58.36702],[59.26242920000001,58.3631606],[59.25537280000001,58.350590499999996],[59.264635600000005,58.33669739999999],[59.2188764,58.324788399999996],[59.2016751,58.3271038],[59.20035260000001,58.310233399999994],[59.1862402,58.2785876],[59.10552620000001,58.288069300000004],[59.1370631,58.2598423],[58.924692900000004,58.281010300000005],[58.9088165,58.24131520000001],[58.8743036,58.245394600000004],[58.8612939,58.21011010000001],[58.8163058,58.2148509],[58.8055016,58.17614830000001],[58.77804570000001,58.17912510000001],[58.76283080000001,58.1414148],[58.7382417,58.144281299999996],[58.688293200000004,58.115501900000005],[58.6632636,58.1052471],[58.6767175,58.069521900000005],[58.6504754,58.050005],[58.625445000000006,58.058715500000005],[58.586742900000004,58.041513900000005],[58.59313860000001,58.0344571],[58.5974395,58.021005],[58.6169565,58.0153819],[58.62610890000001,58.0055685],[58.63856880000001,58.0047968],[58.6469497,57.9864932],[58.642168000000005,57.9754165],[58.64993580000001,57.9676155],[58.64873250000001,57.962045],[58.66239560000001,57.9469403],[58.6492567,57.9438319],[58.6549558,57.9375241],[58.66855370000001,57.9333064],[58.670885999999996,57.92451230000001],[58.686603,57.9131819],[58.6865454,57.8994225],[58.69711930000001,57.889204799999995],[58.702668200000005,57.8852957],[58.71512210000001,57.8842389],[58.7442463,57.8926972],[58.728266000000005,57.8520528],[58.8637912,57.8380971],[58.8313196,57.740101700000004],[58.8473354,57.72583370000001],[58.8054268,57.729090600000006],[58.7443417,57.69097240000001],[58.6795475,57.65573570000001],[58.59491070000001,57.5979647],[58.537084899999996,57.564072100000004],[58.5170581,57.562257],[58.5106385,57.5742193],[58.4694985,57.5761648],[58.46045230000001,57.5823577],[58.4639734,57.6101437],[58.460069399999995,57.6121795],[58.4648313,57.6161711],[58.4612768,57.6266838],[58.464563,57.63269280000001],[58.459181799999996,57.6342491],[58.4490413,57.650015],[58.428456100000005,57.6606667],[58.4522142,57.6647046],[58.4468712,57.67393070000001],[58.271901,57.678421],[58.2506932,57.673931800000005],[58.24388749999999,57.67505030000001],[58.238149400000005,57.682415400000004],[58.223738300000015,57.68315220000001],[58.2091015,57.679846],[58.164075100000005,57.6794019],[58.1532175,57.685326700000005],[58.1598033,57.690329600000005],[58.1547224,57.69519200000001],[58.13355880000001,57.6890594],[58.12759380000001,57.683954],[58.12721210000001,57.6791855],[58.1128018,57.67989],[58.1120064,57.67188759999999],[58.1066031,57.66757930000001],[58.1072469,57.66219040000001],[58.09802380000001,57.663641399999996],[58.09355360000001,57.661008800000005],[58.1076056,57.651305],[58.1029635,57.6496579],[58.1029817,57.64675290000001],[58.1107667,57.6448743],[58.1090249,57.63059530000001],[58.09276280000001,57.6182455],[58.099422100000005,57.612274],[58.11613690000001,57.610544499999996],[58.1190093,57.602700600000006],[58.11622,57.5976051],[58.0887276,57.588975500000004],[58.0642478,57.59570630000001],[58.06377560000001,57.6117093],[58.030353600000005,57.611407699999994],[58.0288685,57.5669485],[58.0179131,57.56631900000001],[57.9856786,57.5546459],[57.9883616,57.5514757],[57.9793545,57.5462982],[57.9856237,57.53539850000001],[57.96897590000001,57.4890281],[58.0120262,57.4845369],[57.94048649999999,57.3164302],[57.979684999999996,57.3129392],[57.9700308,57.3057266],[57.9535222,57.3052798],[57.9429014,57.30096739999999],[57.940085499999995,57.29646880000001],[57.9557043,57.29032970000001],[57.9837301,57.2934034],[57.987542999999995,57.28784709999999],[58.01766609999999,57.278150900000014],[58.01718139999999,57.276004300000004],[58.0222971,57.276673200000005],[58.025960100000006,57.274177200000004],[58.014498399999994,57.2708679],[58.0108536,57.2656215],[58.0165979,57.2590241],[58.013807799999995,57.2566851],[58.0163938,57.2528404],[58.047488799999996,57.24870130000001],[58.028881399999996,57.2376225],[58.027492300000006,57.2189977],[58.023122400000005,57.213534800000005],[57.9918501,57.221490200000005],[57.98641,57.211750200000004],[57.9888736,57.2058114],[57.9952264,57.20315830000001],[57.994092900000005,57.19557690000001],[57.99871800000001,57.1899996],[58.02535210000001,57.1849501],[58.035169,57.1972247],[58.043162300000006,57.197165700000006],[58.047651599999995,57.193216400000004],[58.03216630000001,57.150673999999995],[58.12439510000001,57.1426055],[58.117442399999995,57.123960000000004],[58.1019962,57.123761800000004],[58.10357320000001,57.12872390000001],[58.06135870000001,57.12568520000001],[58.05884459999999,57.1203615],[58.0434598,57.1183995],[58.039704,57.1142428],[58.076472100000004,57.1006661],[58.079846499999995,57.1033975],[58.09071970000001,57.100278700000004],[58.0693694,57.049412100000005],[58.0573508,57.0454425],[58.059224799999996,57.057240699999994],[58.05183699999999,57.058894599999995],[58.042795600000005,57.05283],[58.037282399999995,57.0529402],[58.03695210000001,57.040370100000004],[58.02890280000001,57.0397084],[58.026036100000006,57.0362902],[58.0066293,57.0426853],[58.005416100000005,57.0501832],[57.995492500000005,57.0453315],[57.9922947,57.049521399999996],[57.981488899999995,57.047646799999995],[57.9845766,57.0395976],[57.965059800000006,57.0400385],[57.962744,57.046544],[57.9706828,57.0522778],[58.0161115,57.05746069999999],[58.0184268,57.062091800000005],[58.0126928,57.06892810000001],[58.026144800000004,57.0758748],[58.0216238,57.078962100000005],[58.0079511,57.0758746],[57.980274699999995,57.07830010000001],[57.965940700000004,57.07091220000001],[57.9597658,57.0725661],[57.9542523,57.0792921],[57.94311590000001,57.0727864],[57.95149639999999,57.0619807],[57.945762900000005,57.0562469],[57.921725300000006,57.05646719999999],[57.9206225,57.060988],[57.909044699999995,57.0614289],[57.8944902,57.052607599999995],[57.8729885,57.0556947],[57.8565599,57.0377216],[57.846636,57.0394857],[57.8433284,57.03220830000001],[57.85038539999999,57.029231200000005],[57.8433287,57.0250411],[57.848842399999995,57.0141251],[57.8421164,57.0112582],[57.843329399999995,57.0075092],[57.8237024,57.007068],[57.8330757,56.985676999999995],[57.83991220000001,56.9849052],[57.8265711,56.96241130000001],[57.8095902,56.966931900000006],[57.8113542,56.9731067],[57.81697749999999,56.9775173],[57.8056199,56.9867793],[57.7809206,56.9901971],[57.787095900000004,56.9779579],[57.77243090000001,56.9745396],[57.771549,56.967593],[57.7748572,56.9628517],[57.7510408,56.944878499999994],[57.7066038,56.95766849999999],[57.6942542,56.9575581],[57.686977,56.9523756],[57.661506300000006,56.9442158],[57.66514550000001,56.9316458],[57.6760621,56.920509300000006],[57.665146400000005,56.910805999999994],[57.658199800000006,56.9086007],[57.640337,56.90871070000001],[57.6366979,56.9173112],[57.59865680000001,56.9162081],[57.57825820000001,56.910474199999996],[57.57252510000001,56.8945961],[57.466781,56.9128986],[57.44042639999999,56.94608759999999],[57.4399851,56.9530342],[57.4308331,56.955129],[57.4172708,56.9498362],[57.42113020000001,56.94719],[57.389153900000004,56.9373761],[57.3794506,56.9405736],[57.37426769999999,56.95182039999999],[57.37084949999999,56.95182039999999],[57.371510900000004,56.9553488],[57.3672106,56.9557898],[57.360595100000005,56.9481816],[57.3654467,56.947409799999996],[57.3599339,56.937375800000005],[57.35100249999999,56.9370449],[57.3416303,56.930539200000005],[57.3326988,56.9327444],[57.315828599999996,56.928443900000005],[57.312851599999995,56.9257975],[57.31384419999999,56.920504900000005],[57.301604999999995,56.917307099999995],[57.297194700000006,56.910360399999995],[57.26808530000001,56.9017595],[57.2622416,56.8947026],[57.265218900000015,56.8897408],[57.24834870000001,56.8847787],[57.2293844,56.8559997],[57.254415,56.8405631],[57.26014870000001,56.8430993],[57.2719472,56.8382478],[57.265993400000006,56.82633930000001],[57.276799600000004,56.81729779999999],[57.2706254,56.8025225],[57.305029,56.775177500000005],[57.3232227,56.772421200000004],[57.34042469999999,56.7527945],[57.34726119999999,56.74893540000001],[57.3405355,56.74011420000001],[57.3296195,56.7370267],[57.306575,56.7180611],[57.31749169999999,56.7056014],[57.3366778,56.70229380000001],[57.329841699999996,56.69501630000001],[57.335024399999995,56.687187699999996],[57.3611572,56.6843211],[57.3679937,56.680462],[57.379240499999995,56.684431599999996],[57.37924039999999,56.6870779],[57.397764699999996,56.6898348],[57.39500830000001,56.683990800000004],[57.4388937,56.6772652],[57.3990898,56.640547],[57.38089639999999,56.63723890000001],[57.3749423,56.6308435],[57.3469356,56.6215811],[57.338556000000004,56.609782800000005],[57.37108409999999,56.6062547],[57.3875138,56.598095400000005],[57.3976578,56.6042703],[57.4181668,56.6092324],[57.4181679,56.5804537],[57.408574900000005,56.58166639999999],[57.3882883,56.5314963],[57.370646199999996,56.527306100000004],[57.35058049999999,56.4677636],[57.3558732,56.466550700000006],[57.35730769999999,56.440859399999994],[57.323348200000005,56.394217499999996],[57.312763,56.390578700000006],[57.3280904,56.374039399999994],[57.371423899999996,56.3799941],[57.388735700000005,56.372496399999996],[57.4107285,56.346031599999996],[57.4062372,56.3426599],[57.432503800000006,56.3130922],[57.4128408,56.29392580000001],[57.406753200000004,56.27207830000001],[57.413654699999995,56.2644025],[57.4102968,56.261353400000004],[57.4175137,56.2586811],[57.4182231,56.2531944],[57.4336658,56.2495678],[57.433637499999996,56.24625890000001],[57.4458567,56.246000200000005],[57.4471771,56.24314590000001],[57.44215260000001,56.24073310000001],[57.45168089999999,56.23582330000001],[57.4492893,56.233440300000005],[57.4530901,56.23033190000001],[57.4519751,56.22175890000001],[57.4592909,56.22260510000001],[57.454946099999994,56.2190518],[57.4581715,56.216438100000005],[57.4696689,56.2168499],[57.4895257,56.2126979],[57.4924011,56.20911030000001],[57.49837690000001,56.210195000000006],[57.505757800000005,56.19958510000001],[57.5008273,56.19510450000001],[57.505828,56.19232210000001],[57.486831699999996,56.18786099999999],[57.490200800000004,56.1841827],[57.4867819,56.18089],[57.4900885,56.1776225],[57.48407439999999,56.1738226],[57.4907984,56.16516270000001],[57.489709399999995,56.159953900000005],[57.48702339999999,56.1563972],[57.476153200000006,56.155350000000006],[57.4765742,56.1506335],[57.481009199999995,56.1486624],[57.4765396,56.143422900000004],[57.4801749,56.1417669],[57.4670692,56.1342175],[57.466481599999995,56.12697490000001],[57.47833690000001,56.124913600000006],[57.50413220000001,56.1087544],[57.5154095,56.1066653],[57.5100956,56.100058600000004],[57.5160961,56.0972385],[57.5749797,56.095449300000006],[57.577848499999995,56.0910725],[57.5976238,56.0853868],[57.611130100000004,56.09529560000001],[57.645797800000004,56.0930412],[57.653407599999994,56.096000700000005],[57.659325700000004,56.1170337],[57.686241599999995,56.1366225],[57.722176200000014,56.1274826],[57.761309600000004,56.137248],[57.7742277,56.14535870000001],[57.8016132,56.1415498],[57.860711300000006,56.14877270000001],[57.869833,56.14805530000001],[57.8857005,56.14088139999999],[57.893824099999996,56.1416229],[57.90189649999999,56.134629],[57.9122661,56.1312837],[57.8956919,56.12213360000001],[57.919085499999994,56.10579500000001],[57.9469148,56.111843799999995],[58.01105,56.10899810000001],[58.0726893,56.1155696],[58.1049735,56.138836100000006],[58.12926,56.1322671],[58.1645412,56.14071510000001],[58.18539870000001,56.12605920000001],[58.2428535,56.118187],[58.2571304,56.1047805],[58.306031499999996,56.1046402],[58.316177599999996,56.116759800000004],[58.34908779999999,56.1215635],[58.3593008,56.1140827],[58.35098659999999,56.10534530000001],[58.345632200000004,56.0844532],[58.3491554,56.082198500000004],[58.38452759999999,56.0817762],[58.395942000000005,56.095727800000006],[58.410598,56.1010831],[58.421450300000004,56.121650100000004],[58.469785800000004,56.1218349],[58.4824687,56.13343030000001],[58.4937246,56.157469899999995],[58.499067499999995,56.1582808],[58.511075,56.1706656],[58.5524949,56.166886999999996],[58.55810590000001,56.1732285],[58.5828061,56.16517040000001],[58.5877392,56.147378800000006],[58.5976043,56.137514200000005],[58.628467,56.135541700000005],[58.6397412,56.130010500000004],[58.6435467,56.11732739999999],[58.68258290000001,56.118737100000004],[58.713868399999996,56.1162008],[58.7118111,56.0936576],[58.73261330000001,56.080870499999996],[58.767085800000004,56.088090300000005],[58.7809285,56.0838379],[58.83215520000001,56.08484339999999],[58.832811,56.06892220000001],[58.8803026,56.073573200000006],[58.88904039999999,56.0608549],[58.900497099999995,56.053224099999994],[58.960630300000005,56.0652244],[58.984164199999995,56.0801979],[59.0047384,56.1022175],[59.014180399999994,56.103908700000005],[59.02897680000001,56.122828000000005],[59.038559500000005,56.1277605],[59.036585800000005,56.1479478],[59.0418325,56.1718059],[59.040778700000004,56.168541000000005],[59.0409661,56.171432200000005],[59.0300512,56.1733078],[59.0189605,56.19791330000001],[59.067759200000005,56.1999604],[59.1101914,56.1976403],[59.111326,56.194006900000005],[59.121709900000006,56.1894597],[59.1332465,56.20239430000001],[59.16852120000001,56.19871350000001],[59.1688904,56.23017300000001],[59.198336200000014,56.2710607],[59.190204,56.27631930000001],[59.191094,56.28931060000001],[59.18786899999999,56.294993500000004],[59.163415500000006,56.30588109999999],[59.1632565,56.3145629],[59.150431499999996,56.3159599],[59.15184459999999,56.319383499999994],[59.1609807,56.3197201],[59.139768800000006,56.3206928],[59.1419409,56.330621799999996],[59.137686599999995,56.333963999999995],[59.1573995,56.3317261],[59.158466399999995,56.3258449],[59.1626631,56.325455600000005],[59.165381200000006,56.3277999],[59.1630892,56.332323],[59.16793990000001,56.3388499],[59.1594779,56.34547],[59.2228046,56.3553347],[59.26237900000001,56.3435989],[59.2844002,56.344473199999996],[59.278460900000006,56.3310433],[59.288839800000005,56.3274828],[59.4203764,56.3207755],[59.4126907,56.3360711],[59.554774599999995,56.338906300000005],[59.5717637,56.3378733],[59.57235290000001,56.3209813],[59.7140079,56.323516600000005],[59.6347065,56.248048100000005],[59.7576391,56.22323560000001],[59.7612176,56.227499900000005],[59.783301900000005,56.22559690000001],[59.785729800000006,56.23293790000001],[59.800195800000004,56.2348594],[59.810676799999996,56.241424499999994],[59.83212030000001,56.2441605],[59.8637601,56.26033970000001],[59.87628939999999,56.2570342],[59.91537,56.25748449999999],[59.961200999999996,56.239258500000005],[59.9793804,56.2377243],[59.999649,56.226437700000005],[60.0040116,56.22064090000001],[60.0183801,56.225016900000014],[60.0509579,56.2135514],[60.10261190000001,56.2188377],[60.140545,56.213888],[60.1706033,56.2170779],[60.200595500000006,56.202664],[60.2396615,56.199979600000006],[60.2589472,56.199749100000005],[60.26071680000001,56.2127734],[60.2815689,56.22595470000001],[60.2904448,56.22851570000002],[60.30436139999999,56.224654900000004],[60.323025200000004,56.231463999999995],[60.3417529,56.2300435],[60.3638102,56.2332746],[60.46521690000001,56.221059000000004],[60.5026212,56.2368364],[60.5350947,56.22450810000001],[60.553838,56.221309100000006],[60.5763638,56.31808409999999],[60.679792000000006,56.310092999999995],[60.65546,56.2149679],[60.7050046,56.2426955],[60.7088884,56.23965200000001],[60.7704901,56.237146900000006],[60.768356800000014,56.21877810000001],[60.8083972,56.2177374],[60.8095578,56.220604],[60.8312789,56.22235720000001],[60.836986399999994,56.216202900000006],[60.8463607,56.2244478],[60.879064699999994,56.22041020000001],[60.87445749999999,56.2147796],[60.9638688,56.190951600000005],[60.976089099999996,56.2006036],[61.0011764,56.187238900000004],[61.0099784,56.188821399999995],[61.014140499999996,56.185093800000004],[61.0459637,56.199830500000004],[61.079219900000005,56.1838735],[61.10353190000001,56.1814382],[61.10393390000001,56.1847821],[61.111119800000004,56.18891200000001],[61.13579220000001,56.192347000000005],[61.16470220000001,56.204249499999996],[61.185875,56.2082643],[61.174526,56.22952880000001],[61.160415500000006,56.23943890000001],[61.145639,56.280185],[61.091777300000004,56.319243199999995],[61.093303500000005,56.339287899999995],[61.1199311,56.3529206],[61.1547956,56.35722409999999],[61.1561456,56.3650905],[61.1610251,56.366287299999996],[61.1801602,56.36235380000001],[61.17295370000001,56.358640799999996],[61.180120200000005,56.3534529],[61.2198185,56.349289999999996],[61.253818,56.3395937],[61.2595443,56.332925700000004],[61.28573610000001,56.33404769999999],[61.310379399999995,56.3402609],[61.320024,56.3267747],[61.31344699999999,56.3134132],[61.3377959,56.31424199999999],[61.3427378,56.3220841],[61.3563368,56.3227649],[61.3828988,56.33786979999999],[61.409282499999996,56.3455967],[61.4208757,56.3358458],[61.4337134,56.3511385],[61.444060699999994,56.3532362],[61.459449199999995,56.3454186],[61.471602399999995,56.3459438],[61.4675683,56.3364633],[61.4715757,56.3300086],[61.48712449999999,56.333384599999995],[61.504934399999996,56.3303041],[61.504912100000006,56.3211699],[61.5198952,56.3211742],[61.5282945,56.31594],[61.5297815,56.308681699999994],[61.5412399,56.3035711],[61.561725200000005,56.309244199999995],[61.5594139,56.3072188],[61.564559900000006,56.304811599999994],[61.56530620000001,56.2968885],[61.5702454,56.295462400000005],[61.570188900000005,56.29246390000001],[61.563645300000005,56.28951530000001],[61.56659810000001,56.28488109999999],[61.581456499999994,56.287675300000004],[61.5919073,56.30426679999999],[61.60453580000001,56.3022238],[61.6180511,56.320227499999994],[61.668357400000005,56.31742159999999],[61.6826439,56.3096584],[61.69437260000001,56.3075499],[61.69855920000001,56.300068399999994],[61.734580300000005,56.28670220000001],[61.72389090000001,56.27219710000001],[61.7460672,56.26937910000001],[61.747067799999996,56.2597098],[61.751505900000005,56.257802999999996],[61.74565830000001,56.253059900000004],[61.74991990000001,56.244500200000004],[61.7594209,56.243783900000004],[61.76355930000001,56.238048400000004],[61.76923030000001,56.237808300000005],[61.77307290000001,56.22635510000001],[61.7892485,56.2271234],[61.7916498,56.23275200000001],[61.8051796,56.228558600000014],[61.810707699999995,56.23559090000001],[61.8303825,56.2412743],[61.8707436,56.222679400000004],[61.8711639,56.20933410000001],[61.8780064,56.2072755],[61.8709679,56.198586000000006],[61.857406899999994,56.19501100000001],[61.8369794,56.1778334],[61.851163799999995,56.177883099999995],[61.8598102,56.1732635],[61.880159,56.1712949],[61.9360461,56.153162200000004],[62.0610577,56.1308206],[62.078053800000006,56.19867220000001],[62.066803300000004,56.2030212],[62.0672849,56.2135084],[62.06812880000001,56.2171825],[62.077828999999994,56.2182676],[62.078744,56.221093700000004],[62.0764795,56.23355790000001],[62.0536324,56.245318900000015],[62.053753300000004,56.248413000000006],[62.06151320000001,56.2828498],[62.069846999999996,56.29632520000001],[62.119539800000005,56.2865885],[62.1540197,56.274072600000004],[62.16115090000001,56.287589],[62.171373300000006,56.28593310000001],[62.178769900000006,56.303581599999994],[62.19241610000001,56.30780479999999],[62.19685930000001,56.304904799999996],[62.212465300000005,56.319319300000004],[62.267765100000005,56.339687299999994],[62.2565478,56.3407702],[62.24823930000001,56.3458572],[62.254858399999996,56.3486043],[62.2512112,56.3507163],[62.2541433,56.35194839999999],[62.2535854,56.37744789999999],[62.25726139999999,56.380095],[62.25446459999999,56.3990824],[62.2599564,56.4088957],[62.27253850000001,56.416552],[62.27105530000001,56.419793],[62.2939476,56.4307235],[62.30986599999999,56.4316007],[62.309510800000005,56.438129800000006],[62.3249939,56.447077199999995],[62.3363785,56.4670937],[62.36991880000001,56.45748789999999],[62.37828439999999,56.4751544],[62.37831190000001,56.487954599999995],[62.4012126,56.487837899999995],[62.4048153,56.5002942],[62.402900200000005,56.501302200000005],[62.4068542,56.5026672],[62.399576800000006,56.50883530000001],[62.4359044,56.520721900000005],[62.428448,56.526957],[62.51881230000001,56.5636408],[62.569211700000004,56.5658134],[62.604782300000004,56.5483174],[62.58335830000001,56.53203080000001],[62.60293240000001,56.490658200000006],[62.6119164,56.496784399999996],[62.623808700000005,56.496864499999994],[62.6417266,56.4865365],[62.6512859,56.4865196],[62.653279,56.514784199999994],[62.6797619,56.51048339999999],[62.6884883,56.5067035],[62.6881234,56.5029654],[62.69717870000001,56.50231050000001],[62.69813760000001,56.506027499999995],[62.714873,56.5088208],[62.72476230000001,56.507772900000006],[62.74291600000001,56.5583611],[62.8317299,56.54830690000001],[62.871181099999994,56.546933300000006],[62.889490099999996,56.590725400000004],[62.9201941,56.587732700000004],[62.922006,56.59243280000001],[62.944862699999995,56.591418000000004],[62.9768318,56.5863573],[62.9751635,56.5940714],[62.9858719,56.59793830000001],[63.1244049,56.5641244],[63.145442800000005,56.585314100000005],[63.152751,56.5849712],[63.1545667,56.566746800000004],[63.16366,56.567719000000004],[63.184139900000005,56.586738600000004],[63.201516600000005,56.581949699999996],[63.1891847,56.56874630000001],[63.23037520000001,56.560647499999995],[63.236565000000006,56.57033680000001],[63.262299000000006,56.564873999999996],[63.29063860000001,56.5703404],[63.315070399999996,56.5677826],[63.31156899999999,56.54951020000001],[63.31756599999999,56.52535070000001],[63.3605217,56.5123449],[63.354093899999995,56.5024067],[63.358256399999995,56.4910205],[63.3775258,56.49710280000001],[63.37065739999999,56.529710400000006],[63.362948,56.5352624],[63.370340999999996,56.5411047],[63.3679437,56.5473498],[63.3699086,56.5516139],[63.3985444,56.5811988],[63.400279399999995,56.610414399999996],[63.4174389,56.6100436],[63.4306527,56.59856550000001],[63.469777,56.59503990000001],[63.473944499999995,56.6116313],[63.492983,56.6130725],[63.5608095,56.59973000000001],[63.56815500000001,56.591746900000004],[63.59911410000001,56.58780709999999],[63.595406000000004,56.558355500000005],[63.6444259,56.54686769999999],[63.654275399999996,56.539117700000006],[63.686505600000004,56.5330719],[63.701056300000005,56.524504900000004],[63.7258865,56.5389715],[63.74679020000001,56.537486699999995],[63.7478486,56.5287075],[63.7388644,56.5264693],[63.74212590000001,56.514347099999995],[63.757983499999995,56.5105992],[63.76288280000001,56.506272200000005],[63.773648,56.5102164],[63.829418600000004,56.481103399999995],[63.8533032,56.484271699999994],[63.8905344,56.482327],[63.8943077,56.47768099999999],[63.915512400000004,56.4741961],[63.9859935,56.47505290000001],[63.996761,56.46870090000001],[64.02083309999999,56.4862225],[64.01969900000002,56.4892006],[64.0551601,56.4871719],[64.04158410000001,56.4765785],[64.17883569999998,56.460684699999995],[64.2144827,56.4915477],[64.2214683,56.53795280000001],[64.1919349,56.5527638],[64.16889099999999,56.5587436],[64.1839354,56.58758039999999],[64.21109090000002,56.5975679],[64.2870968,56.605851900000005],[64.31121010000001,56.619347399999995],[64.2964001,56.6342396],[64.2980998,56.64637890000001],[64.3430562,56.6442763],[64.350427,56.682560200000005],[64.2957138,56.699422000000006],[64.321689,56.7157836],[64.32834419999999,56.716103700000005],[64.31175460000001,56.7175915],[64.29160070000002,56.72801650000001],[64.2956917,56.7306696],[64.29156840000002,56.7346147],[64.29263940000001,56.7376177],[64.30687669999999,56.740591],[64.3028564,56.744558000000005],[64.32789879999999,56.7565425],[64.4938621,56.7455841],[64.49657900000001,56.752220200000004],[64.51722530000002,56.7614766],[64.54368420000002,56.7861934],[64.54559920000001,56.78875850000001],[64.53993360000001,56.79876070000001],[64.54911670000001,56.8035419],[64.59420220000001,56.799497300000006],[64.5982085,56.79490620000001],[64.60622380000001,56.79338430000001],[64.63395229999999,56.8037718],[64.6802394,56.813917],[64.7331419,56.8153217],[64.76606400000001,56.8126259],[64.77804229999998,56.8156481],[64.7892863,56.8249584],[64.8167631,56.8230941],[64.82906109999999,56.835187499999996],[64.82553229999998,56.84127409999999],[64.8305079,56.8422967],[64.85903809999998,56.8302757],[64.87834079999998,56.82941890000001],[64.88680719999999,56.8240769],[64.8833247,56.8075285],[64.86512460000002,56.79393200000001],[64.89656360000002,56.791826300000004],[64.91225520000002,56.7877204],[64.9226461,56.773549200000005],[64.92705520000001,56.77240020000001],[64.9980493,56.769906600000006],[65.0539123,56.771696399999996],[65.1696827,56.76403530000001],[65.18937029999998,56.848480099999996],[65.21721060000003,56.844796499999994],[65.2531476,56.92050590000001],[65.21865040000002,56.92030880000001],[65.13593069999999,56.9068968],[65.12817929999999,56.9082607],[65.1193917,56.9033348],[65.1110065,56.88608299999999],[65.1010628,56.893384],[65.05619540000001,56.903916100000004],[65.0740406,56.946594499999996],[65.03862670000001,56.94517290000001],[65.04399440000002,56.9684717],[65.00948129999999,56.9661647],[65.01792710000001,56.9797304],[65.0280192,56.9839535],[65.02971809999998,56.987400199999996],[65.0262376,56.990692],[65.0308265,56.9938748],[65.04256310000001,56.9851717],[65.0509864,56.987183599999994],[65.0414468,56.991758700000005],[65.03458560000001,57.00593620000001],[65.00052360000002,57.0208166],[65.00792650000001,57.0398704],[65.0128795,57.043072200000005],[65.0073964,57.05104479999999],[64.9831305,57.05813020000001],[64.98611940000002,57.058787599999995],[64.9824908,57.0678185],[64.9807029,57.1032673],[64.99585520000001,57.107912500000005],[64.99163040000002,57.116187399999994],[64.98195420000002,57.118295],[64.96251940000002,57.156659],[65.00508609999999,57.233812400000005],[64.95345040000001,57.246238500000004],[64.92102930000001,57.26577930000001],[64.92369570000001,57.268496000000006],[64.92224660000001,57.272991000000005],[64.93101620000002,57.27971790000001],[64.93164110000001,57.292410300000014],[64.94023050000001,57.29863990000001],[64.9086758,57.29345580000001],[64.8834,57.2806143],[64.8601623,57.290242400000004],[64.8271919,57.29311970000001],[64.8432771,57.339535000000005],[64.89792930000002,57.3323716],[64.87427149999999,57.35619739999999],[64.86772520000001,57.35722299999999],[64.8592848,57.3636987],[64.86465570000001,57.3662085],[64.8618189,57.37089139999999],[64.8678316,57.3771043],[64.87538849999997,57.37454939999999],[64.88297329999999,57.379614499999995],[64.869937,57.3882603],[64.84986310000001,57.45128269999999],[64.89969660000001,57.4545962],[64.90455120000001,57.464293399999995],[64.9057557,57.482203999999996],[64.9268316,57.5000568],[64.9254057,57.509165100000004],[64.9337752,57.52667280000001],[64.92894609999999,57.541841999999995],[64.9335958,57.5455813],[64.9368375,57.555302000000005],[64.9539121,57.555087799999995],[64.9607451,57.56216310000001],[64.99090120000001,57.5617401],[64.98953300000001,57.564986],[64.9968877,57.569804],[64.9890084,57.570368],[64.9660585,57.6050704],[64.9057004,57.592512200000016],[64.8991327,57.62358270000001],[64.8633174,57.6211847],[64.8573625,57.6400798],[64.83308819999999,57.648250100000006],[65.40675470000001,57.825821399999995],[65.41782180000001,57.8370108],[65.4262351,57.8086433],[65.4523098,57.788240200000004],[65.45380229999999,57.773391200000006],[65.46017540000001,57.764017100000004],[65.49866260000002,57.7626775],[65.50395590000001,57.7419406],[65.5197437,57.7412365],[65.53567229999999,57.7640018],[65.54396700000001,57.7646607],[65.5531698,57.7712724],[65.5613329,57.7700436],[65.6074826,57.787278],[65.5959017,57.79077320000001],[65.59768740000001,57.796947200000005],[65.62703909999999,57.79677650000001],[65.64621530000001,57.811703699999995],[65.6555649,57.82486349999999],[65.67432229999999,57.83026739999999],[65.68463340000001,57.838084499999994],[65.654457,57.84742779999999],[65.63418460000001,57.8592729],[65.635426,57.8729062],[65.65579499999998,57.8755435],[65.6565172,57.885886799999994],[65.67092999999998,57.8922076],[65.6677616,57.898477],[65.6971989,57.895346700000005],[65.7024909,57.8884262],[65.7343527,57.889177],[65.7385403,57.89517810000001],[65.74875109999999,57.894305900000006],[65.75988829999999,57.8799919],[65.7947688,57.8747983],[65.80805179999999,57.8969495],[65.80836749999999,57.9088325],[65.82498629999999,57.9326348],[65.8540974,57.935990700000005],[65.87777499999999,57.942558000000005],[65.98406900000002,57.94486159999999],[65.9807867,57.965104000000004],[66.0061825,57.9779173],[66.0367339,57.984586199999995],[66.0261598,57.993015400000004],[66.04154930000001,57.99290870000001],[66.07501209999998,58.00213280000001],[66.0762577,57.9983845],[66.06898149999999,57.995896200000004],[66.0742455,57.993683999999995],[66.1022334,57.9956431],[66.12869119999999,58.00575370000001],[66.18485679999999,58.0109699],[66.0000584,58.248693100000004],[65.99394090000001,58.3346599],[65.95045990000001,58.6145443]]]}}