{"type":"Feature","properties":{"regionId":"tambovskaya_oblast","name":"Тамбовская область","name:en":"Tambov Oblast","timezone":"Europe/Moscow","name_ru":"Тамбовская область","name_en":"Tambov Oblast","name_zh":"坦波夫州"},"geometry":{"type":"Polygon","coordinates":[[[42.1436297,53.802798100000004],[42.0588225,53.803032300000005],[42.04597510000001,53.8154342],[42.0344827,53.81498639999999],[42.02433010000001,53.822577300000006],[42.021464599999995,53.81560399999999],[42.006103100000004,53.814918399999996],[41.9829561,53.803328900000004],[41.9441669,53.812206399999994],[41.9156534,53.81116409999999],[41.900862,53.81728709999999],[41.87486049999999,53.819177399999994],[41.8684744,53.8222242],[41.84044479999999,53.8198703],[41.8302772,53.81406869999999],[41.820928,53.8162361],[41.8163311,53.81128929999999],[41.803072,53.8087267],[41.8029913,53.80463459999999],[41.794437300000006,53.811865899999994],[41.7826265,53.8064121],[41.76237360000001,53.8057498],[41.754318000000005,53.806129],[41.7520686,53.8125206],[41.686978,53.812302300000006],[41.685816300000006,53.8035621],[41.678838000000006,53.800466199999995],[41.64913510000001,53.8019586],[41.6573372,53.784107399999996],[41.64552210000001,53.783205200000005],[41.6415304,53.775907600000004],[41.63281590000001,53.7742756],[41.623076700000006,53.776270000000004],[41.6197438,53.77335930000001],[41.6065801,53.7770025],[41.6062306,53.780770100000005],[41.614249099999995,53.7850795],[41.609639800000004,53.788024],[41.613881899999996,53.79155810000001],[41.59991110000001,53.79319330000001],[41.5974985,53.79636870000001],[41.6066325,53.79903040000001],[41.6039819,53.802626],[41.5965848,53.80160139999999],[41.59151060000001,53.8057806],[41.5742981,53.8005318],[41.5696366,53.8023985],[41.56933420000001,53.807698499999994],[41.5543427,53.811923199999995],[41.539585200000005,53.8056652],[41.5394454,53.79971460000001],[41.5248436,53.7854224],[41.513719300000005,53.7852945],[41.510169,53.7795174],[41.5039504,53.77903210000001],[41.4979652,53.772777600000005],[41.4835985,53.7731216],[41.45408069999999,53.7811656],[41.428806200000004,53.7748099],[41.4220935,53.784412200000006],[41.3997431,53.783737300000006],[41.3974727,53.7695877],[41.363106900000005,53.766211500000004],[41.36951830000001,53.74124439999999],[41.3685011,53.6876767],[41.366515400000004,53.642631200000004],[41.3582469,53.5909945],[41.35757339999999,53.538189800000005],[41.353890799999995,53.525445100000006],[41.3188147,53.5262607],[41.279980900000005,53.510663699999995],[41.2559444,53.5130136],[41.25271480000001,53.51756399999999],[41.2472662,53.51635590000001],[41.24591110000001,53.5070859],[41.2615545,53.493906700000004],[41.2541717,53.48406479999999],[41.258590700000006,53.4771072],[41.256090900000004,53.4733671],[41.259871499999996,53.4710559],[41.211715000000005,53.469990200000005],[41.2066601,53.474683899999995],[41.185908700000006,53.4729491],[41.1868556,53.43968399999999],[41.1796511,53.4415202],[41.1510151,53.427260399999994],[41.144902900000005,53.416669999999996],[41.100808,53.4275603],[41.039910000000006,53.429777800000004],[41.0519063,53.452282],[41.042896999999996,53.47644749999999],[41.0019211,53.4935885],[40.958032200000005,53.500083499999995],[40.8962311,53.5053441],[40.868906700000004,53.478235100000006],[40.858558300000006,53.4767813],[40.8516322,53.4715318],[40.8531719,53.460753700000005],[40.83969449999999,53.457597099999994],[40.8330681,53.4621865],[40.82919330000001,53.472694],[40.81468479999999,53.483796399999996],[40.819344099999995,53.486067999999996],[40.8040178,53.506667099999994],[40.8086954,53.509348200000005],[40.801831099999994,53.5113573],[40.8029839,53.520038500000005],[40.7713266,53.524915400000005],[40.77330510000001,53.5388642],[40.77970510000001,53.5482641],[40.7557224,53.550897799999994],[40.7562943,53.553084299999995],[40.700911500000004,53.5561512],[40.6804315,53.5384857],[40.6666836,53.5428597],[40.656005300000004,53.539598100000006],[40.63990830000001,53.52222690000001],[40.638586600000004,53.517688299999996],[40.64788179999999,53.5098355],[40.6428572,53.50737290000001],[40.6419238,53.501046099999996],[40.6136432,53.5081545],[40.6019826,53.5057696],[40.5990964,53.5077304],[40.5838639,53.49519720000001],[40.5547628,53.492579400000004],[40.55033230000001,53.4812082],[40.5416155,53.4779755],[40.547001699999996,53.4671624],[40.5031766,53.457708499999995],[40.496489399999994,53.450253599999996],[40.4713761,53.444637699999994],[40.4670506,53.4486515],[40.47498459999999,53.463804499999995],[40.462610600000005,53.47333820000001],[40.4625685,53.4834629],[40.42219180000001,53.4964565],[40.4288785,53.4762175],[40.408242800000004,53.4619377],[40.4201964,53.42051530000001],[40.425341200000005,53.388176800000004],[40.403063599999996,53.38866739999999],[40.3887779,53.369798100000004],[40.3926111,53.3611979],[40.3702957,53.33974],[40.337375800000004,53.3445186],[40.32913330000001,53.35344719999999],[40.3015456,53.362491],[40.300817099999996,53.38196349999999],[40.2729677,53.3767856],[40.268463600000004,53.34754449999999],[40.26164,53.3358769],[40.24573410000001,53.3374939],[40.2505315,53.35147699999999],[40.23335130000001,53.3526983],[40.2328825,53.34109709999999],[40.21311020000001,53.3104521],[40.171373200000005,53.3090699],[40.1706936,53.31262149999999],[40.15778769999999,53.3125117],[40.1521714,53.295393300000015],[40.12355170000001,53.294857900000004],[40.1131286,53.2748454],[40.103892300000005,53.277501],[40.0969813,53.275727700000004],[40.10315920000001,53.2219617],[40.087044799999994,53.213545],[40.089987099999995,53.2104691],[40.10830910000001,53.2110043],[40.10911180000001,53.2037825],[40.114060099999996,53.203782600000004],[40.12997570000001,53.16856200000001],[40.117356900000004,53.172123600000006],[40.119010100000004,53.1601842],[40.130270100000004,53.152306800000005],[40.12060290000001,53.14451890000001],[40.13171590000001,53.142798600000006],[40.132384800000004,53.1371816],[40.1398992,53.1378387],[40.1404225,53.12153560000001],[40.13330920000001,53.1113826],[40.1342462,53.1038903],[40.139073700000004,53.086227699999995],[40.1481684,53.073522800000006],[40.145493800000004,53.0700456],[40.1537859,53.0609516],[40.150843699999996,53.0585443],[40.1572633,53.0533286],[40.155331000000004,53.0462375],[40.12543510000001,53.02216730000001],[40.0890591,53.009461699999996],[40.078493900000005,53.009060399999996],[40.074883199999995,53.004513200000005],[40.1160748,52.98953530000001],[40.12276200000001,52.9820461],[40.123029700000004,52.977097799999996],[40.115382000000004,52.9726658],[40.1121974,52.9659974],[40.1143375,52.9599793],[40.1247691,52.957037199999995],[40.12276210000001,52.9395617],[40.078154700000006,52.9468725],[40.070472300000006,52.94326139999999],[40.076089599999996,52.9364409],[40.0723454,52.924672],[40.0517502,52.9150426],[40.0375742,52.9129026],[40.037173700000004,52.8940456],[40.09575120000001,52.879469099999994],[40.0937454,52.872648399999996],[40.0891985,52.8703748],[40.09561820000001,52.862751900000006],[40.09267620000001,52.8553963],[40.09434280000001,52.814678799999996],[40.0990974,52.81166419999999],[40.0978942,52.8004303],[40.0916085,52.800028999999995],[40.090443,52.7832032],[40.064398000000004,52.784916200000005],[40.073836,52.766625100000006],[40.082539700000005,52.76648530000001],[40.0832708,52.7545943],[40.0580424,52.7527824],[40.05122109999999,52.7708736],[40.03236390000001,52.77595540000001],[40.0238049,52.77247810000001],[40.050285699999996,52.7512142],[40.020072500000005,52.73631920000001],[40.005350400000005,52.7419857],[39.991947399999994,52.740618700000006],[39.990405800000005,52.7378249],[39.9801726,52.7527285],[39.9617779,52.7477579],[39.9732082,52.730645],[39.960368300000006,52.72715840000001],[39.9436542,52.732840700000004],[39.9403779,52.7294277],[39.942626499999996,52.7248855],[39.92477530000001,52.7173808],[39.915693999999995,52.708850700000006],[39.938757900000006,52.70823690000001],[39.93144949999999,52.6992241],[39.9624974,52.6893974],[39.9673342,52.681022399999996],[39.98734699999999,52.677187399999994],[39.9919981,52.666873200000005],[39.9838122,52.66532590000001],[39.982137800000004,52.655944],[39.960238000000004,52.66885570000001],[39.952139900000006,52.6646769],[39.9454116,52.6576339],[39.955811399999995,52.6500249],[39.9495034,52.63353000000001],[39.9647032,52.629594100000006],[39.96271320000001,52.62697000000001],[39.9715311,52.624179100000006],[39.9766778,52.59680230000001],[40.04510510000001,52.5893544],[40.01962739999999,52.56473830000001],[40.0463646,52.5457865],[40.0537716,52.5496621],[40.0527606,52.552736900000006],[40.0634832,52.56239200000001],[40.0800918,52.557448699999995],[40.11464159999999,52.540055900000006],[40.1242747,52.551431799999996],[40.145986,52.5346983],[40.13841500000001,52.5308993],[40.141302,52.5268848],[40.155782200000004,52.5245036],[40.15511830000001,52.517492399999995],[40.173294399999996,52.50219860000001],[40.22661510000001,52.5009612],[40.214265999999995,52.467058200000004],[40.2507001,52.464871599999995],[40.2490892,52.4605145],[40.27227580000001,52.4530633],[40.29602380000001,52.4547143],[40.29563330000001,52.458209399999994],[40.3258735,52.4586556],[40.3302912,52.442040399999996],[40.29631670000001,52.44129649999999],[40.29409570000001,52.42531480000001],[40.2819166,52.415982],[40.293363500000005,52.3919637],[40.30893510000001,52.38607999999999],[40.3555995,52.3838388],[40.35469059999999,52.366161],[40.3657735,52.3656831],[40.3760232,52.360888599999996],[40.399375500000005,52.367147599999996],[40.512790900000006,52.3549027],[40.503468399999996,52.3460022],[40.50221090000001,52.334650999999994],[40.505614200000004,52.3288575],[40.5313765,52.3376306],[40.5636265,52.332261599999995],[40.561178500000004,52.3280096],[40.567598000000004,52.3249337],[40.572093300000006,52.3154199],[40.57225820000001,52.2776702],[40.59033600000001,52.2573967],[40.6017034,52.26234510000001],[40.6111981,52.281068499999996],[40.6602794,52.2858837],[40.670309100000004,52.2842838],[40.67632820000001,52.27812720000001],[40.73343500000001,52.2512468],[40.7413574,52.22519010000001],[40.73333540000001,52.22417260000001],[40.76477520000001,52.2016067],[40.7440719,52.193610400000004],[40.712267399999995,52.219953200000006],[40.70995810000001,52.223105300000014],[40.7116597,52.22873890000002],[40.6963044,52.22973160000001],[40.684614599999996,52.20293240000001],[40.6863377,52.200390000000006],[40.695251000000006,52.200688],[40.7015714,52.1887672],[40.69577770000001,52.186134200000005],[40.6878368,52.1910771],[40.6619496,52.1902661],[40.6370317,52.1749024],[40.6406296,52.16690010000001],[40.6554545,52.16453370000001],[40.6530703,52.16075790000001],[40.64253690000001,52.1584976],[40.649385800000005,52.154880799999994],[40.6412798,52.1478059],[40.6508596,52.14527890000001],[40.6475652,52.1419005],[40.65046949999999,52.139000700000004],[40.647261699999994,52.13559520000001],[40.63581800000001,52.1450661],[40.62593470000001,52.1445607],[40.622423500000004,52.127745600000004],[40.610069499999994,52.126468200000005],[40.617612,52.1204801],[40.60933800000001,52.11691330000001],[40.610069499999994,52.10999230000001],[40.599431100000004,52.113437],[40.590498000000004,52.112523700000004],[40.5934572,52.1082004],[40.6037249,52.108641],[40.6121095,52.1018112],[40.6048658,52.09690810000001],[40.594894599999996,52.097221499999996],[40.5947091,52.0938595],[40.59030320000001,52.09197890000001],[40.6139095,52.0885594],[40.6210517,52.0919504],[40.626477900000005,52.0889014],[40.6216546,52.0824037],[40.6250865,52.0804657],[40.6127964,52.0569741],[40.614187699999995,52.052097499999995],[40.6441014,52.0531242],[40.6414223,52.036222200000005],[40.63219300000001,52.0366801],[40.630208200000006,52.031704399999995],[40.62653630000001,52.031032800000006],[40.6069813,52.0335571],[40.6031879,52.027858],[40.55639,52.0135636],[40.5485374,52.0068712],[40.5366762,52.00893310000001],[40.53859820000001,52.0015976],[40.5452455,51.997171300000005],[40.54541590000001,51.9910858],[40.5338966,51.977305300000005],[40.5334266,51.9737948],[40.5378918,51.9716956],[40.531722800000004,51.96731590000001],[40.540535600000005,51.9645648],[40.541358100000004,51.96148769999999],[40.5363642,51.960727399999996],[40.5391843,51.9545363],[40.5341401,51.945692300000005],[40.5469269,51.9480492],[40.5494222,51.95128669999999],[40.6076791,51.93831270000001],[40.6142989,51.9450436],[40.6640831,51.9425662],[40.6884777,51.9372059],[40.6916996,51.9394154],[40.706779700000006,51.93334230000001],[40.7108968,51.933319000000004],[40.716700800000005,51.9389095],[40.752964,51.9373035],[40.7847762,51.9119727],[40.79357910000001,51.9086519],[40.803902,51.8944709],[40.8120282,51.8934498],[40.8143353,51.9094952],[40.82393270000001,51.9087735],[40.8246821,51.9173255],[40.833415800000004,51.91720779999999],[40.845697099999995,51.9219825],[40.8602777,51.90966759999999],[40.8637731,51.9130439],[40.876566399999994,51.9124116],[40.8962962,51.9027948],[40.89571970000001,51.9002619],[40.9254879,51.887957899999996],[40.9456713,51.89108939999999],[40.9437978,51.880781199999994],[40.9479195,51.875130500000004],[40.9484018,51.8645898],[40.945885399999995,51.862008900000006],[40.94861530000001,51.8608519],[40.91788399999999,51.82831730000001],[40.92876570000001,51.81766689999999],[40.897880799999996,51.7708439],[40.8897053,51.748597800000006],[40.8819312,51.738907700000006],[40.9271676,51.7402196],[40.9275791,51.74869590000001],[40.9379996,51.74896290000001],[40.940121,51.743468],[40.9694032,51.7467576],[40.975559000000004,51.744603399999995],[40.975759700000005,51.740501800000004],[40.986319,51.7382514],[40.986319,51.732781700000004],[40.9984966,51.73518510000001],[40.996757,51.73079260000001],[40.99073510000001,51.72843040000001],[40.99207330000001,51.72507330000001],[41.0100721,51.72627520000001],[41.007195,51.720513900000014],[41.0002288,51.7198803],[41.006378700000006,51.715662300000005],[41.033768,51.7212247],[41.026163800000006,51.72590790000001],[41.0552655,51.73637430000001],[41.061747399999994,51.730482200000004],[41.0631065,51.72050920000001],[41.119121,51.7194843],[41.1161091,51.730632400000005],[41.29619930000001,51.73830110000001],[41.294275600000006,51.74503370000001],[41.2840192,51.756992000000004],[41.2807077,51.79196890000001],[41.3028998,51.788803300000005],[41.3071156,51.80194839999999],[41.313717499999996,51.79963330000001],[41.32536520000001,51.803658399999996],[41.3377838,51.79897130000001],[41.34750449999999,51.800242399999995],[41.3458177,51.788681],[41.3792533,51.7852655],[41.377874199999994,51.7829274],[41.4286662,51.77234620000001],[41.4396991,51.77299250000001],[41.4408366,51.7698871],[41.44168549999999,51.77300280000001],[41.4642377,51.77293490000001],[41.458428999999995,51.7752818],[41.4596327,51.777080999999995],[41.481413499999995,51.769721700000005],[41.4732212,51.7757874],[41.4735194,51.77903220000001],[41.4678201,51.779324200000005],[41.4672125,51.783126200000005],[41.4727794,51.7908744],[41.4643755,51.79431760000001],[41.4656602,51.7974295],[41.462097,51.801631099999994],[41.4626742,51.805751],[41.4821914,51.804556999999996],[41.48744369999999,51.7976821],[41.507537,51.79929690000001],[41.51318,51.7774843],[41.5243849,51.77363870000001],[41.59581630000001,51.766434000000004],[41.59835490000001,51.76009510000001],[41.617788499999996,51.755218500000005],[41.62557940000001,51.741181499999996],[41.62979620000001,51.7416907],[41.63590890000001,51.73299580000001],[41.664718400000005,51.73437390000001],[41.66532190000001,51.7375496],[41.660944900000004,51.74026],[41.6798943,51.7407835],[41.6827576,51.73253290000002],[41.7049671,51.73735820000001],[41.72283880000001,51.736203800000006],[41.73319390000001,51.7058097],[41.7554906,51.7104462],[41.7531941,51.712740600000004],[41.7843638,51.718257300000005],[41.79091020000001,51.715104200000006],[41.792069600000005,51.708261300000004],[41.81160979999999,51.70995800000001],[41.8128423,51.7122491],[41.8435863,51.708749600000004],[41.8480762,51.7145687],[41.853829299999994,51.713784399999994],[41.85749379999999,51.709119400000006],[41.852740499999996,51.7026765],[41.8555379,51.6936612],[41.842268,51.6942499],[41.83888939999999,51.6740301],[41.8585505,51.677595200000006],[41.883301599999996,51.6764418],[41.8968331,51.680087799999995],[41.909994399999995,51.6754036],[41.9186304,51.66817600000001],[41.9319288,51.6634946],[41.9370936,51.6676211],[41.95980699999999,51.656305],[41.9882325,51.6572137],[41.9978493,51.654042399999994],[42.010072300000004,51.654291799999996],[42.017594499999994,51.66834380000001],[42.0200647,51.66793080000001],[42.0706263,51.65744839999999],[42.090807,51.629347200000005],[42.09502820000001,51.62820180000001],[42.139295600000004,51.630459800000004],[42.13601250000001,51.6349216],[42.13691370000001,51.6415002],[42.13041210000001,51.6442566],[42.13311570000001,51.6474788],[42.12929630000001,51.6503147],[42.12991850000001,51.659234],[42.124983300000004,51.662907600000004],[42.12614200000001,51.6712655],[42.1130099,51.682562100000006],[42.1073073,51.692918900000016],[42.12591640000001,51.7020715],[42.1065619,51.7173813],[42.119116500000004,51.730476200000005],[42.170205800000005,51.7099114],[42.1948913,51.7070575],[42.197521200000004,51.7137144],[42.190095500000005,51.716430100000004],[42.192398900000015,51.719241499999995],[42.189322000000004,51.720487399999996],[42.189876399999996,51.72371700000001],[42.20510080000001,51.72350990000001],[42.21995510000001,51.718087],[42.2218774,51.71331320000001],[42.229141600000005,51.719198600000006],[42.24850310000001,51.7093836],[42.2402565,51.703163],[42.2475544,51.69829620000001],[42.255940200000005,51.701528],[42.26505790000001,51.69519340000001],[42.2763835,51.69321590000001],[42.27227330000001,51.6908664],[42.2803416,51.6894104],[42.2747415,51.6858404],[42.286033,51.688261499999996],[42.295798200000014,51.68483739999999],[42.307823199999994,51.6896231],[42.3068355,51.677139100000005],[42.3099206,51.673056200000005],[42.3013069,51.673762800000006],[42.3012757,51.670619],[42.2974075,51.669825800000005],[42.29921680000001,51.66685590000001],[42.29507020000001,51.665184200000006],[42.268372700000015,51.662682800000006],[42.273038500000006,51.658238000000004],[42.26934680000001,51.6530212],[42.282139400000005,51.640263499999996],[42.2744861,51.634882399999995],[42.27437520000001,51.62997820000001],[42.27878630000001,51.625801700000004],[42.270741900000004,51.623982500000004],[42.2740341,51.61742709999999],[42.264930400000004,51.612802],[42.2694496,51.609937900000006],[42.26455930000001,51.6058115],[42.26527890000001,51.6016572],[42.27019920000001,51.6092835],[42.287684899999995,51.60618290000001],[42.29437520000001,51.6109602],[42.296248000000006,51.618354100000005],[42.293771400000004,51.6188164],[42.29835110000001,51.6192608],[42.34429339999999,51.5880843],[42.361841999999996,51.5981644],[42.3765466,51.5926831],[42.4256041,51.62393380000001],[42.4828178,51.6313687],[42.49891070000001,51.593098600000005],[42.5208613,51.596121700000005],[42.5187396,51.62611460000001],[42.5036705,51.667120800000006],[42.5132851,51.69287920000001],[42.51543590000001,51.71205380000001],[42.5344992,51.7274735],[42.56117570000001,51.74003220000001],[42.56855480000001,51.747255200000005],[42.64271720000001,51.790464300000004],[42.6499878,51.790983700000005],[42.66771730000001,51.80688959999999],[42.67035310000001,51.822617900000004],[42.6820545,51.848889699999994],[42.712606300000004,51.8856198],[42.707158500000006,51.890182300000006],[42.708837100000004,51.895023900000005],[42.706376500000005,51.8980678],[42.710356000000004,51.903809599999995],[42.71015020000001,51.9497732],[42.724916500000006,51.965124100000004],[42.731363,51.966119600000006],[42.730898800000006,51.96865270000001],[42.7172221,51.97035],[42.7212851,51.977874799999995],[42.7131966,51.996037],[42.72751660000001,52.0062209],[42.7646047,52.018014900000004],[42.80142779999999,52.015004499999996],[42.803112500000005,52.019342800000004],[42.8135826,52.0222174],[42.7968601,52.023724],[42.799021700000004,52.027165600000004],[42.797100400000005,52.03252080000001],[42.79152500000001,52.032185000000005],[42.794279800000005,52.033557200000004],[42.79288580000001,52.039615700000006],[42.7762407,52.0416331],[42.778521700000006,52.0458232],[42.7760577,52.0493577],[42.78144399999999,52.050930300000005],[42.77559430000001,52.0531013],[42.77935510000001,52.0571481],[42.78598,52.0555673],[42.790463700000004,52.059179300000004],[42.78596280000001,52.0636306],[42.7759075,52.06201280000001],[42.78591410000001,52.0718133],[42.7714659,52.076402200000004],[42.771216,52.0817395],[42.7618287,52.08210280000001],[42.7568279,52.0854794],[42.762844,52.0901495],[42.76073560000001,52.1007855],[42.76595360000001,52.1010625],[42.761948700000005,52.104638300000005],[42.7656575,52.10801260000001],[42.760195300000014,52.1124067],[42.765433400000006,52.1124046],[42.7700495,52.1177391],[42.7649945,52.12526090000001],[42.7738272,52.1274425],[42.7639471,52.13597480000001],[42.76674080000001,52.1370288],[42.766961200000004,52.145683999999996],[42.77281970000001,52.1518343],[42.767202600000005,52.15512090000001],[42.76970070000001,52.1616672],[42.778843,52.1710987],[42.77561790000001,52.172583800000005],[42.77617980000001,52.1818823],[42.7719,52.1849735],[42.78891930000001,52.18252530000001],[42.79085210000001,52.1910469],[42.802215200000006,52.1894468],[42.81190449999999,52.19690530000001],[42.818297699999995,52.193095500000005],[42.823353600000004,52.19555230000002],[42.81986469999999,52.19945880000001],[42.82315890000001,52.20150230000001],[42.84495449999999,52.20077380000001],[42.847717599999996,52.20653900000001],[42.84429469999999,52.2068935],[42.8450653,52.21050090000001],[42.85123039999999,52.207523],[42.85398599999999,52.2115624],[42.86301830000001,52.213250300000006],[42.8737134,52.20914820000001],[42.8888451,52.2120605],[42.8938656,52.24630320000001],[42.8897622,52.2471655],[42.893660399999995,52.249979],[42.895904800000004,52.2602714],[42.908094,52.2700842],[42.92259000000001,52.29089870000001],[42.9413261,52.3358003],[42.9182017,52.360338500000005],[42.9721478,52.3493034],[43.020640300000004,52.353848299999996],[43.0125905,52.356574599999995],[43.019406599999996,52.3597557],[43.0320216,52.3581055],[43.0347904,52.366376300000006],[43.04275820000001,52.3737282],[43.03893570000001,52.3879002],[43.072117500000004,52.391566399999995],[43.0668725,52.4024826],[43.0813296,52.404692999999995],[43.0814422,52.4127384],[43.074054399999994,52.4177988],[43.0672806,52.4309504],[43.0489085,52.4403273],[43.0240484,52.4867633],[43.045506200000005,52.4939279],[43.0573758,52.4919096],[43.070909900000004,52.4948161],[43.121771300000006,52.5108933],[43.0858701,52.5171576],[43.072707,52.5157017],[43.057954499999994,52.52034830000001],[43.0491699,52.5307607],[43.05428459999999,52.55412449999999],[43.058241599999995,52.559391],[43.083487899999994,52.56651610000001],[43.0880602,52.5745678],[43.092380600000006,52.5760306],[43.106883599999996,52.57513540000001],[43.1122805,52.570038600000004],[43.22034300000001,52.636794200000004],[43.23554620000001,52.63314090000001],[43.2480873,52.63634020000001],[43.206615600000006,52.69839340000001],[43.20907590000001,52.70033190000001],[43.20532240000001,52.7004785],[43.2018147,52.70603620000001],[43.202944200000005,52.708771000000006],[43.1997775,52.70879820000001],[43.118270300000006,52.803298],[43.105690300000006,52.8035787],[43.0918324,52.8100135],[43.0849627,52.8183391],[43.009742100000004,52.870166],[42.988233,52.89517610000001],[42.9805338,52.89313990000001],[42.95835230000001,52.908438600000004],[42.95422169999999,52.911943799999996],[42.9575548,52.9309463],[42.932650300000006,52.942773100000004],[42.810404999999996,52.9880504],[42.778241200000004,53.003390200000005],[42.754867899999994,53.0182622],[42.70838080000001,53.060523100000005],[42.6748324,53.0844513],[42.6422498,53.1117683],[42.627608300000006,53.128283200000006],[42.5475534,53.12235950000001],[42.5441868,53.13530580000001],[42.5260655,53.144476499999996],[42.5090282,53.1701897],[42.5219964,53.1745828],[42.547574,53.1764907],[42.5545798,53.18261090000001],[42.5713639,53.1798324],[42.557808599999994,53.19559870000001],[42.5040453,53.234618600000005],[42.420968,53.2717014],[42.4321805,53.283097],[42.4190062,53.2879231],[42.4121657,53.3380196],[42.39816280000001,53.3310253],[42.3795921,53.3273665],[42.3788826,53.3311538],[42.368349,53.33335290000001],[42.356523599999996,53.3280905],[42.352726,53.3384219],[42.3051607,53.356969299999996],[42.291963700000004,53.372906],[42.28013030000001,53.3640392],[42.2726617,53.373221799999996],[42.2524238,53.36886739999999],[42.24857300000001,53.3616988],[42.24053630000001,53.3571585],[42.236842200000005,53.359372300000004],[42.246090200000005,53.3936519],[42.26057690000001,53.39951090000001],[42.2569208,53.401263099999994],[42.256319600000005,53.407392800000004],[42.259800999999996,53.4145526],[42.272152200000015,53.412652800000004],[42.27977570000001,53.415046999999994],[42.2815524,53.426442800000004],[42.2850817,53.4285847],[42.301590999999995,53.42580890000001],[42.3204258,53.4297449],[42.29925250000001,53.432534100000005],[42.29590120000001,53.45208339999999],[42.26290670000001,53.463039300000005],[42.256750000000004,53.4701934],[42.2555976,53.484074799999995],[42.2431674,53.48467839999999],[42.23805500000001,53.4821879],[42.2395216,53.4798387],[42.227419100000006,53.4797048],[42.225195700000015,53.489026599999995],[42.20651490000001,53.487736],[42.1975892,53.4960548],[42.1558301,53.49357990000001],[42.14077,53.498696800000005],[42.16721580000001,53.51533270000001],[42.1733448,53.525298500000005],[42.171745900000005,53.53299280000001],[42.13087230000001,53.523676],[42.115659900000004,53.5144709],[42.10953280000001,53.5153395],[42.139872600000004,53.56937130000001],[42.1264806,53.572869],[42.1219275,53.5690924],[42.12731630000001,53.6525012],[42.1318503,53.6526397],[42.1316965,53.660045100000005],[42.1178354,53.671192600000005],[42.120742500000006,53.68213600000001],[42.1290806,53.6828801],[42.125589100000006,53.69292960000001],[42.143951,53.71207880000001],[42.136973700000006,53.7117972],[42.13915490000001,53.7176324],[42.132889,53.717496499999996],[42.1268972,53.7084266],[42.0895208,53.70858690000001],[42.0817395,53.748004900000005],[42.1104037,53.75708039999999],[42.1023465,53.76569260000001],[42.1067175,53.76802070000001],[42.136805900000006,53.76701580000001],[42.15404769999999,53.7708096],[42.1436297,53.802798100000004]]]}}