{"type":"Feature","properties":{"regionId":"tverskaya_oblast","name":"Тверская область","name:en":"Tver Oblast","timezone":"Europe/Moscow","name_ru":"Тверская область","name_en":"Tver Oblast","name_zh":"特维尔州"},"geometry":{"type":"Polygon","coordinates":[[[37.665122300000014,58.450784899999995],[37.6138372,58.496492200000006],[37.585092200000005,58.5128315],[37.535750500000006,58.5222612],[37.5298964,58.53933890000001],[37.5122879,58.5539231],[37.4767549,58.5596027],[37.4139735,58.5834688],[37.3924947,58.6005641],[37.364894899999996,58.646456],[37.340475999999995,58.6525214],[37.29255600000001,58.64533930000001],[37.2842655,58.6480637],[37.2824807,58.6567211],[37.2858967,58.663321800000006],[37.3065795,58.6715681],[37.3079328,58.68575920000001],[37.31969709999999,58.6958344],[37.3047051,58.6961694],[37.28937810000001,58.68250210000001],[37.2761615,58.681440099999996],[37.27515040000001,58.69639900000001],[37.26500270000001,58.7006013],[37.25148139999999,58.711869099999994],[37.23392030000001,58.71468779999999],[37.2304073,58.718595500000006],[37.239151500000006,58.730095000000006],[37.2386774,58.7365634],[37.2026695,58.747582200000004],[37.1988245,58.7515935],[37.199527200000006,58.76879850000001],[37.1896154,58.782301800000006],[37.1884077,58.79238330000001],[37.19601550000001,58.810206799999996],[37.191745700000006,58.8200684],[37.1738349,58.8293832],[37.1370087,58.8343493],[37.12500680000001,58.84143949999999],[37.121600900000004,58.853440899999995],[37.070959300000005,58.86313930000001],[37.055730200000006,58.860718000000006],[37.032296900000006,58.8461493],[37.031404599999995,58.836854599999995],[37.0175249,58.8349427],[36.9975886,58.838680599999996],[36.993323700000005,58.831132800000006],[36.9809117,58.837021199999995],[36.978069,58.8301591],[36.96957210000001,58.835399800000005],[36.9593191,58.8282964],[36.92552520000001,58.8290416],[36.9111942,58.8311951],[36.9088725,58.8350018],[36.90166669999999,58.8313409],[36.8838152,58.83553530000001],[36.84786349999999,58.8361677],[36.800934399999996,58.8086172],[36.7838113,58.810323399999994],[36.7819568,58.800159],[36.765446700000005,58.8009437],[36.76215040000001,58.7966545],[36.7747213,58.79207630000001],[36.76957880000001,58.7876384],[36.7796808,58.774926],[36.8022342,58.76742290000001],[36.805186,58.762125800000014],[36.81712939999999,58.76302220000001],[36.8215663,58.76033700000001],[36.821025,58.75227890000001],[36.82881870000001,58.74590210000001],[36.829193200000006,58.74210680000001],[36.808340900000005,58.73545580000001],[36.810425099999996,58.72399660000001],[36.807523599999996,58.72225010000001],[36.79841410000001,58.725364000000006],[36.7869668,58.72321880000001],[36.7802376,58.716547],[36.772204300000006,58.717781699999996],[36.76318510000001,58.713163300000005],[36.74275910000001,58.716042300000005],[36.73574530000001,58.7106134],[36.72153730000001,58.71553200000001],[36.70821960000001,58.7098045],[36.697247499999996,58.714735700000006],[36.6857466,58.709504100000004],[36.68971630000001,58.701466599999996],[36.687497699999994,58.69443830000001],[36.6636796,58.7017485],[36.66375630000001,58.69818220000001],[36.6564285,58.69414530000001],[36.648904900000005,58.682033700000005],[36.6461646,58.6720694],[36.6403865,58.671136800000006],[36.62973900000001,58.6506051],[36.638635400000005,58.642348000000005],[36.632527700000004,58.634531200000005],[36.62822980000001,58.62063800000001],[36.6305044,58.6192547],[36.5870921,58.6266872],[36.5844902,58.6196098],[36.5949846,58.614127499999995],[36.585179600000004,58.601252],[36.5795272,58.59913470000001],[36.567889699999995,58.603484599999994],[36.5510168,58.599867399999994],[36.5391345,58.603816200000004],[36.53031920000001,58.6004611],[36.524882999999996,58.59015190000001],[36.507853999999995,58.5805891],[36.5067432,58.5768792],[36.5131243,58.5738586],[36.5404483,58.57148959999999],[36.54373210000001,58.5694825],[36.5437549,58.5597088],[36.5406689,58.56064739999999],[36.5372972,58.551690199999996],[36.522387,58.5438524],[36.52043810000001,58.525277300000006],[36.5121416,58.523278600000005],[36.503051,58.5154785],[36.4767535,58.51935],[36.478407399999995,58.52631470000001],[36.464136700000005,58.5290696],[36.4553879,58.527473300000004],[36.453103399999996,58.51768669999999],[36.4427892,58.519785399999996],[36.4342382,58.51163999999999],[36.3912991,58.5192963],[36.38458779999999,58.516135600000005],[36.3906028,58.5124312],[36.38135439999999,58.512343800000004],[36.380507599999994,58.5084095],[36.36444739999999,58.5029594],[36.361319200000004,58.499527900000004],[36.3622316,58.49532800000001],[36.35244169999999,58.4902625],[36.359827399999986,58.4794299],[36.3497902,58.4773149],[36.3398766,58.483135100000005],[36.327619399999996,58.4841208],[36.32713530000001,58.4904907],[36.2877916,58.515480999999994],[36.26545620000001,58.520692600000004],[36.2438092,58.5214136],[36.2312891,58.505763200000004],[36.2315714,58.5021612],[36.2192512,58.50219820000001],[36.218577100000005,58.506437],[36.208506500000006,58.5095857],[36.18168239999999,58.51164959999999],[36.151989699999994,58.501344599999996],[36.135003600000005,58.50237250000001],[36.1245816,58.4979195],[36.1024468,58.5049542],[36.0745773,58.4966278],[36.0747969,58.4926395],[36.08253870000001,58.49275430000001],[36.08308769999999,58.49043],[36.06079580000001,58.4846903],[36.0592585,58.480241299999996],[36.051677999999995,58.481149099999996],[36.0430973,58.4736036],[36.015295800000004,58.4725976],[36.019700300000004,58.4591651],[36.00270690000001,58.461085],[35.992823800000004,58.45745459999999],[35.98764069999999,58.46209590000001],[35.9580542,58.46635090000001],[35.9415354,58.464841199999995],[35.9310499,58.4545629],[35.9214504,58.45190839999999],[35.918008900000004,58.439865499999996],[35.9419119,58.43839590000001],[35.939633,58.4230269],[35.927970900000005,58.42555380000001],[35.9163087,58.4204296],[35.9026508,58.4350774],[35.8880306,58.4329449],[35.887833699999995,58.429137100000005],[35.8912781,58.4286467],[35.8892321,58.42211370000001],[35.8771743,58.423349],[35.8738301,58.4192023],[35.861580999999994,58.4213651],[35.83531830000001,58.4158398],[35.829680499999995,58.420991300000004],[35.836414,58.426799200000005],[35.829581499999996,58.42959200000001],[35.76810940000001,58.432237900000004],[35.7778067,58.4462335],[35.7777898,58.452898499999996],[35.7549419,58.450110200000005],[35.7545764,58.4419456],[35.73274130000001,58.43408139999999],[35.7117519,58.437738700000004],[35.711708,58.440451599999996],[35.688914000000004,58.4419392],[35.69017930000001,58.4488231],[35.6790608,58.4466324],[35.6727466,58.45104969999999],[35.65671580000001,58.450978],[35.64488169999999,58.4601697],[35.6239444,58.455019300000004],[35.62253100000001,58.450428499999994],[35.587859599999994,58.455691699999996],[35.5626778,58.452809099999996],[35.55132759999999,58.45687439999999],[35.5367747,58.44593390000001],[35.5165293,58.447670599999995],[35.50201880000001,58.440348],[35.50453530000001,58.433901],[35.4975636,58.42860280000001],[35.4843356,58.43162349999999],[35.46012270000001,58.42865890000001],[35.462695100000005,58.42215880000001],[35.4748288,58.420216200000006],[35.4714252,58.4183634],[35.4757748,58.415158500000004],[35.4706565,58.4099947],[35.376725900000004,58.406808399999996],[35.3668565,58.4116193],[35.3039366,58.4097689],[35.30468109999999,58.3960069],[35.28886,58.3915054],[35.2711144,58.39182769999999],[35.264525600000006,58.386693599999994],[35.2549718,58.390496999999996],[35.247309900000005,58.3835712],[35.25595270000001,58.3799992],[35.2540186,58.3779239],[35.25641290000001,58.374063699999994],[35.283327,58.36566],[35.27675260000001,58.3452963],[35.26705530000001,58.3392823],[35.2708796,58.336244199999996],[35.26556020000001,58.3337064],[35.2649775,58.327863099999995],[35.25575490000001,58.31722709999999],[35.2590334,58.309938],[35.257034,58.300779399999996],[35.264811,58.29511710000001],[35.257889199999994,58.284598800000005],[35.26097270000001,58.27891980000001],[35.257167499999994,58.274199100000004],[35.2459075,58.27003810000001],[35.2428846,58.26576190000001],[35.2333615,58.263939500000006],[35.232686900000004,58.2576557],[35.22843650000001,58.25511120000001],[35.206943100000004,58.2582596],[35.195361500000004,58.2469046],[35.1714662,58.2462297],[35.1701485,58.241924],[35.160072500000005,58.23901300000001],[35.1550699,58.24225990000001],[35.142442800000005,58.23915010000001],[35.138817700000004,58.23231740000001],[35.1290444,58.225697100000005],[35.1312715,58.22066280000001],[35.1212079,58.220955900000014],[35.1184402,58.212464499999996],[35.0828607,58.2149515],[35.0778181,58.2135855],[35.0730011,58.206692700000005],[35.060437900000004,58.2063841],[35.058289699999996,58.201410900000006],[35.053782,58.1998995],[35.06013880000001,58.1962815],[35.05088789999999,58.1946154],[35.0042347,58.2078619],[35.002019700000005,58.212907900000005],[34.980924099999996,58.22183030000001],[34.984297899999994,58.225629000000005],[34.974672399999996,58.22553420000001],[34.963551800000005,58.2180876],[34.954946899999996,58.2201864],[34.95482789999999,58.22945210000001],[34.945448,58.23094030000001],[34.9288114,58.23157630000001],[34.9256818,58.2279916],[34.903947699999996,58.2277496],[34.898551600000005,58.2243945],[34.849315100000005,58.2278046],[34.82142699999999,58.231177100000004],[34.800621299999996,58.2448882],[34.7934836,58.24597180000001],[34.784904499999996,58.240408900000006],[34.756284699999995,58.233255400000004],[34.750245,58.23050930000001],[34.749008200000006,58.223636600000006],[34.72336590000001,58.215762100000006],[34.6894961,58.20013200000001],[34.713143800000005,58.19892420000001],[34.724218500000006,58.2020715],[34.723952900000015,58.193994200000006],[34.7177851,58.19379690000001],[34.7208212,58.190285300000006],[34.7168011,58.1895],[34.7165717,58.185445],[34.7366031,58.172141700000005],[34.72522220000001,58.16354220000001],[34.7174298,58.16153020000001],[34.711800499999995,58.1540158],[34.73134520000001,58.14232260000001],[34.7214947,58.09030250000001],[34.6716455,58.0734704],[34.6576124,58.08388059999999],[34.645992400000004,58.078059],[34.615103600000005,58.094454],[34.6175025,58.1063905],[34.6092938,58.108945000000006],[34.59814030000001,58.1054454],[34.5904626,58.1128178],[34.596769200000004,58.1143795],[34.596931100000006,58.1184184],[34.5602914,58.115114600000005],[34.560231800000004,58.110478300000004],[34.5519739,58.1047231],[34.527531100000004,58.117052900000004],[34.504716200000004,58.1148223],[34.4843388,58.1277411],[34.4980891,58.1392931],[34.4724918,58.154774399999994],[34.4254843,58.1492609],[34.39975210000001,58.158317700000005],[34.3700367,58.1616577],[34.3690116,58.1644467],[34.37484539999999,58.163831200000004],[34.379375100000004,58.17186739999999],[34.35748129999999,58.176970600000004],[34.3494733,58.16474530000001],[34.336118500000005,58.1609016],[34.3307628,58.1679643],[34.27885010000001,58.1773824],[34.276928500000004,58.1879179],[34.23537430000001,58.1859824],[34.22339510000001,58.187271499999994],[34.219177,58.19269690000001],[34.20752830000001,58.190637800000005],[34.208446300000006,58.194815000000006],[34.20510800000001,58.1974077],[34.196453500000004,58.1956015],[34.1900485,58.2004479],[34.20291410000001,58.2024945],[34.204372500000005,58.2058847],[34.1806943,58.2127545],[34.1707654,58.2128455],[34.14926439999999,58.200866],[34.136602,58.208557400000004],[34.13331060000001,58.2145546],[34.12145890000001,58.2132906],[34.1102038,58.2036506],[34.0910015,58.1977544],[34.0708706,58.19601120000001],[34.0632354,58.191565100000005],[34.04746939999999,58.195007600000004],[34.02601290000001,58.184289799999995],[34.0276473,58.188131500000004],[34.02271860000001,58.18815670000001],[34.02232320000001,58.1960746],[34.0167448,58.19632920000001],[34.018985,58.205009000000004],[34.001851699999996,58.2073842],[33.99827500000001,58.2133948],[33.9882367,58.20824],[33.986611499999995,58.202384800000004],[33.963410200000006,58.1994434],[33.968536500000006,58.19595070000001],[33.9632655,58.1918993],[33.9630863,58.1880272],[33.9731012,58.182247499999995],[33.971558,58.1802761],[33.959749599999995,58.1805819],[33.951625199999995,58.173731000000004],[33.92813200000001,58.16329220000001],[33.8029655,58.1378069],[33.801116,58.14355830000001],[33.79387810000001,58.1469711],[33.797842200000005,58.152176700000005],[33.781199300000004,58.160920600000004],[33.780013000000004,58.1697946],[33.74216130000001,58.162665100000005],[33.705873700000005,58.170305000000006],[33.696798400000006,58.15253560000001],[33.665873700000006,58.14852380000001],[33.66943590000001,58.1400838],[33.651294299999996,58.138394500000004],[33.6526235,58.1322345],[33.6443617,58.1269648],[33.637841599999994,58.12863190000001],[33.6354394,58.12330430000001],[33.6374984,58.121963300000004],[33.6315996,58.1164033],[33.63531650000001,58.1073346],[33.62801980000001,58.1072116],[33.616973900000005,58.1126457],[33.621914200000006,58.11488649999999],[33.6171374,58.12207830000001],[33.60291670000001,58.12491990000001],[33.5975842,58.120670200000006],[33.58595520000001,58.120475500000005],[33.5751891,58.10855930000001],[33.5838927,58.10277500000001],[33.6029812,58.100814],[33.594103200000006,58.09051270000001],[33.5854055,58.090006900000006],[33.565817,58.0748998],[33.557296199999996,58.074592100000004],[33.528563600000005,58.0584089],[33.53311560000001,58.0507734],[33.554386199999996,58.04270330000001],[33.5548721,58.0393344],[33.5440858,58.0347968],[33.569503600000004,58.0236854],[33.591032600000005,58.0312426],[33.59810320000001,58.02735320000001],[33.606428900000004,58.035974800000005],[33.624540100000004,58.038731600000006],[33.62955480000001,58.017459699999996],[33.62261810000001,58.01404149999999],[33.626126500000005,58.0091145],[33.62516070000001,58.00512870000001],[33.6365811,58.0054826],[33.640150000000006,57.99791810000001],[33.649483999999994,57.9979544],[33.6582004,58.0022097],[33.6777607,58.000427599999995],[33.6800751,58.003213200000005],[33.68455530000001,58.0002821],[33.6895047,58.0028355],[33.692727700000006,57.9904292],[33.6779655,57.981365],[33.67865290000001,57.9746689],[33.691149800000005,57.96851220000001],[33.668347700000005,57.9610453],[33.6840063,57.9056011],[33.6818908,57.899990900000006],[33.6470592,57.8732257],[33.60580230000001,57.869105100000006],[33.606250300000006,57.8719537],[33.597557800000004,57.8743561],[33.584338200000005,57.866185200000004],[33.5792732,57.8684219],[33.5713334,57.860773900000005],[33.561546,57.85680139999999],[33.558103,57.858176300000004],[33.5473517,57.851163899999996],[33.559826799999996,57.846922],[33.5700942,57.84744799999999],[33.57531220000001,57.8439423],[33.5675944,57.8353011],[33.5449912,57.836257599999996],[33.549449499999994,57.826813],[33.555424599999995,57.8260432],[33.5502731,57.819707799999996],[33.558893399999995,57.8166957],[33.5632094,57.80428939999999],[33.56034530000001,57.8030086],[33.56473590000001,57.795364500000005],[33.5492917,57.79453060000001],[33.54349139999999,57.79132330000001],[33.5479395,57.788197600000004],[33.5513292,57.7674869],[33.546596900000004,57.762654700000006],[33.567818,57.7569211],[33.572053700000005,57.75261810000001],[33.5662295,57.74633990000001],[33.5864727,57.739468900000006],[33.59311870000001,57.7276175],[33.5802927,57.726515200000016],[33.5692415,57.7134179],[33.559276,57.71539690000001],[33.53553300000001,57.71068439999999],[33.5318108,57.7184436],[33.5096639,57.72880880000001],[33.5079376,57.7175019],[33.4946423,57.714412300000006],[33.489617499999994,57.7206094],[33.4802102,57.71453280000001],[33.482282,57.70573400000001],[33.4884754,57.705217700000006],[33.492127100000005,57.6992745],[33.4856765,57.686683599999995],[33.4765416,57.67935310000001],[33.464281099999994,57.679198500000005],[33.45645699999999,57.68517930000001],[33.45587,57.69262280000001],[33.44089739999999,57.6937404],[33.426627499999995,57.70031110000001],[33.351846399999985,57.66667890000001],[33.35528119999999,57.658734300000006],[33.35066199999999,57.655762200000005],[33.3347203,57.657586499999994],[33.324956,57.6509973],[33.306630999999996,57.648529100000005],[33.301009799999996,57.62918870000001],[33.30642139999999,57.6203744],[33.3244502,57.6148124],[33.326931900000005,57.606529800000004],[33.318586499999995,57.583298],[33.29491850000001,57.5829412],[33.3047487,57.56523560000001],[33.29306830000001,57.549449599999996],[33.268076400000005,57.5538383],[33.2530624,57.544851799999996],[33.233437,57.54571860000001],[33.231411,57.535369800000005],[33.232229200000006,57.4775288],[33.2461646,57.4766432],[33.2484746,57.4712788],[33.266631100000005,57.4633977],[33.26398580000001,57.438852000000004],[33.255672000000004,57.4397747],[33.26403330000001,57.421919900000006],[33.2400436,57.411425799999996],[33.2134177,57.411761799999994],[33.19615270000001,57.4238947],[33.177577,57.422311500000006],[33.160374700000006,57.4307977],[33.185483399999995,57.44438159999999],[33.184909499999996,57.4539609],[33.1549162,57.455583399999995],[33.127341200000004,57.4652207],[33.07835030000001,57.46611310000001],[33.0707456,57.4623665],[33.0730247,57.442788900000004],[33.05048639999999,57.4298995],[33.018319500000004,57.435846999999995],[33.006652700000004,57.441964999999996],[33.0041287,57.4490299],[32.99331620000001,57.4523699],[32.983525,57.4523485],[32.9847938,57.4464458],[32.962561900000004,57.4466057],[32.9372787,57.46557190000001],[32.9159206,57.4451442],[32.871532800000004,57.451668299999994],[32.859808699999995,57.46045530000001],[32.8429754,57.45728349999999],[32.8317028,57.45917],[32.8262856,57.455627099999994],[32.78857970000001,57.467192100000005],[32.7877968,57.4607364],[32.78036,57.4589117],[32.7812733,57.4490851],[32.76576030000001,57.440477699999995],[32.7576724,57.439924],[32.7498442,57.4437155],[32.706919400000004,57.4340253],[32.70509280000001,57.4161829],[32.70992030000001,57.413653399999994],[32.7068447,57.4065608],[32.6819738,57.410074699999996],[32.66225880000001,57.3908918],[32.6677243,57.3837528],[32.66592070000001,57.37764779999999],[32.67097270000001,57.375154200000004],[32.663906600000004,57.3679208],[32.656840499999994,57.3683074],[32.6551114,57.3634702],[32.6362692,57.36744769999999],[32.632926700000006,57.363559800000004],[32.648394200000006,57.357550499999995],[32.64039830000001,57.3493478],[32.6268314,57.34467999999999],[32.627290200000004,57.34156779999999],[32.632009100000005,57.3401177],[32.6316785,57.3348588],[32.593405700000005,57.328621],[32.59575250000001,57.3217591],[32.5826489,57.3207885],[32.5459011,57.34028049999999],[32.541330300000006,57.3396433],[32.54762139999999,57.3244537],[32.539357700000004,57.3162039],[32.516148900000005,57.3087611],[32.513888599999994,57.3015912],[32.508541300000005,57.29814320000001],[32.491714900000005,57.29761310000001],[32.485476999999996,57.2824374],[32.4771481,57.28572890000001],[32.449699499999994,57.2800098],[32.4364385,57.276537000000005],[32.4340683,57.26925880000001],[32.4067194,57.2672801],[32.4105172,57.2628046],[32.4010883,57.259334200000005],[32.3919484,57.26013500000001],[32.38498059999999,57.2300855],[32.377129399999994,57.2246486],[32.3633662,57.229478400000005],[32.35985779999999,57.225463600000005],[32.3465148,57.229347100000005],[32.3224439,57.22731470000001],[32.318487899999994,57.2378024],[32.31372739999999,57.234101200000005],[32.29220430000001,57.240813800000005],[32.29373550000001,57.246916500000005],[32.2817713,57.253343300000004],[32.27871380000001,57.2503836],[32.2739935,57.2532853],[32.2779092,57.2582175],[32.27617430000001,57.259781399999994],[32.26203620000001,57.262538100000015],[32.2492496,57.256041599999996],[32.23637280000001,57.25511390000001],[32.23018220000001,57.24255260000001],[32.239065000000004,57.236099200000005],[32.23112510000001,57.2296824],[32.248830500000004,57.22554260000001],[32.2510306,57.22259340000001],[32.2439065,57.2190767],[32.252916400000004,57.20999990000001],[32.2503493,57.20255550000001],[32.226495500000006,57.189373100000005],[32.220291800000005,57.193166000000005],[32.2125094,57.191307800000004],[32.210399,57.1867334],[32.1912073,57.1907805],[32.1815881,57.17860220000001],[32.1600776,57.179692],[32.155923900000005,57.1844184],[32.1034015,57.1867135],[32.09150090000001,57.1759044],[32.083322900000006,57.1765836],[32.079959300000006,57.17047],[32.08108049999999,57.159026499999996],[32.020452000000006,57.1495565],[32.015875,57.128794500000005],[32.0015373,57.1242216],[32.001669199999995,57.1138381],[31.9918424,57.116881899999996],[31.9679018,57.11498399999999],[31.9691549,57.1091825],[31.963878700000002,57.106388900000006],[31.939410499999997,57.09933220000001],[31.936838400000003,57.0946748],[31.9229152,57.09523480000001],[31.928792299999994,57.0835304],[31.934965600000005,57.0841335],[31.926681799999997,57.0802331],[31.9137841,57.079570000000004],[31.906331899999998,57.086242],[31.8821547,57.0945411],[31.896332799999996,57.102190400000005],[31.8923604,57.1133216],[31.901211999999997,57.1146125],[31.898326599999997,57.125241900000006],[31.8897734,57.12317220000001],[31.8800867,57.130835100000006],[31.8731824,57.120990500000005],[31.8614454,57.1224074],[31.8553258,57.1176038],[31.855549299999996,57.1140539],[31.838947700000002,57.1129619],[31.802251400000003,57.100356700000006],[31.7790357,57.09861000000001],[31.7672712,57.10821080000001],[31.757309799999998,57.1102279],[31.7583566,57.11297830000001],[31.755727799999995,57.114047299999996],[31.744061400000003,57.1071064],[31.748829599999997,57.1050601],[31.740750499999997,57.0965075],[31.7435534,57.0929694],[31.733312799999997,57.0877927],[31.7312132,57.09300220000001],[31.7252517,57.09202890000001],[31.718983400000003,57.0836012],[31.7120273,57.080848599999996],[31.7157755,57.0770131],[31.711352,57.0730486],[31.68957,57.0715949],[31.683517499999997,57.0665642],[31.684418400000002,57.0629445],[31.671456400000004,57.058433900000004],[31.671558400000006,57.0436362],[31.647391300000002,57.026185000000005],[31.653570000000002,57.013395300000006],[31.6792128,57.012223],[31.689422799999996,57.00728659999999],[31.7028371,56.9932504],[31.696008000000003,56.9900617],[31.689747999999998,56.997900200000004],[31.6663384,56.998816700000006],[31.646749199999995,57.00331320000001],[31.639807800000003,56.9920084],[31.632188400000004,56.9937376],[31.615115600000003,56.9843921],[31.613833200000002,56.990602800000005],[31.563951400000004,56.97763439999999],[31.5595453,56.96273600000001],[31.5474772,56.963137200000006],[31.531003100000003,56.9465776],[31.5091699,56.952747699999996],[31.4998412,56.9473354],[31.488608699999997,56.9520625],[31.476155600000002,56.95258749999999],[31.466146399999996,56.943386499999995],[31.4608997,56.9510028],[31.4551687,56.9495061],[31.441734799999995,56.9544359],[31.441607899999997,56.9500783],[31.4374106,56.9478332],[31.439751400000002,56.942153600000005],[31.4351504,56.93603280000001],[31.4376527,56.933126200000004],[31.4343809,56.9246943],[31.4131387,56.9145628],[31.390855700000007,56.909066499999994],[31.386644299999997,56.91086759999999],[31.391971700000006,56.91487759999999],[31.3731456,56.921635300000005],[31.368724699999998,56.9275216],[31.339827400000004,56.9254072],[31.343863300000002,56.92875490000001],[31.334984300000006,56.9392365],[31.308221,56.937680699999994],[31.3065713,56.9407337],[31.3229572,56.951255999999994],[31.317871900000007,56.953192800000004],[31.307297700000003,56.9470738],[31.3001945,56.9484826],[31.298761999999996,56.95573580000001],[31.276731899999998,56.9484843],[31.255799199999995,56.95424919999999],[31.241306499999997,56.951508999999994],[31.237556700000003,56.9430233],[31.225771799999997,56.942539000000004],[31.225126099999997,56.9368586],[31.2046603,56.942175000000006],[31.201879100000003,56.939809],[31.205430699999997,56.9370348],[31.1881569,56.94068959999999],[31.1009482,56.930977],[31.097911700000004,56.93861530000001],[31.0787504,56.939050300000005],[31.069697799999997,56.9432243],[31.0728748,56.9457637],[31.066322499999995,56.95185759999999],[31.0690512,56.95662479999999],[31.0542869,56.9549793],[31.049221799999998,56.9580938],[31.037475000000004,56.9779498],[31.031224400000003,56.975306800000006],[31.0293031,56.9772117],[31.030901100000005,56.9875802],[31.004928800000002,56.986640799999996],[31.0131192,56.9827066],[31.0067578,56.977791399999994],[30.989935999999997,56.9770312],[30.9875887,56.9722046],[30.985943699999996,56.9758747],[30.9788688,56.9752543],[30.978756799999996,56.969897399999994],[30.985984499999997,56.9601824],[30.981679299999996,56.95362759999999],[30.974996100000002,56.9528563],[30.967541999999995,56.946301399999996],[30.9708837,56.94482339999999],[30.967413799999996,56.9392325],[30.971012599999998,56.93749739999999],[30.968763699999997,56.9328062],[30.9759623,56.911792399999996],[30.9618572,56.9015101],[30.9535031,56.900288999999994],[30.951639399999998,56.902988],[30.941614799999996,56.8959832],[30.962436199999992,56.889492999999995],[30.9414873,56.87734699999999],[30.935447299999996,56.86571530000001],[30.9164257,56.86391570000001],[30.896150400000003,56.871176999999996],[30.905660799999996,56.879916900000005],[30.9000051,56.8903274],[30.879827000000002,56.88576439999999],[30.8816907,56.8831939],[30.8764213,56.88088039999999],[30.8725661,56.871497899999994],[30.873338,56.8575529],[30.874752,56.8539542],[30.878929,56.85440409999999],[30.881691999999997,56.85960949999999],[30.8865117,56.8595453],[30.889854000000003,56.8484922],[30.885676999999998,56.8471426],[30.8849705,56.838852700000004],[30.8781588,56.837824299999994],[30.870126499999998,56.8281848],[30.869612599999996,56.824136200000005],[30.8750109,56.819252399999996],[30.869548899999998,56.8143683],[30.877389100000002,56.8099986],[30.8765539,56.80646409999999],[30.858913700000002,56.8087773],[30.858078100000004,56.812376],[30.8508166,56.809933900000004],[30.8292886,56.811154499999994],[30.8180436,56.8238409],[30.7924787,56.8054726],[30.7938441,56.8013143],[30.770614499999997,56.7998625],[30.771647599999998,56.79752890000001],[30.7628663,56.79420520000001],[30.768031699999998,56.7905275],[30.728386799999996,56.7807657],[30.7420753,56.774680999999994],[30.751373100000002,56.7745395],[30.758346499999995,56.784019900000004],[30.784819499999998,56.7896787],[30.789339299999995,56.785293200000005],[30.7720533,56.77295550000001],[30.7789004,56.770094300000004],[30.767626199999995,56.7596532],[30.7628697,56.75897210000001],[30.7775902,56.7518023],[30.785518299999996,56.76581000000001],[30.793329499999995,56.76711270000001],[30.7917113,56.763429],[30.794160700000003,56.7610915],[30.789206199999995,56.76030080000001],[30.7890741,56.75553430000001],[30.797499199999997,56.7560839],[30.8061132,56.7612884],[30.8056719,56.757809099999996],[30.7974568,56.7532111],[30.812928100000004,56.756306300000006],[30.817111400000005,56.751842999999994],[30.834838600000005,56.75503510000001],[30.837544400000002,56.749453700000004],[30.8303866,56.74896290000001],[30.830087100000004,56.74558890000001],[30.836195300000004,56.74212030000001],[30.817809600000004,56.73953660000001],[30.810358600000004,56.74327520000001],[30.791594,56.741025900000004],[30.775632699999996,56.73391350000001],[30.798009999999998,56.73312620000001],[30.8028221,56.72603390000001],[30.8095594,56.72502810000001],[30.807895900000005,56.716344],[30.810332499999998,56.7150996],[30.823202799999997,56.7184745],[30.833061600000004,56.7156401],[30.809650700000002,56.69918690000001],[30.813778900000003,56.69975970000001],[30.854614,56.6676547],[30.8722314,56.667608900000005],[30.8732487,56.663470000000004],[30.883566,56.663537100000006],[30.8901153,56.66010220000001],[30.887859600000002,56.645171600000005],[30.942637299999994,56.6430048],[30.9463657,56.652001],[30.952799699999996,56.6547507],[31.0235814,56.647529399999996],[31.0386731,56.65064639999999],[31.046799899999996,56.6560851],[31.0591411,56.655090200000004],[31.057982400000004,56.6464555],[31.063089299999998,56.641453],[31.0596561,56.636803900000004],[31.0633897,56.6304546],[31.0557937,56.624977900000005],[31.0645914,56.622026700000006],[31.0476827,56.608188500000004],[31.0561799,56.60216520000001],[31.050515100000002,56.6003935],[31.056008300000002,56.59843270000001],[31.0477685,56.5946288],[31.045107799999997,56.5905174],[31.048326399999997,56.587421799999994],[31.041073700000002,56.5872563],[31.0437774,56.582246],[31.0416316,56.578606],[31.050643899999997,56.57784959999999],[31.0434341,56.5745638],[31.049399299999997,56.5725544],[31.0360097,56.570852200000004],[31.0376405,56.5659815],[31.0305595,56.561015700000006],[31.0330915,56.5594785],[31.028156199999998,56.558296],[31.028113299999998,56.5529271],[31.0213327,56.5535184],[31.022791799999997,56.5494735],[31.014294600000003,56.545570100000006],[31.0213049,56.545366800000004],[31.014837000000004,56.5417196],[31.022833499999997,56.5399882],[31.017980400000006,56.538979600000005],[31.019405900000002,56.534977],[31.0092374,56.5310533],[31.0180712,56.52875880000001],[31.015316499999997,56.526323100000006],[31.0211221,56.5228693],[31.018214,56.5206639],[31.011267200000002,56.527952400000004],[31.002230299999997,56.525094800000005],[31.00633,56.52221680000001],[31.001824700000004,56.5171052],[31.0037546,56.50651090000001],[31.011285100000006,56.507860599999994],[31.018828700000004,56.5024716],[31.011181800000003,56.49591690000001],[31.012402899999998,56.49296090000001],[31.0062568,56.4865008],[30.989072099999998,56.48913],[30.987102899999996,56.4857947],[30.999216699999998,56.4797542],[31.011555100000006,56.4796259],[31.036746599999997,56.469472800000005],[31.0772967,56.460540900000005],[31.0774897,56.456877999999996],[31.088703499999994,56.4564926],[31.111581500000003,56.446853499999996],[31.119871400000008,56.44678939999999],[31.122064400000003,56.4456072],[31.1182662,56.444243099999994],[31.118797700000002,56.439575000000005],[31.160319799999996,56.439925200000005],[31.1797149,56.4328934],[31.1844879,56.434781599999994],[31.1876221,56.4335017],[31.184814000000003,56.4306786],[31.193967100000005,56.4269334],[31.212602099999998,56.427221499999995],[31.2065954,56.414145399999995],[31.2209249,56.4112338],[31.2222746,56.4075063],[31.2296981,56.4084263],[31.227333499999997,56.399575000000006],[31.2300085,56.392763800000004],[31.2259006,56.3909341],[31.226384,56.379963399999994],[31.222592399999996,56.3753487],[31.2284504,56.3735489],[31.228534899999996,56.3397956],[31.242302899999995,56.3375655],[31.250913,56.3411133],[31.2501678,56.33611690000001],[31.263022899999996,56.32953680000001],[31.269220999999998,56.3307867],[31.2969213,56.322379600000005],[31.318592199999998,56.328839300000006],[31.3250615,56.32571320000001],[31.361071300000003,56.32552830000001],[31.362789899999996,56.3228893],[31.355937400000002,56.319542999999996],[31.3632177,56.3160587],[31.3726313,56.3177939],[31.377060900000004,56.311031899999996],[31.3732868,56.3044553],[31.388384199999997,56.30165349999999],[31.405466299999997,56.3139839],[31.430364700000002,56.3051164],[31.4504076,56.309460599999994],[31.517860300000006,56.3060893],[31.517177900000004,56.289709300000005],[31.5042702,56.29245730000001],[31.503249499999995,56.2888238],[31.493880400000002,56.2892311],[31.490385,56.28188449999999],[31.495391199999997,56.2798972],[31.492358999999997,56.2756846],[31.495922499999995,56.271218600000005],[31.4804757,56.26635020000001],[31.4838982,56.26295730000001],[31.4746703,56.2571485],[31.466916499999996,56.25849230000001],[31.462662499999993,56.2537827],[31.463846399999998,56.248747800000004],[31.473741799999996,56.24555030000001],[31.465211999999994,56.241531800000004],[31.461892199999998,56.197628300000005],[31.4640855,56.197731700000006],[31.4641714,56.19314990000001],[31.501187100000003,56.1840252],[31.4991159,56.177222300000004],[31.507606799999998,56.158126300000006],[31.487529299999995,56.143992600000004],[31.451064600000002,56.1398116],[31.4493941,56.13338530000001],[31.4595481,56.1238746],[31.457294,56.1195417],[31.469452799999996,56.11489099999999],[31.4708437,56.1071277],[31.466302599999995,56.106533400000004],[31.461340299999996,56.100354100000004],[31.467693299999997,56.095901100000006],[31.465831999999995,56.0940734],[31.4695957,56.0900284],[31.467311499999997,56.0874068],[31.499420799999996,56.071831499999995],[31.5002801,56.067933700000005],[31.505449799999994,56.066266999999996],[31.5024656,56.065099200000006],[31.5010965,56.0584062],[31.5077161,56.0554237],[31.508436799999995,56.049887299999995],[31.493341599999997,56.0446305],[31.5015108,56.035900500000004],[31.488599499999992,56.032364900000005],[31.4911307,56.023692700000005],[31.4842114,56.0245495],[31.483130199999994,56.029748700000006],[31.4764745,56.023498000000004],[31.464747999999997,56.0244882],[31.4512815,56.011918],[31.437447799999997,56.009229399999995],[31.435326199999995,56.0047602],[31.426437899999996,56.0008869],[31.428027799999995,55.9906717],[31.418382599999997,55.984248699999995],[31.367685,55.96913810000001],[31.3565188,55.9589219],[31.354858300000007,55.9496451],[31.349645199999998,55.944828099999995],[31.355106199999998,55.9382736],[31.371887600000004,55.9343701],[31.3672593,55.9324505],[31.3894714,55.9271297],[31.401731799999997,55.91531580000001],[31.3961244,55.911582499999994],[31.394867500000004,55.90443739999999],[31.4014018,55.90368399999999],[31.4072918,55.89535030000001],[31.4161481,55.8914331],[31.415947199999998,55.8809937],[31.4091411,55.87934],[31.4094512,55.873117900000004],[31.394900400000004,55.868024],[31.4058727,55.86188179999999],[31.4001653,55.85765699999999],[31.4055707,55.8547569],[31.404474,55.85040299999999],[31.411077900000002,55.845517900000004],[31.4099269,55.8399562],[31.414655800000002,55.8364398],[31.4146112,55.832718500000006],[31.4036816,55.82015270000001],[31.4037741,55.81108399999999],[31.420724899999996,55.790224200000004],[31.427955200000003,55.78331730000001],[31.4354644,55.7813805],[31.433865700000005,55.777666399999994],[31.4399523,55.774673],[31.440012099999997,55.76579240000001],[31.447667199999998,55.762038300000015],[31.441225499999998,55.7569196],[31.448061499999998,55.753573200000005],[31.4478026,55.7436019],[31.459962700000002,55.7406227],[31.464748299999997,55.7348433],[31.472907499999998,55.73415390000001],[31.4705564,55.72452530000001],[31.483133699999996,55.718642300000006],[31.488461899999997,55.724892200000006],[31.503719499999995,55.72880890000001],[31.525871900000002,55.725464],[31.543740199999995,55.7336235],[31.5544698,55.72978890000001],[31.5701758,55.73931500000001],[31.571725700000002,55.7462096],[31.574132799999997,55.7442515],[31.572705199999998,55.73821360000001],[31.562547299999995,55.730870100000004],[31.5737254,55.7327877],[31.575561,55.73735690000001],[31.585066199999996,55.74253820000001],[31.604352300000002,55.74872930000001],[31.5913797,55.73612310000001],[31.596846799999998,55.7291674],[31.6070458,55.72912680000001],[31.614898800000006,55.733777700000005],[31.616408400000005,55.731044399999995],[31.6277905,55.731044499999996],[31.6325027,55.7260675],[31.6391929,55.7328806],[31.6530023,55.73479820000001],[31.659856500000004,55.72623110000001],[31.6763529,55.72815760000001],[31.6925249,55.72177430000001],[31.7351164,55.7169985],[31.7268346,55.705130300000015],[31.7357287,55.6942175],[31.776789199999996,55.69894290000001],[31.779271400000003,55.712431300000006],[31.786281499999998,55.7164719],[31.7861555,55.72065680000001],[31.780714099999997,55.72311220000002],[31.7801977,55.73927520000001],[31.7703506,55.7454245],[31.7855641,55.7496902],[31.786602099999996,55.7592718],[31.806001300000002,55.76071510000001],[31.835641,55.773512300000014],[31.853854000000005,55.7758273],[31.874834700000005,55.7718916],[31.881865800000003,55.7796704],[31.865855700000004,55.7844297],[31.876095900000003,55.786552500000006],[31.889709399999997,55.77405220000001],[31.8987655,55.77145530000001],[32.0340033,55.76610810000001],[32.0426732,55.753975700000005],[32.054295999999994,55.7528336],[32.057634099999994,55.7488295],[32.05776439999999,55.74371200000001],[32.047094799999996,55.73324220000001],[32.049764399999994,55.7310231],[32.0449505,55.72816690000001],[32.0473699,55.72677620000001],[32.044986699999995,55.7210611],[32.0622446,55.7472524],[32.0658014,55.737585200000005],[32.0536523,55.730343500000004],[32.06850920000001,55.722203400000005],[32.0688415,55.719275100000004],[32.09013780000001,55.7195632],[32.1008925,55.723683300000005],[32.1166394,55.71697230000001],[32.1142951,55.712793600000005],[32.1188287,55.7102773],[32.101496499999996,55.7105776],[32.091503700000004,55.6872791],[32.0715555,55.68425439999999],[32.058085399999996,55.688308500000005],[32.0517168,55.6941611],[32.0425947,55.6897998],[32.046988999999996,55.6833716],[32.041752800000005,55.67785739999999],[32.0453041,55.6709046],[32.025771000000006,55.6610765],[32.0260776,55.6580595],[32.0375396,55.651227199999994],[32.055126800000004,55.6520117],[32.0580562,55.659444799999996],[32.0715981,55.66601630000001],[32.09496,55.671032000000004],[32.09092090000001,55.6730956],[32.0906691,55.6792535],[32.08631880000001,55.68277390000001],[32.101129300000004,55.6857436],[32.10579310000001,55.69073550000001],[32.12627390000001,55.6879281],[32.1268273,55.67221070000001],[32.14744939999999,55.67216220000001],[32.16984,55.690129500000005],[32.1590669,55.69723510000001],[32.1748303,55.69936560000001],[32.19969290000001,55.6966271],[32.201336500000004,55.6910886],[32.197015400000005,55.688228],[32.1966504,55.683967599999995],[32.20956890000001,55.67855090000001],[32.22273040000001,55.6797684],[32.23491860000001,55.672160700000006],[32.248628100000005,55.6696047],[32.25631190000001,55.6724045],[32.259050900000005,55.6700918],[32.263554600000006,55.6736828],[32.263858400000004,55.682507900000004],[32.27269810000001,55.6947416],[32.28811150000001,55.698332700000016],[32.3121832,55.6896906],[32.3249795,55.69407290000001],[32.3156059,55.70763],[32.324004599999995,55.71473590000001],[32.3413052,55.708771600000006],[32.3827979,55.7216601],[32.386769599999994,55.7125915],[32.383057099999995,55.710948200000004],[32.38086639999999,55.70334020000001],[32.398836700000004,55.69252210000001],[32.404862099999995,55.69373950000001],[32.4131081,55.713154900000006],[32.4336796,55.7161984],[32.440816,55.71066],[32.433817399999995,55.699217600000004],[32.44154749999999,55.689357900000005],[32.430835800000004,55.6856603],[32.4306533,55.6832258],[32.441571599999996,55.6748372],[32.452108100000004,55.6726666],[32.4568152,55.6837642],[32.464067699999994,55.684666099999994],[32.4583496,55.6978956],[32.458314200000004,55.7096865],[32.473484199999994,55.7117561],[32.4812139,55.70907820000001],[32.4851851,55.7119997],[32.4829938,55.7158949],[32.485747599999996,55.720261900000004],[32.481973999999994,55.723974500000004],[32.485746999999996,55.73266280000001],[32.4911635,55.73891650000001],[32.497858,55.740422],[32.5129824,55.7164077],[32.522554500000005,55.71730530000001],[32.5331242,55.7073594],[32.5424221,55.7077584],[32.5437194,55.6875422],[32.522283,55.6649575],[32.52268290000001,55.6430463],[32.527967499999995,55.642647499999995],[32.53813720000001,55.6559091],[32.5441201,55.6499266],[32.5478093,55.6509238],[32.5479088,55.6564078],[32.5630893,55.660396500000004],[32.5541145,55.679241499999996],[32.5722613,55.6870192],[32.5774707,55.69537000000001],[32.5847498,55.688689499999995],[32.6318628,55.68480159999999],[32.6426561,55.6900864],[32.67957380000001,55.6868963],[32.6971472,55.693377700000006],[32.7090376,55.69297900000001],[32.7150206,55.6847032],[32.721726200000006,55.682011200000005],[32.76505020000001,55.6786217],[32.77212990000001,55.67243980000001],[32.7896039,55.6748331],[32.79658380000001,55.6698478],[32.8161516,55.67513270000001],[32.824627199999995,55.669249900000004],[32.82233430000001,55.660674900000004],[32.836917,55.658307],[32.8428001,55.6534213],[32.8615971,55.6518533],[32.86142159999999,55.6539613],[32.8919365,55.660970000000006],[32.891592200000005,55.64931670000001],[32.8831508,55.64755230000001],[32.908623399999996,55.63203490000001],[32.908231,55.636326100000005],[32.9125968,55.63933910000001],[32.9114159,55.64877390000001],[32.916784699999994,55.6520515],[32.9211715,55.6610254],[32.9416369,55.659231],[32.94253390000001,55.668404300000006],[32.947319900000004,55.66850410000001],[32.9465224,55.66501420000001],[32.95382609999999,55.66571230000002],[32.95851280000001,55.65893210000001],[32.9724968,55.6644164],[32.9747899,55.66890330000001],[32.9880166,55.666816000000004],[33.002914200000006,55.6568347],[33.00168909999999,55.6526686],[32.997155600000006,55.6510756],[33.0061005,55.6475224],[33.027573800000006,55.65389439999999],[33.044775,55.6550655],[33.046551900000004,55.6573411],[33.0377434,55.6618591],[33.0526003,55.66271700000001],[33.0522324,55.6688436],[33.07024439999999,55.6689664],[33.07456439999999,55.654875399999995],[33.0940468,55.6541405],[33.096988,55.6464211],[33.10559610000001,55.6406622],[33.120422500000004,55.636863999999996],[33.123608100000006,55.6417653],[33.1341765,55.6390698],[33.1530977,55.6509235],[33.1518509,55.6547541],[33.1578549,55.653773900000004],[33.170343,55.659308700000004],[33.16533110000001,55.66237960000001],[33.168024100000004,55.6711736],[33.172189900000006,55.6761974],[33.184106,55.6782806],[33.18373820000001,55.6824467],[33.19571660000001,55.6866048],[33.196036600000006,55.70279220000001],[33.20237040000001,55.7080744],[33.2104398,55.7098296],[33.2210735,55.70613030000001],[33.2246275,55.7115271],[33.232848100000005,55.708537400000004],[33.24668449999999,55.713592000000006],[33.2504702,55.70991730000001],[33.2567347,55.70995620000001],[33.2590626,55.7137547],[33.2649442,55.711916800000004],[33.266046700000004,55.7159604],[33.280781499999996,55.7072609],[33.2862954,55.707996200000004],[33.27710580000001,55.7030947],[33.266567900000005,55.708608500000004],[33.2579911,55.700766300000005],[33.304828699999995,55.69794890000001],[33.3097298,55.7022375],[33.30911690000001,55.70713880000001],[33.3039704,55.7110597],[33.309851699999996,55.7144907],[33.323942800000005,55.7144909],[33.32786349999999,55.718534500000004],[33.32250260000001,55.72319060000001],[33.3145069,55.723338900000016],[33.3192107,55.726845000000004],[33.328261499999996,55.7247836],[33.3451412,55.726645700000006],[33.3453031,55.72946830000001],[33.4210766,55.727271800000004],[33.410638,55.73219120000001],[33.3904986,55.73373350000001],[33.39255880000001,55.7406831],[33.3959896,55.74215360000001],[33.391578200000005,55.7477899],[33.4060367,55.7524464],[33.41878,55.7510987],[33.4333794,55.7561595],[33.4488088,55.75592530000001],[33.45128679999999,55.7528096],[33.453464999999994,55.7617994],[33.487103399999995,55.760779600000006],[33.5119528,55.779654300000004],[33.522171400000005,55.77911860000001],[33.53573840000001,55.783734],[33.54152439999999,55.787201499999995],[33.5328803,55.789633200000004],[33.537327399999995,55.8137583],[33.56951170000001,55.8129347],[33.5757611,55.848673],[33.6480694,55.84448459999999],[33.6598025,55.90178409999999],[33.675536400000006,55.89921270000001],[33.662547700000005,55.908279900000004],[33.67345230000001,55.9206251],[33.6707564,55.924423499999996],[33.6729617,55.929814900000004],[33.6460048,55.9301821],[33.6469841,55.94926639999999],[33.635343500000005,55.9522988],[33.638774000000005,55.9596508],[33.69627210000001,55.95324939999999],[33.696026700000004,55.95851830000001],[33.714437,55.95962139999999],[33.72240190000001,55.952392100000004],[33.74019930000001,55.95668099999999],[33.7344406,55.950799399999994],[33.756036800000004,55.9504322],[33.77824590000001,55.9440609],[33.77983880000001,55.942468],[33.774937900000005,55.936341399999996],[33.76893400000001,55.9336456],[33.7772663,55.930092300000005],[33.8025076,55.93291090000001],[33.803273,55.9401403],[33.816751,55.950065599999995],[33.821651599999996,55.962073700000005],[33.79604230000001,55.96819990000001],[33.81172599999999,55.974204199999996],[33.810132700000004,55.9801776],[33.803148300000004,55.982995700000004],[33.802045,55.99365590000001],[33.813273699999996,56.0005297],[33.814583799999994,56.0042857],[33.79273180000001,56.0095236],[33.79861300000001,56.014915],[33.8638609,56.01442599999999],[33.8636135,56.0598239],[33.8686826,56.0571721],[33.8760421,56.058511],[33.8769697,56.0544327],[33.890487699999994,56.056735200000006],[33.888763,56.060804499999996],[33.8918262,56.062029900000006],[33.915505100000004,56.0670541],[33.9361839,56.06010990000001],[33.9292714,56.05408239999999],[33.9632482,56.051870799999996],[33.981642599999994,56.0421812],[33.9998754,56.0400781],[34.014824999999995,56.04406949999999],[34.01331520000001,56.048368100000005],[34.0168393,56.0483084],[34.02970530000001,56.04512280000001],[34.0293684,56.042182000000004],[34.035250000000005,56.0400991],[34.0595932,56.037373800000005],[34.066526700000004,56.0290717],[34.07875390000001,56.0311492],[34.0855314,56.026788800000006],[34.09571930000001,56.03813950000001],[34.10221330000001,56.0402227],[34.1011104,56.04230570000001],[34.1088605,56.0426734],[34.1190301,56.051618399999995],[34.142954200000005,56.0541919],[34.158250100000004,56.063054],[34.172759500000005,56.0625245],[34.2089817,56.0520082],[34.204526900000005,56.039979200000005],[34.217107399999996,56.03923890000001],[34.2156802,56.0354664],[34.2306668,56.0406089],[34.23641380000001,56.0394969],[34.23513460000001,56.0358604],[34.22413560000001,56.0309],[34.248045000000005,56.02611820000001],[34.243314100000006,56.0216057],[34.2504687,56.016587099999995],[34.2640297,56.02619550000001],[34.291101700000006,56.0169226],[34.29625190000001,56.0073105],[34.30276739999999,56.0076396],[34.3092438,56.00053630000001],[34.301752300000004,55.99801530000001],[34.3069716,55.9947832],[34.32335080000001,55.9950466],[34.3323445,56.00379590000001],[34.3386099,56.005190000000006],[34.3375407,56.0139978],[34.348893,56.014127599999995],[34.35338709999999,56.018013200000006],[34.36786849999999,56.0154454],[34.3728308,56.02285930000001],[34.379656,56.02354820000001],[34.3817527,56.0215696],[34.3797935,56.015537],[34.3910207,56.012964],[34.3976809,56.005845900000004],[34.395400800000004,56.00122399999999],[34.40731280000001,55.9991447],[34.4111403,55.98984709999999],[34.431855399999996,55.990051300000005],[34.4480607,55.979146300000004],[34.4606813,55.98147459999999],[34.468370500000006,55.9738165],[34.472537200000005,55.961931],[34.492387,55.965729800000005],[34.510314300000005,55.9600366],[34.517901499999994,55.95482069999999],[34.515294,55.9450998],[34.52323690000001,55.939172600000006],[34.537996,55.936624099999996],[34.53941880000001,55.9314081],[34.556963399999994,55.93662439999999],[34.5739879,55.934587099999995],[34.587251599999995,55.9426115],[34.596972400000006,55.9430858],[34.620405600000005,55.92334820000001],[34.616914200000004,55.9167807],[34.600530000000006,55.9189617],[34.60112290000001,55.9144569],[34.60553890000001,55.911878599999994],[34.62332090000001,55.910456399999994],[34.62841810000001,55.9150797],[34.6315004,55.9131831],[34.6576988,55.919585],[34.6827418,55.916384599999994],[34.696166700000006,55.9262242],[34.6845487,55.9355892],[34.71875000000001,55.956454599999994],[34.72325260000001,55.96312220000001],[34.7450448,55.9778568],[34.767380700000004,55.97604439999999],[34.776034900000006,55.970472900000004],[34.7754424,55.9643085],[34.78471880000001,55.961345],[34.827068499999996,55.979720300000004],[34.81367349999999,55.966205800000004],[34.8528239,55.9555373],[34.858661899999994,55.9628872],[34.859300399999995,55.972885],[34.869212000000005,55.9728453],[34.869804499999994,55.9761646],[34.8934249,55.9743868],[34.9101282,55.9646136],[34.925254,55.98481939999999],[34.9321296,55.98766459999999],[34.937849799999995,55.9805519],[34.9447255,55.9794851],[34.957054799999995,55.969290300000004],[34.9788969,55.9710689],[34.997745300000005,55.9794859],[35.0171764,55.977456399999994],[35.045766900000004,55.9803964],[35.052573100000004,55.985995700000004],[35.0656084,55.9898453],[35.06875820000001,55.984246199999994],[35.06518890000001,55.98088669999999],[35.067708700000004,55.9768973],[35.0727655,55.9761275],[35.0778051,55.96863870000001],[35.0910087,55.960576200000006],[35.100377200000004,55.95829],[35.1049442,55.952786499999995],[35.121111600000006,55.9562163],[35.12573100000001,55.9539767],[35.1434024,55.95906659999999],[35.1484955,55.9575013],[35.1508931,55.959368399999995],[35.14913490000001,55.971350900000004],[35.1538709,55.977982999999995],[35.1691896,55.979862999999995],[35.1738409,55.983497099999994],[35.17321580000001,55.99201420000001],[35.17877870000001,55.99859810000001],[35.19697970000001,56.01215030000001],[35.2176116,56.0110251],[35.22563540000001,56.0165594],[35.22412500000001,56.021957],[35.2395544,56.030083499999996],[35.2314049,56.0428073],[35.243993700000004,56.0466883],[35.26675850000001,56.039058000000004],[35.287845,56.062588100000006],[35.3047358,56.05831080000001],[35.314368699999996,56.0638605],[35.323368900000006,56.0774952],[35.31732399999999,56.0835908],[35.338025800000004,56.092637700000004],[35.3339764,56.097449399999995],[35.3215194,56.09927530000001],[35.3203915,56.10281510000001],[35.3089808,56.1066348],[35.2872795,56.1033886],[35.283414900000004,56.1115943],[35.2890218,56.1149998],[35.2840317,56.120650000000005],[35.284550100000004,56.124995600000005],[35.3089851,56.1304535],[35.308601599999996,56.13816490000001],[35.29190890000001,56.140433900000005],[35.304931599999996,56.15446789999999],[35.3141384,56.1565577],[35.3205171,56.153519300000006],[35.3413651,56.1598093],[35.3349586,56.1630795],[35.3631294,56.1788714],[35.348939,56.1839573],[35.3638601,56.1969745],[35.338269499999996,56.199408000000005],[35.3331314,56.201830300000005],[35.33335520000001,56.20861810000001],[35.320226999999996,56.2092479],[35.3180591,56.219725000000004],[35.321615200000004,56.22217520000002],[35.3157909,56.22799090000001],[35.3304331,56.23311150000001],[35.363012000000005,56.237404399999996],[35.391943,56.234859300000004],[35.398094300000004,56.243264399999994],[35.406886099999994,56.2441649],[35.40786469999999,56.248016400000004],[35.4117883,56.248912200000014],[35.4236784,56.24805870000001],[35.438321800000004,56.2394912],[35.461277499999994,56.2408803],[35.4863391,56.247309300000005],[35.484036999999994,56.2496698],[35.50231010000001,56.2594863],[35.499390000000005,56.2640676],[35.4749621,56.27681280000001],[35.472281499999994,56.2840178],[35.4803413,56.2882285],[35.4913424,56.286962700000004],[35.482958100000005,56.2908264],[35.48328659999999,56.295445400000006],[35.4782888,56.2994244],[35.48169179999999,56.302218200000006],[35.46721290000001,56.3097067],[35.476919900000006,56.3128726],[35.4773673,56.3238042],[35.48062139999999,56.3273097],[35.4656976,56.33062139999999],[35.4776519,56.3360334],[35.46835780000001,56.3376181],[35.4809771,56.3461855],[35.4789665,56.3586767],[35.498551600000006,56.361995900000004],[35.4950941,56.363530700000005],[35.497531900000006,56.3648587],[35.487434199999996,56.3651215],[35.479106900000005,56.359434199999995],[35.470511900000005,56.361215800000004],[35.482453,56.3735201],[35.4966968,56.3705032],[35.4993594,56.36554230000001],[35.5054076,56.3675749],[35.508467599999996,56.38026359999999],[35.5132737,56.3792507],[35.52117390000001,56.38458699999999],[35.5137893,56.38908739999999],[35.520323100000006,56.395410000000005],[35.4979575,56.39955090000001],[35.482958,56.38392339999999],[35.4616288,56.3788701],[35.4498682,56.38449049999999],[35.43879820000001,56.3856663],[35.431359300000004,56.3821658],[35.4276306,56.3845755],[35.42172,56.3813196],[35.41766729999999,56.3829073],[35.423131700000006,56.3907497],[35.419004599999994,56.396035700000006],[35.429256800000005,56.4047609],[35.429612000000006,56.4208828],[35.43786759999999,56.420470200000004],[35.43571690000001,56.42339870000001],[35.4403239,56.4308169],[35.4475147,56.427153700000005],[35.4570089,56.4306903],[35.4248719,56.443439399999995],[35.4297476,56.4507786],[35.42841290000001,56.454426299999994],[35.4342706,56.4586556],[35.4677585,56.4565788],[35.477568,56.4525701],[35.4833512,56.4455246],[35.4775316,56.4443279],[35.4734054,56.4378063],[35.494814399999996,56.43068759999999],[35.5184568,56.43033330000001],[35.5296413,56.435194],[35.52713860000001,56.4400748],[35.531046499999995,56.4428179],[35.53711280000001,56.440686899999996],[35.54315890000001,56.4433993],[35.5464755,56.45022449999999],[35.5535366,56.449775100000004],[35.5551694,56.4626949],[35.5641486,56.459228499999995],[35.5996847,56.477777399999994],[35.6202404,56.4770525],[35.62344290000001,56.4690954],[35.6261894,56.4693974],[35.621673,56.4585071],[35.6302448,56.4547782],[35.641234399999995,56.4618259],[35.6585777,56.460063399999996],[35.6571269,56.451593599999995],[35.664086399999995,56.44780949999999],[35.673996700000004,56.45122169999999],[35.67297530000001,56.4480554],[35.6852856,56.4467454],[35.681303,56.429146700000004],[35.69961180000001,56.428367],[35.6970673,56.4248959],[35.718190400000005,56.41108639999999],[35.728980500000006,56.4138302],[35.73263130000001,56.4082754],[35.73034560000001,56.39815690000001],[35.73527190000001,56.3897207],[35.769391000000006,56.38976759999999],[35.780788,56.39952290000001],[35.7918637,56.396394300000004],[35.80108899999999,56.406391],[35.8183879,56.40464729999999],[35.8157828,56.3982445],[35.8349581,56.399296],[35.8392762,56.3972018],[35.840119800000004,56.392006300000006],[35.85066689999999,56.3954671],[35.8478326,56.39819530000001],[35.8608106,56.3939448],[35.855710800000004,56.3897006],[35.836079399999996,56.388272900000004],[35.843538300000006,56.380808699999996],[35.8625285,56.386640799999995],[35.8661742,56.3811481],[35.862036100000005,56.378635100000004],[35.8716253,56.372120200000005],[35.9058757,56.3772569],[35.905030000000004,56.3735493],[35.9531026,56.3703943],[35.95404489999999,56.3747398],[35.9600719,56.3720488],[35.958513,56.3780324],[36.012154900000006,56.37822],[36.0286776,56.372815],[36.029820300000004,56.3670942],[36.0378502,56.3653265],[36.037007599999995,56.372992800000006],[36.0499488,56.3732563],[36.061084799999996,56.366291399999994],[36.0735255,56.363181],[36.0742378,56.3567222],[36.066650300000006,56.3559198],[36.059422999999995,56.350353],[36.063397800000004,56.3451616],[36.06071590000001,56.339127],[36.064730000000004,56.3356492],[36.075425100000004,56.34002399999999],[36.088667099999995,56.335661699999996],[36.09619320000001,56.3477112],[36.0918569,56.3484286],[36.0920874,56.367205999999996],[36.09953300000001,56.380285099999995],[36.1073041,56.3881347],[36.1172167,56.38494179999999],[36.124692800000005,56.386915],[36.13291040000001,56.396001],[36.126591700000006,56.399513400000004],[36.273977,56.417564199999994],[36.283948300000006,56.430553200000006],[36.29549360000001,56.433531900000006],[36.305615200000005,56.4414909],[36.3759766,56.451898199999995],[36.3760521,56.4575309],[36.392997300000005,56.4592162],[36.39235070000001,56.466933100000006],[36.42561870000001,56.4736752],[36.537906,56.4726833],[36.542430100000004,56.4738432],[36.5387514,56.4891315],[36.5404777,56.49670880000001],[36.55424709999999,56.5008313],[36.561421499999994,56.49810500000001],[36.5895697,56.499835600000004],[36.5978472,56.5126451],[36.6148586,56.517958],[36.6390473,56.511952300000004],[36.65250590000001,56.5162953],[36.6459374,56.50996],[36.648741300000005,56.5034985],[36.6817212,56.498062000000004],[36.669940600000004,56.513467899999995],[36.6528698,56.5232231],[36.6773014,56.53270270000001],[36.7408072,56.546422],[36.7530964,56.5517109],[36.7498096,56.553321399999994],[36.751378900000006,56.55462049999999],[36.78531130000001,56.56819270000001],[36.8003708,56.56861510000001],[36.813077899999996,56.57910330000001],[36.800938200000004,56.59325210000001],[36.803018,56.5974755],[36.880589799999996,56.578107800000005],[36.886135100000004,56.5847154],[36.8917073,56.5833564],[36.898909800000006,56.575795400000004],[36.9165772,56.5702749],[36.967093999999996,56.56615830000001],[36.9709271,56.5645292],[36.96979590000001,56.54688349999999],[36.9829288,56.546381],[36.9963746,56.5403954],[37.0374257,56.5337216],[37.04482169999999,56.5270145],[37.0555477,56.526247],[37.05388709999999,56.5313956],[37.0588483,56.5312525],[37.0726397,56.539796800000005],[37.07435520000001,56.5424544],[37.0710125,56.544326],[37.0712488,56.546429499999995],[37.09821480000001,56.5404088],[37.1058215,56.5466221],[37.103394800000004,56.5488001],[37.098806100000004,56.545506200000005],[37.1005606,56.5494305],[37.1177258,56.5550484],[37.121971900000005,56.5599719],[37.12272480000001,56.568503400000004],[37.1392031,56.576396700000004],[37.13817020000001,56.5802524],[37.1475785,56.58686719999999],[37.147851599999996,56.59019430000001],[37.14283030000001,56.59315280000001],[37.144489799999995,56.5947984],[37.126290700000006,56.6016119],[37.1352594,56.610145900000006],[37.12770330000001,56.6134154],[37.133940900000006,56.620507800000006],[37.1149927,56.640718500000006],[37.12132830000001,56.6410808],[37.12250850000001,56.644518700000006],[37.12857770000001,56.6464881],[37.15426169999999,56.64897680000001],[37.149564,56.65488349999999],[37.15910220000001,56.651986099999995],[37.15851080000001,56.662354400000005],[37.14881870000001,56.66292980000001],[37.1460784,56.6666145],[37.1396134,56.66200390000001],[37.130013700000006,56.66912060000001],[37.136190600000006,56.670770100000006],[37.137151700000004,56.6775805],[37.14482649999999,56.675024300000004],[37.1465975,56.676401],[37.143182200000005,56.6782795],[37.1537077,56.678431200000006],[37.1552056,56.682017],[37.1592751,56.6821648],[37.1542957,56.69056270000001],[37.1742501,56.696424900000004],[37.1378164,56.7110701],[37.126796600000006,56.719776],[37.123451,56.726780600000005],[37.0668314,56.755621399999995],[37.105847,56.76091850000001],[37.101640499999995,56.76861190000001],[37.1470161,56.77519270000001],[37.1633076,56.77520390000001],[37.1810509,56.76900860000001],[37.1942443,56.77202590000001],[37.20639390000001,56.76951310000001],[37.2158839,56.783064499999995],[37.24303270000001,56.7869936],[37.2389874,56.772929000000005],[37.22928590000001,56.772022400000004],[37.22526070000001,56.767063300000004],[37.233696900000005,56.752584],[37.2491964,56.745380700000005],[37.2746827,56.759684699999994],[37.28095090000001,56.775430500000006],[37.342832900000005,56.76378590000001],[37.350857899999994,56.77935260000001],[37.4429267,56.79653430000001],[37.4413566,56.79383190000001],[37.4474127,56.789655200000006],[37.4536932,56.789900900000006],[37.455039,56.79432330000001],[37.4608708,56.7914979],[37.4577306,56.787812300000006],[37.46311390000001,56.776999100000005],[37.4774222,56.7765864],[37.48188409999999,56.7805915],[37.48300759999999,56.7876709],[37.5157978,56.8219237],[37.540093,56.836817399999994],[37.5520277,56.839533800000005],[37.5505439,56.8447317],[37.541459999999994,56.852673599999996],[37.54519220000001,56.857701199999994],[37.5410763,56.8615184],[37.5458297,56.866268],[37.555908200000005,56.865464599999996],[37.564685999999995,56.8586373],[37.57251900000001,56.866790300000005],[37.574944499999994,56.873177399999996],[37.5375896,56.8818759],[37.534159,56.887571799999996],[37.524739200000006,56.892526200000006],[37.53435220000001,56.90164479999999],[37.5319578,56.909492900000004],[37.549902100000004,56.91104599999999],[37.54821810000001,56.91844639999999],[37.5852034,56.9147382],[37.591067599999995,56.9297867],[37.624777900000005,56.9305013],[37.645471,56.93510130000001],[37.64951530000001,56.938709800000005],[37.6493717,56.9460705],[37.678638600000006,56.940172700000005],[37.6968878,56.95382119999999],[37.69830690000001,56.958511800000004],[37.7346175,56.955834599999996],[37.7581847,56.949991],[37.752921900000004,56.939698],[37.7472184,56.9354637],[37.750894599999995,56.9318385],[37.7614478,56.9298493],[37.76292820000001,56.92565530000001],[37.7852484,56.92967530000001],[37.7984616,56.9088192],[37.8092548,56.9119333],[37.8251873,56.911440199999994],[37.828920100000005,56.90489049999999],[37.8492196,56.901968],[37.8573428,56.906122],[37.8662782,56.9034858],[37.8827009,56.8937807],[37.8798756,56.892698100000004],[37.8792325,56.885621699999994],[37.88704179999999,56.88441709999999],[37.8877257,56.8781114],[37.9105859,56.8785472],[37.9101601,56.8880069],[37.9429931,56.887930499999996],[37.9428093,56.885772300000006],[37.950894299999995,56.8859731],[37.9506186,56.8783934],[37.9593467,56.876485699999996],[37.96256230000001,56.8709628],[37.9521805,56.867297199999996],[37.9526399,56.86513780000001],[37.9840009,56.865396000000004],[37.9818558,56.863932500000004],[37.98428159999999,56.84943739999999],[37.977721499999994,56.84946599999999],[37.978272700000005,56.837456599999996],[37.9833258,56.825292600000004],[37.9940019,56.82290220000001],[37.99270990000001,56.7673216],[38.009817399999996,56.7714807],[38.051566699999995,56.76787230000001],[38.0501312,56.7532365],[38.061499,56.750089599999995],[38.060104,56.752506700000005],[38.0674991,56.761445900000005],[38.1038361,56.7597247],[38.1125838,56.76156890000001],[38.10921930000001,56.76365890000001],[38.1390515,56.7714032],[38.156322700000004,56.77275520000001],[38.16417330000001,56.767838600000005],[38.19714570000001,56.76833030000002],[38.2060838,56.77251150000001],[38.2175572,56.7718949],[38.241535000000006,56.760653000000005],[38.25071630000001,56.765375900000016],[38.2450242,56.797430500000004],[38.2317995,56.805669599999995],[38.2402712,56.81064249999999],[38.24039390000001,56.814448799999994],[38.2324434,56.817825199999994],[38.2302944,56.8235961],[38.212367900000004,56.8245166],[38.20893010000001,56.820587499999995],[38.1894077,56.817149199999996],[38.1867677,56.8199733],[38.1916175,56.8232271],[38.1817331,56.8282611],[38.17215090000001,56.8289645],[38.1577377,56.819473099999996],[38.114263699999995,56.8202177],[38.110886799999996,56.827277699999996],[38.152171900000006,56.845818900000005],[38.12445280000001,56.858526499999996],[38.10290320000001,56.85398059999999],[38.1000713,56.8553097],[38.1008779,56.8665406],[38.1017514,56.8712161],[38.1090784,56.8720285],[38.108268,56.87657],[38.12577160000001,56.8805049],[38.136269399999996,56.8863373],[38.179427,56.892639700000004],[38.1941995,56.902533500000004],[38.191755500000006,56.90957280000001],[38.1843881,56.91483749999999],[38.1860761,56.920914800000006],[38.1807346,56.924884199999994],[38.1796449,56.9304736],[38.19057250000001,56.938762700000005],[38.19753510000001,56.9507999],[38.180953200000005,56.95796719999999],[38.1366672,56.9587621],[38.12995550000001,56.9640931],[38.1528778,56.9668906],[38.15142959999999,56.97486639999999],[38.1542342,56.9852562],[38.220679200000006,56.984690199999996],[38.2232575,56.987207299999994],[38.220249200000005,56.98960149999999],[38.226020000000005,56.990154200000006],[38.2374077,56.999301700000004],[38.23741590000001,57.0123916],[38.2277204,57.017372],[38.227856,57.022022500000006],[38.2413663,57.02270930000001],[38.2431846,57.0272822],[38.2447478,57.02503390000001],[38.2518659,57.028605400000004],[38.2498511,57.035804399999996],[38.2581814,57.04213420000001],[38.249936000000005,57.0522024],[38.2559291,57.0580978],[38.24917690000001,57.064332400000005],[38.2536162,57.0684094],[38.25256530000001,57.073916800000006],[38.238699000000004,57.0814161],[38.20539310000001,57.0732155],[38.2045247,57.0802579],[38.2175231,57.0795777],[38.2304835,57.09269930000001],[38.243276900000005,57.0896512],[38.2520714,57.092307600000005],[38.2437905,57.1019689],[38.249208700000004,57.1111427],[38.2428018,57.1173065],[38.222376900000015,57.112686],[38.2170986,57.11484699999999],[38.21533010000001,57.120715300000015],[38.20832370000001,57.12041090000001],[38.20633170000001,57.123675000000006],[38.210013100000005,57.12532260000001],[38.2086835,57.1310049],[38.1999295,57.13245230000001],[38.197334100000006,57.1378797],[38.20835210000001,57.1395515],[38.205297900000005,57.14633560000001],[38.20869870000001,57.1508157],[38.204331200000006,57.1592961],[38.1616225,57.170992500000004],[38.149726900000005,57.225286000000004],[38.171612800000005,57.230259100000005],[38.202554600000006,57.22847920000001],[38.247782900000004,57.23999070000001],[38.259402,57.2559838],[38.313426799999995,57.259913700000006],[38.31054099999999,57.26605280000001],[38.312474599999994,57.270534500000004],[38.32641,57.2822606],[38.326858300000005,57.3009324],[38.3253867,57.3079139],[38.3206375,57.3113287],[38.3097141,57.3471626],[38.3025819,57.3586358],[38.29317810000001,57.357156399999994],[38.2819963,57.3628219],[38.284151300000005,57.3658507],[38.2747475,57.3679988],[38.229958900000014,57.3608408],[38.170408900000005,57.356726599999995],[38.16552900000001,57.3421766],[38.1082831,57.33136639999999],[38.07573310000001,57.3349146],[38.041277699999995,57.352132600000004],[38.0167971,57.336286099999995],[38.00189139999999,57.3433337],[37.996840399999996,57.34289149999999],[37.975389,57.3553217],[37.9617684,57.355311300000004],[37.947401799999994,57.3729919],[37.871114399999996,57.399163800000004],[37.8826351,57.4062081],[37.87164449999999,57.4133651],[37.865990200000006,57.4267618],[37.845352000000005,57.4300341],[37.84468049999999,57.433058900000006],[37.8332721,57.4329678],[37.8161413,57.441811699999995],[37.805111600000004,57.4402179],[37.804309499999995,57.4436146],[37.804676799999996,57.4478527],[37.826290300000004,57.45360769999999],[37.830032,57.4606176],[37.8370137,57.4583242],[37.84388939999999,57.4615166],[37.8439911,57.46825820000001],[37.8522958,57.4708427],[37.8487619,57.475517100000005],[37.8407581,57.4780666],[37.84468129999999,57.481828099999994],[37.8363601,57.4845012],[37.83787149999999,57.489879599999995],[37.8267394,57.4927476],[37.814419699999995,57.4902476],[37.8005823,57.501326],[37.813235399999996,57.5046132],[37.81700609999999,57.5083876],[37.8127072,57.5112987],[37.82144939999999,57.5129711],[37.817442099999994,57.52395580000001],[37.8339499,57.530238100000005],[37.8333054,57.538462800000005],[37.8304253,57.540730800000006],[37.8326602,57.5443819],[37.8252819,57.545986],[37.8230829,57.5501064],[37.844690799999995,57.565315900000016],[37.8390281,57.565342400000006],[37.8346969,57.569160700000005],[37.838068,57.573691499999995],[37.851864099999986,57.575349700000004],[37.849449699999994,57.5792713],[37.85766989999999,57.5796996],[37.8533561,57.58821830000001],[37.840787199999994,57.58688139999999],[37.8364107,57.5960676],[37.82597820000001,57.59523430000001],[37.819080099999994,57.600140200000006],[37.8187115,57.6068933],[37.81429109999999,57.608366700000005],[37.8137998,57.612541300000004],[37.820686499999994,57.620160000000006],[37.8080005,57.62542620000001],[37.79820610000001,57.6149967],[37.7834717,57.6215041],[37.77856030000001,57.62039890000001],[37.7736493,57.6138913],[37.7545564,57.6162238],[37.75013580000001,57.621258000000005],[37.73699800000001,57.62101210000001],[37.727911600000006,57.6276424],[37.728525300000015,57.632062600000005],[37.724596000000005,57.635746100000006],[37.7076515,57.640902700000005],[37.6843216,57.6571098],[37.676709300000006,57.654285699999996],[37.66037890000001,57.656618300000005],[37.6442938,57.66337120000001],[37.6318927,57.6614065],[37.630542000000005,57.663125400000006],[37.63717200000001,57.66815970000001],[37.6360668,57.672457],[37.642328500000005,57.675895100000005],[37.6366201,57.6788649],[37.6506939,57.686582900000005],[37.64270510000001,57.6872355],[37.649168100000004,57.7030034],[37.5610965,57.73911940000001],[37.55103439999999,57.752019700000005],[37.559702300000005,57.76652330000001],[37.5498058,57.7669994],[37.54784099999999,57.7706828],[37.5338438,57.768718000000014],[37.5147503,57.780136600000006],[37.499402200000006,57.78111870000001],[37.501243499999994,57.789959200000006],[37.4817203,57.799167600000004],[37.4889265,57.81149759999999],[37.4658805,57.8119369],[37.447831099999995,57.81549739999999],[37.437394,57.8215136],[37.3802192,57.8204457],[37.37996739999999,57.837475],[37.391164499999995,57.8461042],[37.4067736,57.852382399999996],[37.4011368,57.8562203],[37.4338307,57.8692765],[37.4163951,57.8732053],[37.41185169999999,57.8803267],[37.397559300000005,57.8845538],[37.38132099999999,57.884145],[37.366475900000005,57.877049799999995],[37.3341649,57.8762002],[37.33124409999999,57.8793432],[37.330330000000004,57.8854603],[37.3379592,57.8850757],[37.3491224,57.891089199999996],[37.3585007,57.9050054],[37.3732348,57.905005700000004],[37.3751995,57.9013221],[37.3873551,57.9023047],[37.39593250000001,57.89746339999999],[37.4020775,57.911010999999995],[37.4119727,57.9120049],[37.4447563,57.9072169],[37.46084139999999,57.899727399999996],[37.4752686,57.8976403],[37.4847229,57.898868300000004],[37.483372100000004,57.901446699999994],[37.4932898,57.90853370000001],[37.4701115,57.9007098],[37.4616393,57.902797],[37.4609024,57.9072171],[37.42517190000001,57.91286459999999],[37.4031265,57.92539240000001],[37.4075515,57.939816],[37.387659899999996,57.9411043],[37.383561799999995,57.9475953],[37.392079700000004,57.94785749999999],[37.383361799999996,57.952277599999995],[37.3756267,57.947488899999996],[37.3619362,57.949207599999994],[37.359112,57.95154049999999],[37.3599712,57.95669739999999],[37.3667238,57.9673798],[37.3607072,57.9706949],[37.35198949999999,57.969835200000006],[37.3494108,57.973396],[37.34769139999999,57.9822364],[37.35400779999999,57.9900455],[37.3620746,57.9892409],[37.368470300000006,57.992893900000006],[37.3788502,57.9881304],[37.38784179999999,57.979413],[37.3966822,57.9799042],[37.4002427,57.9855524],[37.4151612,57.981132300000006],[37.425720500000004,57.98407939999999],[37.4276852,57.980395800000004],[37.4432787,57.98211510000001],[37.478641399999994,57.96431200000001],[37.4849032,57.96873230000001],[37.499023300000005,57.9686098],[37.484043099999994,57.9781867],[37.49853170000001,57.978186900000004],[37.499022200000006,57.98776399999999],[37.5369625,57.986413999999996],[37.538654300000005,57.9961678],[37.5228417,57.9991834],[37.5238235,58.0074098],[37.51215890000001,58.01011090000001],[37.5044231,58.01625],[37.5111757,58.025581700000004],[37.5151048,58.025090600000006],[37.51142099999999,58.0300019],[37.5136305,58.041175300000006],[37.5450016,58.043877099999996],[37.5698036,58.0509989],[37.57373220000001,58.0587344],[37.587115700000005,58.0588573],[37.5869926,58.0641371],[37.603016000000004,58.0636461],[37.60522520000001,58.0770297],[37.650041599999994,58.0743292],[37.652989,58.0643837],[37.657777599999996,58.0642609],[37.671038,58.067208],[37.669686999999996,58.0733472],[37.69461230000001,58.0705235],[37.707873,58.072120000000005],[37.7149825,58.077987699999994],[37.699814200000006,58.081922399999996],[37.703369,58.0863866],[37.7158212,58.09050210000001],[37.70652090000001,58.0975011],[37.693524000000004,58.09222220000001],[37.6897001,58.0857487],[37.6769304,58.088572500000005],[37.671405,58.090537000000005],[37.67054530000001,58.09520280000001],[37.6438392,58.105884499999995],[37.6488731,58.1094454],[37.6346298,58.11595260000001],[37.6262806,58.1134969],[37.612405800000005,58.11926739999999],[37.61498339999999,58.133756000000005],[37.583427699999994,58.136211200000005],[37.5809104,58.1407541],[37.5838569,58.1462794],[37.5818921,58.1515591],[37.5887678,58.15573390000001],[37.581769099999995,58.154505900000004],[37.582835300000006,58.1618916],[37.5530368,58.16838010000001],[37.530199100000004,58.1672746],[37.5084656,58.1801666],[37.5052486,58.1888428],[37.488697099999996,58.1856916],[37.4767416,58.179526200000005],[37.437618900000004,58.1877781],[37.4054484,58.205826800000004],[37.3937839,58.206931700000005],[37.384329799999996,58.20275690000001],[37.381996699999995,58.206563100000004],[37.3851886,58.2142986],[37.3789265,58.2174909],[37.388564599999995,58.222893500000005],[37.3867226,58.228664300000005],[37.375663599999996,58.23395430000001],[37.335030700000004,58.22522560000001],[37.3279086,58.236644399999996],[37.3691637,58.241556300000006],[37.3649886,58.2503967],[37.385861799999994,58.250519800000006],[37.37088119999999,58.268446100000006],[37.43510210000001,58.276002500000004],[37.4268079,58.29238980000001],[37.434297599999994,58.29349500000001],[37.4301225,58.30196699999999],[37.4313501,58.305405],[37.421159,58.306141499999995],[37.4180893,58.308106],[37.420053700000004,58.31080729999999],[37.417966199999995,58.3133857],[37.4038463,58.309824799999994],[37.392549900000006,58.3136309],[37.392549200000005,58.3257865],[37.3656342,58.34187239999999],[37.366825,58.34684969999999],[37.3766087,58.3471504],[37.375480599999996,58.3552543],[37.3817259,58.3624402],[37.395371100000006,58.3620078],[37.4021245,58.35709659999999],[37.4113334,58.356973999999994],[37.41464789999999,58.367779],[37.4274172,58.3717083],[37.42471570000001,58.3757601],[37.431591499999996,58.3772336],[37.43331020000001,58.3809172],[37.4272938,58.3820221],[37.4272936,58.385828399999994],[37.4180513,58.390730500000004],[37.4306081,58.396879],[37.457252499999996,58.392950400000004],[37.47689739999999,58.40166839999999],[37.4802126,58.400440599999996],[37.4813181,58.391723],[37.492859800000005,58.392337100000006],[37.50857680000001,58.3807956],[37.52650320000001,58.382883199999995],[37.528344700000005,58.38718059999999],[37.535957100000005,58.3908643],[37.53399220000001,58.3951617],[37.542156500000004,58.408365700000004],[37.5409897,58.415789499999995],[37.5497078,58.4095277],[37.56051280000001,58.4092823],[37.59243580000001,58.4230346],[37.624237,58.4204566],[37.62951640000001,58.42549090000001],[37.63762,58.42721],[37.63823380000001,58.430402300000004],[37.62595490000001,58.4405932],[37.63000590000001,58.454713399999996],[37.640565200000005,58.4554503],[37.6525984,58.449556900000005],[37.665122300000014,58.450784899999995]]]}}