{"type":"Feature","properties":{"regionId":"udmurtskaya_respublika","name":"Удмуртия","name:en":"Udmurtia","timezone":"Europe/Samara","name_ru":"Удмуртская Республика","name_en":"Udmurtia","name_zh":"乌德穆尔特共和国"},"geometry":{"type":"MultiPolygon","coordinates":[[[[54.0956816,56.654967799999994],[54.0763771,56.640808],[54.0360341,56.6406507],[54.000338400000004,56.619405900000004],[53.9770708,56.61434739999999],[53.9743251,56.6092891],[53.95712749999999,56.6027855],[53.85321739999999,56.599893800000004],[53.842666599999994,56.6175251],[53.872582300000005,56.619982300000004],[53.88240939999999,56.625907700000006],[53.8811083,56.6364576],[53.8893455,56.645707],[53.9233077,56.6496095],[53.9322682,56.6432507],[53.9459754,56.6463114],[53.9624736,56.62879920000001],[53.9811166,56.6335685],[53.9871858,56.648309600000005],[54.0136319,56.6744319],[54.01811230000001,56.669229300000005],[54.024615600000004,56.67211970000001],[54.022272400000006,56.6564155],[54.0956816,56.654967799999994]]],[[[54.377579,56.3787016],[54.37428189999999,56.375399300000005],[54.376514300000004,56.371010999999996],[54.374586699999995,56.3646187],[54.3711369,56.364923],[54.35896149999999,56.35295],[54.3609911,56.345746],[54.3569328,56.3380346],[54.363908800000004,56.333101],[54.3630973,56.327089199999996],[54.360154800000004,56.3268862],[54.362895,56.3119709],[54.38136159999999,56.31460919999999],[54.4161486,56.3112388],[54.4098739,56.302611399999996],[54.4022641,56.301698099999996],[54.40124949999999,56.298755600000014],[54.40469949999999,56.295508800000015],[54.392625300000006,56.291526100000006],[54.392321,56.28746749999999],[54.396684099999995,56.2861485],[54.3924226,56.28482939999999],[54.3979017,56.285032400000006],[54.4014532,56.281075300000005],[54.390190700000005,56.27800590000001],[54.3918142,56.2764839],[54.38927759999999,56.27516490000001],[54.3955685,56.274860499999996],[54.393539200000006,56.273642900000006],[54.386436599999996,56.2735414],[54.39191580000001,56.2712078],[54.392321900000006,56.2674536],[54.3972936,56.2693815],[54.397801099999995,56.2644097],[54.39232220000001,56.2583217],[54.38430639999999,56.261162600000006],[54.364114900000004,56.256190600000004],[54.367869299999995,56.2517008],[54.340981199999995,56.2466272],[54.3401682,56.2434466],[54.328408800000005,56.2482804],[54.3362184,56.23536930000001],[54.313789199999995,56.22800810000001],[54.29654010000001,56.227602000000005],[54.270565500000004,56.2146902],[54.264376000000006,56.2174297],[54.2468226,56.2139797],[54.249866999999995,56.202387300000005],[54.23332830000001,56.198024100000005],[54.19954020000001,56.2008647],[54.19517730000001,56.198226600000005],[54.19923610000001,56.194168000000005],[54.1838136,56.1887394],[54.178436600000005,56.17291080000001],[54.1477951,56.1448554],[54.118573600000005,56.131969],[54.0879202,56.10832990000001],[54.0817437,56.082758000000005],[54.0680464,56.0692376],[54.0556686,56.0459766],[54.0412609,56.0346124],[54.03578230000001,56.0220814],[54.01488099999999,56.0094741],[53.974164599999995,56.0053886],[53.9539938,56.014500399999996],[53.8957818,56.029450600000004],[53.868356500000004,56.0422779],[53.8453601,56.044852],[53.84146349999999,56.017905],[53.807138900000005,56.002245900000005],[53.8155216,55.9956847],[53.8017303,55.9882993],[53.8258438,55.97891250000001],[53.82219590000001,55.9743746],[53.801998,55.967612],[53.79114250000001,55.9725946],[53.708926600000005,55.9690344],[53.70661330000001,55.966365100000004],[53.70572490000001,55.9330428],[53.709996000000004,55.9301066],[53.690071200000006,55.923231],[53.681295,55.9163293],[53.62432200000001,55.914551499999995],[53.6234735,55.908909],[53.594165200000006,55.9065486],[53.584665699999995,55.902058200000006],[53.55752139999999,55.912136700000005],[53.5476554,55.912106200000004],[53.5322413,55.9067636],[53.52512680000001,55.8976688],[53.5076458,55.8867199],[53.4789974,55.876710300000006],[53.4369856,55.875152400000005],[53.4350852,55.871536],[53.4159652,55.863149],[53.41396739999999,55.858483899999996],[53.434165,55.8563993],[53.416859499999994,55.85154469999999],[53.4092222,55.850577799999996],[53.39911130000001,55.859912900000005],[53.3480525,55.8553032],[53.3302552,55.8583942],[53.2717115,55.859568599999996],[53.272147700000005,55.8634278],[53.2590202,55.8639034],[53.25895280000001,55.866570100000004],[53.2700618,55.869868499999995],[53.2572311,55.8677263],[53.240618500000004,55.8721666],[53.24875900000001,55.88443949999999],[53.253080399999995,55.88448739999998],[53.2504172,55.89655870000001],[53.222170200000015,55.8955616],[53.214553800000004,55.899463499999996],[53.2117261,55.9105162],[53.2002238,55.91722149999999],[53.200002500000004,55.92601320000001],[53.217420999999995,55.940412800000004],[53.26363920000001,55.9357741],[53.2838209,55.9404548],[53.287642399999996,55.9452489],[53.316041899999995,55.9384655],[53.31686409999999,55.9440197],[53.29579200000001,55.94778759999999],[53.30559830000001,55.9550742],[53.304788599999995,55.9609668],[53.30944439999999,55.963436],[53.3092581,55.969111100000006],[53.32231650000001,55.979147499999996],[53.32375210000001,55.986043099999996],[53.3267416,55.9875052],[53.3401073,55.98253830000001],[53.340591599999996,55.978751800000005],[53.371463899999995,55.985362900000005],[53.3811513,55.99186739999999],[53.3899925,55.99343590000001],[53.392793700000006,56.000337300000005],[53.3828627,56.0039005],[53.35993,56.005396100000006],[53.3653947,56.0167297],[53.403354,56.007024699999995],[53.4121998,56.0128305],[53.428642,56.012710000000006],[53.4610051,56.022831700000005],[53.4752718,56.0394454],[53.44167169999999,56.049657599999996],[53.440391,56.0650235],[53.4474386,56.0682443],[53.44768649999999,56.072845],[53.45688549999999,56.076852200000005],[53.453980699999995,56.0806086],[53.468953500000005,56.094281099999996],[53.46815060000001,56.09840510000001],[53.480176300000004,56.1018381],[53.4809724,56.105387900000004],[53.4775902,56.107141399999996],[53.48933830000001,56.1147105],[53.49239220000001,56.1184485],[53.4906955,56.12025250000001],[53.498538300000014,56.12711680000001],[53.496858,56.132341100000005],[53.5006082,56.13395190000001],[53.4970021,56.136395400000005],[53.50210510000001,56.1384445],[53.50186099999999,56.130399800000006],[53.504778300000005,56.126640900000005],[53.52371410000001,56.1172366],[53.551724099999994,56.118149100000004],[53.56805230000001,56.12573140000001],[53.5642301,56.1388775],[53.5703914,56.1443099],[53.5806482,56.146272200000006],[53.573761399999995,56.1509345],[53.572228800000005,56.156320300000004],[53.5777041,56.1595691],[53.5787867,56.171163],[53.5741914,56.176301300000006],[53.57482939999999,56.180838200000004],[53.5527478,56.1918861],[53.5598823,56.21563510000001],[53.552415200000006,56.218209200000004],[53.55295590000001,56.21955630000001],[53.5608124,56.2194649],[53.5573419,56.22810470000001],[53.564829499999995,56.2252615],[53.574473999999995,56.231108000000006],[53.57533190000001,56.236980800000005],[53.5541282,56.2425645],[53.560763800000004,56.234509700000004],[53.5434755,56.239256000000005],[53.536636900000005,56.234726300000005],[53.5254945,56.239856],[53.488775000000004,56.23298590000001],[53.48720139999999,56.238924100000006],[53.4761716,56.243397300000005],[53.4715013,56.2510717],[53.4549957,56.2571942],[53.447115700000005,56.271195600000006],[53.4337925,56.27613390000001],[53.4002291,56.263043700000004],[53.3865433,56.26668],[53.3483048,56.2538426],[53.3362286,56.25555500000001],[53.3392252,56.25875570000001],[53.335820999999996,56.2616043],[53.306748,56.25035810000001],[53.29765520000001,56.254480099999995],[53.2732616,56.25351270000001],[53.263329000000006,56.2490778],[53.23825110000001,56.245413500000005],[53.2336041,56.23937820000001],[53.289595500000004,56.2304564],[53.3151148,56.21621090000001],[53.329698900000004,56.1939374],[53.340932800000004,56.183735600000006],[53.3443513,56.172259200000006],[53.3509439,56.16581620000001],[53.363894699999996,56.12935840000001],[53.3471101,56.10933120000001],[53.3703409,56.1024242],[53.38350139999999,56.09031200000001],[53.3640567,56.0896223],[53.363689099999995,56.0754505],[53.3695877,56.072425700000004],[53.353394099999996,56.0709747],[53.3328297,56.06210630000001],[53.313467399999986,56.071621099999994],[53.28816510000001,56.0720284],[53.26335170000001,56.0913047],[53.26317390000001,56.1076177],[53.22493970000001,56.090383900000006],[53.22013420000001,56.09661390000001],[53.2094465,56.098868200000005],[53.2138115,56.104072200000004],[53.204238800000006,56.1064449],[53.193653100000006,56.1034655],[53.1812039,56.1142533],[53.1760217,56.1138013],[53.1744406,56.11914],[53.1791471,56.12311080000001],[53.174750200000005,56.12885570000001],[53.1760456,56.1323875],[53.16692260000001,56.14473290000001],[53.158456900000004,56.14641820000001],[53.1552317,56.158943],[53.1419624,56.1611467],[53.1122001,56.14557280000001],[53.0880018,56.1411796],[53.108369800000006,56.122271700000006],[53.1015085,56.1146822],[53.0641477,56.12980830000001],[53.0596427,56.1492549],[53.088860399999994,56.1749486],[53.084967999999996,56.17851170000001],[53.067098200000004,56.1780661],[53.0613855,56.17373260000001],[53.0626735,56.1695611],[53.0488924,56.16923370000001],[53.0615803,56.177631399999996],[53.04593330000001,56.1832144],[53.04815510000001,56.1970856],[53.0413461,56.19991630000001],[53.0520099,56.2004016],[53.0676924,56.2111575],[53.041467299999994,56.22438390000001],[53.02517110000001,56.217672300000004],[53.0501525,56.20890860000001],[53.0617045,56.212197800000006],[53.047815,56.20279080000001],[53.0173501,56.199643200000004],[53.02635990000001,56.196433400000004],[53.042978600000005,56.1706428],[52.9998663,56.17755230000001],[53.0012113,56.190833600000005],[53.0039575,56.192854700000005],[52.998118900000016,56.196090600000005],[53.00223890000001,56.19643990000001],[53.0028977,56.200057],[53.01368759999999,56.199506500000005],[53.0229647,56.20393130000001],[53.013441799999995,56.2059854],[53.01708399999999,56.2077298],[53.016788,56.21153530000001],[53.010652,56.21599510000001],[53.0065464,56.209493800000004],[53.00331690000001,56.212240300000005],[53.0000269,56.209763200000005],[52.996380300000006,56.2133066],[52.996091,56.2106688],[52.985467299999996,56.208648200000006],[52.987593399999994,56.212101800000006],[52.9837248,56.214578700000004],[52.986974399999994,56.2174595],[52.9743067,56.22373390000001],[52.9763438,56.22759070000001],[52.9738357,56.236830100000006],[52.963382200000005,56.2404472],[52.964152600000006,56.2466098],[52.97219290000001,56.248537000000006],[52.97282439999999,56.256575100000006],[52.965534100000006,56.2560859],[52.968739600000006,56.2798934],[52.980404099999994,56.281353900000006],[52.99213680000001,56.259292800000004],[52.997970200000005,56.2588091],[52.9908021,56.28577990000001],[52.9452726,56.28201260000001],[52.94404099999999,56.2854014],[52.951908499999995,56.29092870000001],[52.9524609,56.29656020000001],[52.9626012,56.29881960000001],[52.95762969999999,56.30145099999999],[52.95798479999999,56.30503230000001],[52.9677226,56.304428099999996],[52.9744538,56.31169469999999],[52.97033220000001,56.31426479999999],[52.976628399999996,56.3159823],[52.9849758,56.3250995],[52.9741956,56.3263376],[52.980660099999994,56.32873250000001],[52.9785984,56.3313984],[52.97366139999999,56.3300066],[52.9677756,56.333716300000006],[52.9636918,56.330910200000005],[52.9627864,56.334326],[52.9587334,56.3344112],[52.963157800000005,56.3357067],[52.9595401,56.341328399999995],[52.965847,56.34382299999999],[52.9693877,56.34046599999999],[52.9724867,56.343606599999994],[52.969579800000005,56.3496173],[52.96411820000001,56.3483471],[52.9618889,56.35445549999999],[52.967685599999996,56.3520137],[52.971433499999996,56.3589349],[52.9916948,56.3683854],[52.98467649999999,56.3711657],[52.9884535,56.3799039],[52.9816521,56.38823],[53.000433,56.392734000000004],[53.00651220000001,56.4246651],[53.0130953,56.42728159999999],[53.003584399999994,56.428049200000004],[53.0037464,56.431871799999996],[53.0104759,56.4319047],[53.0095632,56.438709800000005],[53.014634599999994,56.436945200000004],[53.023759500000004,56.4467285],[53.08835260000001,56.45452939999999],[53.0919317,56.45767609999999],[53.0890597,56.4626696],[53.0897409,56.4726411],[53.098268600000004,56.47676739999999],[53.096039600000005,56.4844983],[53.098824900000004,56.5008693],[53.0902236,56.5015431],[53.087018,56.511085699999995],[53.106140800000006,56.513833399999996],[53.104382900000004,56.5098943],[53.12973660000001,56.5036698],[53.134233200000004,56.5117201],[53.1305817,56.517564899999996],[53.1436637,56.5213534],[53.14482769999999,56.5246978],[53.1064898,56.52838390000001],[53.104043999999995,56.52654330000001],[53.1069243,56.52330260000001],[53.0894953,56.5126566],[53.09319800000001,56.52073030000001],[53.0822767,56.5238238],[53.08219590000001,56.52747290000001],[53.07031930000001,56.53034530000001],[53.069585000000004,56.53323520000001],[53.038542400000004,56.53255860000001],[53.054078499999996,56.53975830000001],[53.049402300000004,56.5410956],[53.0332235,56.5431341],[53.023965800000006,56.5310859],[53.021933600000004,56.530342600000004],[52.983141399999994,56.5345861],[52.98408899999999,56.53657990000001],[52.972016700000005,56.535416100000006],[52.9559939,56.5436561],[52.948265,56.5423715],[52.94548699999999,56.538285300000005],[52.9639578,56.53017210000001],[52.9670361,56.520275600000005],[52.9611097,56.5066596],[52.953859099999995,56.505902400000004],[52.935059200000005,56.490723800000005],[52.919209599999995,56.4919628],[52.920684599999994,56.5000493],[52.889843799999994,56.5004763],[52.8834133,56.5096413],[52.878214,56.50809280000001],[52.88686839999999,56.4906911],[52.896021399999995,56.483822999999994],[52.93553210000001,56.48466939999999],[52.931860699999994,56.4639424],[52.9501222,56.460382200000005],[52.9533481,56.456559],[52.9692354,56.4599668],[52.9639861,56.4284296],[52.943366,56.436432],[52.943248,56.42899030000001],[52.9337564,56.4246737],[52.93805690000001,56.4166409],[52.9240809,56.400795900000006],[52.8950206,56.402916700000006],[52.8855931,56.399027399999994],[52.8724821,56.39951880000001],[52.8705761,56.389022399999995],[52.841941299999995,56.384672599999995],[52.8294004,56.37893390000001],[52.82473890000001,56.38170099999999],[52.8238173,56.390069499999996],[52.8123663,56.397296999999995],[52.777968200000004,56.3978328],[52.7810371,56.3798926],[52.748253500000004,56.3829613],[52.7405765,56.3767174],[52.766034700000006,56.374184899999996],[52.76296200000001,56.35920109999999],[52.73310270000001,56.36181439999999],[52.72731210000001,56.3439055],[52.733244,56.3392668],[52.72512120000001,56.33786069999999],[52.72238190000001,56.3258776],[52.7004996,56.328151500000004],[52.697374800000006,56.3310408],[52.68001220000001,56.31564409999999],[52.69901820000001,56.3096508],[52.693828700000005,56.305342100000004],[52.6779484,56.310971099999996],[52.657025999999995,56.301448099999995],[52.6469995,56.2932849],[52.6585892,56.2816194],[52.65398139999999,56.2742265],[52.639879300000004,56.27033190000001],[52.620556500000006,56.28255920000001],[52.5937892,56.285455000000006],[52.5918681,56.2837604],[52.60253200000001,56.27931680000001],[52.555310000000006,56.2428635],[52.5841011,56.22225820000001],[52.626648700000004,56.22327210000001],[52.637557,56.218905400000004],[52.6521812,56.229228000000006],[52.666589300000005,56.22367520000001],[52.665335100000014,56.221115200000014],[52.737628900000004,56.221247399999996],[52.73608230000001,56.216205900000006],[52.7573403,56.20035680000001],[52.780953700000005,56.2048983],[52.78291660000001,56.19829990000001],[52.84695,56.1874535],[52.84738839999999,56.18315220000001],[52.8414528,56.17876590000001],[52.8275251,56.177576900000005],[52.8359687,56.167340900000006],[52.865692100000004,56.16614870000001],[52.882179300000004,56.15984709999999],[52.88384119999999,56.1563618],[52.87470449999999,56.15031810000001],[52.8378088,56.1376561],[52.8328362,56.125234600000006],[52.818890399999994,56.120532300000015],[52.87093,56.115298900000006],[52.88085639999999,56.118692100000004],[52.883352200000004,56.112703100000004],[52.8768586,56.1084741],[52.8693047,56.09533190000001],[52.8505188,56.0906571],[52.8450426,56.0801278],[52.8020009,56.085745200000005],[52.7878683,56.100431],[52.76359090000001,56.110176200000005],[52.745329500000004,56.1086698],[52.7471254,56.12502680000001],[52.7125476,56.130196700000006],[52.711663699999995,56.125116700000014],[52.72272800000001,56.1190658],[52.724457300000005,56.11391690000001],[52.7134402,56.102675000000005],[52.7448535,56.09579990000001],[52.743117100000006,56.0860925],[52.73209610000001,56.0875547],[52.72862870000001,56.08448969999999],[52.74633530000001,56.068043700000004],[52.75660739999999,56.0627805],[52.74531790000001,56.0571869],[52.747544399999995,56.0379115],[52.74257560000001,56.015824699999996],[52.7540652,56.012974],[52.740159500000004,56.010754],[52.73589220000001,56.006141],[52.745096200000006,55.9968201],[52.7507638,55.9975985],[52.756727399999995,55.9895579],[52.723577500000005,55.9887567],[52.7193948,55.9948693],[52.6992625,55.999127200000004],[52.6763765,55.9943906],[52.6764858,56.001064299999996],[52.668530900000015,56.007757],[52.6456256,56.0164659],[52.628874700000004,56.015860599999996],[52.617869199999994,56.020026],[52.608562500000005,56.030225900000005],[52.6141104,56.032784],[52.5586778,56.0354691],[52.5310948,56.0607636],[52.4999643,56.056767099999995],[52.4696943,56.0736655],[52.4725691,56.077025],[52.456863299999995,56.082721],[52.45706169999999,56.076905000000004],[52.4525549,56.0758831],[52.4500057,56.06830060000001],[52.4378088,56.069076900000006],[52.427004499999995,56.05808439999999],[52.4784285,56.0414723],[52.4870029,56.042990700000004],[52.4994034,56.0328978],[52.464550700000004,56.016007599999995],[52.46331180000001,56.00813860000001],[52.4472531,56.008991800000004],[52.4482869,56.016735700000005],[52.442815100000004,56.02201060000001],[52.415712400000004,56.0360194],[52.4046409,56.031088399999994],[52.406806599999996,56.02804030000001],[52.3972592,56.0273066],[52.39931880000001,56.02585200000001],[52.389605499999995,56.0228671],[52.3913858,56.020213600000005],[52.379718200000006,56.01913590000001],[52.353466899999994,56.03413580000001],[52.343718700000004,56.043821799999996],[52.346227799999994,56.045177],[52.3402178,56.0526521],[52.334981899999995,56.050333],[52.3268898,56.055579],[52.3279698,56.0581496],[52.3403497,56.06037690000001],[52.319793,56.0726176],[52.308961,56.07215990000001],[52.31462559999999,56.06831130000001],[52.3029092,56.0615915],[52.2906854,56.0596051],[52.2776233,56.07233250000001],[52.2678724,56.069554200000006],[52.24637250000001,56.08924739999999],[52.2429845,56.098086200000004],[52.2115221,56.091916000000005],[52.22979850000001,56.0812581],[52.2368774,56.070415700000005],[52.236011600000005,56.064693],[52.254252,56.0497639],[52.24713590000001,56.0428507],[52.261600200000004,56.0365564],[52.25837730000001,56.034022300000004],[52.233786800000004,56.040538000000005],[52.2246852,56.026817],[52.2191965,56.0236544],[52.21897990000001,56.021170500000004],[52.22995270000001,56.020496200000004],[52.229960000000005,56.0187176],[52.2064347,56.02059980000001],[52.2098095,55.9800109],[52.2408379,55.9772023],[52.23891730000001,55.97483149999999],[52.2468262,55.966083999999995],[52.2448092,55.957520699999996],[52.2340406,55.947347799999996],[52.222933900000015,55.95060539999999],[52.17935260000001,55.9503406],[52.178152900000015,55.945398100000006],[52.19867320000001,55.9362336],[52.186300800000005,55.922611200000006],[52.158165100000005,55.9217056],[52.156221599999995,55.9043979],[52.12309930000001,55.905977],[52.088767,55.9009233],[52.06885510000001,55.9024018],[52.0561682,55.9079145],[52.056380999999995,55.91964749999999],[52.0822288,55.925258400000004],[52.06372880000001,55.93207830000001],[52.0658265,55.939024599999996],[52.055277399999994,55.9489049],[52.0332116,55.960919700000005],[52.0370093,55.9717989],[52.02325210000001,55.9694762],[51.9909412,55.9764206],[51.9917372,55.971013],[51.9797256,55.976516000000004],[51.979359300000006,55.9880973],[51.952489299999996,55.98986169999999],[51.9417093,55.961395800000005],[51.9298554,55.9517428],[51.903150800000006,55.945022200000004],[51.884321699999994,55.935590100000006],[51.8665175,55.9422793],[51.861575900000005,55.94788409999999],[51.85473139999999,55.9464037],[51.8425454,55.936216],[51.8129609,55.927019],[51.7809698,55.8865639],[51.7692644,55.891797499999996],[51.76258970000001,55.9220679],[51.781595800000005,55.9360466],[51.781853999999996,55.9391496],[51.7612869,55.940275],[51.750199300000006,55.93724459999999],[51.7480666,55.9412089],[51.72057520000001,55.9325875],[51.71138739999999,55.941682899999996],[51.737503000000004,55.9617035],[51.757614499999995,55.95409139999999],[51.7560147,55.957560799999996],[51.76120280000001,55.9703434],[51.755030600000005,55.972003],[51.7550479,55.977095399999996],[51.74410590000001,55.977363499999996],[51.74277240000001,55.98155739999999],[51.72278420000001,55.9790793],[51.71164739999999,55.973889099999994],[51.715248900000006,55.9675516],[51.70897810000001,55.956300399999996],[51.714610300000004,55.9488147],[51.70845260000001,55.94135],[51.677398600000004,55.9409718],[51.665684399999996,55.9440451],[51.6733944,55.947649899999995],[51.675836100000005,55.9528939],[51.647675,55.971199],[51.619681899999996,55.965074800000004],[51.601780399999996,55.952740399999996],[51.589638300000004,55.954596499999994],[51.577142300000006,55.966002200000005],[51.568071700000004,55.9624766],[51.5706423,55.971082499999994],[51.556819,55.9770398],[51.55402099999999,55.9747533],[51.5593067,55.969162000000004],[51.556888099999995,55.96250920000001],[51.522955300000014,55.951901899999996],[51.5204477,55.951622699999994],[51.52057280000001,55.956728],[51.50673590000001,55.95448509999999],[51.5077567,55.952031399999996],[51.4990687,55.9546351],[51.4998255,55.958756300000005],[51.48707039999999,55.9601048],[51.4856089,55.9581954],[51.4880248,55.9577743],[51.4826473,55.9541581],[51.488842,55.9532439],[51.484960599999994,55.9521633],[51.489578900000005,55.9460377],[51.5022177,55.9426578],[51.51185939999999,55.9366233],[51.5002403,55.936515400000005],[51.5013263,55.9387841],[51.49261200000001,55.94146129999999],[51.48466499999999,55.9488521],[51.483836999999994,55.953416999999995],[51.4701378,55.954518300000004],[51.469925800000006,55.94748539999999],[51.4649779,55.9445653],[51.455673,55.929875700000004],[51.4649891,55.925070700000006],[51.4698592,55.919014399999995],[51.47342939999999,55.911487399999984],[51.470136800000006,55.91762069999999],[51.4552999,55.9232662],[51.4122279,55.9666176],[51.409258,55.974760999999994],[51.41368949999999,55.9910912],[51.403998800000004,56.00731580000001],[51.40595290000001,56.008349800000005],[51.3680887,56.02711490000001],[51.3411288,56.0454713],[51.343266699999994,56.04711220000001],[51.3526993,56.0428442],[51.3685175,56.0294663],[51.4079409,56.0088324],[51.412015800000006,56.0105467],[51.397878399999996,56.0220842],[51.4032176,56.0264477],[51.397544499999995,56.031909399999996],[51.3986772,56.03501880000001],[51.408013700000005,56.0357667],[51.417706599999995,56.0423774],[51.43802,56.0349409],[51.4543889,56.0439043],[51.47468239999999,56.0477178],[51.483175200000005,56.0545201],[51.476590800000004,56.058354800000004],[51.4815592,56.0645174],[51.4898328,56.06807560000001],[51.521653300000004,56.069175400000006],[51.5467852,56.082976800000004],[51.5598102,56.08158339999999],[51.5926675,56.0854801],[51.592637,56.0891605],[51.6150907,56.0862985],[51.6292514,56.0915897],[51.635028000000005,56.09063080000001],[51.645637900000004,56.110942300000005],[51.64364,56.12238630000001],[51.636183800000005,56.1268478],[51.6400298,56.1357444],[51.6213812,56.129988100000006],[51.591476300000004,56.12703690000001],[51.57402449999999,56.1409888],[51.56820030000001,56.1420865],[51.5501124,56.138897300000004],[51.532380200000006,56.122967900000006],[51.526746900000006,56.121948100000004],[51.4440082,56.12737580000001],[51.4337317,56.1460241],[51.4439311,56.14710230000001],[51.4408623,56.161530500000005],[51.427511700000004,56.163769300000006],[51.4396179,56.1745493],[51.4358031,56.182343800000005],[51.4410355,56.19217550000001],[51.4466725,56.195386500000005],[51.49131020000001,56.198849800000005],[51.4988642,56.205728500000006],[51.4859278,56.2191617],[51.468763200000005,56.21509820000001],[51.444549599999995,56.22571180000001],[51.4060743,56.2135219],[51.3925994,56.216506800000005],[51.3785449,56.1994248],[51.35748279999999,56.19838800000001],[51.349729399999994,56.2034047],[51.3520924,56.20846290000001],[51.366811,56.2115312],[51.389323399999995,56.22877920000001],[51.403790900000004,56.286327],[51.3779191,56.287902100000004],[51.3812353,56.303906],[51.34458359999999,56.309378300000006],[51.3458006,56.320586399999996],[51.29342030000001,56.3221476],[51.2919284,56.3067241],[51.286289599999996,56.30747039999999],[51.2860238,56.323433200000004],[51.3036184,56.3513361],[51.2781615,56.349677299999996],[51.2776637,56.356228099999996],[51.2862046,56.3562282],[51.29632060000001,56.36767149999999],[51.277497,56.3740561],[51.277579700000004,56.380109499999996],[51.265141400000005,56.379528900000004],[51.270282,56.3923817],[51.2856636,56.4027886],[51.276707800000004,56.407639399999994],[51.2833415,56.408178500000005],[51.299261900000005,56.421902200000005],[51.2898085,56.4272919],[51.197350400000005,56.433924399999995],[51.186487699999994,56.430441599999995],[51.189390100000004,56.4294465],[51.1866538,56.4276223],[51.1829635,56.43429739999999],[51.1865705,56.4360802],[51.188560200000005,56.4441651],[51.1839995,56.4447456],[51.156551,56.475757800000004],[51.1378935,56.477996399999995],[51.146122500000004,56.5104772],[51.1276926,56.5118283],[51.1307605,56.517135200000006],[51.134574900000004,56.516969499999995],[51.1375595,56.5292419],[51.1465978,56.5349636],[51.159119000000004,56.5343833],[51.1647571,56.5458265],[51.15223580000001,56.5499725],[51.147674599999995,56.5593426],[51.1804232,56.6846373],[51.273959600000005,56.6735272],[51.3932016,56.666895100000005],[51.40514,56.71946739999999],[51.3913736,56.7489873],[51.400826599999995,56.7516409],[51.391372800000006,56.766566700000006],[51.4380576,56.77303520000001],[51.4834147,56.79907310000001],[51.481506499999995,56.8220424],[51.4938609,56.841612],[51.507293999999995,56.8489093],[51.5276096,56.854465299999994],[51.5400479,56.854382599999994],[51.5135124,56.8635865],[51.5108587,56.8685618],[51.513325200000004,56.8794993],[51.5171601,56.882824299999996],[51.52337930000001,56.8813319],[51.529183700000004,56.88460729999999],[51.535734700000006,56.88241],[51.53623210000001,56.8852293],[51.4915784,56.88978939999999],[51.4791395,56.9028908],[51.4768172,56.914997299999996],[51.464628,56.9077001],[51.461892,56.8987445],[51.455258300000004,56.897749399999995],[51.4347765,56.8992417],[51.4273966,56.8959248],[51.4069496,56.90144339999999],[51.4066656,56.9066213],[51.39215430000001,56.9083624],[51.3958854,56.9156596],[51.420098700000004,56.9138357],[51.4254878,56.931000499999996],[51.4303177,56.9354897],[51.424345800000005,56.9419598],[51.416866299999995,56.943631399999994],[51.4102506,56.938647399999994],[51.391533300000006,56.9373257],[51.372114800000006,56.9406803],[51.354935399999995,56.9371196],[51.35308719999999,56.9413869],[51.342485599999996,56.9430607],[51.34789369999999,56.94611890000001],[51.3421898,56.9490429],[51.3425246,56.954010399999994],[51.3491934,56.9640305],[51.34344899999999,56.965571100000005],[51.3422324,56.970801599999994],[51.328549900000006,56.9795911],[51.3220816,56.98763449999999],[51.3064919,56.99617520000001],[51.3121296,57.019393300000004],[51.27896030000001,57.0215491],[51.283105600000006,57.04087],[51.2166432,57.044932800000005],[51.24583090000001,57.0691464],[51.22957780000001,57.076775100000006],[51.235962400000005,57.0830773],[51.23073820000001,57.08498439999999],[51.22576300000001,57.0824966],[51.2198297,57.0860254],[51.22501540000001,57.1116853],[51.23131720000001,57.118402100000004],[51.24317500000001,57.121802100000004],[51.231208200000005,57.12862810000001],[51.245662100000004,57.13531840000001],[51.2402719,57.139464499999995],[51.2073514,57.142780900000005],[51.1942497,57.1409564],[51.20839300000001,57.2000636],[51.1706968,57.2025674],[51.179236100000004,57.241955700000005],[51.1241646,57.2432772],[51.1340831,57.276492100000006],[51.142541,57.2803896],[51.1362384,57.2896768],[51.1541457,57.375418800000006],[51.16301850000001,57.3740921],[51.162935200000014,57.38304769999999],[51.154974499999994,57.38586699999999],[51.16525420000001,57.440761699999996],[51.19021390000001,57.4440789],[51.2167484,57.4590052],[51.22810910000001,57.453283799999994],[51.23631850000001,57.453283899999995],[51.2308457,57.4495524],[51.4004219,57.46821210000001],[51.530113500000006,57.4582632],[51.5379084,57.4536197],[51.54313230000001,57.459009699999996],[51.5900666,57.460751800000004],[51.60834260000001,57.476233900000004],[51.62481030000001,57.478995100000006],[51.624228800000004,57.50237920000001],[51.616019300000005,57.50354],[51.62721320000001,57.5191295],[51.6268809,57.5315679],[51.65109439999999,57.532065800000005],[51.674811,57.5158962],[51.69529290000001,57.5152331],[51.7556597,57.5382034],[51.7672671,57.575104],[51.83571320000001,57.571018300000006],[51.83275810000001,57.5748162],[51.8397621,57.5792943],[51.83335,57.5809867],[51.8364738,57.580968999999996],[51.8354545,57.58407149999999],[51.83884139999999,57.583119700000005],[51.836967099999995,57.584512200000006],[51.8395335,57.5867585],[51.841948099999996,57.5858007],[51.84674759999999,57.5964991],[51.8242006,57.59814280000001],[51.82881570000001,57.59323090000001],[51.8240687,57.58671390000001],[51.7996478,57.5882062],[51.80325439999999,57.600105500000005],[51.8089761,57.59911060000001],[51.8101368,57.604832200000004],[51.851099999999995,57.6191784],[51.8559921,57.62572920000001],[51.84769939999999,57.63534810000001],[51.8543329,57.643225900000004],[51.854912999999996,57.649610900000006],[51.86577580000001,57.651601199999995],[51.8684291,57.655830200000004],[51.860467899999996,57.66893180000001],[51.8686771,57.67216590000001],[51.86830380000001,57.6758975],[51.864323399999996,57.676850900000005],[51.864945,57.683153100000006],[51.8699201,57.690243],[51.88310439999999,57.6975404],[51.8661046,57.7129637],[51.8842229,57.72050990000001],[51.866933200000005,57.724407],[51.8647771,57.7292994],[51.90126239999999,57.74231860000001],[51.9154425,57.73560220000001],[51.926222200000005,57.74182139999999],[51.9199195,57.753762200000004],[51.9302018,57.756747499999996],[51.934431,57.7543428],[51.94811280000001,57.7644596],[51.9549124,57.7646255],[51.94164429999999,57.7743272],[51.94164409999999,57.77863920000001],[51.923483,57.79895490000001],[51.932853200000004,57.803018200000004],[51.927627799999996,57.82897280000001],[51.91065759999999,57.8311657],[51.903584099999996,57.827988],[51.89827290000001,57.83162599999999],[51.8811081,57.8266504],[51.87223530000001,57.8283916],[51.8666788,57.8425713],[51.8401439,57.8359371],[51.8200762,57.84381449999999],[51.847274199999994,57.8571653],[51.849015300000005,57.8623065],[51.8340529,57.870932800000006],[51.85108729999999,57.8866028],[51.836409399999994,57.8976312],[51.838150500000005,57.9030213],[51.8246336,57.913883899999995],[51.839973900000004,57.92275680000001],[51.857553599999996,57.92259120000001],[51.8685817,57.9332882],[51.882429699999996,57.9358591],[51.8918823,57.9485464],[51.8971872,57.99357320000001],[51.924883099999995,58.0007049],[51.897683799999996,58.01231370000001],[51.8722265,58.0130596],[51.864596999999996,58.0246687],[51.847183199999996,58.025580500000004],[51.8246286,58.0173709],[51.81426309999999,58.0216827],[51.8063016,58.0400085],[51.81666649999999,58.050373900000004],[51.829104900000004,58.050871599999994],[51.834245499999994,58.06090520000001],[51.84179149999999,58.0617346],[51.8391376,58.0702756],[51.841873899999996,58.0738413],[51.8312589,58.091337700000004],[51.8307609,58.1002104],[51.799477700000004,58.121359000000005],[51.79029230000001,58.1463976],[51.7840731,58.1466462],[51.77835110000001,58.154358],[51.76715660000001,58.1517043],[51.7670736,58.146635700000004],[51.760757100000006,58.142371100000005],[51.76507250000001,58.1386895],[51.74939220000001,58.135671800000004],[51.722356900000015,58.139328400000004],[51.712889,58.136882],[51.69851160000001,58.148141200000005],[51.6840588,58.148676],[51.6809565,58.151572],[51.6879022,58.15855230000001],[51.6845571,58.166537700000006],[51.6870707,58.1767064],[51.69834070000001,58.1854906],[51.719371900000006,58.19491390000001],[51.72275960000001,58.204153000000005],[51.731456,58.2076628],[51.734636800000004,58.21295590000001],[51.743760800000004,58.2154545],[51.7430406,58.22030570000001],[51.7464772,58.2224615],[51.7430435,58.22971470000001],[51.739420100000004,58.234687799999996],[51.724673800000005,58.2409985],[51.72763080000001,58.244998],[51.72278030000001,58.250284099999995],[51.75798139999999,58.262107500000006],[51.77610230000001,58.27235470000001],[51.77836020000001,58.2773376],[51.8203461,58.285681399999994],[51.8200797,58.2886698],[51.816112000000004,58.28801610000001],[51.8141578,58.2910977],[51.815667899999994,58.2934476],[51.8125885,58.29536160000001],[51.815667899999994,58.29819360000001],[51.81178909999999,58.29970280000001],[51.815519800000004,58.30080749999999],[51.813003099999996,58.3040902],[51.8206422,58.3069992],[51.8088143,58.31740099999999],[51.8125747,58.319826899999995],[51.8099987,58.32166169999999],[51.81728249999999,58.322408100000004],[51.8252493,58.3288809],[51.8234479,58.3345278],[51.810797699999995,58.331211499999995],[51.79554780000001,58.33823280000001],[51.8038083,58.356673699999995],[51.800933,58.35989719999999],[51.7870137,58.3618318],[51.797805700000005,58.3624872],[51.79815940000001,58.3652655],[51.8135943,58.3695947],[51.81798139999999,58.374054699999995],[51.855233,58.3741055],[51.882919,58.392161200000004],[51.9138313,58.420141300000004],[51.916074099999996,58.42575590000001],[51.9647054,58.453088099999995],[52.046336600000004,58.472609399999996],[52.0889651,58.46597280000001],[52.16999080000001,58.488553800000005],[52.1804072,58.489055],[52.218408700000005,58.47389749999999],[52.27093130000001,58.4720211],[52.29697420000001,58.4628882],[52.319951499999995,58.4316963],[52.327857699999996,58.4358071],[52.3594124,58.433756300000006],[52.6276755,58.4113043],[52.6382898,58.4069095],[52.6368803,58.4040901],[52.6566992,58.397042],[52.662835400000006,58.398700500000004],[52.649733100000006,58.40873390000001],[52.84307449999999,58.39287890000001],[52.850254099999994,58.3969892],[52.892691,58.53361820000001],[52.910892399999994,58.536976800000005],[52.927601499999994,58.533162700000005],[53.0341898,58.52830570000001],[53.032841399999995,58.525701700000006],[53.090580800000005,58.52229820000001],[53.09898090000001,58.5458421],[53.1600516,58.54217210000001],[53.1464293,58.5070521],[53.17950880000001,58.50068739999999],[53.1606672,58.450482199999996],[53.24801980000001,58.443735200000006],[53.2136919,58.40136139999999],[53.3736509,58.38428159999999],[53.38127959999999,58.388179],[53.383518200000005,58.3951445],[53.399190600000004,58.395891],[53.4058241,58.4015298],[53.4151945,58.3999545],[53.4184285,58.4011154],[53.4151114,58.4037689],[53.4180136,58.4066712],[53.434929499999996,58.4128906],[53.4234854,58.4294749],[53.4328555,58.4336212],[53.4349286,58.4313823],[53.446206,58.433953],[53.4489426,58.43187999999999],[53.4884135,58.440006999999994],[53.504665599999996,58.4543527],[53.529045,58.45418719999999],[53.534020999999996,58.441582999999994],[53.59621310000001,58.443574],[53.5849367,58.421101900000004],[53.592068100000006,58.418863099999996],[53.62092260000001,58.4742556],[53.62971250000001,58.4730948],[53.6267276,58.4662951],[53.6290495,58.463807499999994],[53.625401000000004,58.4618173],[53.62921580000001,58.45526649999999],[53.635766700000005,58.4561787],[53.63261520000001,58.46413930000001],[53.63634630000001,58.472182800000006],[53.78559930000001,58.4555384],[53.7863114,58.44528699999999],[53.77257520000001,58.4206437],[53.7917314,58.4015978],[53.8128009,58.3916109],[53.817993599999994,58.3839725],[53.8112358,58.37708439999999],[53.8152289,58.372012500000004],[53.8203491,58.3686097],[53.84028139999999,58.3658719],[53.8453869,58.356515800000004],[53.828706700000005,58.3501319],[53.8460026,58.34564739999999],[53.8474199,58.3399595],[53.8559081,58.34219230000001],[53.872165900000006,58.3301971],[53.886680299999995,58.31435999999999],[53.8728951,58.3025665],[53.865734800000006,58.284107399999996],[53.8330437,58.2700212],[53.831076499999995,58.26296080000001],[53.80660149999999,58.24758739999999],[53.7894749,58.2438724],[53.7854626,58.2366074],[53.791500000000006,58.229191400000005],[53.7998897,58.22757680000001],[53.8263898,58.21014580000001],[53.881299299999995,58.20011610000001],[53.908204399999995,58.1796821],[53.8852338,58.164272600000004],[53.9008561,58.15810690000001],[53.9254468,58.1560921],[53.945871499999996,58.146596800000005],[53.944829999999996,58.1379236],[53.9372503,58.1349608],[53.9488802,58.1211515],[53.9465658,58.115100600000005],[53.9364402,58.1062669],[53.947080299999996,58.0848373],[53.958847999999996,58.0774748],[53.9764376,58.0761813],[53.9899368,58.06971290000001],[54.0716021,58.0097484],[54.0801654,58.000336700000005],[54.078950400000004,57.9919346],[54.1364685,57.9579789],[54.11893190000001,57.9471924],[54.10261530000001,57.92971610000001],[54.102383800000005,57.92559920000001],[54.0856622,57.9184088],[54.09295260000001,57.9013797],[54.13059520000001,57.875984599999995],[54.1382679,57.87382639999999],[54.1290843,57.862891499999996],[54.1418525,57.8556733],[54.1324911,57.8429513],[54.141674699999996,57.839308800000005],[54.142296800000004,57.8343412],[54.13157280000001,57.83087139999999],[54.1308618,57.8275905],[54.136520100000006,57.82673870000001],[54.131513500000004,57.8199708],[54.13714220000001,57.8152373],[54.119574,57.809494799999996],[54.1431856,57.7909444],[54.150177,57.78993380000001],[54.15207290000001,57.7809005],[54.1499696,57.7806951],[54.155539000000005,57.774661099999996],[54.138682700000004,57.7566793],[54.1392455,57.752269399999996],[54.134505600000004,57.747511100000004],[54.135364700000004,57.739321100000005],[54.124759100000006,57.73933690000001],[54.12452210000001,57.744886699999995],[54.1116527,57.7411496],[54.1375273,57.72352070000001],[54.1327844,57.7180095],[54.155005800000005,57.714359900000005],[54.153524499999996,57.711084299999996],[54.1485476,57.7106887],[54.1483495,57.7071614],[54.155339000000005,57.70543030000001],[54.153117200000004,57.7019432],[54.14214690000001,57.700286],[54.12923240000001,57.700978600000006],[54.12000990000001,57.706049300000004],[54.110244099999996,57.7044879],[54.1043655,57.7003575],[54.1113087,57.69570720000001],[54.0841375,57.6898688],[54.088111500000004,57.686243],[54.0560548,57.6805838],[54.0636795,57.645236800000006],[54.0556479,57.6475853],[54.0507886,57.6466657],[54.050386399999994,57.6434213],[54.09826580000001,57.6356291],[54.126740700000006,57.615644399999994],[54.103148600000004,57.6067447],[54.088364399999996,57.612969],[54.075931100000005,57.6069869],[54.05187839999999,57.6058001],[54.051923599999995,57.6008585],[54.059279399999994,57.594556000000004],[54.040194,57.5867154],[54.02212910000001,57.588065300000004],[54.0138101,57.59681260000001],[53.98605,57.5869748],[54.0000205,57.5813762],[54.0020465,57.57691620000001],[53.99531840000001,57.5760435],[53.9918371,57.5593371],[54.0054911,57.55911890000001],[54.0089272,57.5626839],[54.0244801,57.5565965],[54.033703300000006,57.5622716],[54.0308549,57.5639691],[54.04391270000001,57.5703637],[54.0446361,57.5664114],[54.0565597,57.56065890000001],[54.058109200000004,57.5448728],[54.044726499999996,57.544242],[54.0543566,57.5315745],[54.051643899999995,57.52805500000001],[54.0394367,57.53164739999999],[54.033107,57.53011820000001],[54.031841099999994,57.5238797],[54.0599177,57.5145078],[54.0639415,57.52936580000001],[54.07913270000001,57.5311619],[54.088491499999996,57.5268171],[54.1070284,57.528856100000006],[54.113674499999995,57.5356276],[54.12655990000001,57.5311862],[54.142203200000004,57.53237550000001],[54.1730954,57.521943900000004],[54.16901670000001,57.512820999999995],[54.1704401,57.501629699999995],[54.143876,57.48394749999999],[54.1748913,57.479742800000004],[54.1838432,57.474322300000004],[54.1796385,57.471964199999995],[54.188590500000004,57.46812280000001],[54.2738249,57.461266499999994],[54.2736554,57.4550345],[54.27721580000001,57.4508387],[54.27325270000001,57.4406587],[54.278459100000006,57.4384004],[54.2871624,57.4400428],[54.29247480000001,57.4325295],[54.2811718,57.4263534],[54.2366947,57.4139373],[54.232200000000006,57.4161738],[54.2184245,57.4107332],[54.20679080000001,57.3996977],[54.1549161,57.401067299999994],[54.145026,57.39444439999999],[54.14643890000001,57.3910563],[54.1427654,57.3868303],[54.1198769,57.377805599999995],[54.14917890000001,57.37182459999999],[54.12333810000001,57.3457826],[54.127582000000004,57.3291413],[54.140045900000004,57.3240238],[54.14227280000001,57.316530900000004],[54.1842082,57.3163982],[54.1854698,57.31163139999999],[54.2046682,57.29975170000001],[54.2168343,57.30637],[54.31116899999999,57.30604339999999],[54.3050909,57.2840454],[54.3249702,57.2811904],[54.3268311,57.26674520000001],[54.299060100000005,57.2474068],[54.297993500000004,57.240007],[54.3217982,57.2288611],[54.3167132,57.2268376],[54.321345,57.22267240000001],[54.3407021,57.2232884],[54.34028339999999,57.217143],[54.335142100000006,57.214435300000005],[54.339702200000005,57.212367],[54.3307203,57.20930380000001],[54.331969199999996,57.2128861],[54.3294602,57.2146161],[54.3286608,57.209096],[54.3343517,57.20578810000001],[54.31128469999999,57.196511400000006],[54.3057018,57.185247],[54.34784119999999,57.158411300000004],[54.3386417,57.1510587],[54.3244752,57.1489941],[54.3207241,57.140603],[54.3306231,57.1312167],[54.3211737,57.1178963],[54.316646899999995,57.118540900000006],[54.3233686,57.111614499999995],[54.3070957,57.11030890000001],[54.297162500000006,57.1130283],[54.29571050000001,57.10853110000001],[54.315459399999995,57.09133270000001],[54.3116329,57.085368],[54.3138033,57.07991870000001],[54.3456281,57.077829599999994],[54.3449727,57.069855800000006],[54.3695177,57.06935790000001],[54.393497399999994,57.058145200000006],[54.38996169999999,57.052373200000005],[54.3939869,57.040053300000004],[54.436131,57.0310043],[54.408701,57.0169236],[54.4007221,57.005454300000004],[54.3630098,56.98182359999999],[54.341431299999996,56.9732185],[54.300287899999994,56.970251499999996],[54.2585217,56.9789298],[54.2282865,56.9916371],[54.22121210000001,56.9918769],[54.179872100000004,56.98633830000001],[54.154217499999994,56.978818200000006],[54.1468973,56.9686975],[54.151228999999994,56.9587754],[54.1456936,56.9447057],[54.149965,56.9248608],[54.147327,56.9165727],[54.1236826,56.892039200000006],[54.107619,56.88754959999999],[54.099931500000004,56.8901215],[54.103018000000006,56.8611713],[54.0868562,56.8345317],[54.0864712,56.81208099999999],[54.07915800000001,56.81186779999999],[54.06254680000001,56.79595680000001],[54.0594305,56.7896742],[54.0612749,56.77825070000001],[54.032529800000006,56.7579268],[54.020411900000006,56.753196200000005],[53.990412500000005,56.750668399999995],[53.95785789999999,56.7550014],[53.9386425,56.762706400000006],[53.936134200000005,56.7648585],[53.9395833,56.76679820000001],[53.931067299999995,56.77275420000001],[53.9173713,56.7722836],[53.8791145,56.808505700000005],[53.8243377,56.820930000000004],[53.8058992,56.8195402],[53.7974371,56.80897280000001],[53.794068200000005,56.79911030000002],[53.8318733,56.7974461],[53.8230994,56.79317420000001],[53.8232031,56.7876972],[53.8067852,56.77960890000001],[53.8271597,56.759525000000004],[53.8540539,56.758561],[53.84960699999999,56.71819180000001],[53.885946999999994,56.717607199999996],[53.88494909999999,56.67890830000001],[53.9017052,56.6790685],[53.884968199999996,56.66253260000001],[53.85100439999999,56.6542173],[53.852982399999995,56.64632580000001],[53.8452399,56.64337390000001],[53.853014099999996,56.6320574],[53.86411580000001,56.628766000000006],[53.8652461,56.62037170000001],[53.85156949999999,56.621708700000006],[53.847556999999995,56.62904580000001],[53.8388537,56.62568830000001],[53.8410198,56.5967205],[53.86488349999999,56.58881290000001],[53.87668059999999,56.597965],[53.8917701,56.5945114],[53.902225300000005,56.5977472],[53.8979867,56.593702400000005],[53.9008689,56.59339130000001],[53.91494109999999,56.59877390000001],[53.9580619,56.600298300000006],[54.010261099999994,56.619946],[54.033290900000004,56.6347515],[54.0759905,56.63893330000001],[54.0824093,56.6354011],[54.0797547,56.62806380000001],[54.0640543,56.6245466],[54.0509518,56.60357930000001],[54.0335735,56.5890727],[54.0335735,56.5796969],[54.0416182,56.5790772],[54.0549928,56.5924094],[54.0702806,56.5777208],[54.0845041,56.58367139999999],[54.096748600000005,56.576160300000005],[54.1032812,56.5791685],[54.10852570000001,56.5726482],[54.1037285,56.56874030000001],[54.1097414,56.5616681],[54.1079598,56.541972200000004],[54.1238294,56.53617260000001],[54.1396174,56.535810100000006],[54.14126639999999,56.53214580000001],[54.191302500000006,56.5344633],[54.19038890000001,56.506258700000004],[54.2058978,56.49870560000001],[54.2060904,56.492546100000006],[54.2158831,56.4919995],[54.211380999999996,56.488018200000006],[54.211918100000005,56.47852880000001],[54.218731500000004,56.46935570000001],[54.2440863,56.458165300000005],[54.32879500000001,56.482894699999996],[54.3316161,56.47391530000001],[54.3286345,56.4717571],[54.3295991,56.4640907],[54.344629299999994,56.4562459],[54.3399562,56.44724299999999],[54.3436131,56.438741],[54.3384556,56.4305651],[54.34228439999999,56.4175378],[54.3489577,56.4113721],[54.3467998,56.4015291],[54.356477899999994,56.3961899],[54.354164899999994,56.3935204],[54.3639888,56.3915141],[54.370077499999994,56.3825621],[54.377579,56.3787016]],[[52.230094900000005,56.0571754],[52.22382,56.059153200000004],[52.22555750000001,56.064627599999994],[52.22211530000002,56.073613300000005],[52.20635510000001,56.07273330000001],[52.2094194,56.066819],[52.213636,56.066164900000004],[52.2117795,56.06277530000001],[52.2006661,56.0675617],[52.19817920000001,56.0632013],[52.208909000000006,56.056147599999996],[52.201249499999996,56.0477869],[52.20433260000001,56.04496399999999],[52.21681,56.055944499999995],[52.22419890000001,56.05290290000001],[52.2262854,56.0509531],[52.22431950000001,56.0483691],[52.226854700000004,56.0475117],[52.2274464,56.052060999999995],[52.22231020000002,56.0562622],[52.230094900000005,56.0571754]],[[53.0795376,56.191385600000004],[53.071859999999994,56.19861980000001],[53.062706500000004,56.19345230000001],[53.062854300000005,56.190794800000006],[53.072598600000006,56.188211200000005],[53.0795376,56.191385600000004]],[[53.09053680000001,56.1910905],[53.0968114,56.1947077],[53.090167,56.20821660000001],[53.0835233,56.2044517],[53.0878789,56.20061320000001],[53.082416300000006,56.1975865],[53.09053680000001,56.1910905]]]]}}