{"type":"Feature","properties":{"regionId":"volgogradskaya_oblast","name":"Волгоградская область","name:en":"Volgograd Oblast","timezone":"Europe/Volgograd","name_ru":"Волгоградская область","name_en":"Volgograd Oblast","name_zh":"伏尔加格勒州"},"geometry":{"type":"Polygon","coordinates":[[[47.4314503,50.3779161],[47.27217610000001,50.379065399999995],[47.2720915,50.3713981],[47.235211500000005,50.371187199999994],[47.236830000000005,50.4295364],[47.2045777,50.4298806],[47.205614100000005,50.5092213],[47.03815210000001,50.5096792],[47.0386413,50.489145900000004],[46.9124195,50.4896723],[46.9166558,50.523000200000006],[46.8707692,50.5237475],[46.87076749999999,50.5772154],[46.8031806,50.5756861],[46.79912430000001,50.578459300000006],[46.8078763,50.580977],[46.8029065,50.584155800000005],[46.810690099999995,50.585316000000006],[46.8079311,50.59007210000001],[46.8140338,50.591788900000005],[46.809283199999996,50.59691560000001],[46.81680099999999,50.600619],[46.8134108,50.6072326],[46.8511799,50.62347880000001],[46.85658239999999,50.641038900000005],[46.775423800000006,50.64272630000001],[46.7421044,50.658709900000005],[46.72753270000001,50.7036859],[46.72108,50.70595410000001],[46.72265420000001,50.70881190000001],[46.718491300000004,50.7114924],[46.7162174,50.708479600000004],[46.718981,50.704979300000005],[46.7008949,50.69972820000001],[46.697753000000006,50.693941800000005],[46.6869468,50.697543700000004],[46.6799681,50.6893264],[46.6464243,50.68257220000001],[46.6218854,50.682009],[46.61186709999999,50.686173700000005],[46.583387599999995,50.7122882],[46.570893399999996,50.699906000000006],[46.568079600000004,50.690450600000005],[46.5684964,50.6148387],[46.5603872,50.615293],[46.565817,50.621569],[46.5588513,50.622755900000016],[46.553261799999994,50.621946300000005],[46.552774,50.6173809],[46.5465918,50.613258300000005],[46.5382855,50.6444355],[46.519471499999995,50.641972700000004],[46.5270741,50.6234847],[46.5105775,50.624560900000006],[46.5019957,50.62170030000001],[46.50188659999999,50.6188856],[46.4915594,50.6175936],[46.49025030000001,50.6208236],[46.4978503,50.6250684],[46.491632200000005,50.634687099999994],[46.472323200000005,50.62739830000001],[46.4583596,50.617155200000006],[46.4589778,50.6122635],[46.465559600000006,50.6106252],[46.4610868,50.598485800000006],[46.442396,50.5844038],[46.45054139999999,50.58234890000001],[46.4481778,50.568446800000004],[46.454606899999995,50.5563612],[46.4604832,50.55297890000001],[46.4673777,50.5578721],[46.474795900000004,50.553436399999995],[46.481923099999996,50.557132800000005],[46.493014,50.557132800000005],[46.495777600000004,50.5529512],[46.4839595,50.5493699],[46.484213999999994,50.5471055],[46.4075682,50.54895570000001],[46.387419099999995,50.5557092],[46.345207699999996,50.555483499999994],[46.344306599999996,50.5736063],[46.275642700000006,50.57293000000001],[46.27841300000001,50.5276966],[46.0614602,50.52616630000001],[46.0613207,50.531841299999996],[46.0671898,50.5315066],[46.06505270000001,50.607238900000006],[46.0911491,50.617277699999995],[46.0915978,50.665004800000006],[46.0340777,50.66511660000001],[46.03554030000001,50.6871791],[45.987475499999995,50.688529200000005],[45.9830851,50.6994479],[45.9664256,50.70057330000001],[45.952805,50.713067699999996],[45.8930324,50.7499878],[45.8422659,50.75617820000001],[45.7442228,50.7573025],[45.72283610000001,50.7458207],[45.71563230000001,50.737716000000006],[45.685917,50.6915644],[45.6786011,50.6670254],[45.707632600000004,50.5860256],[45.7057415,50.582495800000004],[45.6843449,50.5756236],[45.6410078,50.57708639999999],[45.60611260000001,50.590593600000005],[45.5669404,50.59014280000001],[45.553432900000004,50.5866531],[45.559737,50.571457099999996],[45.5516327,50.5609885],[45.5526459,50.55648599999999],[45.5338257,50.5511342],[45.531525200000004,50.5574399],[45.521240399999996,50.562789200000005],[45.51482399999999,50.572357000000004],[45.496700800000006,50.5853016],[45.4899463,50.603874499999996],[45.4588786,50.6074762],[45.42713570000001,50.60635010000001],[45.402934200000004,50.613328700000004],[45.3951674,50.6095015],[45.385037399999995,50.58991520000001],[45.19255350000001,50.585635200000006],[45.2009941,50.6346006],[45.21855320000001,50.6590272],[45.20650880000001,50.662741600000004],[45.2206916,50.668707700000006],[45.2160764,50.672985000000004],[45.23419830000001,50.6989875],[45.193380600000005,50.69753120000001],[45.187849299999996,50.701092700000004],[45.19711100000001,50.70201360000001],[45.19361230000001,50.708587900000005],[45.185179700000006,50.7103345],[45.19415430000001,50.71551210000001],[45.209948000000004,50.701555000000006],[45.278660300000006,50.718574200000006],[45.28552500000001,50.76911550000001],[45.312539,50.8086258],[45.3261574,50.8608556],[45.318615300000005,50.869860599999996],[45.3213166,50.8779652],[45.309384599999994,50.8839309],[45.31197339999999,50.8898969],[45.301729599999994,50.905768200000004],[45.30488109999999,50.913985399999994],[45.26739690000001,50.9256916],[45.2464603,50.91792439999999],[45.2238344,50.9353715],[45.250624699999996,50.933458200000004],[45.2578287,50.9340212],[45.2574909,50.93706039999999],[45.24736,50.942688399999994],[45.2173848,50.9495403],[45.203797,50.9679021],[45.2182047,50.9803969],[45.201207,50.997393800000005],[45.20221930000001,51.020469399999996],[45.2166271,51.0294747],[45.22022880000001,51.0399432],[45.18859820000001,51.0444453],[45.1482997,51.0649314],[45.0948239,51.0774522],[45.083624699999994,51.07740739999999],[45.0726839,51.093014100000005],[45.0775279,51.09973830000001],[45.0707091,51.1063866],[45.07184099999999,51.1149011],[45.068490100000005,51.1191861],[45.045751900000006,51.12875370000001],[45.0445136,51.1326934],[45.03291970000001,51.1279656],[44.99397200000001,51.1467632],[44.981703399999994,51.12053570000001],[44.953562399999996,51.12244890000001],[44.939154800000004,51.106577200000004],[44.899194300000005,51.1154692],[44.894916800000004,51.118058100000006],[44.8933406,51.128301400000005],[44.8966173,51.162866],[44.876939300000004,51.16513530000002],[44.86469699999999,51.1712777],[44.856620199999995,51.16501900000001],[44.8485251,51.16880080000001],[44.85156899999999,51.163904800000005],[44.8428186,51.1590793],[44.83486659999999,51.1589534],[44.824859599999996,51.164570100000006],[44.821980499999995,51.163084399999995],[44.822325600000006,51.157558],[44.8102222,51.1608735],[44.79479990000001,51.15501090000001],[44.7891515,51.14854390000001],[44.76591750000001,51.153626499999994],[44.760402000000006,51.1495741],[44.7418289,51.1522754],[44.643897499999994,51.178614],[44.63219130000001,51.16859560000001],[44.615644499999995,51.1666818],[44.6140687,51.1619541],[44.630053800000006,51.133926],[44.6271274,51.1260465],[44.607879,51.12503310000001],[44.5934441,51.1193605],[44.571332000000005,51.123383600000004],[44.550358300000006,51.1438305],[44.548106700000005,51.1530607],[44.5165879,51.17951280000001],[44.507694699999995,51.198873600000006],[44.4993648,51.20517710000001],[44.4849566,51.20630250000001],[44.477414599999996,51.2113678],[44.455127,51.2108047],[44.454451899999995,51.203488],[44.4498369,51.198985400000005],[44.4509628,51.1914436],[44.423272600000004,51.17917380000001],[44.40154749999999,51.18851630000001],[44.38792719999999,51.19054220000001],[44.37464469999999,51.1890787],[44.350331399999995,51.17557070000001],[44.3436902,51.1747827],[44.314986299999994,51.1770336],[44.3004653,51.1858134],[44.28279280000001,51.184799999999996],[44.282567300000004,51.19560620000001],[44.22335870000001,51.1976315],[44.2134534,51.18851370000001],[44.210864699999995,51.1817598],[44.215367900000004,51.164650200000004],[44.208051700000006,51.1500168],[44.209965700000005,51.139998600000006],[44.214918600000004,51.1361715],[44.215256600000004,51.128629800000006],[44.2098536,51.12615330000001],[44.204338500000006,51.11185759999999],[44.1874543,51.100601],[44.1849781,51.0932843],[44.1298215,51.1064535],[44.14028939999999,51.1190608],[44.1169885,51.12491380000001],[44.09897920000001,51.0999244],[44.0940265,51.0977856],[44.077592,51.1022879],[44.0585687,51.10273790000001],[44.054741899999996,51.09271970000001],[44.05789399999999,51.084727699999995],[44.051365399999995,51.0803376],[44.0508029,51.072233000000004],[44.018499399999996,51.072217800000004],[44.0191695,51.159131900000006],[44.001609599999995,51.158793900000006],[43.998683,51.15462899999999],[43.975157200000005,51.1553041],[43.9679534,51.14877530000001],[43.9587232,51.147086699999996],[43.939812200000006,51.1564292],[43.9225897,51.161719500000004],[43.916286199999995,51.16059380000001],[43.8822937,51.110952700000006],[43.848525,51.09992090000001],[43.8217344,51.1115146],[43.8101403,51.1128652],[43.8056376,51.117818],[43.79134200000001,51.1178178],[43.78706439999999,51.1207444],[43.753295300000005,51.121306700000005],[43.7374241,51.113652200000004],[43.6940873,51.1083611],[43.67371280000001,51.12153080000001],[43.66493290000001,51.1190542],[43.661218500000004,51.114101399999996],[43.6799042,51.1098242],[43.6817054,51.104533700000005],[43.67168739999999,51.099468200000004],[43.6745015,51.09800490000001],[43.69093580000001,51.09991880000001],[43.6862084,51.0922644],[43.675627399999996,51.0912511],[43.6876719,51.08708639999999],[43.6865463,51.0839346],[43.6815935,51.08449739999999],[43.6886852,51.0802201],[43.6849707,51.076055100000005],[43.68553380000001,51.067838],[43.681256399999995,51.06851330000001],[43.6819319,51.06423590000001],[43.66437220000001,51.057031599999995],[43.6526657,51.05342939999999],[43.5614889,51.06063220000001],[43.5271574,51.04836230000001],[43.511848699999994,51.0505008],[43.4330549,51.027536700000006],[43.42112290000001,51.0341778],[43.39242,51.011552],[43.35707539999999,50.998831800000005],[43.3242063,51.013014399999996],[43.26274490000001,51.0615286],[43.182935400000005,51.1139822],[43.13835990000001,51.122649],[42.94935520000001,51.2014629],[42.855340399999996,51.2447279],[42.7500203,51.2363615],[42.70839180000001,51.2476078],[42.6776053,51.2374775],[42.6478993,51.21873190000001],[42.59552490000001,51.1530823],[42.5530006,51.14473530000001],[42.4346852,51.145239700000005],[42.4227614,51.160901100000004],[42.29399420000001,51.1370026],[42.2131216,51.139225700000004],[42.174742900000005,51.135876100000004],[42.087336,51.1479658],[42.0364762,51.1672366],[42.02732820000001,51.1672364],[42.0245625,51.170723900000006],[42.016061799999996,51.1703414],[42.00815430000001,51.1740355],[42.0031904,51.1713446],[42.0004012,51.1744272],[41.9841586,51.1769642],[41.978234,51.1872583],[41.9752142,51.1877],[41.9773457,51.19010270000001],[41.9666354,51.19509510000001],[41.943345,51.19674010000001],[41.9280966,51.194125400000004],[41.85781539999999,51.1589833],[41.8200002,51.11841020000001],[41.796408500000005,51.0801208],[41.7878097,51.0463067],[41.792401500000004,51.0411068],[41.787881199999994,51.0336823],[41.7772255,51.0324699],[41.7654841,51.02229620000001],[41.773659800000004,51.020443],[41.77642590000001,51.0184165],[41.7743804,51.016145],[41.7577171,51.011979],[41.750759300000006,51.006208300000004],[41.733290600000004,51.002976700000005],[41.7093074,51.005878900000006],[41.68611490000001,50.99551300000001],[41.6128902,50.98348729999999],[41.5373225,50.9586536],[41.5338489,50.94848139999999],[41.52520330000001,50.9462118],[41.509193100000005,50.954785199999996],[41.471845699999996,50.9498182],[41.4561986,50.9386298],[41.4539796,50.93291130000001],[41.4364761,50.923503800000006],[41.4285696,50.9153294],[41.427223,50.89895430000001],[41.418472300000005,50.889863299999995],[41.420273900000005,50.8750867],[41.4249066,50.867290499999996],[41.420534200000006,50.832276],[41.39279990000001,50.8424072],[41.3557829,50.827006499999996],[41.320598800000006,50.8195145],[41.16810480000001,50.77451330000001],[41.205859000000004,50.76901970000001],[41.20517840000001,50.76677870000001],[41.275197000000006,50.749463999999996],[41.3466781,50.711608999999996],[41.44782299999999,50.6062207],[41.517340499999996,50.60897330000001],[41.539096900000004,50.574381499999994],[41.4877907,50.5637314],[41.420479,50.498892700000006],[41.49639390000001,50.419944699999995],[41.52217650000001,50.36257200000001],[41.417573399999995,50.24280280000001],[41.3821541,50.227209900000005],[41.4564579,50.13119520000001],[41.484698099999996,50.1026779],[41.4937672,50.081220599999995],[41.50861220000001,50.0848959],[41.5162601,50.0752297],[41.574624699999994,50.0610496],[41.6108025,50.041515600000004],[41.60017870000001,50.0333264],[41.59673300000001,50.0225044],[41.592494200000004,50.0202905],[41.591010600000004,50.0085604],[41.583373900000005,50.003015100000006],[41.58058449999999,49.993838800000006],[41.5764831,49.992399500000005],[41.6173673,49.9595742],[41.72212840000001,49.9439587],[41.7513891,49.9184765],[41.81388559999999,49.9123016],[41.83972,49.9187717],[41.8777304,49.907267899999994],[41.92079390000001,49.85007399999999],[41.9907832,49.83158949999999],[42.064703200000004,49.7701744],[42.136251,49.7328635],[42.167568900000006,49.7040994],[42.184355000000004,49.6756661],[42.1304995,49.595312600000014],[42.124337800000006,49.59271410000001],[42.118557900000006,49.553812300000004],[42.103262300000004,49.5169626],[42.08148239999999,49.51253020000001],[42.07918230000001,49.5037965],[42.0811316,49.501015300000006],[42.071474599999995,49.4886206],[42.07200590000001,49.484254799999995],[42.0804742,49.4803251],[42.0679986,49.475179000000004],[42.0599462,49.4666298],[42.0644639,49.4647134],[42.06126939999999,49.4527095],[42.0637645,49.4501166],[42.06021080000001,49.4477203],[42.0636511,49.443590900000004],[42.05531880000001,49.437483799999995],[42.060563900000005,49.4360072],[42.0597797,49.432092600000004],[42.0521626,49.4234286],[42.0528628,49.4202956],[42.0443003,49.4188161],[42.0494735,49.4156683],[42.0455044,49.41257830000001],[42.0468423,49.41038759999999],[42.0370757,49.4069491],[42.0394839,49.405585300000006],[42.03852020000001,49.3962105],[42.0454883,49.38705449999999],[42.0373443,49.38705449999999],[42.0416558,49.384191099999995],[42.0414381,49.37908769999999],[42.03468769999999,49.3747493],[42.037431399999996,49.3719703],[42.0322924,49.371233],[42.0376927,49.3674328],[42.0326408,49.359462799999996],[42.0277195,49.35869699999999],[42.03311980000001,49.3537327],[42.02650010000001,49.3487679],[42.0307245,49.3464982],[42.029997900000005,49.3422033],[42.052165200000005,49.34186869999999],[42.0524372,49.3440058],[42.0780869,49.3409717],[42.0713495,49.31178749999999],[42.0859278,49.3117191],[42.1015714,49.3170763],[42.0756608,49.2867036],[42.10642,49.272291200000005],[42.085353700000006,49.257316700000004],[42.0680837,49.267256800000006],[42.046860499999994,49.213056300000005],[42.0473441,49.2098901],[42.09870320000001,49.19538270000001],[42.08146159999999,49.1705473],[42.075842300000005,49.1723634],[42.06530530000001,49.160161800000004],[42.05088149999999,49.152178500000005],[42.032236700000006,49.147432900000005],[42.02111220000001,49.1338348],[42.05322139999999,49.1276574],[42.05830220000001,49.12981010000001],[42.062463,49.1260664],[42.0669074,49.1300885],[42.0858218,49.12951430000001],[42.090542400000004,49.1319472],[42.09867230000001,49.127050800000006],[42.1035895,49.1317998],[42.108914500000004,49.1272044],[42.189282999999996,49.12234550000001],[42.339804199999996,49.1392641],[42.3592329,49.12875380000001],[42.358301,49.1178363],[42.3646537,49.1044013],[42.38140919999999,49.1092621],[42.382729499999996,49.1066787],[42.38719749999999,49.06218200000001],[42.359594699999995,49.0607806],[42.350432999999995,49.050401099999995],[42.394139900000006,49.011921099999995],[42.3880479,49.008740800000005],[42.405956200000006,49.006746],[42.4031238,49.0030756],[42.4060643,48.9996377],[42.4165135,49.0033426],[42.4307897,48.9999212],[42.4382238,49.007332000000005],[42.4481618,49.006237],[42.4656116,49.0102858],[42.4755884,49.003040999999996],[42.4837795,49.004505300000005],[42.4886126,49.0101457],[42.500368200000004,49.0101486],[42.506885399999994,49.003569],[42.506927,49.0059894],[42.5133567,49.0033831],[42.5143057,48.99890130000001],[42.530525100000006,48.99231410000001],[42.538946,48.986249799999996],[42.53923230000001,48.9827635],[42.54601830000001,48.9813802],[42.54601830000001,48.9779166],[42.563079800000004,48.9700778],[42.626991600000004,48.9617417],[42.6524652,48.953650499999995],[42.6619049,48.94535990000001],[42.67517360000001,48.9415502],[42.6825672,48.93590590000001],[42.6814906,48.8751371],[42.730259700000005,48.844013],[42.74780739999999,48.822528600000005],[42.74506830000001,48.77425590000001],[42.6654636,48.724617300000006],[42.6579632,48.700576000000005],[42.67255890000001,48.6710919],[42.670157700000004,48.66032510000001],[42.678977200000006,48.6552898],[42.6868609,48.643239300000005],[42.695794400000004,48.64012280000001],[42.6948505,48.63233410000001],[42.708659000000004,48.613181399999995],[42.70211480000001,48.613077],[42.704482,48.5865981],[42.6826961,48.588119000000006],[42.6732211,48.5848539],[42.66253060000001,48.5905964],[42.65811550000001,48.5837054],[42.645431300000006,48.5766592],[42.6412565,48.5691849],[42.6409564,48.56564590000001],[42.647941599999996,48.5616551],[42.6476141,48.5588741],[42.628896100000006,48.5575196],[42.6210378,48.5511262],[42.625512700000016,48.5457977],[42.62202010000001,48.5429074],[42.6067946,48.5467912],[42.608158900000014,48.55748349999999],[42.59899090000001,48.5573029],[42.595623800000006,48.553837099999996],[42.597452000000004,48.546503900000005],[42.588556800000006,48.54162649999999],[42.5706385,48.536917300000006],[42.5733041,48.5435956],[42.56035620000001,48.542506100000004],[42.542894,48.52879200000001],[42.52515920000001,48.52057080000001],[42.504981099999995,48.524545200000006],[42.4890462,48.5155955],[42.49050870000001,48.521379],[42.487605499999994,48.52265130000001],[42.4803366,48.514626699999994],[42.4669791,48.5135284],[42.460539600000004,48.5054879],[42.45139339999999,48.50635570000001],[42.455017,48.5145262],[42.45211380000001,48.5167963],[42.4466785,48.51610230000001],[42.4371175,48.5032173],[42.43115830000001,48.504041599999994],[42.435087499999995,48.50917570000001],[42.430525300000006,48.5134561],[42.40406899999999,48.5044755],[42.402541,48.507122100000004],[42.4115781,48.51368749999999],[42.400227199999996,48.5190808],[42.38758839999999,48.512458300000006],[42.3931984,48.5099711],[42.3911465,48.5034487],[42.3802758,48.5052854],[42.3668731,48.4970266],[42.362682,48.4973448],[42.351745799999996,48.512530600000005],[42.34644149999999,48.502985800000005],[42.3336063,48.50221930000001],[42.3391944,48.511243699999994],[42.3339773,48.51462739999999],[42.32277930000001,48.5107809],[42.3183699,48.515914300000006],[42.311253799999996,48.5151881],[42.277304300000004,48.506578100000006],[42.22061680000001,48.481454799999995],[42.2122494,48.4661838],[42.085691,48.415705800000005],[42.1246999,48.368584],[42.1810062,48.27691550000001],[42.06279250000001,48.2656478],[42.0630657,48.23413520000001],[42.088672700000004,48.23379370000001],[42.12905020000001,48.1408977],[42.080752100000005,48.136120000000005],[42.0744722,48.12053510000001],[42.031610300000004,48.106160300000006],[42.0400376,48.101917300000004],[42.0341784,48.09610890000001],[42.020522500000006,48.0915854],[42.01960699999999,48.088566],[42.0245564,48.0802331],[42.02209130000001,48.073323300000006],[42.03036530000001,48.073090900000004],[42.02999630000001,48.0554949],[42.017706499999996,48.0476252],[42.02425590000001,48.0370257],[42.0380649,48.0341778],[42.03241920000001,48.02973630000001],[42.0244907,48.0300707],[42.01813130000001,48.023923800000006],[42.037859499999996,48.02585620000001],[42.0428211,48.023154500000004],[42.0479363,48.027030800000006],[42.0545883,48.0120967],[42.06115260000001,48.014152800000005],[42.069736500000005,48.02255250000001],[42.0790889,48.016693399999994],[42.083655300000004,48.02153930000001],[42.091888,48.018176600000004],[42.09768139999999,48.0239604],[42.094424399999994,48.0270018],[42.1133235,48.021611],[42.117906399999995,48.0170588],[42.132149000000005,48.02508],[42.1460622,48.022840800000004],[42.150398100000004,48.015076300000004],[42.159838300000004,48.0144154],[42.1626374,48.010780499999996],[42.1572038,48.007457499999994],[42.1586034,48.0054012],[42.17303810000001,48.0079349],[42.183106900000006,48.0172508],[42.216126100000004,48.0326913],[42.338383900000004,48.0272681],[42.352163399999995,48.0374379],[42.35251280000001,48.0449927],[42.3613661,48.0452264],[42.3678119,48.0504959],[42.369831,48.0469656],[42.3643172,48.04021590000001],[42.3728409,48.02953020000001],[42.3710141,48.0232636],[42.3831993,48.02295010000001],[42.3852902,48.0210573],[42.3805135,48.0185856],[42.381000199999995,48.014510200000004],[42.3916202,48.009329900000004],[42.446935800000006,48.023456200000005],[42.525201700000004,48.01864449999999],[42.5471517,47.97184549999999],[42.5643498,47.961392700000005],[42.629609800000004,47.9088362],[42.72017350000001,47.8758699],[42.7590732,47.76117230000001],[42.79271780000001,47.7129034],[42.8033833,47.7098573],[42.846395,47.6717268],[42.843234599999995,47.6442164],[42.850987999999994,47.644135500000004],[42.8687656,47.633160000000004],[42.92554320000001,47.5190578],[42.924990300000005,47.507355700000005],[42.986591,47.5054972],[42.996582700000005,47.5079175],[43.01142779999999,47.5171227],[43.02817250000001,47.534308200000005],[43.0526243,47.5437146],[43.0535979,47.550586599999995],[43.0498527,47.55361739999999],[43.1643564,47.55366359999999],[43.168446,47.5474331],[43.1719488,47.5479771],[43.16999860000001,47.545483999999995],[43.172744,47.5439397],[43.145394800000005,47.52861580000001],[43.155897599999996,47.52055090000001],[43.160029300000005,47.503774],[43.1534501,47.4860458],[43.154979399999995,47.4835346],[43.1501062,47.476387599999995],[43.1527662,47.47414439999999],[43.1522039,47.4679565],[43.1946114,47.456157399999995],[43.251113000000004,47.447352200000005],[43.314577099999994,47.447568999999994],[43.40211330000001,47.4700621],[43.587169499999995,47.485708800000005],[43.64031990000001,47.461116000000004],[43.6567441,47.443765],[43.663206100000004,47.453860799999994],[43.6736899,47.4495457],[43.67509570000001,47.453292499999996],[43.6866747,47.450155200000005],[43.688910500000006,47.453814799999996],[43.6867574,47.45642469999999],[43.690087,47.4559442],[43.69391370000001,47.4606532],[43.687804899999996,47.4665174],[43.6942012,47.4674742],[43.69091670000001,47.4722396],[43.69916680000001,47.470501],[43.6998817,47.4658891],[43.7056616,47.465647],[43.707555500000005,47.46971390000001],[43.7140599,47.46873320000001],[43.709154100000006,47.472703100000004],[43.711218,47.4742256],[43.6675966,47.5488881],[43.7168348,47.7190015],[43.752131000000006,47.73312060000001],[43.781057,47.733121000000004],[43.8061947,47.7458626],[43.871449899999995,47.760843],[43.9458313,47.753095900000005],[44.0302116,47.8233847],[44.0137318,47.83993230000001],[44.0825899,47.899435100000005],[44.15728139999999,47.8875026],[44.152960900000004,47.874477299999995],[44.1677544,47.87494039999999],[44.1713888,47.8841531],[44.3590569,47.85164979999999],[44.392011800000006,47.889482799999996],[44.392937100000005,47.9183434],[44.42323520000001,47.9556725],[44.4238565,48.04236280000001],[44.32513240000001,48.0413284],[44.3264088,48.23879680000001],[44.381122,48.250449499999995],[44.382408999999996,48.2336044],[44.4372921,48.229747],[44.435766900000004,48.2062304],[44.47801880000001,48.2019976],[44.504619999999996,48.1848439],[44.544156900000004,48.188073200000005],[44.54106049999999,48.050486799999995],[44.580116800000006,48.0509221],[44.5917095,48.0542583],[44.6489871,48.0538463],[44.66295690000001,48.0579929],[44.6630614,48.0863317],[44.80976739999999,48.0506324],[44.9256618,48.1202484],[44.9143743,48.171373100000004],[44.9374737,48.19473210000001],[44.909748300000004,48.2193895],[44.9835538,48.293085700000006],[44.9917608,48.3592003],[45.02585320000001,48.35765539999999],[45.02587090000001,48.3830553],[45.0210661,48.3833286],[45.01468459999999,48.424901399999996],[45.052945900000005,48.42670880000001],[45.07993530000001,48.45158909999999],[45.069501300000006,48.45466649999999],[45.0640547,48.46215210000001],[45.129471900000006,48.47291270000001],[45.19021890000001,48.46932820000001],[45.1895314,48.481747899999995],[45.1799216,48.483574399999995],[45.183145200000006,48.484219499999995],[45.1822848,48.49219250000001],[45.1854833,48.493692],[45.174435900000006,48.512157200000004],[45.213009,48.5140683],[45.221217900000006,48.509393700000004],[45.2160146,48.5059604],[45.2036955,48.5110507],[45.2134078,48.4938791],[45.20010190000001,48.48587139999999],[45.2438715,48.4838135],[45.2704618,48.470939300000005],[45.2866407,48.4559324],[45.30343,48.4477736],[45.3294482,48.44968119999999],[45.3320065,48.4334561],[45.3399711,48.4320297],[45.345049599999996,48.438300600000005],[45.34176649999999,48.448275200000005],[45.3471143,48.456833499999995],[45.383961299999996,48.4735114],[45.3969827,48.485530600000004],[45.4175708,48.49255480000001],[45.37398449999999,48.5017516],[45.361160399999996,48.4980045],[45.3557224,48.50015090000001],[45.339827199999995,48.491338000000006],[45.345893399999994,48.487529599999995],[45.348310700000006,48.4804727],[45.324356200000004,48.4831821],[45.3239749,48.4882433],[45.3185454,48.4906371],[45.318006,48.4992056],[45.3268966,48.5139691],[45.3158198,48.51591620000001],[45.31308189999999,48.520531000000005],[45.308393200000005,48.5152154],[45.310999599999995,48.5106177],[45.3051434,48.509827599999994],[45.3056889,48.507207799999996],[45.2871005,48.5163991],[45.269617000000004,48.5157698],[45.26607490000001,48.522291800000005],[45.2434211,48.5177253],[45.240998700000006,48.5128886],[45.230754700000006,48.513441799999995],[45.2315801,48.5161737],[45.224340500000004,48.52253610000001],[45.2268696,48.52296330000001],[45.2210626,48.5258096],[45.223094200000006,48.5278699],[45.22085280000001,48.5275649],[45.21859270000001,48.528391000000006],[45.223679100000005,48.529775400000005],[45.22361970000001,48.533253],[45.215103500000005,48.5310736],[45.2006881,48.535035400000005],[45.2006744,48.5401855],[45.2048408,48.5401463],[45.218205000000005,48.5512112],[45.212717500000004,48.5543923],[45.2245494,48.558085999999996],[45.247539700000004,48.5537685],[45.2518139,48.558012000000005],[45.2442457,48.5613496],[45.24605280000001,48.5670258],[45.260839000000004,48.56645],[45.267749300000006,48.56315530000001],[45.302731800000004,48.5731471],[45.300227299999996,48.567487799999995],[45.305775700000005,48.5611648],[45.3034232,48.5573959],[45.310695499999994,48.5590388],[45.31183749999999,48.5547137],[45.3147829,48.55788069999999],[45.320370700000005,48.5574562],[45.3228375,48.553330700000004],[45.327530800000005,48.554207899999994],[45.32843510000001,48.5496124],[45.3388418,48.5540119],[45.335367,48.557259699999996],[45.33784849999999,48.558331700000004],[45.33368659999999,48.5597298],[45.3422208,48.5612731],[45.343725,48.556117],[45.34420969999999,48.5602317],[45.3480307,48.5582764],[45.347374699999996,48.5525417],[45.3541068,48.5555893],[45.3616755,48.549032600000004],[45.36124099999999,48.55288739999999],[45.368658100000005,48.5583448],[45.38478369999999,48.5619439],[45.3813389,48.56431290000001],[45.381657999999995,48.569736600000006],[45.3862173,48.5740311],[45.390351800000005,48.572228700000004],[45.3887778,48.5760869],[45.393195000000006,48.57339290000001],[45.3892752,48.5705145],[45.3936054,48.566722600000006],[45.3992979,48.570019],[45.4159057,48.56855800000001],[45.4192263,48.572909900000006],[45.4232931,48.570992000000004],[45.422099800000005,48.5738663],[45.4268261,48.5754065],[45.4249454,48.5777598],[45.4326736,48.5805768],[45.431751399999996,48.586604599999994],[45.4353604,48.59043090000001],[45.4456251,48.5854997],[45.4467997,48.579048900000004],[45.4499873,48.57857570000001],[45.4521633,48.581207899999995],[45.448845399999996,48.582045],[45.45463999999999,48.584743499999995],[45.4523499,48.5872518],[45.4588172,48.58666339999999],[45.46235810000001,48.582736100000005],[45.466792000000005,48.58533080000001],[45.469818200000006,48.583373300000005],[45.469570000000004,48.588255100000005],[45.4780446,48.586927499999994],[45.4972967,48.575903100000005],[45.507084199999994,48.5749762],[45.51798109999999,48.5898452],[45.52041090000001,48.587601799999995],[45.525178900000014,48.593091300000005],[45.5336776,48.5908316],[45.5325891,48.594906800000004],[45.5400063,48.59519050000001],[45.558536100000005,48.585733000000005],[45.5704232,48.6060463],[45.6040293,48.6027045],[45.6852245,48.6453074],[45.71271690000001,48.6509819],[45.73961930000001,48.651628699999996],[45.7478823,48.66110820000001],[45.8059219,48.682751700000004],[45.8609035,48.7212],[45.878832700000004,48.728350100000014],[45.8864553,48.744297599999996],[45.93211840000001,48.78639880000001],[45.943353,48.805352600000006],[45.9454252,48.8431042],[45.985481799999995,48.84304099999999],[46.017229199999996,48.861627999999996],[46.03835350000001,48.8635655],[46.32428949999999,48.837387699999994],[46.3082005,48.8212387],[46.4279618,48.7597371],[46.4368903,48.76210780000001],[46.621673900000005,48.66806570000001],[46.779164900000005,48.951413699999996],[46.791675000000005,48.95194419999999],[46.892574700000004,48.9821145],[46.971915300000006,49.0274277],[47.028677800000004,49.0892954],[47.0511394,49.16559180000001],[46.996121200000005,49.23238190000001],[46.9145209,49.282839100000004],[46.8379988,49.3191285],[46.7820865,49.339827099999994],[46.805845399999995,49.4292962],[46.829259,49.565653000000005],[46.8388661,49.565780200000006],[46.8371482,49.606619],[46.8442733,49.6065618],[46.85776799999999,49.6436007],[46.87008899999999,49.7428934],[46.902472100000004,49.863851499999996],[46.929577800000004,49.8747541],[46.9573539,49.87139739999999],[47.182360100000004,49.9350266],[47.35264539999999,50.09403590000001],[47.316773,50.152365100000004],[47.2572963,50.1917514],[47.3349741,50.238014500000006],[47.3006527,50.26315510000001],[47.2914612,50.28270220000001],[47.3001348,50.3033031],[47.3049256,50.30358939999999],[47.3065711,50.309077499999994],[47.324945,50.317366799999995],[47.3398778,50.3319562],[47.3470587,50.3280945],[47.348930100000004,50.330372700000005],[47.3654462,50.3290426],[47.37364339999999,50.33292230000001],[47.3777256,50.328493900000005],[47.3830569,50.32810490000001],[47.39109739999999,50.333699499999994],[47.406683199999996,50.336373200000004],[47.405513600000006,50.339029399999994],[47.41136169999999,50.3433173],[47.4187495,50.3650576],[47.4314503,50.3779161]]]}}