{"type":"Feature","id":337422,"properties":{"name":"Санкт-Петербург","name:en":"Saint Petersburg","timezone":"Europe/Moscow","name_ru":"Санкт-Петербург","name_en":"Saint Petersburg","name_zh":"圣彼得堡市","parentRegionId":"leningradskaya_oblast","sourceSubjectId":"sankt_peterburg","sourceTopologySha256":"ac697adf68124f8e72221288896e32d4c9995764997966342d9075b36be0d56e"},"geometry":{"type":"MultiPolygon","coordinates":[[[[30.082712999999995,59.6760822],[30.073311,59.6673744],[30.0650571,59.66830270000001],[30.065325999999995,59.676377300000006],[30.065168999999997,59.677983999999995],[30.072826199999998,59.679745100000005],[30.083951700000004,59.680294599999996],[30.082712999999995,59.6760822]]],[[[30.7596912,59.754174],[30.7595844,59.7537014],[30.758958400000004,59.7533472],[30.757953100000005,59.7530575],[30.756629699999998,59.75295290000001],[30.752528899999998,59.752978000000006],[30.7506626,59.75271220000001],[30.749305999999997,59.7519386],[30.748589399999997,59.7510747],[30.748563799999996,59.7496047],[30.749459599999998,59.748650500000004],[30.750432299999996,59.74810220000001],[30.7532774,59.74670220000001],[30.754691100000002,59.7456714],[30.756471700000002,59.744523300000004],[30.7570118,59.74375080000001],[30.754919400000002,59.7438425],[30.737604,59.74488769999999],[30.7030548,59.7452845],[30.6957389,59.7437475],[30.6801346,59.72998260000001],[30.6829839,59.724917600000005],[30.6503336,59.7218822],[30.6481705,59.72127290000001],[30.647761700000004,59.72202870000001],[30.645745199999997,59.72375360000001],[30.6434745,59.725469700000005],[30.643258900000003,59.72541550000001],[30.642885400000004,59.72559760000001],[30.640637199999997,59.72743870000001],[30.6406179,59.72753430000001],[30.640361400000003,59.727721],[30.629978400000006,59.73581070000001],[30.625049399999998,59.735712200000016],[30.6222404,59.73561500000001],[30.621879500000002,59.73577010000001],[30.621683400000002,59.7356946],[30.621315000000003,59.73587820000001],[30.620114,59.73551780000001],[30.619853400000007,59.7354615],[30.619560000000003,59.73539380000001],[30.6181166,59.735394500000005],[30.617904600000006,59.735515800000016],[30.616631100000003,59.73549220000001],[30.616969000000005,59.733493],[30.617337900000003,59.7308609],[30.612181200000002,59.73073680000001],[30.6088205,59.730661399999995],[30.607027100000003,59.7306065],[30.605898300000003,59.730453000000004],[30.600916700000003,59.72955110000001],[30.598393899999998,59.72927610000001],[30.591350000000002,59.72912390000001],[30.588573599999997,59.72983250000001],[30.5842417,59.7296846],[30.583876,59.7295644],[30.582225599999997,59.72957920000001],[30.5765094,59.7300175],[30.572618799999997,59.72194220000001],[30.572609599999996,59.72127390000001],[30.5644955,59.7049977],[30.5306883,59.7073255],[30.5300412,59.7044448],[30.5244966,59.704278],[30.5247256,59.70278510000001],[30.5244797,59.7022467],[30.524432799999996,59.700380700000004],[30.5241288,59.700085800000004],[30.5220991,59.699466],[30.520811400000003,59.697760900000006],[30.5200889,59.69721560000001],[30.5195897,59.6964977],[30.5202453,59.69612970000001],[30.5222673,59.6958894],[30.5228606,59.695139300000015],[30.5232746,59.69357780000001],[30.522299399999998,59.69217360000001],[30.520540799999996,59.690944200000004],[30.514129,59.6904176],[30.498722899999994,59.6892396],[30.487950400000003,59.68841590000001],[30.486057,59.68488549999999],[30.4849903,59.6843859],[30.477120499999998,59.6806997],[30.4899821,59.66997630000001],[30.4909695,59.669994200000005],[30.492166799999996,59.6700254],[30.4934037,59.670068900000004],[30.4945877,59.6700947],[30.498322699999996,59.670160800000005],[30.501904200000002,59.670247399999994],[30.502416699999998,59.6648019],[30.505539499999994,59.646171900000006],[30.505415,59.6461516],[30.5051481,59.646136600000006],[30.504976100000004,59.6461606],[30.504851500000004,59.64611870000001],[30.504548999999997,59.6460407],[30.503789799999996,59.6459448],[30.503143199999997,59.645836900000006],[30.5021527,59.6456061],[30.501345999999998,59.64536330000001],[30.500420599999998,59.64513850000001],[30.499791899999998,59.644964599999994],[30.498848799999998,59.644694799999996],[30.498320799999995,59.6445479],[30.497876,59.644476],[30.4972769,59.644455],[30.4967549,59.6445],[30.496262599999998,59.644524],[30.495633799999993,59.64446699999999],[30.494720299999997,59.6443561],[30.4939848,59.6442332],[30.493231499999997,59.6440563],[30.492531599999996,59.6439394],[30.492282499999995,59.6438555],[30.491831700000002,59.6437566],[30.4913749,59.6436097],[30.4910843,59.643495800000004],[30.490496999999998,59.64331890000001],[30.489933499999996,59.643276900000004],[30.489619199999993,59.64325290000001],[30.489316599999995,59.643217],[30.4890557,59.643223],[30.488770899999995,59.643214],[30.488587099999997,59.643121],[30.488498099999997,59.642971200000005],[30.488527699999995,59.64271930000001],[30.488628599999995,59.642452500000005],[30.488764999999997,59.64230860000001],[30.488842099999996,59.642104800000006],[30.488854,59.6419519],[30.488824299999997,59.6419039],[30.488729399999993,59.641873999999994],[30.488438799999994,59.64184099999999],[30.488112499999993,59.641828999999994],[30.487424499999996,59.6417091],[30.4868906,59.6416191],[30.486599999999996,59.6415652],[30.486416099999996,59.6414962],[30.486178799999998,59.641415300000006],[30.485864499999998,59.64128939999999],[30.485793299999994,59.6411724],[30.485638999999992,59.6410555],[30.485526299999993,59.6409236],[30.485490799999994,59.640818700000004],[30.485532299999992,59.6407018],[30.485638999999992,59.640551900000006],[30.485745799999993,59.640417],[30.4858051,59.640303],[30.485828899999998,59.640198100000006],[30.48579919999999,59.6400542],[30.485615299999996,59.6397274],[30.485455199999997,59.639508600000006],[30.485324699999996,59.6394036],[30.485200099999997,59.63932270000001],[30.4849806,59.6392627],[30.484796799999994,59.63923270000001],[30.484523899999996,59.63923870000001],[30.484037499999996,59.6392897],[30.4837587,59.63931070000001],[30.483503699999996,59.639301700000004],[30.483236699999996,59.6392747],[30.483017299999997,59.6392297],[30.4828512,59.639160800000006],[30.48273259999999,59.63905590000001],[30.482661399999998,59.63891490000001],[30.482625799999994,59.63871110000001],[30.482619899999992,59.63857020000001],[30.482590199999994,59.638423200000005],[30.482572399999995,59.6382434],[30.482471599999997,59.638177400000004],[30.482216499999993,59.6380245],[30.481931799999998,59.6378986],[30.481652999999998,59.6377996],[30.481249699999996,59.63771270000001],[30.480697999999997,59.6376287],[30.480324299999996,59.6375837],[30.4799388,59.637562800000005],[30.4796837,59.637559800000005],[30.4793634,59.637595700000006],[30.479209199999996,59.6376437],[30.4790668,59.6377097],[30.478942299999996,59.6378056],[30.478770199999996,59.637889599999994],[30.478313499999995,59.6380994],[30.478052499999997,59.6382284],[30.4778093,59.63830930000001],[30.477145,59.63861510000001],[30.476741599999997,59.638801],[30.476545899999998,59.63892690000001],[30.4764154,59.6390678],[30.476332299999996,59.63919380000001],[30.476148499999997,59.639304700000004],[30.475822199999996,59.6394486],[30.475436699999996,59.6395745],[30.475145999999995,59.6396225],[30.474885000000004,59.6396315],[30.474629999999998,59.6395655],[30.4743512,59.6394966],[30.474078300000002,59.6394996],[30.473858900000003,59.63953550000001],[30.473680899999998,59.6395865],[30.473419899999996,59.6396465],[30.4732183,59.6396705],[30.473022499999995,59.63971540000001],[30.4728564,59.6398264],[30.472702199999993,59.639898300000006],[30.4725717,59.63998230000001],[30.4724887,59.6400422],[30.472304799999996,59.6400602],[30.472031899999998,59.6400692],[30.471765,59.6400452],[30.471509899999997,59.63997930000001],[30.4712252,59.6398713],[30.4710058,59.6398443],[30.470804100000002,59.639778400000004],[30.470720999999998,59.6397514],[30.470649899999994,59.639784399999996],[30.470548999999995,59.6398863],[30.470365100000002,59.639991200000004],[30.470139699999997,59.64010520000001],[30.4699084,59.6401771],[30.469718599999997,59.6401861],[30.469593999999997,59.64013820000001],[30.4694754,59.6400572],[30.469392399999997,59.63997030000001],[30.469362699999998,59.63983830000001],[30.469350799999997,59.639733400000004],[30.469297499999996,59.6396705],[30.469042399999996,59.6396225],[30.468727999999995,59.6396015],[30.468372099999996,59.6395805],[30.468069599999996,59.63953550000001],[30.467778999999997,59.639484599999996],[30.467613199999995,59.6394517],[30.4372029,59.66295810000001],[30.429792499999994,59.66270930000001],[30.4238956,59.66251140000001],[30.4241006,59.6624636],[30.4240533,59.66240390000001],[30.4239823,59.66236800000001],[30.4238562,59.66236800000001],[30.423816799999997,59.66232420000001],[30.4238877,59.662256500000005],[30.4239902,59.66220080000001],[30.4240533,59.662081300000004],[30.4240612,59.6619817],[30.424037499999997,59.6618822],[30.423935,59.6617906],[30.423942899999997,59.6616711],[30.423958000000002,59.6615881],[30.423998400000002,59.6614576],[30.424049699999998,59.6613964],[30.423963,59.6613605],[30.423978700000003,59.6613048],[30.424049699999998,59.661245],[30.4240576,59.6611654],[30.4240655,59.6610897],[30.4242231,59.6610618],[30.4242783,59.66099810000001],[30.4241207,59.660922500000005],[30.4240576,59.66083880000001],[30.4239709,59.6607472],[30.423947199999997,59.66059990000001],[30.423836799999997,59.66050030000001],[30.4236555,59.66035690000001],[30.4236555,59.66027330000001],[30.423529299999995,59.6602494],[30.4235214,59.660169800000006],[30.423456199999997,59.660082100000004],[30.423310899999997,59.660020200000005],[30.4231688,59.659932100000006],[30.4231171,59.6598929],[30.423101,59.6598391],[30.4230913,59.6597689],[30.423052499999997,59.65971510000001],[30.423020199999996,59.6596727],[30.422975100000002,59.6595916],[30.422999599999997,59.6595216],[30.422852799999998,59.6595175],[30.422795799999996,59.6594763],[30.422861,59.6593898],[30.4228855,59.6592992],[30.4228936,59.659212700000005],[30.422852799999998,59.659159200000005],[30.422812099999998,59.65911800000001],[30.422852799999998,59.659060399999994],[30.422836499999995,59.658990300000006],[30.422746899999993,59.6589615],[30.4226653,59.658936800000006],[30.4226653,59.658870900000004],[30.422661999999995,59.658788300000005],[30.422558499999997,59.6587545],[30.422538399999997,59.658725800000006],[30.422568499999997,59.6586938],[30.422561799999997,59.6586432],[30.422568499999997,59.658585800000004],[30.422521699999997,59.6585234],[30.422528399999997,59.65841880000001],[30.422525099999998,59.658339500000004],[30.422575199999997,59.658294],[30.422528399999997,59.6582316],[30.422441599999996,59.6581691],[30.422411499999995,59.658086499999996],[30.422411499999995,59.6579853],[30.422408199999996,59.65788239999999],[30.422384799999996,59.657826699999994],[30.422257899999998,59.657792900000004],[30.422281299999998,59.6577086],[30.422277899999997,59.657624199999994],[30.422231199999995,59.657523],[30.422234499999995,59.6574859],[30.422134399999997,59.6573898],[30.4221644,59.6572919],[30.4221844,59.6571856],[30.422124299999997,59.6570659],[30.421997400000002,59.6569916],[30.4218371,59.657022],[30.4217937,59.656964599999995],[30.4218639,59.656881999999996],[30.4217804,59.656807699999995],[30.421713599999997,59.656752100000006],[30.421700199999997,59.6566525],[30.421666799999997,59.6565985],[30.421529899999996,59.65651590000001],[30.421379599999998,59.656404499999994],[30.421306199999997,59.65633030000001],[30.421229399999998,59.6562173],[30.4210824,59.6561194],[30.4209522,59.6560452],[30.420517999999998,59.6557972],[30.420244199999996,59.655674],[30.4200104,59.655598100000006],[30.419739899999996,59.65551380000001],[30.419636399999998,59.655466499999996],[30.419593,59.655426],[30.4195663,59.6553855],[30.4195963,59.655353500000004],[30.4196331,59.65533490000001],[30.419603,59.655307900000004],[30.419532899999997,59.655286],[30.419329199999996,59.655232000000005],[30.4192156,59.655211800000004],[30.419165600000003,59.6552269],[30.4191088,59.655205],[30.4190487,59.655205],[30.4189952,59.6551612],[30.4188383,59.655110500000006],[30.4186747,59.655038000000005],[30.4185544,59.654955300000005],[30.4184876,59.65486419999999],[30.4183641,59.654816999999994],[30.4183207,59.65476639999999],[30.418213799999997,59.65469039999999],[30.4180936,59.654597599999995],[30.417966700000004,59.6545184],[30.4178298,59.65446099999999],[30.4176528,59.6544357],[30.4175593,59.6544458],[30.4174825,59.65446609999999],[30.417429,59.654440699999995],[30.417378900000003,59.654401899999996],[30.4173188,59.654353],[30.417215300000002,59.654329399999995],[30.417178600000003,59.6543007],[30.4172888,59.6542737],[30.4173389,59.654175900000006],[30.4172921,59.6540088],[30.417188600000003,59.653961599999995],[30.4171418,59.6539262],[30.417108400000004,59.6538924],[30.416961500000003,59.6538469],[30.416854600000004,59.6537743],[30.4165107,59.653608999999996],[30.4163838,59.6534926],[30.4161867,59.6534099],[30.4160799,59.65331200000001],[30.415993,59.653227699999995],[30.4158394,59.653155100000006],[30.415722599999995,59.6531247],[30.415739199999994,59.652952600000006],[30.4154821,59.6529847],[30.415341899999998,59.652851399999996],[30.415278400000002,59.6527772],[30.4151749,59.6527012],[30.4150346,59.6527012],[30.414961200000004,59.65266749999999],[30.4149478,59.652616900000005],[30.414951100000007,59.6525966],[30.414830900000002,59.6525848],[30.4147842,59.65253080000001],[30.4147073,59.6524397],[30.414684,59.652409399999996],[30.414258400000005,59.6517516],[30.413831300000002,59.6518562],[30.4132441,59.6511785],[30.411901700000005,59.6517656],[30.4105956,59.6506863],[30.407563,59.6495245],[30.4063701,59.649450200000004],[30.405043099999997,59.6502567],[30.4043171,59.6505248],[30.4032678,59.6509095],[30.4028841,59.6506556],[30.4015849,59.651138800000005],[30.400648499999996,59.6504336],[30.39971,59.6507886],[30.3964096,59.651634599999994],[30.395214,59.6516333],[30.3937696,59.6508579],[30.3934775,59.650840499999994],[30.391560400000003,59.6496687],[30.3876562,59.6484406],[30.387668100000003,59.64832220000001],[30.3868937,59.64803190000001],[30.385603899999996,59.6475485],[30.382300199999996,59.648779600000005],[30.382080199999997,59.6486517],[30.3817283,59.648779600000005],[30.382014199999997,59.648924],[30.380343599999996,59.64953230000001],[30.3789306,59.6497067],[30.3666685,59.650193900000005],[30.36665,59.6502962],[30.366636999999997,59.650368],[30.357705400000004,59.6531871],[30.351858900000007,59.65554830000001],[30.351921800000003,59.6582311],[30.345614199999996,59.65786729999999],[30.3452701,59.657693599999995],[30.3264973,59.65686099999999],[30.3065058,59.66209570000001],[30.303429199999997,59.659762900000004],[30.3030245,59.659684899999995],[30.300974400000005,59.6586255],[30.300529799999996,59.6583461],[30.258701999999996,59.6362493],[30.254172,59.6337832],[30.246618299999998,59.6372718],[30.246277199999998,59.637104900000004],[30.245934499999997,59.63713630000001],[30.242921999999997,59.6386297],[30.252500299999998,59.644395900000006],[30.255306599999997,59.64557920000001],[30.261342599999995,59.648567],[30.261542299999995,59.648656200000005],[30.2531561,59.6526419],[30.252512499999995,59.6527547],[30.2491701,59.65302139999999],[30.247801900000002,59.6532035],[30.246680199999997,59.6532901],[30.2453579,59.6533883],[30.2440742,59.6542163],[30.243978000000002,59.6551078],[30.242452999999998,59.6581478],[30.242373199999996,59.658795100000006],[30.242388599999998,59.660675100000006],[30.243040999999998,59.6608818],[30.243041899999998,59.66099520000001],[30.243052499999997,59.6610257],[30.242742699999994,59.66105580000001],[30.242803,59.66130080000001],[30.241818600000002,59.6614925],[30.2417563,59.661405800000004],[30.2416658,59.661279900000004],[30.238629999999997,59.6617833],[30.2398892,59.662989],[30.242512599999994,59.66590570000001],[30.243931,59.6670849],[30.2464101,59.668913300000014],[30.2495753,59.6710209],[30.248787699999998,59.6712288],[30.242398299999998,59.670791],[30.2358382,59.672438400000004],[30.2352796,59.672875600000005],[30.2295891,59.67339810000001],[30.228438799999996,59.6711842],[30.228202399999997,59.670729200000004],[30.227528,59.669431100000004],[30.2225707,59.6706401],[30.2182227,59.673068900000004],[30.219950300000004,59.6743075],[30.226496799999996,59.681468499999994],[30.2289885,59.68413880000001],[30.232861100000004,59.6850545],[30.2364564,59.6860293],[30.231664600000002,59.689384499999996],[30.237057200000002,59.691771],[30.2355964,59.692666300000006],[30.240504199999997,59.69490890000001],[30.240447099999997,59.695312500000014],[30.239904300000003,59.695471000000005],[30.247736399999997,59.699361100000004],[30.2518439,59.700904300000005],[30.2556184,59.7017245],[30.258613399999998,59.7048526],[30.260012699999997,59.7075413],[30.2619073,59.70851130000001],[30.267487499999998,59.7136987],[30.2679052,59.7139634],[30.268241899999996,59.7140767],[30.269524399999998,59.7166565],[30.2758706,59.71520830000001],[30.279439199999995,59.7186687],[30.277526499999997,59.71910020000001],[30.275742299999994,59.71950280000001],[30.2713218,59.72050010000001],[30.2713679,59.72055600000001],[30.271632899999997,59.72087690000001],[30.272731499999995,59.72220780000001],[30.2723752,59.72228210000001],[30.272506999999997,59.72324530000001],[30.280509199999994,59.7276656],[30.283581299999998,59.7292077],[30.282657199999996,59.731502600000006],[30.2795051,59.73932890000001],[30.2920714,59.73614620000001],[30.2920691,59.736829],[30.293434199999997,59.7401679],[30.293907100000002,59.7408573],[30.300720899999998,59.7473867],[30.2505848,59.765601100000005],[30.289850100000002,59.79040210000001],[30.289764299999998,59.79191360000001],[30.283841999999996,59.79523870000001],[30.2813961,59.79514400000001],[30.277147199999998,59.794979600000005],[30.2701091,59.794461399999996],[30.2704527,59.78979590000001],[30.223877100000003,59.796643100000004],[30.2213258,59.7970266],[30.2185861,59.797183100000005],[30.2151958,59.7974205],[30.2113161,59.797691300000004],[30.2113935,59.79753710000001],[30.210887700000004,59.7973836],[30.2104665,59.797481],[30.210097400000002,59.797481],[30.2091619,59.79730830000001],[30.2079345,59.797023300000006],[30.206492499999996,59.79672540000001],[30.205182199999996,59.79650010000001],[30.2043067,59.79619350000001],[30.203697299999998,59.79609850000001],[30.201234,59.795494000000005],[30.199208400000003,59.7948895],[30.1988136,59.79475560000001],[30.198084,59.794561300000005],[30.196959600000003,59.794185600000006],[30.195431799999998,59.79372790000001],[30.194007000000003,59.79323990000001],[30.192702399999998,59.792786500000005],[30.1923419,59.79273040000001],[30.190925700000005,59.79225100000001],[30.189835700000003,59.7918667],[30.1889173,59.791482300000006],[30.1883937,59.7914046],[30.187818600000003,59.79132690000001],[30.185406799999996,59.79113250000001],[30.1845056,59.79102890000001],[30.1835014,59.790968400000004],[30.1827546,59.79095550000001],[30.1820594,59.7910677],[30.181355600000003,59.79112820000001],[30.1807548,59.7910418],[30.1799222,59.7908864],[30.1796163,59.79078390000001],[30.179364500000002,59.790874900000006],[30.179073700000004,59.79097540000001],[30.177532199999998,59.79151960000001],[30.179821400000005,59.7934854],[30.1765628,59.796049800000006],[30.1593206,59.8011707],[30.156425100000003,59.79892850000001],[30.1557833,59.79915650000001],[30.1499325,59.8009257],[30.139001800000003,59.7910765],[30.1295059,59.7825016],[30.133261400000006,59.7820046],[30.137553200000003,59.7858235],[30.1382318,59.78597250000001],[30.1401063,59.785485],[30.143796299999998,59.788721100000004],[30.1438796,59.788785600000004],[30.1465119,59.7908246],[30.149885800000003,59.793546500000005],[30.151344,59.79472280000001],[30.154015700000006,59.796877800000004],[30.1554286,59.7967834],[30.157037000000003,59.796849],[30.158979900000002,59.7968804],[30.160185900000002,59.79687890000001],[30.1611233,59.79674280000001],[30.1620601,59.79653900000001],[30.1628142,59.79626890000001],[30.1600861,59.79362280000001],[30.1597347,59.79329430000001],[30.158855000000006,59.79257130000001],[30.159405800000002,59.79237640000001],[30.1593632,59.79230010000001],[30.1593275,59.79219750000001],[30.1593122,59.79203850000001],[30.1593275,59.791823],[30.1593224,59.79175120000001],[30.159378500000003,59.791640900000004],[30.1594193,59.79145880000001],[30.1594091,59.79123810000001],[30.159388700000004,59.79103810000001],[30.1593632,59.79092520000001],[30.159286700000003,59.790825100000006],[30.159154200000003,59.790704600000005],[30.158991000000004,59.79056610000001],[30.158863600000004,59.79043520000001],[30.1587718,59.790296700000006],[30.1587106,59.7900915],[30.158685100000003,59.78997090000001],[30.1587106,59.7898426],[30.1588432,59.789650200000004],[30.158884000000004,59.7895271],[30.158914600000003,59.78933980000001],[30.158955400000007,59.788983200000004],[30.158980800000002,59.7884984],[30.158993100000004,59.78831730000001],[30.158993100000004,59.78818590000001],[30.1590135,59.788118200000014],[30.159009400000002,59.78803610000001],[30.1588993,59.7879766],[30.1587117,59.7878493],[30.158568400000004,59.78778],[30.1583913,59.787673999999996],[30.1581027,59.7875196],[30.157996700000005,59.7874334],[30.157707100000003,59.7874026],[30.157384900000004,59.7873636],[30.156678400000004,59.7872409],[30.1562878,59.7871606],[30.154847600000004,59.786930600000005],[30.154715100000004,59.7868741],[30.154465300000005,59.7867279],[30.154235800000002,59.7866407],[30.154077600000004,59.78657030000001],[30.154037400000004,59.7862175],[30.1555724,59.7858517],[30.1553208,59.7848913],[30.1550991,59.78488409999999],[30.153066000000003,59.7832906],[30.149931700000003,59.780533500000004],[30.1474349,59.77798],[30.148634799999996,59.7776642],[30.148339199999995,59.77733870000001],[30.148505999999998,59.7772932],[30.146178400000004,59.7747613],[30.1462708,59.77473680000001],[30.145990100000002,59.7743835],[30.1527763,59.771753600000004],[30.1437809,59.763169500000004],[30.143017,59.762440500000004],[30.1416855,59.7611696],[30.1351793,59.7614578],[30.1221558,59.762040400000004],[30.120171000000003,59.762089100000004],[30.1166312,59.76217590000002],[30.116656100000004,59.7618371],[30.117987300000006,59.7617794],[30.1180023,59.761615500000005],[30.1181386,59.760129000000006],[30.117015100000007,59.7571896],[30.117618600000004,59.754150100000004],[30.119258500000004,59.748868800000004],[30.119907500000004,59.747356800000006],[30.1195206,59.74581520000001],[30.115858700000008,59.741397],[30.114921400000007,59.7412501],[30.110770100000003,59.73855050000001],[30.1087652,59.73621860000001],[30.111765900000005,59.73554010000001],[30.108632799999995,59.7310295],[30.1086505,59.730858500000004],[30.106083100000003,59.73033360000001],[30.1056944,59.73010360000001],[30.105419799999996,59.72979620000001],[30.1050775,59.729280300000006],[30.1062366,59.729158900000016],[30.1065861,59.7290475],[30.106564700000003,59.72731820000001],[30.1063935,59.72710610000001],[30.106657100000003,59.72618370000001],[30.106511100000002,59.72618820000001],[30.1068272,59.725367600000006],[30.107025700000005,59.724548500000004],[30.1080015,59.724566800000005],[30.1087152,59.72398090000001],[30.109658300000003,59.7236631],[30.109950800000004,59.723650400000004],[30.111065600000007,59.716691],[30.114052500000003,59.7137417],[30.113264900000004,59.7134879],[30.1150343,59.7118301],[30.116517700000003,59.7106251],[30.116995500000005,59.7102618],[30.1184148,59.70934090000001],[30.119176100000004,59.70885390000001],[30.1201376,59.70821240000001],[30.1206973,59.7078487],[30.120944400000003,59.7078767],[30.121605100000004,59.7079479],[30.121327700000002,59.708461],[30.1220791,59.7086855],[30.121999700000003,59.708804300000004],[30.1226351,59.7089645],[30.123068800000002,59.708282800000006],[30.1234979,59.7082624],[30.1236118,59.70690570000001],[30.1242276,59.7068141],[30.125218999999998,59.706751100000005],[30.1253652,59.70694],[30.129883200000002,59.706922000000006],[30.1299902,59.70687530000001],[30.1300294,59.706591100000004],[30.131306000000002,59.70665220000001],[30.131291800000003,59.706895],[30.132328700000002,59.7067994],[30.132608700000002,59.706700500000004],[30.1327664,59.7060912],[30.132744199999998,59.70583890000001],[30.133015200000003,59.70556010000001],[30.133083900000003,59.70530900000001],[30.1375096,59.7004044],[30.136834000000004,59.70032270000001],[30.135917600000003,59.70031550000001],[30.1354049,59.70037030000001],[30.1355153,59.700053000000004],[30.135959100000004,59.69952630000001],[30.136323400000002,59.699053000000006],[30.136357500000003,59.69881390000001],[30.1363196,59.698224800000006],[30.136338400000003,59.69771030000001],[30.1362268,59.6971745],[30.1361293,59.69683510000001],[30.1360225,59.69657360000001],[30.135901500000003,59.69639290000001],[30.1357048,59.6962454],[30.1351702,59.69593490000001],[30.134287700000005,59.695158800000016],[30.1337431,59.694756700000006],[30.133173100000004,59.6944686],[30.1326271,59.6942213],[30.1322277,59.694045],[30.131778400000005,59.69390320000001],[30.131051000000006,59.69369230000001],[30.1306338,59.693587900000004],[30.1297936,59.6942042],[30.1243382,59.692283800000006],[30.1232723,59.692133900000016],[30.1227201,59.692069000000004],[30.122203199999998,59.69204230000001],[30.121565200000003,59.69201810000001],[30.121088700000005,59.69210460000001],[30.120309499999998,59.69211230000002],[30.119926300000003,59.69215420000001],[30.1197725,59.69227260000001],[30.1197397,59.692441800000005],[30.119863200000005,59.69267980000001],[30.119762400000003,59.6930971],[30.119583400000003,59.69343690000001],[30.119086600000003,59.693484399999996],[30.116987900000005,59.69335020000001],[30.117052100000006,59.69359080000001],[30.117182300000003,59.6937848],[30.117371500000004,59.6939877],[30.117755900000006,59.694298100000005],[30.1177898,59.694360700000004],[30.117125200000004,59.6944104],[30.116507400000003,59.6943876],[30.114460600000005,59.6941897],[30.114284000000005,59.695172200000016],[30.11499540000001,59.69533410000001],[30.114831400000007,59.695546400000005],[30.1150401,59.6967975],[30.114362600000003,59.6969895],[30.114016400000004,59.69711030000001],[30.113620400000002,59.6972484],[30.1150023,59.698143400000006],[30.116056200000003,59.699124700000006],[30.1157485,59.69917680000001],[30.114254200000005,59.69943000000001],[30.113839900000002,59.699437100000004],[30.113660400000004,59.6994514],[30.1134324,59.6992625],[30.113425200000002,59.69919830000001],[30.113283100000004,59.699087399999996],[30.112971800000004,59.698984800000005],[30.1128225,59.69903540000001],[30.1124246,59.69912300000001],[30.111840600000004,59.699193400000006],[30.111524900000003,59.699249900000005],[30.1112828,59.699263900000005],[30.111028100000006,59.699263900000005],[30.1108198,59.69932810000001],[30.110675100000005,59.699439100000006],[30.110385700000005,59.699588000000006],[30.1102178,59.699602600000006],[30.110212,59.699751500000005],[30.110090500000002,59.699912200000014],[30.109801100000006,59.7000144],[30.1096795,59.7001575],[30.1096977,59.70033660000001],[30.1095001,59.7004904],[30.1092264,59.700537100000005],[30.1091822,59.7005834],[30.109022799999998,59.70061290000001],[30.10833,59.7004973],[30.1074094,59.69971570000001],[30.1071427,59.699690100000005],[30.106857000000005,59.69955870000001],[30.106797,59.69923330000001],[30.1056761,59.699312100000014],[30.1023048,59.69930250000001],[30.1010409,59.69920930000001],[30.100897900000003,59.69919880000001],[30.085039999999996,59.7109408],[30.082443499999993,59.713748300000006],[30.0808213,59.71537120000001],[30.0783411,59.7158377],[30.0742355,59.7154961],[30.0723116,59.7162567],[30.0698212,59.7163777],[30.05527,59.71337290000001],[30.049502999999998,59.717060999999994],[30.0402613,59.715043200000004],[30.0396849,59.71535200000001],[30.0345131,59.7182491],[30.038209799999997,59.72074810000001],[30.040743699999997,59.719867699999995],[30.043490799999997,59.721096300000006],[30.0505598,59.72997410000001],[30.0507191,59.73016520000001],[30.053478000000002,59.73287270000001],[30.0617277,59.740868],[30.0761388,59.747922300000006],[30.0708832,59.7497434],[30.0640966,59.7498888],[30.0628859,59.751061699999994],[30.0625251,59.75217290000001],[30.0675041,59.752672000000004],[30.066624599999997,59.7552745],[30.071994200000002,59.7552681],[30.071860700000006,59.7560324],[30.0702994,59.7560002],[30.0699088,59.756779300000005],[30.0620776,59.7569826],[30.062013399999998,59.757686299999996],[30.060327199999996,59.76206990000001],[30.0563606,59.76172210000001],[30.055963600000002,59.763282000000004],[30.0438245,59.76238810000001],[30.043342699999997,59.7641834],[30.0453501,59.76552580000001],[30.045601999999995,59.76553790000001],[30.0563799,59.76605670000001],[30.071837600000002,59.77111430000001],[30.077179700000002,59.77283880000001],[30.0782718,59.77319130000001],[30.084562899999998,59.77574870000001],[30.0839294,59.77859600000001],[30.083977400000002,59.77861590000001],[30.090736999999997,59.78142149999999],[30.090719299999996,59.7815239],[30.0914177,59.7820667],[30.0944855,59.7824271],[30.094821300000003,59.7824764],[30.0958205,59.78262290000001],[30.0960503,59.782422700000005],[30.0970493,59.782729700000004],[30.0966669,59.7829892],[30.096253700000002,59.7833637],[30.0969224,59.7835855],[30.097951100000007,59.7839266],[30.097841100000004,59.7843515],[30.098511499999997,59.7852595],[30.098805400000003,59.7858785],[30.098834,59.786236900000006],[30.09866,59.7870778],[30.0982613,59.789396],[30.098206599999997,59.79003890000001],[30.0986743,59.7946264],[30.098699499999995,59.7948661],[30.0986889,59.79519070000001],[30.0987841,59.795499400000004],[30.099212599999998,59.79615410000001],[30.0992919,59.79630580000001],[30.1052008,59.79693920000001],[30.105605100000002,59.79735860000001],[30.104897700000006,59.802860499999994],[30.109515400000003,59.8031706],[30.1097807,59.803330100000004],[30.110023,59.80326049999999],[30.1234163,59.8044557],[30.127685600000003,59.809065399999994],[30.1046172,59.8173321],[30.090965800000003,59.81486029999999],[30.085892299999998,59.8161376],[30.0752888,59.8152343],[30.074709799999997,59.815214399999995],[30.0730967,59.815615],[30.0701885,59.8157965],[30.069309399999998,59.815826099999995],[30.068504799999996,59.815800499999995],[30.067704199999998,59.81568409999999],[30.067068400000004,59.8155992],[30.0666881,59.8156147],[30.0664851,59.815669199999995],[30.066113299999998,59.8158451],[30.065602599999995,59.81598459999999],[30.065136399999997,59.816029199999996],[30.0636655,59.81608779999999],[30.062946099999998,59.8161942],[30.058877000000003,59.81698159999999],[30.0586857,59.81708169999999],[30.058410799999997,59.817189899999995],[30.0581678,59.817320099999996],[30.057857000000006,59.81742619999999],[30.0576339,59.81744629999999],[30.057191700000004,59.817408199999996],[30.0565901,59.81729599999999],[30.0560324,59.817169899999996],[30.0555742,59.8171258],[30.0550682,59.8171098],[30.054837100000004,59.8170557],[30.0546021,59.816937499999995],[30.054367000000003,59.816855399999994],[30.054203700000002,59.8168313],[30.053861000000005,59.81685739999999],[30.053618,59.81687339999999],[30.053251300000003,59.816876699999995],[30.0531373,59.81684699999999],[30.052810400000002,59.81684169999999],[30.052636799999995,59.816897299999994],[30.0524582,59.816931],[30.051256700000003,59.817032],[30.0506136,59.81708389999999],[30.0499569,59.8171311],[30.0497558,59.81723399999999],[30.0491872,59.817347299999994],[30.0472023,59.817687099999986],[30.0469663,59.8177356],[30.046569299999998,59.8181995],[30.046225999999997,59.8183667],[30.0456574,59.8185986],[30.045625199999996,59.8189115],[30.045614499999996,59.819229699999994],[30.045432099999996,59.8194131],[30.044863400000004,59.8195533],[30.044284100000002,59.8197151],[30.0437047,59.8198392],[30.042812899999998,59.81996349999999],[30.042299199999995,59.820357],[30.041955900000005,59.820691399999994],[30.0415546,59.821037],[30.0413593,59.8211884],[30.0411903,59.8212391],[30.040786499999996,59.821263099999996],[30.0405504,59.821317],[30.0401964,59.8215705],[30.0399925,59.82166759999999],[30.039499,59.821689199999994],[30.0392093,59.8217485],[30.0388338,59.821689199999994],[30.0386407,59.8217161],[30.0385871,59.821802399999996],[30.038629999999998,59.821915700000005],[30.0388338,59.82201810000001],[30.0387051,59.82211520000001],[30.038769499999997,59.8222662],[30.038866000000002,59.8224011],[30.038889700000002,59.8224941],[30.0388726,59.8225864],[30.038597799999998,59.822659900000005],[30.0383764,59.82268],[30.0382618,59.82277620000001],[30.0383618,59.822902600000006],[30.0386085,59.8230267],[30.038898200000002,59.82310220000001],[30.038801600000003,59.8233017],[30.0389304,59.82339880000001],[30.0387051,59.8234689],[30.038758700000002,59.8235714],[30.039198600000002,59.82359830000001],[30.0393488,59.8236577],[30.0396385,59.8238788],[30.039617,59.8239704],[30.0394346,59.8240513],[30.0394346,59.824121399999996],[30.039617,59.82413220000001],[30.0397458,59.82410530000001],[30.039928200000002,59.824143],[30.039917400000004,59.8242023],[30.0398423,59.824261699999994],[30.039938900000003,59.824288599999996],[30.0401749,59.8242563],[30.0401749,59.824153800000005],[30.040282199999996,59.824153800000005],[30.040346599999996,59.8242293],[30.0403359,59.824261699999994],[30.0404861,59.8242509],[30.040679199999996,59.824245499999996],[30.040797199999997,59.8243318],[30.040850900000002,59.824461199999995],[30.0407543,59.8245043],[30.040818700000003,59.8248333],[30.040796299999997,59.8248908],[30.040716899999996,59.8249498],[30.0404634,59.8249016],[30.0403669,59.8249626],[30.040412999999997,59.825008100000005],[30.040596499999996,59.8250435],[30.040740799999995,59.8251014],[30.040679199999996,59.82531330000001],[30.0403788,59.825529],[30.0400033,59.825626],[30.040293,59.8258094],[30.039938900000003,59.825965800000006],[30.039778000000002,59.82611680000001],[30.0395205,59.8262678],[30.0395419,59.8264673],[30.0391772,59.8266452],[30.039080600000002,59.82671530000001],[30.039381000000002,59.826834],[30.0393274,59.826952600000006],[30.0393703,59.8272007],[30.039456100000002,59.827464899999995],[30.0391879,59.8275997],[30.0391342,59.82780459999999],[30.038898200000002,59.82801490000001],[30.038951800000003,59.828236000000004],[30.0389626,59.8285272],[30.038876700000003,59.828721300000005],[30.038544199999997,59.82881830000001],[30.0384261,59.8289478],[30.038522699999998,59.8290394],[30.038769499999997,59.8290394],[30.0389626,59.8291473],[30.039059100000003,59.8294384],[30.039048400000002,59.8294924],[30.0391879,59.829708000000004],[30.0391021,59.82993990000001],[30.038823100000002,59.8299291],[30.0387158,59.8299884],[30.0388875,59.830166399999996],[30.038748,59.830290399999996],[30.039027,59.830414399999995],[30.038908900000003,59.83068939999999],[30.039391700000003,59.8308349],[30.039574100000003,59.8308188],[30.039595600000002,59.8307271],[30.039906700000003,59.8306354],[30.0401106,59.8306193],[30.0401642,59.830694799999996],[30.040185700000002,59.8308349],[30.0403573,59.83091580000001],[30.040400199999997,59.83124469999999],[30.0401749,59.831401099999994],[30.040014,59.8315089],[30.0401535,59.8316599],[30.0404539,59.8317354],[30.040389499999996,59.831848599999994],[30.0403144,59.831999599999996],[30.041612599999997,59.8321344],[30.041762799999997,59.832436300000005],[30.041891500000002,59.8324417],[30.0422241,59.832393100000004],[30.042342199999993,59.832436300000005],[30.042427999999997,59.832554900000005],[30.0423314,59.8326142],[30.042041799999996,59.83273280000001],[30.042030999999998,59.8328784],[30.042191999999996,59.8330887],[30.042513799999995,59.833158700000006],[30.042621099999998,59.833272],[30.042503099999998,59.8333744],[30.042288499999998,59.8334068],[30.041975600000004,59.833417399999995],[30.0419345,59.8336332],[30.0416853,59.833821199999996],[30.0416019,59.834080699999994],[30.041795,59.83440769999999],[30.0422671,59.8345659],[30.042683799999995,59.8347116],[30.042877,59.83497139999999],[30.0428315,59.8350955],[30.042958100000003,59.8352481],[30.043278700000002,59.83551260000001],[30.043447199999996,59.83590290000001],[30.0435652,59.8360808],[30.043887100000003,59.8361616],[30.0440802,59.8364743],[30.0444665,59.8368193],[30.0442718,59.837315800000006],[30.0307902,59.8375203],[30.030996000000002,59.8373927],[30.0281546,59.8361602],[30.0275993,59.8365455],[30.020272199999997,59.8332219],[30.019011600000002,59.8347918],[30.018826400000002,59.83478699999999],[30.018446599999997,59.8347469],[30.018081000000002,59.8347888],[30.017805900000006,59.83488059999999],[30.0176728,59.83496709999999],[30.0176338,59.8350947],[30.0177136,59.835232000000005],[30.017896400000005,59.83533810000001],[30.0181893,59.835432600000004],[30.0184506,59.835500800000005],[30.0186764,59.8355802],[30.018751700000003,59.83568739999999],[30.0187317,59.8357694],[30.0185886,59.835866499999995],[30.0182799,59.835973700000004],[30.017810500000003,59.836126300000004],[30.0174215,59.836195700000005],[30.017110300000002,59.836228399999996],[30.016879400000004,59.8362083],[30.0164803,59.8360809],[30.0162193,59.8359636],[30.0160336,59.8356761],[30.0156746,59.8352334],[30.015368400000003,59.8350669],[30.014756000000002,59.8350745],[30.014264100000005,59.8351514],[30.013837400000003,59.8353671],[30.013719499999997,59.8355298],[30.0136241,59.835788300000004],[30.0135413,59.8360002],[30.013332899999998,59.836178000000004],[30.0131522,59.8362499],[30.013006700000002,59.8362335],[30.012815900000003,59.836223399999994],[30.012507199999998,59.8362171],[30.0121985,59.836116200000006],[30.011673700000003,59.8359714],[30.0113048,59.8359424],[30.010815400000006,59.836018],[30.010275700000005,59.8361807],[30.0099369,59.8362539],[30.0094977,59.8363447],[30.009206499999998,59.8363699],[30.0088301,59.8363749],[30.008220199999997,59.8363396],[30.007304100000002,59.8363371],[30.006581100000002,59.8363906],[30.0059037,59.8364742],[30.0055547,59.836615800000004],[30.0053589,59.8367041],[30.0050276,59.8367306],[30.0047942,59.8367873],[30.0046386,59.8369235],[30.0044227,59.8370156],[30.0039735,59.83707739999999],[30.0035669,59.8371039],[30.0033284,59.837069799999995],[30.00309,59.836987799999996],[30.002834,59.8367823],[30.0026156,59.836549],[30.0022994,59.8362778],[30.0021675,59.8362087],[30.001903700000003,59.83610290000001],[30.0016233,59.8360984],[30.0014263,59.8361724],[30.0011991,59.836290999999996],[30.000895700000004,59.836411399999996],[30.000709299999997,59.836432800000004],[30.0003703,59.836496999999994],[30.0001662,59.836556800000004],[29.999955000000003,59.836556800000004],[29.999623199999995,59.8365095],[29.999319699999997,59.836398],[29.999057,59.8362179],[29.9989115,59.8360137],[29.998292099999997,59.8357016],[29.998004599999998,59.835632000000004],[29.997820400000002,59.835522700000006],[29.9973607,59.8352803],[29.9969832,59.8351642],[29.996693999999998,59.835169300000004],[29.996448999999995,59.8352518],[29.9962811,59.835405900000005],[29.996101799999998,59.835486499999995],[29.9958543,59.8354757],[29.995509599999995,59.835391300000005],[29.995320199999995,59.83521880000001],[29.995133299999996,59.8349973],[29.994882,59.8348552],[29.994739299999996,59.83466039999999],[29.994743099999997,59.8345938],[29.994704,59.834585999999994],[29.994521,59.83428919999999],[29.994371,59.834133800000004],[29.994071,59.834020699999996],[29.9938648,59.8338888],[29.993527299999997,59.833771],[29.9930658,59.8337095],[29.993027799999997,59.8337073],[29.9928886,59.8336718],[29.992655,59.83353090000001],[29.992543199999993,59.8334082],[29.992454199999997,59.8333795],[29.992263599999998,59.833379900000004],[29.992003099999998,59.8334194],[29.991881600000003,59.833458900000004],[29.9916774,59.8335848],[29.991573799999998,59.8336586],[29.9914524,59.8336943],[29.9913413,59.8336851],[29.991212599999997,59.833617499999995],[29.991119299999998,59.833580999999995],[29.991002299999998,59.833564599999995],[29.990706299999996,59.833591399999996],[29.990430799999995,59.833578],[29.9902844,59.8335809],[29.990134799999996,59.8336085],[29.989926199999996,59.833683799999996],[29.989769199999994,59.833708300000005],[29.989573799999995,59.833702300000006],[29.989365,59.833709],[29.989135499999996,59.8337485],[29.9888677,59.8337791],[29.988466399999997,59.8337597],[29.988165999999996,59.8337775],[29.9875087,59.833856399999995],[29.987139899999995,59.8338839],[29.986464899999998,59.8340426],[29.9858741,59.8341305],[29.985437399999995,59.8341437],[29.985272999999996,59.8341713],[29.985112899999994,59.83429039999999],[29.985040499999993,59.8343219],[29.984898400000002,59.834343499999996],[29.984415499999997,59.8343489],[29.9841809,59.834336300000004],[29.983855600000002,59.8344583],[29.983559499999995,59.8345003],[29.983043099999996,59.834584299999996],[29.98252679999999,59.834610999999995],[29.982124299999995,59.8346453],[29.981623199999994,59.8347178],[29.981023299999997,59.8347979],[29.980696799999993,59.8348361],[29.9801577,59.83488189999999],[29.979679299999997,59.834954399999994],[29.9792844,59.835019200000005],[29.9789351,59.83511080000001],[29.978608599999998,59.835072700000005],[29.978358,59.8350956],[29.978137599999997,59.835086999999994],[29.977741799999997,59.8341863],[29.944345,59.8288272],[29.9412596,59.830784799999996],[29.9393956,59.8309031],[29.939226899999998,59.8308101],[29.938710599999997,59.8303984],[29.9385561,59.8303085],[29.938379199999996,59.830260499999994],[29.938222699999997,59.830241099999995],[29.937970700000005,59.830260499999994],[29.9376271,59.830345300000005],[29.9372978,59.8304342],[29.936786799999997,59.830588],[29.9371785,59.831248699999996],[29.9374664,59.831732800000005],[29.937998300000004,59.832615100000005],[29.938279799999997,59.8330822],[29.9385755,59.833572600000004],[29.9388112,59.833963499999996],[29.9390357,59.834336],[29.9391764,59.83456939999999],[29.939683199999997,59.8354099],[29.939921700000003,59.8358054],[29.940200199999996,59.836267299999996],[29.940734599999995,59.8371538],[29.9414037,59.838263399999995],[29.941601199999997,59.83859090000001],[29.941647299999996,59.83866739999999],[29.941922899999998,59.8394038],[29.942628499999994,59.8405013],[29.9433217,59.84158949999999],[29.9439774,59.8427316],[29.9442579,59.8431963],[29.945207299999996,59.84480119999999],[29.925090499999996,59.84768329999999],[29.9248372,59.8487364],[29.910232299999997,59.851252699999996],[29.909422199999995,59.848985],[29.9021944,59.8501937],[29.9037887,59.853735300000004],[29.9037971,59.8537493],[29.8955574,59.85465139999999],[29.895546099999997,59.8546329],[29.8952459,59.85420709999999],[29.8952301,59.8541553],[29.8952539,59.85407959999999],[29.8952578,59.854031799999994],[29.894974000000005,59.85347159999999],[29.892592999999998,59.8539088],[29.8915568,59.851785299999996],[29.889965900000004,59.8489249],[29.8869479,59.8441301],[29.8865117,59.8432707],[29.8862673,59.8427457],[29.8795508,59.8439428],[29.879855700000007,59.847906599999995],[29.8764663,59.8481612],[29.876675000000002,59.84884399999999],[29.877846,59.8487595],[29.878720899999998,59.849368],[29.8787411,59.8496959],[29.8791718,59.850584899999994],[29.879684400000002,59.85145849999999],[29.880358700000002,59.8521567],[29.8744968,59.856840899999995],[29.874215900000003,59.85864599999999],[29.8730095,59.8588903],[29.871484100000004,59.858897899999995],[29.871996700000004,59.85646939999999],[29.870788400000002,59.85547149999999],[29.869429899999997,59.854760899999995],[29.8690943,59.854032999999994],[29.8676616,59.853885899999995],[29.862538199999996,59.855441899999995],[29.8617521,59.857778399999994],[29.8616247,59.85790639999999],[29.859925000000004,59.8584718],[29.8577367,59.8611601],[29.859185500000002,59.8619882],[29.8374935,59.867625499999995],[29.834810100000006,59.8680712],[29.834781400000004,59.866226],[29.8307023,59.86565],[29.8263682,59.86668459999999],[29.82512,59.867441799999995],[29.823409799999997,59.869036200000004],[29.821381600000002,59.8682443],[29.800268000000003,59.8589112],[29.7998692,59.8586579],[29.786847499999997,59.865825900000004],[29.771355800000002,59.8722202],[29.7644073,59.869255900000006],[29.750126499999997,59.8688408],[29.7501241,59.87174699999999],[29.736894600000003,59.8724451],[29.7351915,59.8708422],[29.732801900000002,59.871617099999995],[29.7245003,59.8711035],[29.7164173,59.8741168],[29.7143483,59.8873197],[29.714944900000003,59.889277299999996],[29.726532599999995,59.89364739999999],[29.7270172,59.894256399999996],[29.7220797,59.9015002],[29.720003199999997,59.9028178],[29.7185575,59.9030713],[29.717833000000002,59.90315580000001],[29.717554000000003,59.9032258],[29.7174229,59.9033916],[29.716985400000006,59.9035378],[29.715719399999998,59.9037638],[29.7096147,59.90559830000001],[29.7086594,59.9043659],[29.706599899999997,59.9048183],[29.706192199999997,59.9050496],[29.706278,59.9052056],[29.7071149,59.9057866],[29.707071900000003,59.90613090000001],[29.706535499999998,59.9064913],[29.706106499999997,59.906660499999994],[29.7053688,59.906932000000005],[29.702922599999997,59.9077228],[29.702614599999997,59.9078119],[29.700465700000002,59.908406],[29.6984916,59.908943900000004],[29.696978800000004,59.909358100000006],[29.6935349,59.91022949999999],[29.681953400000005,59.9124207],[29.6800702,59.912660699999996],[29.6762185,59.9133115],[29.6692341,59.9137955],[29.666358700000004,59.914204299999994],[29.663730199999996,59.9145593],[29.6634749,59.9147108],[29.663341199999998,59.914893199999995],[29.659886500000002,59.915431],[29.658920900000002,59.9153234],[29.656288900000003,59.9166362],[29.6575391,59.918988999999996],[29.661329799999997,59.924806999999994],[29.6600456,59.926975000000006],[29.655894700000005,59.927633900000004],[29.6540429,59.9279279],[29.650872900000003,59.92830070000001],[29.6479422,59.92820280000001],[29.647921800000002,59.9282866],[29.6475389,59.9298568],[29.5690413,60.005484499999994],[29.532113799999998,60.041799],[29.4566151,60.17096],[29.456220799999997,60.1715462],[29.4563109,60.1716225],[29.455949299999997,60.1718923],[29.4560515,60.1720848],[29.455846299999997,60.17226530000001],[29.455275,60.172263300000004],[29.4547807,60.17205090000001],[29.4544599,60.171809399999994],[29.453873,60.17173890000001],[29.453383799999997,60.171737900000004],[29.453143999999998,60.171860499999994],[29.452775999999997,60.1719354],[29.452349499999993,60.172003700000005],[29.4520505,60.17197230000001],[29.4518128,60.1718799],[29.451831300000002,60.1717638],[29.451399199999997,60.1716111],[29.4499018,60.1710858],[29.4494117,60.171097399999994],[29.449018799999997,60.171196900000005],[29.4488147,60.1714312],[29.449042399999996,60.1715366],[29.4493621,60.171549],[29.449712899999994,60.1714937],[29.449923199999997,60.17155],[29.450082799999997,60.171795700000004],[29.450089199999997,60.1719299],[29.4501003,60.172058500000006],[29.4501182,60.1722665],[29.4498779,60.1724471],[29.449659799999996,60.172611],[29.449402899999995,60.172659],[29.449100299999998,60.172559500000006],[29.448667699999998,60.172455600000006],[29.448231299999996,60.17250670000001],[29.448026399999996,60.1726478],[29.4476986,60.1732859],[29.4476545,60.17353890000001],[29.447619699999997,60.173685],[29.447335999999996,60.173753700000006],[29.4469084,60.1736885],[29.446586299999996,60.1735837],[29.446186899999997,60.1736227],[29.4460673,60.1735746],[29.445978,60.1734493],[29.445946599999996,60.17331030000001],[29.445719399999994,60.173236],[29.4449724,60.1731817],[29.443961700000003,60.1734976],[29.4439902,60.173632600000005],[29.443844,60.173787499999996],[29.443687899999997,60.1738812],[29.4434521,60.173962800000005],[29.443496599999996,60.174105700000005],[29.4434647,60.174224099999996],[29.443110899999997,60.1743291],[29.4428706,60.174305800000006],[29.442730299999994,60.1742341],[29.442752099999996,60.1740624],[29.442982699999998,60.1736642],[29.442848899999998,60.1734916],[29.442596499999993,60.1734336],[29.442336299999994,60.17350080000001],[29.442072699999997,60.1736594],[29.4419115,60.173835800000006],[29.441878700000004,60.174018800000006],[29.4418927,60.1742335],[29.4417956,60.1743775],[29.4415612,60.174463499999995],[29.441490899999998,60.1745663],[29.441663899999998,60.1746702],[29.442039699999995,60.1746778],[29.442283199999995,60.174647199999995],[29.442437699999996,60.1747499],[29.442396199999994,60.174858300000004],[29.442227999999997,60.174972000000004],[29.441895600000002,60.175011600000005],[29.4413753,60.1748782],[29.440624499999995,60.174806399999994],[29.440518899999997,60.1749832],[29.440546499999993,60.1752413],[29.440372699999998,60.175493800000005],[29.4399921,60.17573180000001],[29.4397882,60.1754534],[29.439329599999997,60.1754041],[29.4391069,60.175471300000005],[29.438885400000004,60.175463300000004],[29.438703299999997,60.17536030000001],[29.438476599999998,60.175388500000004],[29.438339799999994,60.17545290000001],[29.438342999999996,60.17563630000001],[29.4385147,60.1758219],[29.438936899999998,60.1759144],[29.4396977,60.175940700000005],[29.439528,60.1760648],[29.4392947,60.1762271],[29.4388996,60.1764284],[29.4395947,60.1767224],[29.4410146,60.1773395],[29.442718599999996,60.17808],[29.444402099999998,60.178711400000005],[29.445114899999997,60.17897870000001],[29.447243699999998,60.1795612],[29.4473759,60.17959390000001],[29.4491111,60.1800233],[29.4493156,60.179994900000004],[29.4530873,60.180701],[29.454151400000004,60.180831],[29.4549966,60.180934300000004],[29.4569952,60.18108149999999],[29.4572812,60.181088599999995],[29.463172699999998,60.181234599999996],[29.4634771,60.181349],[29.466759299999996,60.1813821],[29.469155999999998,60.1815371],[29.468319799999993,60.183395700000005],[29.4699632,60.183608],[29.468653399999997,60.185242300000006],[29.460023199999995,60.18373580000001],[29.458975100000004,60.1848357],[29.456661,60.184967799999995],[29.4544576,60.1849348],[29.4511692,60.1858651],[29.4509367,60.1869936],[29.450394199999998,60.187400999999994],[29.4498627,60.188045],[29.4495591,60.188590100000006],[29.448636999999994,60.188743200000005],[29.447723999999997,60.1889848],[29.4298103,60.1895376],[29.451953500000002,60.205368400000005],[29.455537799999995,60.207545700000004],[29.481403099999998,60.22059910000001],[29.482200599999995,60.22101030000001],[29.489171499999998,60.224392400000006],[29.489626899999994,60.22427390000001],[29.4898656,60.224345400000004],[29.490029099999997,60.224529700000005],[29.489929299999996,60.22500960000001],[29.4900683,60.22507690000001],[29.490302099999997,60.22509070000001],[29.490522399999996,60.2249478],[29.4906154,60.224430100000006],[29.491465100000003,60.2242917],[29.491646499999995,60.22413160000001],[29.4917707,60.22412830000001],[29.491764,60.2238364],[29.4916901,60.2235845],[29.492617099999997,60.22320590000001],[29.492704399999997,60.22291240000001],[29.492546499999992,60.22271220000002],[29.4926641,60.22259380000001],[29.4932552,60.222553800000014],[29.4939101,60.222407000000004],[29.4940948,60.22218680000001],[29.4941721,60.221873200000005],[29.4944508,60.221809900000004],[29.4946019,60.2218849],[29.494773199999997,60.22200500000001],[29.495131999999995,60.222035100000014],[29.496134199999997,60.221780300000006],[29.4964952,60.2216246],[29.496638599999997,60.221410600000006],[29.4970832,60.2212394],[29.499674799999998,60.22254960000001],[29.505798499999997,60.225739900000015],[29.511850100000007,60.22791030000001],[29.5140422,60.229153300000014],[29.5211525,60.2332865],[29.522776199999996,60.2302686],[29.522852,60.228441600000004],[29.521527199999998,60.22583860000001],[29.5212352,60.22571530000002],[29.579271400000003,60.219815000000004],[29.579837,60.220141600000005],[29.580434899999997,60.220449300000006],[29.5811631,60.220784200000004],[29.582422099999995,60.22130280000001],[29.583587499999997,60.221696300000005],[29.583842399999998,60.221767],[29.584466799999998,60.22192810000001],[29.5844771,60.22193120000001],[29.58475,60.22200170000001],[29.585489199999994,60.22290070000001],[29.586058,60.223433500000006],[29.5869185,60.224504],[29.5878173,60.22600190000001],[29.588343699999996,60.226674200000005],[29.588390299999997,60.22679360000001],[29.588541599999996,60.227111400000005],[29.589190499999997,60.2276078],[29.592128,60.22883350000001],[29.5931627,60.22912300000001],[29.594758600000002,60.229207900000006],[29.595911700000002,60.22911000000001],[29.5965211,60.228998900000015],[29.5974155,60.228964100000006],[29.597972300000002,60.229086],[29.598270499999998,60.22919490000001],[29.598393199999997,60.22970430000001],[29.598915400000003,60.230230600000006],[29.5993253,60.231],[29.599905100000004,60.23203240000001],[29.6003849,60.23237490000001],[29.600285000000003,60.233476800000005],[29.600561000000003,60.2341254],[29.6005949,60.234175400000005],[29.6006059,60.2342078],[29.6006878,60.23431680000001],[29.6008488,60.2344005],[29.6012172,60.23423270000001],[29.602669199999998,60.2337884],[29.6077227,60.2310287],[29.6111296,60.232144000000005],[29.613170000000004,60.233086300000004],[29.6152666,60.23383990000001],[29.619892400000005,60.2344184],[29.6213293,60.237163100000004],[29.6236261,60.2374637],[29.624815500000004,60.23621560000001],[29.6313192,60.234452600000004],[29.6356304,60.23337310000001],[29.6400793,60.23631240000001],[29.6414289,60.2370858],[29.642965000000004,60.236983300000006],[29.6433818,60.237085300000004],[29.643699899999998,60.2374076],[29.643486499999998,60.23750230000001],[29.641709199999998,60.238123400000006],[29.639845600000005,60.23901930000001],[29.6405376,60.239442600000004],[29.6421253,60.240700000000004],[29.643432899999997,60.241756],[29.643964600000004,60.24219230000001],[29.6480164,60.241481199999996],[29.6534796,60.2410085],[29.657003600000003,60.2404833],[29.663205100000003,60.239326500000004],[29.669084100000003,60.2379298],[29.673903100000004,60.2370515],[29.6757077,60.236969900000005],[29.6764052,60.2369444],[29.677561000000004,60.23691840000001],[29.677788200000002,60.236942500000005],[29.678136,60.2370425],[29.678408400000002,60.23715630000001],[29.6786766,60.23730280000001],[29.678839,60.2374619],[29.6789209,60.237603],[29.6790372,60.2376992],[29.679149199999998,60.2377484],[29.6793301,60.237776200000006],[29.6794722,60.2377741],[29.680001999999998,60.237733500000004],[29.6802592,60.23810920000001],[29.6808386,60.2382514],[29.681858200000004,60.23936200000001],[29.682428999999996,60.239983800000005],[29.6831672,60.240469399999995],[29.692649699999997,60.2400866],[29.694341,60.240020200000004],[29.6951527,60.239986300000005],[29.695860300000003,60.24071010000001],[29.699898500000003,60.2448369],[29.702662799999995,60.244573900000006],[29.702726799999994,60.2442993],[29.706510199999997,60.243936000000005],[29.706551400000002,60.24263570000001],[29.707870600000003,60.2415578],[29.708301799999997,60.2412066],[29.708327299999997,60.2398078],[29.7068273,60.23918690000001],[29.7059967,60.23898930000001],[29.7058702,60.2388415],[29.705554499999998,60.23847280000001],[29.703033499999997,60.23719270000001],[29.701229199999997,60.23717220000001],[29.699474400000003,60.236301100000006],[29.6975795,60.2366446],[29.696674700000003,60.23592970000001],[29.695249599999997,60.2347424],[29.697762,60.234875800000005],[29.6986572,60.2340454],[29.699873800000002,60.23318510000001],[29.7008861,60.23237540000001],[29.7052943,60.230382500000005],[29.7050447,60.22978530000001],[29.7084653,60.228074500000005],[29.711853800000004,60.226825100000006],[29.719902400000002,60.22592410000001],[29.719982400000003,60.227439800000006],[29.720456799999997,60.22829920000001],[29.717973000000004,60.229696000000004],[29.7155017,60.230773500000005],[29.715042599999997,60.23203190000001],[29.714153800000002,60.23261000000001],[29.717501000000002,60.233929700000004],[29.716405,60.234775000000006],[29.7175149,60.23524080000001],[29.7150434,60.23622530000001],[29.714116100000002,60.236516400000006],[29.714023100000002,60.23675130000001],[29.714121400000003,60.237380900000005],[29.713382199999998,60.2385414],[29.712762499999997,60.2395415],[29.709702799999995,60.2397976],[29.711857800000004,60.2407765],[29.7133948,60.2414747],[29.714860100000006,60.2416302],[29.7193852,60.24139530000001],[29.7216056,60.241706],[29.724696899999998,60.2409206],[29.725947199999997,60.2403917],[29.7296013,60.2397866],[29.734625700000002,60.239681499999996],[29.745637199999994,60.241955700000005],[29.747838100000003,60.242088200000005],[29.7540455,60.2424619],[29.7580155,60.24270090000001],[29.759040799999998,60.23939280000001],[29.7591632,60.23899810000001],[29.759233199999997,60.238772200000014],[29.7595981,60.237594800000004],[29.759786499999997,60.2369867],[29.771060900000002,60.23305250000001],[29.7707351,60.231078200000006],[29.7704597,60.23069280000001],[29.770419699999998,60.230659200000005],[29.7705756,60.23035790000001],[29.771152100000002,60.22986890000001],[29.7716085,60.2294818],[29.772598199999997,60.22877670000001],[29.773439799999995,60.22832080000001],[29.7742479,60.227679800000004],[29.774965100000006,60.227394800000006],[29.7754911,60.2270648],[29.7760218,60.226497300000005],[29.776839499999998,60.226069900000006],[29.777743199999996,60.225749400000005],[29.778743299999995,60.225474500000004],[29.7795073,60.2252645],[29.7798449,60.22517170000001],[29.7804564,60.224988100000004],[29.7813533,60.22493020000001],[29.782649099999993,60.2248471],[29.783313699999997,60.2246642],[29.783476299999997,60.224524100000004],[29.783700799999995,60.22433070000001],[29.7849729,60.223234700000006],[29.7850644,60.22292880000001],[29.785049399999995,60.222558000000014],[29.785211999999994,60.22229910000001],[29.785675799999996,60.222078300000014],[29.7862544,60.22200470000001],[29.786509499999994,60.22200170000001],[29.788501699999998,60.221978500000006],[29.789783199999995,60.22209730000001],[29.790790199999996,60.22220280000001],[29.791050400000003,60.222235300000015],[29.792137399999998,60.222427700000004],[29.792946899999997,60.22253610000001],[29.7937677,60.22251400000001],[29.7944838,60.22240000000001],[29.795668799999998,60.2219412],[29.7966618,60.2218077],[29.797844100000002,60.221442200000006],[29.7989502,60.2213676],[29.8000805,60.2213804],[29.8002865,60.2213672],[29.8005685,60.221383],[29.801881500000004,60.2212534],[29.849118100000002,60.1972949],[29.8525879,60.1963744],[29.854745700000002,60.19594970000001],[29.865529699999996,60.195330100000014],[29.866354,60.19540000000001],[29.871234,60.193967900000004],[29.8715935,60.19367830000001],[29.8846094,60.19525570000001],[29.892666799999997,60.19508930000001],[29.8941295,60.19220570000001],[29.892633999999997,60.189090900000004],[29.905307699999998,60.1866308],[29.9054719,60.1858336],[29.9092714,60.185068],[29.923855200000002,60.18241280000001],[29.925691999999994,60.1819253],[29.9269046,60.18331270000001],[29.9275283,60.183184399999995],[29.9323589,60.18219090000001],[29.933988900000003,60.181593],[29.936616899999997,60.1819567],[29.941823199999998,60.17955890000001],[29.948017899999996,60.17835480000001],[29.951368300000002,60.1770018],[29.951546599999997,60.1768361],[29.952221299999998,60.176798000000005],[29.953144299999998,60.176798000000005],[29.953659299999998,60.177012000000005],[29.9541093,60.176970000000004],[29.9543769,60.1768743],[29.954848700000003,60.1769024],[29.954935900000002,60.176720700000004],[29.9550667,60.1764438],[29.9553919,60.176062],[29.9553617,60.175941900000005],[29.9551724,60.1758608],[29.955016599999997,60.1758862],[29.954908600000003,60.1759605],[29.954595100000002,60.1759594],[29.9545642,60.1758456],[29.955517399999998,60.1754942],[29.955929899999997,60.17543290000001],[29.9561575,60.1754801],[29.9561771,60.17557200000001],[29.9558446,60.175940000000004],[29.9559015,60.176081499999995],[29.956309299999997,60.1760036],[29.956641199999996,60.17579610000001],[29.956726599999996,60.175388100000006],[29.956954200000002,60.1752466],[29.9573003,60.1752277],[29.9580259,60.175180600000004],[29.9587957,60.17534990000001],[29.9592097,60.1756576],[29.9593259,60.175956000000006],[29.9591213,60.1761295],[29.9587631,60.1761295],[29.958330599999996,60.1762336],[29.9581678,60.1764256],[29.958460799999997,60.17655280000001],[29.9600841,60.176513500000006],[29.961139899999996,60.176448],[29.9614287,60.176557900000006],[29.961642199999993,60.176639200000004],[29.962197799999995,60.17675630000001],[29.962535299999995,60.1767471],[29.962646899999992,60.17659210000001],[29.963218999999995,60.1763885],[29.963549299999993,60.17634230000001],[29.9638934,60.17635620000001],[29.9641883,60.1762882],[29.9643604,60.176178500000006],[29.9643877,60.176022],[29.9645611,60.17577920000001],[29.964296499999996,60.17556590000001],[29.9642007,60.17541610000001],[29.9644607,60.1752868],[29.965733599999993,60.1758268],[29.965943499999995,60.17579280000001],[29.966039299999995,60.1756612],[29.965938899999998,60.17512570000001],[29.966349499999993,60.1747808],[29.9664544,60.1745516],[29.966716199999993,60.174506],[29.9672259,60.174676],[29.9676904,60.1748782],[29.968029599999994,60.1748962],[29.968412999999995,60.1747067],[29.968563499999995,60.174473],[29.968818999999996,60.1744548],[29.9691247,60.174532000000006],[29.969334499999995,60.174509300000004],[29.969895700000002,60.1740578],[29.969882,60.1739261],[29.9692752,60.17373330000001],[29.9691749,60.173588],[29.969343699999996,60.17348139999999],[29.969576299999996,60.17345280000001],[29.9698774,60.1736448],[29.9701877,60.173672],[29.9705344,60.173594900000005],[29.971542699999997,60.1734496],[29.971770799999998,60.1734678],[29.9718027,60.1736062],[29.971935000000002,60.1737945],[29.972340999999997,60.1738762],[29.9728155,60.17374230000001],[29.973071,60.173594900000005],[29.9729889,60.1734042],[29.972665,60.1732931],[29.972532699999995,60.17312510000001],[29.972692299999995,60.17292090000001],[29.973248899999998,60.172975400000006],[29.973746199999994,60.173533600000006],[29.9740473,60.17375820000001],[29.974353,60.1737877],[29.9745127,60.17371970000001],[29.9743484,60.1734837],[29.974412299999997,60.17333620000001],[29.9747087,60.1732262],[29.975660499999996,60.1731436],[29.9759735,60.1730425],[29.9759767,60.172911000000006],[29.975676699999998,60.1728018],[29.975467,60.1726831],[29.9752573,60.1723574],[29.975225,60.17219850000001],[29.975408899999998,60.17210390000001],[29.9761219,60.17217720000001],[29.97718,60.171845499999996],[29.9776607,60.171818200000004],[29.9780671,60.171956200000004],[29.9790349,60.17227230000001],[29.980154,60.17230880000001],[29.980363099999998,60.17231790000001],[29.980473799999995,60.17243210000001],[29.980326399999996,60.172561300000005],[29.980289799999994,60.17272320000001],[29.980534799999994,60.172745000000006],[29.980715599999996,60.1726248],[29.980840299999997,60.17254690000001],[29.9809616,60.1724486],[29.981139599999995,60.17212330000001],[29.981417499999996,60.1717072],[29.981404799999996,60.17147739999999],[29.980893199999997,60.1713092],[29.9808706,60.1712305],[29.981139099999996,60.1711445],[29.981489699999997,60.1711825],[29.981971,60.171382],[29.982244699999995,60.1715341],[29.982446099999994,60.171514],[29.982583599999995,60.1714293],[29.982477899999996,60.17111880000001],[29.982189799999993,60.17083280000001],[29.9818629,60.1706238],[29.981467799999997,60.1704458],[29.9813181,60.1702862],[29.981433099999997,60.170166],[29.981652599999997,60.1700883],[29.981799299999995,60.1700342],[29.982005199999996,60.17003210000001],[29.982454999999998,60.170032600000006],[29.982659099999996,60.1700291],[29.982782599999993,60.169912900000014],[29.982990599999997,60.16950820000001],[29.983415499999996,60.1694475],[29.983764499999996,60.1696206],[29.983777099999998,60.169825200000005],[29.983573699999997,60.1700344],[29.983638399999997,60.1701544],[29.983745099999997,60.1702482],[29.9839244,60.1702639],[29.984030599999997,60.170207399999995],[29.984079899999998,60.170126],[29.984286299999997,60.1700141],[29.984617799999995,60.1696499],[29.984802,60.16950190000001],[29.984827499999998,60.169191500000004],[29.984441599999997,60.16894610000001],[29.984495799999998,60.16857060000001],[29.9842517,60.16834120000001],[29.984007599999998,60.1682872],[29.983794799999995,60.16831420000001],[29.983347699999996,60.16870320000001],[29.9829454,60.168694200000004],[29.982552099999996,60.168449100000004],[29.982208599999996,60.1678577],[29.982077499999995,60.167498],[29.982109099999995,60.1673406],[29.982393899999995,60.1672866],[29.983302499999994,60.1674148],[29.983606299999995,60.16755620000001],[29.983849399999997,60.1677498],[29.9840613,60.1677975],[29.9844187,60.167780300000004],[29.984773999999998,60.167597300000004],[29.985105999999995,60.1674732],[29.985476699999996,60.1674867],[29.985661999999994,60.168024100000004],[29.9859604,60.168321000000006],[29.986299399999996,60.16834570000001],[29.986606699999996,60.1682895],[29.9868407,60.168221900000006],[29.9868763,60.16805580000001],[29.986511499999995,60.1678546],[29.986240599999995,60.16755870000001],[29.986245799999995,60.1674848],[29.985887899999998,60.167304],[29.985337999999995,60.1671445],[29.9849975,60.1670078],[29.984943299999998,60.1668031],[29.985083399999997,60.16661200000001],[29.985774999999997,60.1664231],[29.9861954,60.16635790000001],[29.9865751,60.1664276],[29.986923199999996,60.16655130000001],[29.987117499999997,60.1666862],[29.9873752,60.1666435],[29.987441099999998,60.166560800000006],[29.987396199999996,60.1663814],[29.986728599999996,60.1660877],[29.986285799999997,60.16587210000001],[29.986261799999998,60.1656935],[29.986423499999994,60.16565980000001],[29.986835,60.16561820000001],[29.9875586,60.165512000000014],[29.988018399999998,60.16541010000001],[29.988155199999998,60.16515730000001],[29.988150899999997,60.1648859],[29.988888999999997,60.164525100000006],[29.989374499999997,60.1643735],[29.9899694,60.164276300000004],[29.9901652,60.16412580000001],[29.990046099999997,60.16399820000001],[29.989718899999996,60.1638736],[29.989661199999997,60.163791],[29.989749999999997,60.1637016],[29.9900847,60.163631800000005],[29.9906613,60.1636837],[29.990996799999998,60.1637665],[29.991639099999997,60.16361010000001],[29.9922518,60.16359820000001],[29.992498299999998,60.1634639],[29.9921741,60.163205100000006],[29.992124399999998,60.163049300000004],[29.992711599999996,60.16299480000001],[29.993205,60.1630661],[29.993762099999998,60.163231100000004],[29.9943844,60.1632965],[29.9946821,60.1632818],[29.994953000000002,60.1632164],[29.995095199999998,60.16311770000001],[29.995038899999997,60.162952200000014],[29.9948243,60.16274000000001],[29.994848400000002,60.16250510000001],[29.9950147,60.162430400000005],[29.995449199999992,60.1624424],[29.9958301,60.16239170000001],[29.9963344,60.162387700000004],[29.996801100000003,60.162349000000006],[29.9978793,60.162082100000006],[29.998101899999998,60.1619687],[29.998248299999997,60.1617517],[29.998308499999997,60.161498900000005],[29.998603499999994,60.1613094],[29.9989871,60.161197300000005],[29.999343799999995,60.1612066],[29.9994886,60.161276],[29.9995101,60.1613668],[29.999142599999995,60.1617285],[29.999154100000002,60.1618487],[29.9993184,60.161978100000006],[29.999494,60.162004700000004],[29.999697799999996,60.161976700000004],[30.000354,60.16157630000001],[30.0005639,60.161408300000005],[30.000732799999994,60.161336500000004],[30.000915100000004,60.161390100000006],[30.001152400000002,60.161551300000006],[30.0012085,60.161743900000005],[30.0013075,60.1618419],[30.001458000000003,60.16186],[30.0029143,60.1656805],[30.0036084,60.16555620000001],[30.0068309,60.16500620000001],[30.0073237,60.164998100000005],[30.008711599999998,60.1643095],[30.0073394,60.16252310000001],[30.0101261,60.1595524],[30.011925100000006,60.158770700000005],[30.0124189,60.156465999999995],[30.0155937,60.155227499999995],[30.018649399999997,60.1543996],[30.0211121,60.15221590000001],[30.021098300000002,60.1517194],[30.020621199999997,60.151006699999996],[30.0180219,60.144287199999994],[30.0595506,60.13601620000001],[30.0678875,60.1358664],[30.103958500000005,60.13531620000001],[30.131887100000007,60.1348902],[30.147385700000005,60.134373000000004],[30.154058100000007,60.1320618],[30.1607739,60.12971010000001],[30.160927400000002,60.12972920000001],[30.161202499999998,60.12970690000001],[30.161388000000002,60.129675000000006],[30.1615287,60.129659100000005],[30.1616055,60.12970690000001],[30.1616119,60.12979930000001],[30.1616886,60.1298216],[30.1618102,60.1297865],[30.161950900000004,60.129726000000005],[30.1620404,60.1296687],[30.162142799999994,60.1296655],[30.162232299999996,60.12973240000001],[30.162296299999998,60.129831100000004],[30.162456199999998,60.129901200000006],[30.162737699999997,60.1299076],[30.162961600000003,60.12987890000001],[30.1631471,60.12985020000001],[30.1634285,60.1298662],[30.163639599999996,60.129898000000004],[30.1637739,60.12995540000001],[30.1639466,60.130006300000005],[30.1639722,60.130121],[30.1641193,60.130137000000005],[30.1644456,60.1300955],[30.1646119,60.13003820000001],[30.164609799999997,60.130053000000004],[30.165717199999996,60.130523100000005],[30.1661484,60.1307278],[30.1669424,60.131145100000005],[30.1659864,60.1316031],[30.166253400000002,60.131815700000004],[30.166861800000003,60.13221190000001],[30.167355000000004,60.13210070000001],[30.169084700000003,60.132704800000006],[30.169499,60.13230720000001],[30.169482499999997,60.132072400000006],[30.1716127,60.132980700000005],[30.171488900000003,60.13387290000001],[30.172855700000007,60.135071700000005],[30.174331600000002,60.1363234],[30.1757891,60.135997200000006],[30.1758392,60.1360449],[30.175875800000004,60.1360691],[30.1759416,60.1361295],[30.176561600000003,60.135892600000005],[30.176288800000002,60.135636500000004],[30.175988500000003,60.13507230000001],[30.1757755,60.1346298],[30.175126,60.134284599999994],[30.175146899999998,60.1342609],[30.174933300000003,60.1342142],[30.174878700000008,60.1342738],[30.174859100000006,60.134313000000006],[30.173733799999997,60.1346238],[30.1737259,60.1346009],[30.1736837,60.134545900000006],[30.1735921,60.1345004],[30.173457900000002,60.1343846],[30.1731015,60.133968700000004],[30.172732699999997,60.13343880000001],[30.1727949,60.13291980000001],[30.1729027,60.13168769999999],[30.1730015,60.1316192],[30.173085100000005,60.1315697],[30.173084700000004,60.131501300000004],[30.173061500000003,60.1314632],[30.172977600000003,60.131455700000004],[30.1730935,60.1302893],[30.1725352,60.12991930000001],[30.1720249,60.1292604],[30.171588100000005,60.12877240000001],[30.171882300000004,60.1287875],[30.171926400000004,60.12878980000001],[30.172202,60.1288837],[30.1726056,60.12878820000001],[30.1728268,60.12885250000001],[30.173070700000004,60.128840800000006],[30.173185100000005,60.1288606],[30.1733112,60.128927000000004],[30.173811100000005,60.129076500000004],[30.1740898,60.12915600000001],[30.174555600000005,60.12931690000001],[30.174700400000003,60.12936230000001],[30.174830300000004,60.129385000000006],[30.174982700000005,60.12939430000001],[30.1750627,60.129386600000004],[30.175104400000002,60.1293694],[30.1751535,60.1292667],[30.175218100000002,60.129241900000004],[30.175298100000003,60.129230400000004],[30.1754124,60.12923790000001],[30.1755383,60.129268100000004],[30.175633599999998,60.12927560000001],[30.175862100000003,60.1292544],[30.1760334,60.129225600000005],[30.1761401,60.1292217],[30.1762622,60.129246200000004],[30.176354000000003,60.129293600000004],[30.1764378,60.12931070000001],[30.176651400000004,60.12931990000001],[30.1769029,60.12934430000001],[30.1771125,60.12934590000001],[30.177600100000003,60.12932810000001],[30.177790700000003,60.12934500000001],[30.177905200000005,60.12935810000001],[30.1782406,60.12935010000001],[30.1784006,60.12935930000001],[30.1785835,60.129355300000014],[30.1788462,60.12933210000001],[30.1790406,60.1293414],[30.1792466,60.129375300000014],[30.179749499999996,60.12934810000001],[30.1801039,60.12934370000001],[30.1801649,60.12935130000001],[30.1803061,60.129402400000004],[30.1804052,60.1294042],[30.180630799999996,60.12937130000001],[30.180835700000003,60.12939030000001],[30.181068100000005,60.129388000000006],[30.1812359,60.12939730000001],[30.181468400000004,60.129416000000006],[30.181948600000002,60.1294248],[30.182516399999997,60.12942220000001],[30.182699199999995,60.12941620000001],[30.1833164,60.12940580000001],[30.1833974,60.1288811],[30.1835594,60.1274177],[30.193263400000003,60.127768200000006],[30.1947378,60.12153910000001],[30.192061900000002,60.1204801],[30.1915133,60.120234800000006],[30.1910022,60.1199706],[30.1903965,60.1195217],[30.1899326,60.1190982],[30.1896177,60.118675100000004],[30.189496799999997,60.1184375],[30.189430599999998,60.118228],[30.1896116,60.1182266],[30.194667400000004,60.118186300000005],[30.1953356,60.117795],[30.1953118,60.1172754],[30.206977900000002,60.1170858],[30.208616499999994,60.116978100000004],[30.213708999999998,60.1160858],[30.2189562,60.11513270000001],[30.220119599999997,60.1155265],[30.2199245,60.1156217],[30.2192447,60.116496999999995],[30.219654600000002,60.116672200000004],[30.2215753,60.1167773],[30.2231477,60.117037599999996],[30.2239964,60.1177406],[30.2248792,60.118078800000006],[30.225727599999995,60.1182297],[30.229313899999998,60.118475800000006],[30.230766199999998,60.1185672],[30.233636399999998,60.118498300000006],[30.2338072,60.1185214],[30.234178600000003,60.118571700000004],[30.234254800000002,60.1183635],[30.235197,60.1184418],[30.235442399999997,60.1184628],[30.235841999999998,60.118500700000006],[30.237751600000003,60.11919090000001],[30.2517849,60.12282020000001],[30.2590333,60.12560580000001],[30.259241499999998,60.12565300000001],[30.2595209,60.12545530000001],[30.260049499999994,60.12516120000001],[30.261421999999996,60.1247145],[30.262913599999997,60.124337800000006],[30.264502899999997,60.12372390000001],[30.265124999999998,60.12333200000001],[30.265573699999997,60.1228412],[30.265772199999994,60.122575800000014],[30.265922199999995,60.12230350000001],[30.265917899999998,60.12171500000001],[30.265943399999998,60.121329800000005],[30.266032699999997,60.12099320000001],[30.2663089,60.12057190000001],[30.2663981,60.120419500000004],[30.266385999999997,60.12003590000001],[30.266033399999998,60.1195858],[30.266692699999997,60.1193516],[30.267254100000002,60.119129300000004],[30.267894400000003,60.1186985],[30.268931999999996,60.1179561],[30.269949699999998,60.1172033],[30.270747299999996,60.1165948],[30.271095900000002,60.116390200000005],[30.270766,60.11635270000001],[30.2710763,60.1135433],[30.2711834,60.1119456],[30.2712431,60.1118513],[30.2715636,60.1115355],[30.2716619,60.111394],[30.2716257,60.111186],[30.2714872,60.1111177],[30.271257700000003,60.1111106],[30.2714315,60.110287899999996],[30.273002299999998,60.1096699],[30.273290199999998,60.108085100000004],[30.274876600000002,60.108137600000006],[30.275602199999994,60.1028892],[30.275745099999998,60.10221680000001],[30.2769407,60.101980499999996],[30.282323099999996,60.09893700000001],[30.2874353,60.096179600000006],[30.288420299999995,60.096134400000004],[30.2893844,60.096380100000005],[30.2918302,60.095963100000006],[30.2918368,60.093898],[30.3031048,60.0910995],[30.3081821,60.09569030000001],[30.3088302,60.09571460000001],[30.331015200000003,60.0903745],[30.3329732,60.08980749999999],[30.340771,60.0908465],[30.359419,60.0919665],[30.3614742,60.09212130000001],[30.3632337,60.09201600000001],[30.366980100000003,60.09073680000001],[30.3683113,60.0902839],[30.370665100000004,60.0877197],[30.373528999999998,60.0805134],[30.373852600000003,60.0802533],[30.3751746,60.0798301],[30.376525,60.07863630000001],[30.376876100000004,60.0785843],[30.377193600000002,60.0773858],[30.378815100000004,60.0740902],[30.382536299999995,60.066713400000005],[30.385570299999998,60.06071870000001],[30.385402299999996,60.059742],[30.387393199999998,60.059178200000005],[30.388767199999997,60.0588039],[30.388044899999997,60.0580912],[30.3889016,60.0578229],[30.388112099999997,60.057076699999996],[30.3965713,60.0550063],[30.4067603,60.0525977],[30.418561,60.049681799999995],[30.415649099999996,60.0467092],[30.4188839,60.0460853],[30.4249333,60.0448258],[30.425113599999996,60.0443545],[30.4351444,60.04230090000001],[30.4364593,60.041902900000004],[30.437516499999997,60.0410621],[30.4377124,60.040139100000005],[30.4376124,60.03913300000001],[30.4419316,60.0409456],[30.457852400000004,60.0375701],[30.458336499999994,60.03753890000001],[30.4592916,60.037121],[30.459857900000003,60.0366179],[30.460538999999994,60.03617830000001],[30.4610956,60.035628200000005],[30.461196599999997,60.03532250000001],[30.461228799999997,60.0349946],[30.461293499999996,60.0346851],[30.461487499999997,60.03454],[30.462497899999995,60.0342166],[30.464051700000002,60.0339604],[30.465262499999994,60.0334536],[30.466976199999998,60.03375530000001],[30.4677911,60.033731700000004],[30.468231199999995,60.033556000000004],[30.468412199999992,60.033393100000005],[30.468392099999996,60.03317030000001],[30.468295599999998,60.033032000000006],[30.468244099999996,60.0327684],[30.468276299999996,60.03252560000001],[30.468083199999995,60.032279700000004],[30.4671934,60.0316502],[30.466795999999995,60.0315484],[30.466235999999995,60.0315098],[30.464545199999996,60.031265999999995],[30.4640709,60.0308342],[30.4638563,60.0303634],[30.463771999999995,60.030178500000005],[30.462979199999996,60.029672100000006],[30.462681199999995,60.0292849],[30.462162999999997,60.028611700000006],[30.462179999999996,60.02835980000001],[30.46234919999999,60.028127000000005],[30.462758499999996,60.02802320000001],[30.463438499999995,60.02793200000001],[30.464134199999997,60.027914700000004],[30.4646694,60.027877],[30.465289599999995,60.0278251],[30.466152199999996,60.02771810000001],[30.4679939,60.0274901],[30.468239399999995,60.027442900000004],[30.468399299999994,60.02736530000001],[30.468428299999996,60.027273],[30.4683654,60.027144],[30.468088299999998,60.0269679],[30.467682199999995,60.026845200000004],[30.467102899999997,60.026832600000006],[30.466174199999998,60.02690810000001],[30.465657899999997,60.02690810000001],[30.465248699999997,60.0268075],[30.464915,60.026581],[30.464455400000002,60.02617210000001],[30.464375999999998,60.0259877],[30.4641057,60.025836500000004],[30.464202299999997,60.02575610000001],[30.464149299999995,60.025541700000005],[30.464284499999998,60.025371500000006],[30.4648203,60.025061900000004],[30.46571919999999,60.0248901],[30.466162399999998,60.0247836],[30.466756499999995,60.024543200000004],[30.4669084,60.024306900000006],[30.466884,60.02393550000001],[30.4671011,60.0232491],[30.467213499999996,60.02305210000001],[30.467320899999997,60.02290880000001],[30.467576899999997,60.02274070000001],[30.4678799,60.022636500000004],[30.468459099999997,60.02259790000001],[30.468919199999995,60.022693600000004],[30.469617599999996,60.02307220000001],[30.470137199999996,60.02337380000001],[30.470396299999997,60.0238504],[30.470621199999997,60.024058100000005],[30.471043499999997,60.024448],[30.4717994,60.0247267],[30.4728046,60.0249516],[30.474322299999997,60.02517850000001],[30.4751664,60.02514930000001],[30.475641699999997,60.02502090000001],[30.475853100000002,60.0247849],[30.475834799999998,60.024585200000004],[30.475529899999994,60.02397560000001],[30.475442199999993,60.0236141],[30.4756546,60.02297420000001],[30.4758688,60.02270190000001],[30.4765813,60.022437100000005],[30.4769085,60.022414600000005],[30.4782611,60.022636500000004],[30.479155300000002,60.022650600000006],[30.479522599999996,60.02258500000001],[30.479863700000003,60.02239210000001],[30.4799796,60.0219773],[30.480431999999993,60.02117080000001],[30.4813504,60.020618500000005],[30.482178199999996,60.0202835],[30.483063599999998,60.02019310000001],[30.483802599999997,60.020306600000005],[30.4843384,60.020499],[30.486390699999998,60.021787599999996],[30.487158400000002,60.0225877],[30.487586999999998,60.022856000000004],[30.488157299999997,60.02313010000001],[30.488766799999993,60.0232067],[30.489396899999996,60.02281630000001],[30.489670799999995,60.022434000000004],[30.489475999999996,60.02143290000001],[30.4893601,60.0213204],[30.489424499999995,60.021166],[30.489346899999994,60.020563800000005],[30.489682999999996,60.0192709],[30.4898074,60.0188368],[30.4898634,60.0186933],[30.489636899999994,60.0186578],[30.4894954,60.0184828],[30.489346799999993,60.017782499999996],[30.4891557,60.0175261],[30.489049499999993,60.0175402],[30.4888655,60.017738300000005],[30.488660199999995,60.0177171],[30.488565899999998,60.0176751],[30.4884514,60.01764099999999],[30.487956,60.0171795],[30.4877649,60.016857599999994],[30.4872977,60.0164402],[30.487007499999997,60.0163306],[30.486639499999992,60.016305800000005],[30.486667799999996,60.0162457],[30.486866,60.0161714],[30.486773999999997,60.0161042],[30.486724399999996,60.016015700000004],[30.4863657,60.015774],[30.486260799999997,60.0156832],[30.4861617,60.0153684],[30.486224899999996,60.014971499999994],[30.486241199999995,60.01486849999999],[30.486246699999995,60.0148343],[30.486091,60.0147565],[30.485793699999995,60.01474939999999],[30.485793699999995,60.014703399999995],[30.486239599999994,60.0145336],[30.486317499999995,60.0143709],[30.486444899999995,60.0140561],[30.4869155,60.0136457],[30.4870712,60.0132531],[30.4870571,60.0131505],[30.486625299999996,60.0130302],[30.486611199999995,60.0129878],[30.486681999999995,60.0129595],[30.486972199999997,60.0130019],[30.487099599999997,60.0129949],[30.487557199999998,60.012336600000005],[30.487708199999997,60.01198839999999],[30.487846299999998,60.011376399999996],[30.4879383,60.0111712],[30.488348799999994,60.0107538],[30.48853279999999,60.0104743],[30.488461999999995,60.0103965],[30.488270899999996,60.010308],[30.4879453,60.01029739999999],[30.487888700000003,60.010269099999995],[30.488051499999997,60.0102196],[30.488327599999995,60.010208999999996],[30.488596499999993,60.0102726],[30.4888053,60.0102656],[30.489421099999998,60.0094802],[30.489175999999997,60.009362],[30.489350299999998,60.00933510000001],[30.489456499999996,60.009306800000005],[30.489590899999996,60.009073300000004],[30.489767899999997,60.008820300000004],[30.4898103,60.008700000000005],[30.489725399999998,60.00855850000001],[30.489314899999997,60.008325000000006],[30.489449399999994,60.00830030000001],[30.489612199999993,60.00833210000001],[30.489743099999995,60.008431200000004],[30.4898776,60.0084418],[30.4899979,60.00839220000001],[30.4900616,60.008272000000005],[30.4901351,60.008211200000005],[30.490562699999998,60.008385000000004],[30.492509899999995,60.0090775],[30.4928994,60.009482999999996],[30.4939001,60.0096608],[30.494368100000003,60.0090882],[30.494765100000002,60.008371200000006],[30.495462399999997,60.007869199999995],[30.4992716,60.0084019],[30.4993157,60.0079442],[30.499443299999996,60.007742900000004],[30.4996983,60.007356900000005],[30.503991100000004,60.006430900000005],[30.503393799999998,60.004496499999995],[30.503150400000003,60.004169499999996],[30.5029155,60.0035945],[30.5002458,60.0013735],[30.5001894,60.0012481],[30.499342399999996,60.00048949999999],[30.4997011,60.000174300000005],[30.500233599999998,60.0002005],[30.501709899999998,60.000179900000006],[30.501961500000004,60.0002256],[30.5023536,60.0000467],[30.502935100000002,59.999672100000005],[30.5020515,59.9982234],[30.504035000000002,59.99637250000001],[30.5038407,59.995934600000005],[30.5039628,59.9958014],[30.503796299999998,59.9956904],[30.503553,59.9950815],[30.503441199999997,59.9945748],[30.503612999999998,59.994440999999995],[30.5065626,59.9937094],[30.507258900000004,59.9927885],[30.506171900000002,59.990503700000005],[30.508707299999998,59.9888098],[30.508812799999998,59.988655200000004],[30.508712899999995,59.988444199999996],[30.5082578,59.98788079999999],[30.507741799999998,59.9874922],[30.5080914,59.987131399999996],[30.5087573,59.98726459999999],[30.510397,59.9866353],[30.511672400000002,59.986383999999994],[30.512147799999997,59.9862792],[30.5125689,59.985838300000005],[30.514455800000004,59.9858069],[30.5173225,59.985317900000005],[30.520049599999997,59.986412900000005],[30.5243177,59.9882499],[30.5345302,59.99255020000001],[30.534659700000002,59.992602700000006],[30.535737799999996,59.9922886],[30.5359235,59.992205600000005],[30.536060700000004,59.992123400000004],[30.5361215,59.9919484],[30.5360126,59.9918186],[30.536142499999997,59.9915116],[30.536509799999997,59.9910971],[30.536529799999997,59.990943300000005],[30.5364793,59.990799300000006],[30.5363418,59.9906934],[30.5361802,59.990647599999996],[30.535998900000003,59.990624399999994],[30.535868200000003,59.9905815],[30.5355924,59.990371100000004],[30.5355073,59.9902624],[30.534970900000005,59.9898386],[30.534811400000006,59.9898122],[30.5346668,59.98986039999999],[30.5346355,59.99012580000001],[30.5347235,59.9903214],[30.534522499999998,59.990487099999996],[30.534346499999998,59.990546200000004],[30.534333,59.9906347],[30.534190600000002,59.9906564],[30.5340268,59.9906212],[30.5337944,59.99012820000001],[30.533830400000003,59.99002],[30.5337804,59.989774499999996],[30.534277700000004,59.9894538],[30.5343148,59.989337],[30.534184400000004,59.9892223],[30.5337042,59.988902100000004],[30.533701999999998,59.9888018],[30.533957100000006,59.9886933],[30.534688700000004,59.9886599],[30.534882300000003,59.988713000000004],[30.534892000000003,59.988764499999995],[30.534816900000003,59.988958100000005],[30.534965800000005,59.9891412],[30.5353079,59.9891941],[30.5356572,59.9891967],[30.536260300000002,59.989089699999994],[30.5366317,59.988992200000006],[30.536947100000003,59.988853],[30.5375675,59.988752700000006],[30.537864500000005,59.988679399999995],[30.537944700000004,59.9885857],[30.537806500000002,59.988359],[30.537778900000003,59.98810590000001],[30.5376978,59.98801590000001],[30.5375299,59.987926699999996],[30.5370285,59.9878222],[30.5365026,59.98741739999999],[30.5362722,59.987095999999994],[30.5362715,59.9869354],[30.5364213,59.98678739999999],[30.5364145,59.986683899999996],[30.536288900000002,59.986636499999996],[30.535958100000006,59.98664639999999],[30.535347599999998,59.9866548],[30.534927900000003,59.98660709999999],[30.5347312,59.98664779999999],[30.534608700000003,59.9868157],[30.534073600000003,59.987099199999996],[30.533863900000004,59.9871178],[30.533657100000003,59.987114399999996],[30.533165900000004,59.9870127],[30.5330626,59.9869365],[30.533234,59.9866381],[30.5331891,59.9864332],[30.532972,59.986240699999996],[30.532692599999997,59.9860961],[30.5324734,59.9859956],[30.532358100000003,59.9858888],[30.5323407,59.9857607],[30.5323718,59.9856706],[30.5325843,59.985325100000004],[30.532524499999997,59.9851843],[30.5327781,59.984851199999994],[30.533136799999998,59.984640299999995],[30.5331264,59.9845148],[30.5329275,59.984397799999996],[30.532382499999997,59.9841134],[30.532110499999998,59.984124699999995],[30.531493100000002,59.984314399999995],[30.5314032,59.9845256],[30.5311416,59.98466809999999],[30.530814900000003,59.98460739999999],[30.530649499999996,59.9842387],[30.530834700000003,59.9839051],[30.5311978,59.983532000000004],[30.5312467,59.9832937],[30.530919700000002,59.9831297],[30.5301333,59.983048399999994],[30.5299592,59.982956200000004],[30.529676,59.9827673],[30.5286749,59.982402],[30.5280647,59.9821065],[30.528211,59.9820425],[30.528782299999996,59.98188929999999],[30.5293354,59.9820196],[30.530290700000002,59.9819281],[30.5307387,59.9820585],[30.530866700000004,59.981921299999996],[30.530953500000003,59.98185949999999],[30.531072400000003,59.981920099999996],[30.531355800000004,59.981760099999995],[30.5314792,59.98178059999999],[30.5315249,59.9818309],[30.5315477,59.981961299999995],[30.531982000000003,59.9822746],[30.5320688,59.9823043],[30.532151100000004,59.9824438],[30.5323522,59.98248949999999],[30.532516799999996,59.982580999999996],[30.532420799999997,59.9826587],[30.532708799999998,59.9827891],[30.532919,59.982770800000004],[30.5343726,59.9827685],[30.534464000000003,59.98273880000001],[30.534427400000002,59.9826656],[30.534454900000004,59.982613],[30.5345371,59.982597],[30.534925700000006,59.9825695],[30.5351908,59.982615300000006],[30.535369,59.982613],[30.535410199999998,59.982649599999995],[30.535423899999998,59.982750200000005],[30.5355656,59.9828622],[30.535679899999998,59.9829263],[30.5357941,59.982908],[30.535862700000003,59.982795900000006],[30.5360455,59.9827731],[30.5361461,59.9828142],[30.5360318,59.9828748],[30.536018100000003,59.9829468],[30.5361095,59.9829766],[30.536260400000003,59.982942300000005],[30.5365575,59.982759300000005],[30.5365209,59.9826907],[30.536365500000002,59.9826519],[30.536370100000003,59.982580999999996],[30.5364706,59.9825261],[30.536594100000002,59.9825147],[30.536914000000003,59.9826336],[30.5370466,59.982640399999994],[30.537138000000002,59.982601599999995],[30.537266000000002,59.9826313],[30.537407700000003,59.9826336],[30.537407700000003,59.982599300000004],[30.537266000000002,59.9825741],[30.5372294,59.98248949999999],[30.5373665,59.982466599999995],[30.537375700000005,59.9824232],[30.5373208,59.9824186],[30.537362,59.9823546],[30.5376728,59.98237290000001],[30.537805400000007,59.982311200000005],[30.5379425,59.982320300000005],[30.537960800000004,59.982409499999996],[30.5381893,59.982356900000006],[30.5381093,59.9822563],[30.5383882,59.9822197],[30.5385024,59.9822951],[30.5386624,59.98227],[30.5388224,59.9821945],[30.538948100000002,59.9821625],[30.539190400000003,59.982139600000004],[30.5392132,59.9820482],[30.5392909,59.981997899999996],[30.5394578,59.981970399999994],[30.5395697,59.9820185],[30.539716,59.981997899999996],[30.5396314,59.9819361],[30.5400383,59.981853799999996],[30.5401937,59.981814899999996],[30.540394799999998,59.98181149999999],[30.5404634,59.981779499999995],[30.5404588,59.981674299999995],[30.5405731,59.981635399999995],[30.540618799999997,59.981539399999996],[30.540776499999996,59.981465099999994],[30.5408473,59.9814159],[30.5407056,59.981313],[30.540719299999996,59.98127639999999],[30.541098700000003,59.9812124],[30.5412221,59.9811209],[30.541409499999997,59.981097999999996],[30.541597,59.981152900000005],[30.541875800000003,59.981101499999994],[30.542035799999997,59.9811243],[30.542136299999996,59.9811586],[30.542309999999997,59.98106489999999],[30.5424837,59.981062599999994],[30.542552299999997,59.9811106],[30.5429774,59.981060299999996],[30.543791,59.980983699999996],[30.543909799999998,59.9810203],[30.544060700000003,59.9809357],[30.543960100000003,59.9808191],[30.543983,59.9807802],[30.544074400000003,59.9807367],[30.5439967,59.9806178],[30.544412599999998,59.980622399999994],[30.5444538,59.980495499999996],[30.544531499999998,59.980479499999994],[30.544627499999997,59.98051830000001],[30.545779399999997,59.9805161],[30.5465777,59.9805458],[30.5472101,59.98060749999999],[30.5475666,59.980358300000006],[30.547744899999998,59.9803354],[30.547955100000006,59.9803697],[30.54817,59.9804543],[30.5481882,59.9805115],[30.548416799999995,59.980522900000004],[30.548672799999995,59.980619],[30.548677299999998,59.98068299999999],[30.5486956,59.9807699],[30.5488053,59.980774499999995],[30.5488602,59.980705900000004],[30.5489173,59.980726399999995],[30.5489379,59.9807859],[30.5491916,59.98084759999999],[30.5493675,59.980973399999996],[30.5495504,59.9809688],[30.549737799999996,59.9809803],[30.549829199999998,59.98103739999999],[30.5496647,59.98109459999999],[30.5496281,59.9811541],[30.549705799999998,59.981206699999994],[30.549888600000003,59.981174599999996],[30.550039499999997,59.98122039999999],[30.5500029,59.98127759999999],[30.550039499999997,59.9813233],[30.5501355,59.981320999999994],[30.5502909,59.981272999999995],[30.550492,59.9813164],[30.5506977,59.9813736],[30.550853100000005,59.9813736],[30.5512828,59.98122149999999],[30.551977600000004,59.9811586],[30.5522907,59.98109349999999],[30.5523836,59.9810099],[30.5483989,59.979190300000006],[30.548433999999997,59.97870820000001],[30.5514592,59.9783911],[30.551729899999998,59.9794297],[30.5540628,59.979218900000006],[30.554006,59.978250100000004],[30.554000300000002,59.97815250000001],[30.5540036,59.978116500000006],[30.554008400000004,59.9780725],[30.554086100000003,59.9771796],[30.554358200000003,59.9768721],[30.554619199999998,59.9765945],[30.5548895,59.9763066],[30.555842799999997,59.975279900000004],[30.5575219,59.97423],[30.5582084,59.9738116],[30.556165500000002,59.9732832],[30.556950500000003,59.97271670000001],[30.5594109,59.9733712],[30.566029299999997,59.970964699999996],[30.565325499999997,59.9709217],[30.5647676,59.970685499999995],[30.5642783,59.970522300000006],[30.563737599999996,59.97053520000001],[30.562535999999994,59.9702903],[30.5619352,59.97026459999999],[30.560991,59.970170100000004],[30.560621999999995,59.96986939999999],[30.559274400000003,59.9696202],[30.555815400000004,59.9699037],[30.5543134,59.9696031],[30.5524931,59.968990000000005],[30.545091999999997,59.97573030000001],[30.544485100000003,59.976282999999995],[30.5429152,59.975830200000004],[30.542532199999993,59.9757625],[30.542131999999995,59.9757067],[30.541506199999997,59.9756881],[30.539961300000005,59.975701],[30.5329264,59.9739433],[30.531718100000003,59.9736721],[30.5290419,59.973107],[30.528770899999998,59.9730505],[30.5284547,59.9730166],[30.5281667,59.9730194],[30.527969100000004,59.9730505],[30.527850500000003,59.9730957],[30.5268455,59.9740902],[30.5248993,59.9735978],[30.517204100000004,59.9715718],[30.517289700000003,59.97148739999999],[30.516895600000005,59.971387299999996],[30.5167945,59.971489999999996],[30.514140100000002,59.97080139999999],[30.513741,59.9706979],[30.513188900000003,59.970578100000004],[30.5131012,59.9705585],[30.512439699999998,59.9678518],[30.512310799999998,59.9675294],[30.5120061,59.9658286],[30.511347,59.9623847],[30.507750700000003,59.945623399999995],[30.507741499999998,59.9455809],[30.5077189,59.945492],[30.5077056,59.9454342],[30.505526599999996,59.9359444],[30.5031863,59.92525320000001],[30.5000214,59.91078949999999],[30.495537399999996,59.892011800000006],[30.495419299999995,59.891479],[30.4974091,59.8913632],[30.4976009,59.890542800000006],[30.501093400000002,59.886822599999995],[30.501058200000003,59.88626439999999],[30.5079828,59.87748989999999],[30.511667900000003,59.872852900000005],[30.519999000000002,59.8632286],[30.516375100000005,59.8625891],[30.508684499999998,59.8612318],[30.5080003,59.85969119999999],[30.505399799999996,59.85920949999999],[30.5038692,59.859491899999995],[30.498846499999996,59.85888769999999],[30.498625099999998,59.85907709999999],[30.4976289,59.858989099999995],[30.497248999999996,59.8589555],[30.4970376,59.8589368],[30.493492299999996,59.8582023],[30.493544099999998,59.854835699999995],[30.492426599999995,59.850470599999994],[30.492363499999996,59.85022409999999],[30.493412899999996,59.84708349999999],[30.499621799999996,59.845150700000005],[30.5065741,59.84407439999999],[30.513395100000004,59.84150439999999],[30.521429199999996,59.837660899999996],[30.5234518,59.8366932],[30.5360445,59.8336392],[30.540985400000004,59.833595300000006],[30.552441299999998,59.8362099],[30.5580818,59.836605399999996],[30.562421599999997,59.8344381],[30.561492299999998,59.8306289],[30.5610988,59.827860099999995],[30.563241299999998,59.825222800000006],[30.567302799999997,59.8240391],[30.573647799999996,59.822189800000004],[30.589738499999996,59.816848199999995],[30.596953100000004,59.8121435],[30.604315500000002,59.8082365],[30.614836500000003,59.802534],[30.622685999999998,59.7972857],[30.6254616,59.795429600000006],[30.635081000000003,59.79243790000001],[30.653358000000004,59.79052390000001],[30.661228400000002,59.7892698],[30.6716349,59.785705400000005],[30.6763829,59.7854194],[30.6829596,59.785023200000005],[30.6972139,59.7814143],[30.720781499999998,59.781876499999996],[30.7322811,59.78051200000001],[30.736193,59.77912080000001],[30.733974300000003,59.777214900000004],[30.728317799999996,59.77225370000001],[30.726815400000003,59.770596000000005],[30.727801600000003,59.7702785],[30.7348792,59.768649100000005],[30.740438999999995,59.764746300000006],[30.7376991,59.759247599999995],[30.744199799999997,59.755989],[30.7462447,59.755548000000005],[30.748649099999994,59.75515190000001],[30.750446699999998,59.75510330000001],[30.753018400000002,59.7552967],[30.7581741,59.755946300000005],[30.759068400000004,59.755278600000004],[30.7595608,59.754687999999994],[30.7596912,59.754174]]]]}}
