{"type":"Feature","id":3788485,"properties":{"name":"Севастополь","name:en":"Sevastopol","timezone":"Europe/Simferopol","name_ru":"Севастополь","name_en":"Sevastopol","name_zh":"塞瓦斯托波尔市","parentRegionId":"respublika_krym","sourceSubjectId":"sevastopol","sourceTopologySha256":"ac697adf68124f8e72221288896e32d4c9995764997966342d9075b36be0d56e"},"geometry":{"type":"MultiPolygon","coordinates":[[[[33.696591000000005,44.191039700000005],[33.6774746,44.195041700000004],[33.6587836,44.1999694],[33.656582900000004,44.200675200000006],[33.655677,44.2008176],[33.6365606,44.20481890000001],[33.61786959999999,44.20974580000001],[33.5996913,44.21557490000001],[33.58211030000001,44.22227900000001],[33.565208600000005,44.229826300000006],[33.56519430000001,44.22983370000001],[33.5492773,44.23316380000001],[33.5305864,44.23808820000001],[33.512408,44.243914600000004],[33.494826999999994,44.2506154],[33.4779254,44.25815910000001],[33.4617819,44.26651020000001],[33.4464718,44.2756294],[33.4320666,44.285474],[33.420348100000005,44.294654200000004],[33.402010100000005,44.29753130000001],[33.3828937,44.3015261],[33.3642027,44.306444799999994],[33.346024299999996,44.31226439999999],[33.3284434,44.318957399999995],[33.31154169999999,44.3264924],[33.295398200000015,44.3348338],[33.2800882,44.343942399999996],[33.26568290000001,44.3537755],[33.2522496,44.364286799999995],[33.239850800000006,44.3754269],[33.228544500000005,44.387143699999996],[33.218383300000006,44.399382],[33.2094146,44.412084699999994],[33.20867090000001,44.4133451],[33.2040236,44.415742900000005],[33.188713500000006,44.424839],[33.174308200000006,44.4346585],[33.1608749,44.44515530000001],[33.148476200000005,44.45627999999999],[33.1371699,44.4679806],[33.127008700000005,44.4802021],[33.11804,44.4928871],[33.110305600000004,44.5059764],[33.103841499999994,44.5194085],[33.09867800000001,44.533120700000005],[33.0948391,44.5470488],[33.09234270000001,44.5611278],[33.091200300000004,44.575292000000005],[33.0914175,44.5894752],[33.09299300000001,44.603611300000004],[33.09591970000001,44.617634499999994],[33.1001838,44.6314796],[33.1057654,44.645082],[33.112638600000004,44.658378600000006],[33.12077130000001,44.6713076],[33.13012560000001,44.683809],[33.1406578,44.695824800000004],[33.15231890000001,44.7072993],[33.165054500000004,44.71817930000001],[33.178805200000006,44.728414400000005],[33.19350680000001,44.737957300000005],[33.209091,44.746763900000005],[33.225484900000005,44.7547934],[33.24261210000001,44.76200860000001],[33.246293300000005,44.763327000000004],[33.245797700000004,44.76511830000002],[33.243301200000005,44.7791444],[33.242158900000014,44.79325540000001],[33.24237600000001,44.8073853],[33.2439516,44.82146839999999],[33.246878200000005,44.83543890000001],[33.251142300000005,44.8492319],[33.256724,44.8627832],[33.25910270000001,44.867368],[33.26051620000001,44.8741107],[33.264780300000005,44.887894399999986],[33.270362000000006,44.9014366],[33.27723520000001,44.914674299999994],[33.285367900000004,44.927546],[33.29472210000001,44.939992000000004],[33.29518710000001,44.9405202],[33.5542562,44.8402319],[33.5549923,44.8402283],[33.5554598,44.84011890000001],[33.5564958,44.8399829],[33.557065099999996,44.84002769999999],[33.5576009,44.840060799999996],[33.5592283,44.8405171],[33.5601044,44.8411438],[33.560709300000006,44.841402699999996],[33.5614455,44.8413991],[33.56217870000001,44.841097899999994],[33.5630574,44.8402603],[33.56411820000001,44.839919300000005],[33.5658975,44.839139100000004],[33.56715260000001,44.838601],[33.567241499999994,44.838269499999996],[33.56759890000001,44.8369039],[33.567750800000006,44.8363236],[33.568286,44.8345948],[33.5684954,44.8337724],[33.5692012,44.8323879],[33.56995510000001,44.8308009],[33.571038200000004,44.8286765],[33.5720867,44.826433200000004],[33.573666599999996,44.823818300000006],[33.5757615,44.8208554],[33.57673320000001,44.81926759999999],[33.5776542,44.817762599999995],[33.57839690000001,44.8167708],[33.580491699999996,44.813855499999995],[33.583406499999995,44.81100739999999],[33.58628739999999,44.8081475],[33.586652300000004,44.80784799999999],[33.588881699999995,44.80837220000001],[33.5946433,44.80924709999999],[33.59849620000001,44.809893699999996],[33.6028486,44.8103113],[33.6037832,44.8101278],[33.6058375,44.8098788],[33.60823890000001,44.8092351],[33.6110748,44.8085771],[33.6136956,44.8081345],[33.617048999999994,44.8074022],[33.620752300000014,44.8065488],[33.62293660000001,44.8059655],[33.626152800000014,44.8049361],[33.62790330000001,44.8044503],[33.633605,44.802895],[33.637474,44.8019569],[33.638856600000004,44.80148489999999],[33.6427247,44.80048699999999],[33.6479431,44.79913610000001],[33.65142719999999,44.79821160000001],[33.655296,44.79730850000001],[33.6586481,44.79656310000001],[33.662628700000006,44.79523060000001],[33.6642612,44.79470920000001],[33.66575790000001,44.79401000000001],[33.6670034,44.7932885],[33.669327100000004,44.7918226],[33.67225210000001,44.7897687],[33.6772085,44.786154200000006],[33.6774224,44.7858657],[33.6776172,44.78541680000001],[33.6780405,44.7841524],[33.67833610000001,44.783170500000004],[33.67881570000001,44.7812311],[33.679605800000004,44.77876220000001],[33.6803857,44.77685280000001],[33.6810253,44.77581330000001],[33.6815548,44.7739412],[33.68231620000001,44.771889099999996],[33.6826717,44.7708631],[33.682799300000006,44.77033860000001],[33.6823606,44.7699841],[33.6802293,44.769223000000004],[33.6777949,44.768261300000006],[33.6747231,44.767089],[33.670222700000004,44.765187000000005],[33.66661630000001,44.76399380000001],[33.661667099999995,44.762260700000006],[33.6588491,44.76131270000001],[33.6546382,44.7598132],[33.648079,44.75746959999999],[33.6448596,44.7564403],[33.639642200000004,44.754505300000005],[33.635548500000006,44.7529449],[33.632582600000006,44.752128000000006],[33.6307899,44.75166169999999],[33.62695900000001,44.7511828],[33.62354690000001,44.7508087],[33.618075700000006,44.750028900000004],[33.6145825,44.7498692],[33.6136625,44.74975510000001],[33.6135014,44.748744],[33.6134149,44.7468755],[33.613517200000004,44.745494],[33.61364759999999,44.7436124],[33.6140928,44.7414791],[33.61427749999999,44.739990000000006],[33.61486599999999,44.737213100000005],[33.61511920000001,44.734307],[33.615526900000006,44.7318048],[33.6156638,44.73054220000001],[33.6148136,44.729873600000005],[33.6149338,44.7276054],[33.6151375,44.7216791],[33.6156037,44.7215496],[33.6158027,44.7175613],[33.616120300000006,44.711976],[33.620986,44.7128827],[33.623074300000006,44.7130142],[33.62532910000001,44.7130971],[33.627916400000004,44.7130591],[33.6308719,44.71310230000001],[33.6338247,44.7128955],[33.6348429,44.712878],[33.637163300000005,44.712853100000004],[33.6412226,44.7130685],[33.64371250000001,44.7132807],[33.647221099999996,44.71351090000001],[33.649193100000005,44.7136902],[33.65342,44.713951800000004],[33.6565092,44.7140055],[33.6589663,44.7142533],[33.65953270000001,44.714142800000005],[33.660960100000004,44.7134084],[33.66220560000001,44.712817900000005],[33.6644011,44.71210280000001],[33.666245700000005,44.711353900000006],[33.667623,44.7106316],[33.668837800000006,44.7102912],[33.6702036,44.7100213],[33.670801399999995,44.70974390000001],[33.6730571,44.70990930000001],[33.675565600000006,44.7102873],[33.6780404,44.7106298],[33.681937,44.7112137],[33.6839279,44.711570900000005],[33.68668699999999,44.7119472],[33.69018290000001,44.7125094],[33.692677700000004,44.713263399999995],[33.694506600000004,44.7138526],[33.69555530000002,44.7141975],[33.6968818,44.7146185],[33.69777820000001,44.7146333],[33.69917610000001,44.7147547],[33.7006932,44.7148119],[33.70210090000001,44.7143249],[33.702643,44.7132792],[33.7039035,44.71238890000001],[33.7068042,44.711181499999995],[33.707243399999996,44.7105734],[33.707428300000004,44.709925500000004],[33.7070032,44.709273],[33.70572220000001,44.7088855],[33.70515330000001,44.70860690000001],[33.70509330000001,44.70491580000001],[33.7111774,44.7054294],[33.7145084,44.705868],[33.715643,44.715848],[33.718299300000005,44.7159813],[33.7204677,44.7158316],[33.724013400000004,44.716302400000004],[33.725708300000015,44.71645590000001],[33.72659210000001,44.716636],[33.7276578,44.7153435],[33.728397400000006,44.714410300000004],[33.729932800000014,44.713029],[33.73115570000001,44.711507],[33.732668000000004,44.7098973],[33.73350820000001,44.709006200000005],[33.7348624,44.7075832],[33.73602280000001,44.706675800000006],[33.7377416,44.70557900000001],[33.740079800000004,44.704356700000005],[33.742487499999996,44.70309820000001],[33.74509330000001,44.7016813],[33.7462868,44.701030700000004],[33.7477619,44.700478200000006],[33.7492774,44.69995390000001],[33.7510487,44.69907090000001],[33.7518027,44.69878630000001],[33.7532419,44.69907070000001],[33.7547377,44.699346600000005],[33.7567463,44.69978330000001],[33.7588479,44.700433600000004],[33.76007130000001,44.7006857],[33.7606626,44.7012564],[33.76151320000001,44.70099020000001],[33.763692400000004,44.69929230000001],[33.764286,44.698654000000005],[33.765391400000006,44.69807990000001],[33.7652945,44.697500000000005],[33.767185500000004,44.698172100000015],[33.7682695,44.69713200000001],[33.76938680000001,44.69645030000001],[33.771208800000004,44.694601],[33.773417,44.69281500000001],[33.7743776,44.69215550000001],[33.77511310000001,44.691597300000005],[33.7760274,44.69092070000001],[33.776971100000004,44.690265000000004],[33.775878000000006,44.689358000000006],[33.7734405,44.6875265],[33.77151320000001,44.68610290000001],[33.7702215,44.684988999999995],[33.76956390000001,44.68448239999999],[33.768772100000014,44.68384439999999],[33.767794,44.682452600000005],[33.767478700000005,44.6820761],[33.76547190000001,44.6815765],[33.7641884,44.6808728],[33.76203400000001,44.679527900000004],[33.759848399999996,44.6782635],[33.7588447,44.6776141],[33.757138700000006,44.676088],[33.75597580000001,44.6759891],[33.754625,44.67533990000001],[33.75408039999999,44.67415820000001],[33.75371680000001,44.673910600000006],[33.7538337,44.673659900000004],[33.75335870000001,44.671770200000005],[33.7530486,44.6710079],[33.7529211,44.6704373],[33.75273280000001,44.669810000000005],[33.752576700000006,44.668575300000015],[33.7538142,44.665745400000006],[33.75186659999999,44.66374390000001],[33.7499838,44.66209920000001],[33.74850360000001,44.6606232],[33.7467661,44.6593631],[33.74518870000001,44.65810200000001],[33.74252190000001,44.656162200000004],[33.7410862,44.655003900000004],[33.73894550000001,44.653493999999995],[33.73663090000001,44.651937499999995],[33.73540830000001,44.651269199999994],[33.7340468,44.6501637],[33.7330897,44.64937930000001],[33.731919700000006,44.648644],[33.7308547,44.6477651],[33.73003230000001,44.6470751],[33.72927500000001,44.6462609],[33.72865370000001,44.64565530000001],[33.728118600000016,44.6444683],[33.7276571,44.6438331],[33.7274049,44.6428633],[33.727090100000005,44.6422272],[33.72674870000001,44.6415913],[33.72612510000001,44.64079520000001],[33.72547620000001,44.6401041],[33.7244267,44.6393774],[33.723312600000014,44.638822600000005],[33.72254790000001,44.6384655],[33.7212514,44.638254700000005],[33.720488200000005,44.6380214],[33.7196726,44.63786459999999],[33.71817810000001,44.637826399999994],[33.71768169999999,44.6375914],[33.7175791,44.6368397],[33.717527399999994,44.6358972],[33.7171711,44.63511840000001],[33.717058,44.6346049],[33.7168736,44.63371080000001],[33.71686749999999,44.63321560000001],[33.717533700000004,44.63315420000001],[33.71833130000001,44.63293970000001],[33.71913080000001,44.6328775],[33.719875200000004,44.63267290000001],[33.72039420000001,44.63258390000001],[33.720897,44.63225690000001],[33.721865300000005,44.6318222],[33.721875700000005,44.631584],[33.720651000000004,44.629620300000006],[33.7192673,44.62773380000001],[33.71903230000001,44.627059100000004],[33.71870500000001,44.626470700000006],[33.718324300000006,44.625882600000004],[33.71815910000001,44.6254646],[33.7178979,44.6248281],[33.717490999999995,44.62427830000001],[33.7170489,44.62302390000001],[33.7166882,44.621892900000006],[33.7163413,44.62079030000001],[33.716270300000005,44.62043830000001],[33.71690280000001,44.619824799999996],[33.71827330000001,44.618501900000005],[33.71857610000001,44.618185700000005],[33.719035500000004,44.6175924],[33.719854399999996,44.616958600000004],[33.720686,44.6162772],[33.720840100000004,44.6158],[33.7214478,44.61533910000001],[33.7218299,44.6149747],[33.722156900000016,44.6144584],[33.722365300000014,44.6140571],[33.722747600000005,44.613711800000004],[33.72300920000001,44.6133006],[33.72411410000001,44.6120841],[33.724439800000006,44.6114725],[33.72511270000002,44.6109063],[33.72616480000001,44.609737700000004],[33.727216600000006,44.60855010000001],[33.72869260000001,44.604681199999995],[33.73316260000001,44.60250500000001],[33.73516510000001,44.6013468],[33.735653000000006,44.6009246],[33.7367276,44.6015748],[33.73827510000001,44.60271720000001],[33.73937880000001,44.603548200000006],[33.7409641,44.60451880000001],[33.7419079,44.60535080000001],[33.74273900000001,44.605707300000006],[33.744399,44.606248900000004],[33.746085,44.60673310000001],[33.7479194,44.6073497],[33.749619700000004,44.607910000000004],[33.7516759,44.608144100000004],[33.75315820000001,44.608334400000004],[33.7542169,44.60875600000001],[33.755109000000004,44.608664399999995],[33.7561887,44.6086477],[33.758133400000006,44.60851100000001],[33.760161100000005,44.60860230000001],[33.761668,44.60863030000001],[33.7619374,44.6088476],[33.76271300000001,44.6090234],[33.764406300000005,44.6090311],[33.76516720000001,44.60910220000001],[33.76613080000001,44.6093815],[33.7678324,44.6100177],[33.76899180000001,44.610353700000005],[33.76992020000001,44.6106227],[33.7714466,44.6111076],[33.77378590000001,44.611568],[33.774818,44.611979999999996],[33.7768504,44.61241390000001],[33.77850910000001,44.6128216],[33.779579600000005,44.6131096],[33.7800828,44.612849],[33.780635600000004,44.61231190000001],[33.7814198,44.611135100000006],[33.782002000000006,44.6098073],[33.7821674,44.609215600000006],[33.7825664,44.60715580000001],[33.782830600000004,44.6059825],[33.782957800000005,44.604534],[33.782791200000005,44.603049399999996],[33.782509100000006,44.601898999999996],[33.782188500000004,44.6008535],[33.7818708,44.6000271],[33.7817755,44.5988849],[33.7817092,44.59791390000001],[33.781845,44.5971035],[33.782675000000005,44.595383500000004],[33.78295680000001,44.59453390000001],[33.783579700000004,44.593272500000005],[33.784123,44.592049700000004],[33.7856473,44.5904297],[33.7864857,44.5893477],[33.786929300000004,44.588639900000004],[33.7872269,44.587980699999996],[33.7874273,44.58702699999999],[33.7876721,44.585415700000006],[33.78841820000001,44.5854011],[33.7890424,44.58524439999999],[33.7894967,44.585326900000005],[33.79003830000001,44.5849708],[33.79079810000001,44.58498459999999],[33.7914775,44.584970399999996],[33.79200910000001,44.58486189999999],[33.792165300000015,44.58458459999999],[33.79219970000001,44.5841749],[33.79228830000001,44.583831399999994],[33.792508800000014,44.583382300000004],[33.79279700000001,44.583018300000006],[33.79327250000001,44.582700800000005],[33.793518800000015,44.582194300000005],[33.793662000000005,44.5819457],[33.7940437,44.581600099999996],[33.79438520000001,44.5812359],[33.794765600000005,44.5807856],[33.795198700000014,44.5802969],[33.79598670000001,44.5804342],[33.7968454,44.5808568],[33.7974865,44.580966599999996],[33.79829080000001,44.5813134],[33.798626000000006,44.58146339999999],[33.79941650000001,44.5817722],[33.79970560000001,44.581474899999996],[33.8001316,44.58144339999999],[33.8004378,44.5814222],[33.8008203,44.5811338],[33.80122719999999,44.5806833],[33.8015562,44.5803858],[33.802081799999996,44.5798392],[33.8028948,44.5788811],[33.8039459,44.577797499999996],[33.80432449999999,44.577232900000006],[33.80469179999999,44.5768113],[33.804885199999994,44.576343300000005],[33.8051745,44.576065],[33.805317300000006,44.5757878],[33.8054863,44.5754819],[33.8056839,44.57531860000001],[33.806483899999996,44.5753606],[33.806844899999994,44.5754437],[33.807046299999996,44.575556600000006],[33.8069355,44.5762145],[33.8069947,44.5766427],[33.807292,44.576945300000006],[33.807637899999996,44.5769048],[33.808345,44.5769665],[33.8092384,44.5770173],[33.809384699999995,44.5769972],[33.80956139999999,44.576281699999996],[33.8098351,44.5758416],[33.8099862,44.57521200000001],[33.810202999999994,44.5745057],[33.8103958,44.5739995],[33.81062039999999,44.57386459999999],[33.811445799999994,44.5738111],[33.81175339999999,44.573894599999996],[33.812062999999995,44.574121],[33.81208109999999,44.5744638],[33.812831599999996,44.575734600000004],[33.81356759999999,44.57691030000001],[33.813903599999996,44.5771175],[33.814490199999995,44.5771419],[33.8156109,44.5772386],[33.816424299999994,44.57728049999999],[33.8173303,44.577273999999996],[33.8180081,44.577145300000005],[33.8187651,44.5769685],[33.8194538,44.5766683],[33.820646599999996,44.576212100000006],[33.8212036,44.5760271],[33.8218229,44.5755274],[33.8226812,44.5749784],[33.823393200000005,44.5744399],[33.8236795,44.5739617],[33.824418800000004,44.5734706],[33.82511550000001,44.57279890000001],[33.8254698,44.572415400000004],[33.82615530000001,44.5718961],[33.8272108,44.571263599999995],[33.8272059,44.570833],[33.8270852,44.5698227],[33.82726639999999,44.568507100000005],[33.8271548,44.567212700000006],[33.8272308,44.565993000000006],[33.8271916,44.565107600000005],[33.8272924,44.5646973],[33.8274085,44.5644298],[33.827360399999996,44.563858700000004],[33.8273394,44.56331600000001],[33.8275857,44.56283810000001],[33.8278949,44.56209290000001],[33.82805020000001,44.561768],[33.82835250000001,44.5614801],[33.8284554,44.5612222],[33.828465,44.560965],[33.82875320000001,44.56062],[33.82891020000001,44.56041890000001],[33.8289862,44.56014210000001],[33.8293838,44.559063099999996],[33.829590100000004,44.55857580000001],[33.8297434,44.5581176],[33.8300049,44.5577728],[33.8302384,44.557333],[33.830260499999994,44.557008999999994],[33.830505800000005,44.55646439999999],[33.8308508,44.555433300000004],[33.831082099999996,44.55484109999999],[33.83147449999999,44.5543335],[33.832140200000005,44.553376300000004],[33.8329095,44.55221830000001],[33.833533700000004,44.5511565],[33.834555200000004,44.5499395],[33.8358823,44.549462999999996],[33.8372152,44.548782],[33.83682759999999,44.547722900000004],[33.836807799999995,44.5472754],[33.8363265,44.54621220000001],[33.83557690000001,44.5450177],[33.834759399999996,44.5440569],[33.834053399999995,44.5427812],[33.833823499999994,44.54253520000001],[33.8337314,44.5416787],[33.8344731,44.5413971],[33.8352682,44.5411247],[33.8358242,44.540892],[33.8365809,44.5407246],[33.8372143,44.54031990000001],[33.837676699999996,44.5400689],[33.8386706,44.53972830000001],[33.83890230000001,44.539174200000005],[33.839464899999996,44.5384748],[33.8399065,44.5377001],[33.840126,44.5372223],[33.8401431,44.53715530000001],[33.840327699999996,44.536430300000006],[33.8405727,44.53495230000001],[33.8405376,44.5343621],[33.8405996,44.533114000000005],[33.840427999999996,44.532296200000005],[33.840340499999996,44.5317635],[33.8403335,44.5312778],[33.8402203,44.530812000000005],[33.8401482,44.5304315],[33.840409799999996,44.53010580000001],[33.841235,44.5300807],[33.841926699999995,44.5300375],[33.842739900000005,44.5301077],[33.843114,44.5302001],[33.8441107,44.530069],[33.8456967,44.5301811],[33.8482852,44.5305619],[33.8487391,44.5306442],[33.84949759999999,44.5306195],[33.8502118,44.5302904],[33.85080739999999,44.5300479],[33.8515357,44.52977580000001],[33.8520773,44.5294765],[33.852564699999995,44.529120500000005],[33.8531192,44.528802000000006],[33.85383169999999,44.52835860000001],[33.85454139999999,44.5277247],[33.8553463,44.527233],[33.8559258,44.5268001],[33.85686169999999,44.5261645],[33.857270199999995,44.52587570000001],[33.85700149999999,44.52570630000001],[33.8561822,44.525217100000006],[33.854909199999994,44.524655200000005],[33.852640599999994,44.5233674],[33.851739699999996,44.52275510000001],[33.85089669999999,44.522456600000005],[33.8501468,44.522157400000005],[33.8493536,44.521620399999996],[33.848667899999995,44.52115880000001],[33.8480629,44.520744300000004],[33.847393499999995,44.5204826],[33.846174399999995,44.5199487],[33.845584599999995,44.51966739999999],[33.8456566,44.519124],[33.8465578,44.5188506],[33.847337599999996,44.5184639],[33.8485712,44.5181595],[33.849587899999996,44.51759],[33.851290199999994,44.5165678],[33.8521084,44.516085499999996],[33.8527539,44.5156235],[33.85315,44.515401499999996],[33.854066999999986,44.5143851],[33.8551427,44.5133104],[33.8556519,44.5126304],[33.856215,44.511997599999994],[33.85716719999999,44.5106761],[33.85779459999999,44.509890399999996],[33.8580309,44.509669599999995],[33.858293499999995,44.50942],[33.858877799999995,44.508425100000004],[33.859609999999996,44.507533900000006],[33.8599229,44.507093399999995],[33.8603572,44.506756800000005],[33.8612079,44.506683699999996],[33.86255310000001,44.5067498],[33.863781599999996,44.5070262],[33.8652096,44.507291599999995],[33.8658497,44.507382],[33.8663819,44.5073684],[33.8671439,44.5076008],[33.8677851,44.5077578],[33.86851600000001,44.507685599999995],[33.868911000000004,44.5073968],[33.8696063,44.50671530000001],[33.8702988,44.50585290000001],[33.8707581,44.505411300000006],[33.8695899,44.5047154],[33.8685812,44.5040088],[33.867986699999996,44.5034038],[33.8673484,44.502541900000004],[33.8671564,44.50215290000001],[33.86713530000001,44.501629199999996],[33.86715530000001,44.501181499999994],[33.86724939999999,44.50035220000001],[33.8675184,44.499645300000005],[33.8677105,44.49913910000001],[33.86851810000001,44.497961499999995],[33.869083599999996,44.4975096],[33.86971090000001,44.49674290000001],[33.870459399999994,44.4960705],[33.8711006,44.495341800000006],[33.872319700000006,44.4941134],[33.873629199999996,44.492693800000005],[33.87447099999999,44.49203980000001],[33.8757731,44.4910298],[33.876289199999995,44.4908448],[33.8766003,44.4902901],[33.8771005,44.4899338],[33.8775082,44.489616399999996],[33.8782742,44.4892391],[33.878812100000005,44.488730200000006],[33.879533800000004,44.4880579],[33.880728999999995,44.48702959999999],[33.88140149999999,44.48662439999999],[33.881873299999995,44.4861541],[33.8824007,44.485835800000004],[33.8828731,44.4854035],[33.883660799999994,44.4847022],[33.884526699999995,44.483895499999996],[33.8852791,44.4835087],[33.886030399999996,44.4830457],[33.886425599999995,44.4827855],[33.8867408,44.4825164],[33.8869091,44.482210300000006],[33.8872527,44.482055200000005],[33.8877033,44.48194699999999],[33.888138500000004,44.4816959],[33.8885197,44.4813882],[33.8893707,44.481362499999996],[33.8904838,44.48107769999999],[33.892656200000005,44.4804702],[33.894076,44.4802306],[33.894964699999996,44.48006169999999],[33.89624439999999,44.479365900000005],[33.8971535,44.4787873],[33.8973968,44.47817590000001],[33.897509,44.4776798],[33.8973304,44.4773097],[33.8968726,44.4769514],[33.8965611,44.4765919],[33.896022300000006,44.4761485],[33.8954716,44.4758004],[33.894919300000005,44.4753476],[33.8942191,44.4747912],[33.893812100000005,44.474270499999996],[33.89371320000001,44.473890399999995],[33.8934902,44.4732254],[33.893910600000005,44.4728793],[33.89442139999999,44.472361],[33.8949749,44.472023300000004],[33.89559080000001,44.4714184],[33.896072800000006,44.4707575],[33.8968803,44.4696368],[33.8972198,44.4692246],[33.897385,44.46871860000001],[33.8975981,44.467869199999996],[33.8977638,44.4674013],[33.8979039,44.4670001],[33.8980854,44.4666939],[33.8983745,44.4664631],[33.898542000000006,44.4661094],[33.898549900000006,44.46575690000001],[33.89871510000001,44.4652604],[33.899199900000006,44.464780399999995],[33.89955090000001,44.4642538],[33.8996486,44.4636911],[33.89993220000001,44.463107900000004],[33.9001919,44.462696300000005],[33.9004518,44.46230370000001],[33.90084649999999,44.4620244],[33.90120749999999,44.4612882],[33.9020773,44.4599099],[33.902416300000006,44.45946909999999],[33.9028632,44.459132200000006],[33.902964,44.458769499999995],[33.9031034,44.4583208],[33.903521399999995,44.457831799999994],[33.9037687,44.45748689999999],[33.9040933,44.4569796],[33.90464969999999,44.455975200000005],[33.90514580000001,44.4553807],[33.9062066,44.45346749999999],[33.9066851,44.452597],[33.9069701,44.452109],[33.907294799999995,44.451611199999995],[33.907782499999996,44.451340599999995],[33.907999399999994,44.450748399999995],[33.908396800000006,44.449792800000004],[33.909006,44.4487784],[33.9093865,44.4484516],[33.9097649,44.44799139999999],[33.909917300000004,44.447533],[33.9102429,44.4470923],[33.91064119999999,44.446203399999995],[33.91118759999999,44.445427599999995],[33.911418,44.444854299999996],[33.9117133,44.4441853],[33.9121917,44.4433148],[33.913296499999994,44.44169639999999],[33.91366459999999,44.441426699999994],[33.91386549999999,44.4406727],[33.9143689,44.4397068],[33.91479459999999,44.4388747],[33.91551380000001,44.4381071],[33.915772800000006,44.437666899999996],[33.9160682,44.4370073],[33.9169398,44.43579080000001],[33.9173786,44.4349491],[33.9177002,44.4342608],[33.9177986,44.4341134],[33.9185054,44.4330543],[33.918696,44.432490800000004],[33.919295999999996,44.4317622],[33.919503999999996,44.4314653],[33.919958300000005,44.4307663],[33.920427,44.4301435],[33.9208161,44.42953080000001],[33.9211657,44.4289375],[33.9214856,44.42815390000001],[33.92293720000001,44.42579930000001],[33.9233878,44.4248718],[33.923996300000006,44.4238478],[33.9244377,44.423187],[33.925104000000005,44.422457800000004],[33.92589230000001,44.421879999999994],[33.9262025,44.421325100000004],[33.9249719,44.4208207],[33.922308400000006,44.420252700000006],[33.920511700000006,44.420081499999995],[33.91745699999999,44.419777499999995],[33.9151412,44.4195532],[33.9128633,44.4192],[33.9094099,44.41888459999999],[33.9067978,44.418834],[33.90446719999999,44.418938100000005],[33.902480499999996,44.4193681],[33.9000252,44.4204447],[33.8988883,44.421094599999996],[33.89805690000001,44.4214726],[33.89619510000001,44.421392000000004],[33.893933100000005,44.4212097],[33.8924542,44.4209641],[33.8910973,44.4208699],[33.888966999999994,44.42061030000001],[33.8863997,44.4204493],[33.8829821,44.4202948],[33.88112149999999,44.420290200000004],[33.8780206,44.4199902],[33.8752078,44.4194022],[33.8739017,44.419249099999995],[33.8723856,44.41907139999999],[33.8706281,44.418846699999996],[33.867975300000005,44.4191812],[33.865814300000004,44.419531],[33.862174200000005,44.419606099999996],[33.8609822,44.41988179999999],[33.8591887,44.4199143],[33.8577227,44.4196301],[33.85732469999999,44.419680699999994],[33.8563622,44.41928789999999],[33.85494609999999,44.4187747],[33.8545701,44.41851080000001],[33.853581999999996,44.4181848],[33.85108169999999,44.418041599999995],[33.8493755,44.417682799999994],[33.84796039999999,44.4172362],[33.8469623,44.4171293],[33.844275999999994,44.416073],[33.8419751,44.4150042],[33.8403546,44.4141208],[33.8392701,44.413557399999995],[33.837879099999995,44.4129104],[33.836825499999996,44.4126419],[33.834337,44.41144099999999],[33.8331706,44.4107066],[33.8315362,44.4097661],[33.8292787,44.40891580000001],[33.8269394,44.4079137],[33.823741399999996,44.407251099999996],[33.821886299999996,44.40666439999999],[33.8205242,44.406169399999996],[33.8193391,44.4059779],[33.8181937,44.4057766],[33.8165238,44.4051218],[33.814873899999995,44.4049431],[33.8137788,44.4045319],[33.8129513,44.40426159999999],[33.811630099999995,44.4038328],[33.8094583,44.403381599999996],[33.80683439999999,44.402895300000004],[33.804143499999995,44.4023619],[33.802175000000005,44.402194800000004],[33.8006749,44.402281499999994],[33.800304499999996,44.402437],[33.800180999999995,44.4025405],[33.80004939999999,44.4026803],[33.79999480000001,44.40271630000001],[33.799932800000015,44.402748800000005],[33.7998314,44.402782800000004],[33.799647300000004,44.4028166],[33.7993846,44.4028626],[33.799086800000005,44.402909900000004],[33.798832800000014,44.4029704],[33.79867310000001,44.40300739999999],[33.79851170000001,44.403034],[33.79832760000001,44.40304],[33.79820720000001,44.4030398],[33.79711860000001,44.403607699999995],[33.79492260000001,44.4042551],[33.793810500000006,44.4045485],[33.79200380000001,44.404561099999995],[33.790873100000006,44.404454599999994],[33.790350900000014,44.4041534],[33.7899872,44.40378449999999],[33.7897824,44.402385900000006],[33.7894597,44.401111900000004],[33.7888135,44.399487699999995],[33.78817520000001,44.398444399999995],[33.7873171,44.3978598],[33.78655500000001,44.3974936],[33.785406200000004,44.397015800000005],[33.7836011,44.39613290000001],[33.781787699999995,44.3956215],[33.77935890000001,44.3947809],[33.7777973,44.3942201],[33.777065,44.3940918],[33.774707,44.3935744],[33.77301930000001,44.39351920000001],[33.7715405,44.3931863],[33.769957600000005,44.393016],[33.76949200000001,44.392962000000004],[33.768746500000006,44.3928432],[33.76745330000001,44.3924805],[33.76618830000001,44.3922413],[33.7644627,44.391310000000004],[33.762308300000015,44.3900862],[33.7618573,44.3895298],[33.696591000000005,44.191039700000005]]]]}}
