{"type":"FeatureCollection","features":[{"type":"Feature","properties":{"roadClass":"primary"},"geometry":{"type":"MultiLineString","coordinates":[[[45.59532,48.60543],[45.65017,48.58731],[45.65816,48.5868],[45.68854,48.58964],[45.70234,48.58835],[45.70609,48.58647],[45.70885,48.58045],[45.71916,48.5754],[45.72988,48.57538],[45.74374,48.56447],[45.74918,48.56216],[45.76406,48.56091],[45.77657,48.56226],[45.78647,48.5648],[45.79309,48.56384],[45.82765,48.54659],[45.83569,48.54019],[45.86398,48.52696],[45.881,48.52087],[45.90636,48.51651],[45.931,48.5027],[45.954,48.49209],[45.97717,48.47571],[45.99509,48.45885],[46.00568,48.44713],[46.03891,48.43232],[46.04044,48.43049],[46.04199,48.4226],[46.04978,48.41508],[46.06125,48.39852],[46.09771,48.3576],[46.12877,48.3387],[46.14028,48.33369],[46.14968,48.32776],[46.15559,48.31823],[46.15997,48.31781],[46.16835,48.30273],[46.16927,48.29849],[46.17128,48.29667],[46.16989,48.29352],[46.17557,48.28356],[46.18364,48.2806],[46.22574,48.27727],[46.22558,48.27563],[46.21074,48.27564],[46.20976,48.26846],[46.21271,48.26542],[46.23699,48.25191],[46.25756,48.23842],[46.29505,48.20108],[46.29648,48.1987],[46.30027,48.17427],[46.30812,48.14397],[46.33881,48.11345],[46.34393,48.107],[46.36718,48.09042],[46.3874,48.05173],[46.40532,48.03708],[46.45102,48.01051],[46.51097,48.00719],[46.53162,48.00402],[46.57007,48.0026],[46.58998,47.99982],[46.60036,47.99711],[46.60556,47.9944],[46.60793,47.98973],[46.61089,47.94131],[46.63032,47.89265],[46.64314,47.88058],[46.64216,47.87257],[46.64901,47.86455],[46.65868,47.8566],[46.69569,47.8336],[46.70819,47.82718],[46.77483,47.77661],[46.81751,47.74094],[46.83884,47.73467],[46.86594,47.72937],[46.87562,47.72223],[46.8864,47.71614],[46.89432,47.70203],[46.88714,47.68028],[46.8766,47.66501],[46.87867,47.65637],[46.87377,47.6475],[46.87179,47.63485],[46.87421,47.61912],[46.87703,47.61403],[46.88146,47.60987],[46.89176,47.595],[46.90468,47.58454],[46.91068,47.57323],[46.92084,47.5623],[46.97131,47.55571],[46.98306,47.55685],[46.9921,47.55373],[47.00634,47.55447],[47.01187,47.55307],[47.01943,47.54915],[47.0352,47.55023],[47.05051,47.54331],[47.06008,47.54281],[47.06824,47.54418],[47.08551,47.54456],[47.11602,47.5366],[47.12987,47.52888],[47.13368,47.52493],[47.15165,47.49813],[47.15236,47.49564],[47.15164,47.48307],[47.15879,47.46467],[47.16925,47.44875],[47.17776,47.44226],[47.19898,47.43188],[47.22723,47.41554],[47.25009,47.41974],[47.25328,47.41941],[47.27123,47.40657],[47.33485,47.38908],[47.34174,47.38618],[47.35836,47.37475],[47.36572,47.36624],[47.37693,47.3478],[47.3791,47.34279],[47.38059,47.33125],[47.388,47.31519],[47.40129,47.30458],[47.4134,47.28531],[47.43237,47.26738],[47.43843,47.24829],[47.4425,47.24335],[47.44295,47.23098],[47.4476,47.21304],[47.45636,47.19687],[47.45526,47.18586],[47.45184,47.17729],[47.45315,47.17439],[47.45743,47.17044],[47.46174,47.16844],[47.47671,47.16562],[47.49995,47.16714],[47.50636,47.16512],[47.51718,47.16472],[47.53709,47.16162],[47.556,47.15104],[47.5795,47.14375],[47.60232,47.13906],[47.62694,47.13796],[47.6318,47.1391],[47.63906,47.14408],[47.64326,47.14481],[47.67002,47.13776],[47.70851,47.13106],[47.7395,47.13192],[47.74536,47.12957],[47.77675,47.11039],[47.7877,47.10229],[47.80615,47.07862],[47.813,47.06798],[47.82364,47.03714],[47.82911,47.02509],[47.83424,47.01696],[47.83265,47.01048],[47.82507,46.99508],[47.82492,46.97806],[47.82754,46.96961],[47.83871,46.95242],[47.84158,46.94515],[47.84821,46.93953],[47.87005,46.92942],[47.88017,46.92748],[47.89367,46.92321],[47.90588,46.92224],[47.91043,46.9201],[47.92232,46.90209],[47.92898,46.88919],[47.9385,46.87703],[47.9962,46.81318],[47.99662,46.81145],[47.99457,46.80837],[47.99484,46.80617],[47.99753,46.80175],[48.00323,46.79589],[48.01245,46.7779],[48.01701,46.76619],[48.03914,46.7579],[48.0449,46.75876],[48.04894,46.75565],[48.0494,46.75335],[48.04592,46.74686],[48.04855,46.73497],[48.05937,46.7183],[48.07138,46.70549],[48.07659,46.69552],[48.0763,46.69289],[48.06746,46.67676],[48.06454,46.67536],[48.05589,46.67499],[48.05318,46.67294],[48.04974,46.66187],[48.04954,46.65311],[48.05712,46.64215],[48.05694,46.64041],[48.05367,46.63632],[48.05619,46.61877],[48.05391,46.61258],[48.05408,46.61014],[48.0805,46.53285],[48.07956,46.52874],[48.0814,46.52465],[48.07676,46.51726],[48.07463,46.50792],[48.06838,46.49207],[48.06644,46.47808],[48.07285,46.43945],[48.07491,46.43713],[48.08023,46.43456],[48.08287,46.42578]],[[47.85038,46.21071],[47.854,46.21095]],[[47.854,46.21095],[47.85043,46.21152]],[[47.85317,46.26214],[47.8601,46.26521]],[[47.92081,46.26123],[47.91553,46.25176],[47.90408,46.24249],[47.9019,46.23623],[47.90203,46.23105],[47.88984,46.22918],[47.88681,46.22769],[47.88023,46.21328],[47.87657,46.21193],[47.854,46.21095]],[[47.8555,46.26469],[47.86168,46.26541]],[[47.85989,46.26526],[47.857,46.26494]],[[47.85989,46.26526],[47.85752,46.26581],[47.85729,46.26734]],[[47.86168,46.26541],[47.85989,46.26526]],[[47.92098,46.26159],[47.92039,46.26172],[47.9167,46.26257],[47.91298,46.26344],[47.90632,46.26492],[47.90366,46.26556],[47.90032,46.26629],[47.89419,46.26713],[47.86168,46.26541]],[[47.92098,46.26159],[47.92081,46.26123]],[[47.92112,46.26186],[47.92039,46.26172],[47.92081,46.26123]],[[47.98916,46.34059],[47.987,46.33914],[47.98658,46.33885],[47.9863,46.33868],[47.98564,46.33821],[47.98394,46.33709],[47.98297,46.33641],[47.98264,46.33621],[47.97419,46.33155],[47.96663,46.32485],[47.95406,46.30604],[47.95022,46.29348],[47.94704,46.2876],[47.94186,46.28287],[47.94189,46.28082],[47.93782,46.28015],[47.92572,46.27095],[47.92477,46.26948],[47.92311,46.26616],[47.92165,46.26311],[47.92112,46.26186],[47.92098,46.26159]],[[47.92268,46.34608],[47.92398,46.34587],[47.92424,46.34462]],[[47.92589,46.3476],[47.92268,46.34608]],[[47.93055,46.3447],[47.92262,46.34432],[47.92176,46.34518],[47.92268,46.34608]],[[47.92341,46.34207],[47.92534,46.34398],[47.92925,46.34463]],[[47.93055,46.3447],[47.92655,46.34619],[47.92665,46.34891]],[[47.98591,46.34426],[47.98325,46.34523],[47.96704,46.34542],[47.96269,46.3469],[47.9421,46.34367],[47.93499,46.34454],[47.93231,46.34471],[47.93055,46.3447]],[[47.94386,46.38548],[47.94698,46.38676]],[[48.00635,46.38317],[48.0059,46.38314],[48.00423,46.383],[48.00209,46.38285],[48.00102,46.38271],[47.99392,46.38],[47.98899,46.37993],[47.98423,46.38075],[47.97489,46.38527],[47.96247,46.38568],[47.95822,46.38637],[47.94782,46.3867],[47.94441,46.38713]],[[47.94782,46.3867],[47.94578,46.38758],[47.94553,46.38942]],[[47.99004,46.34085],[47.99228,46.34319],[47.98744,46.34581],[47.98591,46.34426]],[[47.98591,46.34426],[47.9837,46.34162],[47.98661,46.33961]],[[47.98591,46.34426],[47.98988,46.34223],[47.98964,46.34116]],[[47.9896,46.34115],[47.98674,46.34064],[47.98661,46.33961]],[[47.98661,46.33961],[47.98699,46.33939],[47.98741,46.33913],[47.98881,46.3383],[47.98938,46.33798]],[[47.98916,46.34059],[47.98968,46.34075]],[[47.98944,46.34095],[47.98916,46.34059]],[[47.98938,46.33798],[47.98882,46.33885],[47.99004,46.34085]],[[47.98938,46.33798],[47.99092,46.33715]],[[47.99004,46.34085],[47.98986,46.34115],[47.98971,46.34117],[47.9896,46.34115],[47.98945,46.34101],[47.98944,46.34095],[47.98945,46.34089],[47.98962,46.34076],[47.99004,46.34085]],[[47.99092,46.33715],[47.9984,46.33334]],[[47.9984,46.33334],[47.99795,46.3336],[47.99092,46.33715]],[[47.9984,46.33334],[48.0064,46.33002]],[[48.00604,46.38354],[48.0059,46.38314],[48.00677,46.38263]],[[48.0064,46.33002],[48.0089,46.32826]],[[48.0064,46.33002],[48.01044,46.32876]],[[48.01545,46.33199],[48.01347,46.33328],[48.00987,46.32976]],[[48.00987,46.32976],[48.01044,46.32876]],[[48.01044,46.32876],[48.01019,46.32957],[48.00987,46.32976]],[[48.01545,46.33199],[48.01734,46.33268],[48.018,46.33284],[48.01865,46.33296],[48.01932,46.33308],[48.02236,46.33325],[48.0232,46.33335],[48.02382,46.33356],[48.02651,46.3338],[48.03246,46.33435],[48.04056,46.33456],[48.04373,46.33467],[48.04821,46.33478],[48.04903,46.33479],[48.05199,46.33493]],[[48.02318,46.33361],[48.01975,46.33334],[48.01855,46.33318],[48.01735,46.33295],[48.01545,46.33199]],[[48.01855,46.33318],[48.01865,46.33296]],[[48.05199,46.33493],[48.05176,46.33499],[48.03915,46.33469],[48.03244,46.33448],[48.02628,46.3339],[48.02318,46.33361]],[[48.02327,46.33338],[48.02318,46.33361]],[[48.02339,46.33363],[48.02348,46.33345]],[[48.02649,46.33392],[48.02651,46.3338]],[[48.03244,46.33448],[48.03246,46.33435]],[[48.04056,46.33468],[48.04056,46.33456]],[[48.05685,46.36028],[48.05645,46.36085],[48.05442,46.3613],[48.04761,46.36197]],[[48.04782,46.36183],[48.05609,46.36076],[48.05647,46.35845],[48.05699,46.35845]],[[48.0482,46.3349],[48.04821,46.33478]],[[48.04903,46.33479],[48.04903,46.33492]],[[48.05199,46.33493],[48.05879,46.335],[48.06379,46.3366]],[[48.05685,46.36028],[48.05642,46.36026]],[[48.05643,46.35988],[48.05688,46.35987]],[[48.05697,46.35872],[48.05645,46.35873]],[[48.05688,46.35987],[48.05685,46.36028]],[[48.05697,46.35872],[48.05688,46.35987]],[[48.05699,46.35845],[48.05697,46.35872]],[[48.08145,46.37297],[48.06323,46.36134],[48.06185,46.35935],[48.05829,46.35869],[48.05697,46.35872]],[[48.05699,46.35845],[48.06193,46.35929],[48.06322,46.36109],[48.08168,46.37281]],[[48.06379,46.3366],[48.06937,46.3401],[48.06983,46.34636]],[[48.18325,46.33233],[48.17342,46.32249],[48.17075,46.32125],[48.14037,46.32249],[48.12987,46.31807],[48.12727,46.31793],[48.10861,46.32024],[48.10653,46.32149],[48.1035,46.32685],[48.08192,46.32643],[48.06925,46.33143],[48.06379,46.3366]],[[48.07393,46.34642],[48.06983,46.34636]],[[48.06983,46.34636],[48.07396,46.34631]],[[48.07393,46.34642],[48.07396,46.34631]],[[48.07544,46.34646],[48.075,46.34641],[48.07393,46.34642]],[[48.07396,46.34631],[48.07571,46.34636]],[[48.07753,46.34648],[48.07544,46.34646]],[[48.07544,46.34646],[48.07571,46.34636]],[[48.07571,46.34636],[48.07753,46.34637]],[[48.07753,46.34648],[48.07753,46.34637]],[[48.07779,46.34642],[48.07753,46.34648]],[[48.07753,46.34637],[48.07779,46.34642]],[[48.07779,46.34642],[48.08042,46.34674],[48.08104,46.34919],[48.09167,46.35016]],[[48.08247,46.3739],[48.08174,46.37328]],[[48.08211,46.37315],[48.08247,46.3739]],[[48.0892,46.38267],[48.08247,46.3739]],[[48.08578,46.42546],[48.08287,46.42578]],[[48.08287,46.42578],[48.08447,46.42347],[48.08606,46.42297]],[[48.08578,46.42546],[48.08614,46.42452],[48.08449,46.42426]],[[48.08453,46.42415],[48.08614,46.42392],[48.08606,46.42297]],[[48.09003,46.42395],[48.08578,46.42546]],[[48.08606,46.42297],[48.0903,46.42377]],[[48.0892,46.38267],[48.08939,46.38267],[48.09124,46.38217],[48.0949,46.38111],[48.10078,46.38729],[48.10102,46.38746],[48.10115,46.38755],[48.10121,46.38758],[48.1015,46.38778],[48.10351,46.38888]],[[48.10268,46.3886],[48.09428,46.38693],[48.0892,46.38267]],[[48.09114,46.35003],[48.09192,46.34947]],[[48.09167,46.35016],[48.09192,46.34947]],[[48.09192,46.34947],[48.09184,46.34995],[48.09167,46.35016]],[[48.09192,46.34947],[48.09282,46.3473],[48.10636,46.34677],[48.11631,46.34414],[48.13245,46.33731],[48.15195,46.33997],[48.16761,46.34056],[48.1718,46.3394],[48.17806,46.33478],[48.18018,46.33392],[48.18067,46.33379],[48.18186,46.33357],[48.18279,46.33343]],[[48.10078,46.38729],[48.10049,46.38755]],[[48.10079,46.38762],[48.10102,46.38746]],[[48.10121,46.38758],[48.10101,46.38769]],[[48.10268,46.3886],[48.10351,46.38888]],[[48.1104,46.39296],[48.10268,46.3886]],[[48.10351,46.38888],[48.1104,46.39296]],[[48.1067,46.4003],[48.10557,46.4028],[48.10532,46.40925],[48.10543,46.40966],[48.10753,46.4151],[48.10938,46.4202],[48.10955,46.42062]],[[48.1067,46.4003],[48.10679,46.39985]],[[48.10679,46.4002],[48.1067,46.4003]],[[48.10704,46.3999],[48.10679,46.4002]],[[48.10744,46.39997],[48.10679,46.4002]],[[48.10704,46.3999],[48.10692,46.39951]],[[48.10692,46.39951],[48.1073,46.39921]],[[48.10692,46.39951],[48.10707,46.39949],[48.10718,46.39952],[48.10725,46.39961]],[[48.10744,46.39997],[48.10704,46.3999]],[[48.10726,46.39969],[48.10704,46.3999]],[[48.10725,46.39961],[48.10726,46.39969]],[[48.1073,46.39921],[48.10725,46.39961]],[[48.10726,46.39969],[48.10748,46.39998]],[[48.1104,46.39296],[48.11123,46.3944],[48.1073,46.39921]],[[48.10748,46.39998],[48.10744,46.39997]],[[48.10748,46.39998],[48.15147,46.41539]],[[48.1086,46.42082],[48.10938,46.4202],[48.11033,46.42045]],[[48.15092,46.41876],[48.15289,46.41677],[48.15182,46.41552]],[[48.15147,46.41539],[48.15327,46.41539]],[[48.15147,46.41539],[48.15182,46.41552]],[[48.15182,46.41552],[48.15281,46.4159]],[[48.15281,46.4159],[48.15379,46.41626]],[[48.15281,46.4159],[48.15353,46.41525]],[[48.15393,46.41675],[48.15308,46.41769],[48.15413,46.41824]],[[48.15476,46.41465],[48.15791,46.41406]],[[48.15513,46.41765],[48.15483,46.41665]],[[48.15524,46.41585],[48.15791,46.41406]],[[48.15861,46.4136],[48.15595,46.41619],[48.15721,46.41752]],[[48.15791,46.41406],[48.15861,46.4136]],[[48.21508,46.33435],[48.22066,46.3334],[48.22918,46.33779],[48.23525,46.34229],[48.23551,46.34549],[48.23278,46.34738],[48.22459,46.34858],[48.22098,46.35085],[48.21501,46.36273],[48.21562,46.37113],[48.21432,46.37524],[48.19906,46.38783],[48.18501,46.40257],[48.18043,46.40527],[48.16321,46.41076],[48.15861,46.4136]],[[48.18191,46.33383],[48.18149,46.33364]],[[48.18219,46.33352],[48.1819,46.33376]],[[48.18393,46.33355],[48.18279,46.33343]],[[48.18279,46.33343],[48.1837,46.33312],[48.18325,46.33233]],[[48.18325,46.33233],[48.18436,46.33297]],[[48.18436,46.33297],[48.18567,46.33309]],[[48.18436,46.33297],[48.18451,46.33349],[48.1841,46.33359],[48.18393,46.33355],[48.18373,46.3334],[48.18436,46.33297]],[[48.18567,46.33309],[48.18451,46.33349]],[[48.18567,46.33309],[48.20024,46.33167],[48.21329,46.33454]],[[48.2138,46.33461],[48.21329,46.33454]],[[48.21329,46.33454],[48.21383,46.33447]],[[48.21431,46.33441],[48.21508,46.33435]],[[48.21508,46.33435],[48.21437,46.33462]],[[48.08149,46.37316],[48.08145,46.37297],[48.08168,46.37281],[48.08214,46.37296],[48.08149,46.37316]],[[48.21419,46.33468],[48.2138,46.33461],[48.21383,46.33447],[48.21441,46.33447],[48.21419,46.33468]]]}},{"type":"Feature","properties":{"roadClass":"secondary"},"geometry":{"type":"MultiLineString","coordinates":[[[44.8756,47.2459],[44.90471,47.25922],[44.93786,47.27818],[44.9513,47.28362],[44.96543,47.28524],[44.99306,47.28322],[45.05776,47.28461],[45.11358,47.29669],[45.13762,47.3044],[45.18644,47.33153],[45.19116,47.33834],[45.19687,47.35856],[45.21214,47.3735],[45.21749,47.37644],[45.25689,47.37444],[45.27393,47.37726],[45.37372,47.40063],[45.38357,47.40111],[45.43195,47.39742],[45.44104,47.39774],[45.55601,47.41342],[45.56316,47.41637],[45.56782,47.41971],[45.59569,47.44962],[45.60474,47.49842],[45.65301,47.55505],[45.67305,47.56908],[45.81958,47.69098],[45.82166,47.69624],[45.82325,47.75775],[45.82408,47.75958],[45.85389,47.76864],[45.85518,47.76715],[45.89188,47.76041],[45.89568,47.76228],[45.92402,47.78712],[45.92534,47.87365],[45.92337,47.87759],[45.89866,47.90079],[45.89852,47.92106],[45.89927,47.92396],[45.9023,47.92753],[45.91044,47.93267],[45.99684,47.93205],[46.12372,47.93952]],[[46.15559,48.31823],[46.15699,48.31519],[46.15567,48.3087],[46.16434,48.29974],[46.17195,48.28378]],[[46.17195,48.28378],[46.17263,48.28287],[46.17452,48.28239]],[[46.17366,48.28386],[46.17327,48.28378],[46.17241,48.28378],[46.17195,48.28378]],[[46.17515,48.28415],[46.17366,48.28386]],[[46.17452,48.28239],[46.17366,48.28386]],[[46.17412,48.28253],[46.17436,48.28267]],[[46.17452,48.28239],[46.18116,48.27209],[46.18265,48.27204],[46.18428,48.26997],[46.19367,48.271],[46.21074,48.27564]],[[46.22558,48.27563],[46.69608,48.24197],[46.7272,48.2353],[46.73585,48.22956],[46.75233,48.22317],[46.79288,48.22199],[46.82099,48.22295]],[[47.18434,45.70234],[47.18499,45.70238],[47.18496,45.70286]],[[47.28792,45.64664],[47.26458,45.65436],[47.24339,45.66361],[47.21173,45.6855],[47.20364,45.69022],[47.19959,45.69282],[47.18968,45.69929],[47.18499,45.70238],[47.18465,45.7026]],[[47.22871,47.41547],[47.23001,47.41086],[47.24427,47.40661],[47.24943,47.40108],[47.24819,47.40085],[47.24899,47.39946],[47.25832,47.40174],[47.27843,47.40046],[47.29065,47.40183]],[[47.91367,46.32813],[47.91906,46.32574],[47.92057,46.32347],[47.94601,46.32501],[47.96647,46.32462]],[[47.95925,46.41183],[47.9586,46.41241]],[[47.97984,46.41459],[47.9625,46.41241],[47.95925,46.41183],[47.95878,46.41175]],[[47.95895,46.41116],[47.95917,46.41182]],[[47.98201,46.29709],[47.98426,46.29594]],[[47.98426,46.29594],[47.9853,46.29541]],[[47.98543,46.29585],[47.98426,46.29594]],[[47.98543,46.29535],[47.98657,46.29479]],[[47.98657,46.29479],[47.98597,46.29559]],[[47.98657,46.29479],[47.99655,46.2897]],[[48.00343,46.35858],[47.9931,46.35127],[47.98744,46.34581]],[[47.98746,46.34343],[47.99581,46.35156],[48.00434,46.35724]],[[47.99228,46.34319],[48.0059,46.355]],[[48.02168,46.32824],[48.02414,46.31464],[48.02029,46.31135],[48.02014,46.30735],[48.00332,46.29635],[47.99655,46.2897]],[[47.99655,46.2897],[47.99728,46.28854],[47.99871,46.28858],[47.99858,46.28865],[47.99655,46.2897]],[[48.00129,46.33193],[48.00182,46.33168]],[[48.0027,46.33186],[48.00182,46.33168]],[[48.00182,46.33168],[48.00322,46.33143],[48.00418,46.33241],[48.00499,46.33408]],[[48.0027,46.33186],[48.00245,46.33159]],[[48.00499,46.33408],[48.0027,46.33186]],[[48.01565,46.34171],[48.00959,46.33946],[48.00499,46.33408]],[[48.0051,46.35611],[48.00779,46.35759]],[[48.00747,46.36639],[48.005,46.36055],[48.00268,46.35969],[48.00311,46.35899],[48.00343,46.35858],[48.00434,46.35724],[48.0051,46.35611]],[[48.0059,46.355],[48.0051,46.35611]],[[48.0059,46.355],[48.00755,46.35714],[48.00779,46.35759],[48.00798,46.35795],[48.00897,46.36022],[48.00804,46.36088],[48.01011,46.36573],[48.00747,46.36639]],[[48.01004,46.37082],[48.00747,46.36639]],[[48.00929,46.32886],[48.0089,46.32826]],[[48.0089,46.32826],[48.00361,46.31916],[48.00052,46.3167],[47.97412,46.28887],[47.96917,46.27686],[47.97305,46.27443],[47.9942,46.26945],[47.9977,46.26576],[47.99998,46.25392],[48.0015,46.25187],[48.01345,46.24651],[48.02093,46.24496],[48.02665,46.2398],[48.02753,46.19983],[48.03428,46.17735],[48.03858,46.17065],[48.04783,46.1636],[48.05163,46.15827],[48.06785,46.14464],[48.07067,46.13654],[48.07937,46.12892],[48.08185,46.12206],[48.07696,46.11542],[48.08364,46.11075],[48.08566,46.10363],[48.08821,46.0992],[48.08313,46.09434],[48.07022,46.09046],[48.0756,46.07782],[48.07197,46.06287],[48.07193,46.05868],[48.07568,46.0519],[48.07995,46.04839],[48.0967,46.0444],[48.10398,46.04133],[48.11067,46.03004],[48.11999,46.02132],[48.12507,46.01447],[48.12626,46.01188],[48.12586,46.0051]],[[48.0098,46.3284],[48.0107,46.32758],[48.0089,46.32826]],[[48.00929,46.32886],[48.00975,46.32907]],[[48.00948,46.32916],[48.00929,46.32886]],[[48.00931,46.37599],[48.0109,46.3758]],[[48.01104,46.37599],[48.00964,46.37813]],[[48.01055,46.37671],[48.00974,46.37692]],[[48.01207,46.37432],[48.01004,46.37082]],[[48.01004,46.37082],[48.01006,46.37082],[48.01008,46.37082],[48.01014,46.37084],[48.0118,46.3715],[48.01244,46.3717],[48.0132,46.37171],[48.01207,46.37432]],[[48.01103,46.37579],[48.01152,46.37575]],[[48.01232,46.37329],[48.0111,46.37125]],[[48.01152,46.37575],[48.01111,46.37595]],[[48.01152,46.37575],[48.01207,46.37432]],[[48.02199,46.33543],[48.01818,46.33504],[48.0179,46.33499],[48.01744,46.3349],[48.01696,46.33478],[48.01347,46.33328]],[[48.02327,46.34489],[48.02163,46.34524],[48.01565,46.34171]],[[48.01565,46.34171],[48.01647,46.34072],[48.01672,46.33929],[48.01698,46.338],[48.01734,46.33653],[48.01768,46.33565],[48.0179,46.33499],[48.01855,46.33318]],[[48.02113,46.33962],[48.01672,46.33929]],[[48.05371,46.34711],[48.05472,46.34495],[48.05283,46.34327],[48.05227,46.34279],[48.05127,46.3421],[48.05017,46.34198],[48.0479,46.3418],[48.03807,46.341],[48.03092,46.34047],[48.02113,46.33962]],[[48.02269,46.34446],[48.02048,46.34288],[48.02113,46.33962]],[[48.02113,46.33962],[48.02199,46.33543]],[[48.02199,46.33543],[48.02168,46.32824]],[[48.03876,46.32944],[48.02509,46.32841],[48.02225,46.32824],[48.02168,46.32824]],[[48.02618,46.33576],[48.02199,46.33543]],[[48.02327,46.34489],[48.02269,46.34446]],[[48.02269,46.34446],[48.02575,46.34317],[48.02609,46.34321],[48.02983,46.34398],[48.03329,46.34463],[48.03743,46.34496]],[[48.0344,46.35358],[48.0273,46.34934],[48.02327,46.34489]],[[48.03732,46.34556],[48.03315,46.34523],[48.026,46.34381],[48.02327,46.34489]],[[48.03703,46.34742],[48.02534,46.34707]],[[48.03214,46.33623],[48.02627,46.3358],[48.02618,46.33576]],[[48.02618,46.33576],[48.02627,46.33573],[48.02894,46.33591],[48.03217,46.33613]],[[48.02893,46.33598],[48.02894,46.33591]],[[48.02966,46.34441],[48.02983,46.34398],[48.03002,46.34346],[48.0302,46.34299],[48.03075,46.34149],[48.03092,46.34047],[48.03122,46.33939],[48.03152,46.3384],[48.03206,46.33653],[48.03214,46.33623],[48.03217,46.33613],[48.03244,46.33448]],[[48.03246,46.33435],[48.033,46.33099]],[[48.03601,46.35559],[48.0344,46.35358]],[[48.05371,46.34711],[48.05293,46.3485],[48.04906,46.35059],[48.0424,46.35187],[48.0344,46.35358]],[[48.03733,46.35831],[48.03601,46.35559]],[[48.03601,46.35559],[48.04116,46.3546],[48.04267,46.35372],[48.04295,46.35357],[48.04308,46.35352],[48.0434,46.35343],[48.04997,46.35218],[48.05456,46.35044],[48.05509,46.35079],[48.05551,46.35058]],[[48.04459,46.35794],[48.04308,46.35391],[48.04295,46.35357],[48.04292,46.35352],[48.04275,46.35281],[48.0424,46.35187],[48.04225,46.35134],[48.04207,46.34787],[48.03703,46.34742]],[[48.03703,46.34742],[48.03732,46.34556]],[[48.05331,46.3437],[48.04973,46.3457],[48.04874,46.34628],[48.04846,46.34637],[48.03732,46.34556]],[[48.03732,46.34556],[48.03743,46.34496]],[[48.03938,46.36254],[48.03733,46.35831]],[[48.03733,46.35831],[48.04227,46.35807],[48.04278,46.35803],[48.04459,46.35794],[48.04754,46.35776],[48.04797,46.35776],[48.05442,46.35855]],[[48.03743,46.34496],[48.04928,46.3453]],[[48.03743,46.34496],[48.03796,46.3419],[48.03807,46.341],[48.03818,46.33994],[48.03895,46.33454],[48.03876,46.32944]],[[48.03876,46.32944],[48.04002,46.32077],[48.0388,46.31848]],[[48.04228,46.3178],[48.03966,46.31919],[48.0388,46.31848]],[[48.0388,46.31848],[48.04081,46.31821]],[[48.0389,46.32847],[48.04917,46.33044]],[[48.03938,46.36254],[48.03975,46.36278]],[[48.03959,46.36297],[48.03938,46.36254]],[[48.03947,46.32466],[48.04103,46.32334]],[[48.03982,46.36277],[48.04596,46.36196]],[[48.04597,46.36208],[48.04006,46.36303]],[[48.04081,46.31821],[48.04063,46.31865]],[[48.04081,46.31821],[48.04137,46.31823],[48.04228,46.3178]],[[48.04269,46.32388],[48.04103,46.32334]],[[48.04103,46.32334],[48.04114,46.32319],[48.04269,46.32388]],[[48.04228,46.3178],[48.05477,46.31117]],[[48.04269,46.32388],[48.05978,46.33037],[48.05866,46.335]],[[48.04761,46.36197],[48.04774,46.36104]],[[48.04774,46.36104],[48.04782,46.36183]],[[48.04774,46.36104],[48.04797,46.35776]],[[48.05143,46.32726],[48.04917,46.33044],[48.04903,46.33479]],[[48.05375,46.34923],[48.05293,46.3485],[48.05285,46.34841],[48.05209,46.34778],[48.05027,46.34613],[48.05017,46.34605],[48.04973,46.3457],[48.04968,46.34565],[48.04928,46.3453]],[[48.04928,46.3453],[48.04784,46.34427],[48.04779,46.34411],[48.0479,46.3418],[48.04797,46.34103],[48.04915,46.34082],[48.05199,46.33493]],[[48.04928,46.3453],[48.05285,46.34329]],[[48.05229,46.37986],[48.05212,46.37844],[48.05129,46.37367],[48.0494,46.36176]],[[48.04981,46.37378],[48.05129,46.37367],[48.05155,46.37365],[48.05806,46.37316],[48.0587,46.3731],[48.05966,46.37213],[48.063,46.3726],[48.06511,46.37204],[48.06699,46.3715],[48.06807,46.3712],[48.06819,46.37117],[48.06829,46.37114],[48.06879,46.37101],[48.06944,46.37083],[48.0695,46.37082],[48.07195,46.37014],[48.07456,46.36833]],[[48.05371,46.34711],[48.05514,46.34752]],[[48.05375,46.34923],[48.05452,46.34996]],[[48.05375,46.34923],[48.05514,46.34752]],[[48.05645,46.35873],[48.05442,46.35855]],[[48.05442,46.35855],[48.05654,46.35799]],[[48.05452,46.34996],[48.05551,46.35058],[48.05643,46.35157]],[[48.05595,46.35162],[48.05509,46.35079],[48.05452,46.34996]],[[48.05477,46.31117],[48.05721,46.30983],[48.05739,46.30976]],[[48.05808,46.30993],[48.05477,46.31117]],[[48.05615,46.34778],[48.05497,46.35022]],[[48.05514,46.34752],[48.05615,46.34778],[48.05644,46.34786]],[[48.05643,46.35157],[48.05625,46.35167],[48.05595,46.35162]],[[48.05654,46.35799],[48.05712,46.35304],[48.05595,46.35162]],[[48.05643,46.35157],[48.05726,46.35305],[48.057,46.35801]],[[48.05755,46.34795],[48.05644,46.34786]],[[48.05644,46.34786],[48.05757,46.34737]],[[48.057,46.35801],[48.05654,46.35799]],[[48.057,46.35801],[48.05699,46.35845]],[[48.0573,46.30997],[48.05721,46.30983]],[[48.05739,46.30976],[48.05808,46.30993]],[[48.05739,46.30976],[48.05741,46.30994]],[[48.05757,46.34737],[48.05755,46.34795]],[[48.06352,46.34688],[48.05755,46.34795]],[[48.05757,46.34737],[48.05818,46.34436],[48.06379,46.3366]],[[48.05757,46.34737],[48.06352,46.34688]],[[48.05808,46.30993],[48.0707,46.31488],[48.08096,46.31754],[48.09236,46.31666],[48.10058,46.31735],[48.10045,46.31959],[48.10673,46.32067]],[[48.06237,46.35993],[48.06261,46.35992]],[[48.06244,46.36004],[48.06261,46.35992]],[[48.06261,46.35992],[48.0627,46.35953]],[[48.0629,46.3596],[48.06263,46.36039]],[[48.08146,46.37313],[48.07118,46.3761],[48.06827,46.37136],[48.06819,46.37117],[48.06817,46.37111],[48.06773,46.36928],[48.06742,46.36847],[48.06628,46.3665],[48.06291,46.36108]],[[48.06353,46.35965],[48.06295,46.35959]],[[48.06297,46.35942],[48.06353,46.35965]],[[48.06317,46.36739],[48.06437,46.36705],[48.06623,46.36651],[48.06628,46.3665],[48.06638,46.36646],[48.06723,46.36593],[48.07143,46.36258],[48.07208,46.36078]],[[48.06352,46.34688],[48.06575,46.34668]],[[48.06353,46.35965],[48.0656,46.36013]],[[48.06632,46.36008],[48.0656,46.36013]],[[48.0656,46.36013],[48.06608,46.35989]],[[48.06575,46.34668],[48.06983,46.34636]],[[48.06984,46.34648],[48.06575,46.34668]],[[48.0661,46.35986],[48.06621,46.35949]],[[48.06621,46.35949],[48.06638,46.35979]],[[48.06621,46.35949],[48.06779,46.35514],[48.0751,46.35594]],[[48.06644,46.35982],[48.06692,46.35997]],[[48.06692,46.35997],[48.06644,46.36003]],[[48.06692,46.35997],[48.07208,46.36078]],[[48.06715,46.67693],[48.06841,46.67952],[48.06973,46.67936],[48.06967,46.67838]],[[48.06715,46.67693],[48.06729,46.67661]],[[48.06758,46.67689],[48.06715,46.67693]],[[48.06746,46.67676],[48.068,46.67681]],[[48.068,46.67681],[48.0678,46.67712]],[[48.068,46.67681],[48.06814,46.67679],[48.06838,46.67683],[48.06861,46.677],[48.06967,46.67838]],[[48.23316,46.43871],[48.19333,46.47363],[48.16244,46.52792],[48.1512,46.55793],[48.14232,46.58722],[48.15103,46.63436],[48.14345,46.64262],[48.1392,46.64468],[48.12916,46.647],[48.11377,46.65379],[48.10994,46.65715],[48.1081,46.6612],[48.10489,46.66449],[48.09174,46.67271],[48.06967,46.67838]],[[48.07138,46.70549],[48.08328,46.70878],[48.09863,46.70393],[48.09955,46.7025],[48.09777,46.69495],[48.09823,46.693],[48.11388,46.67867],[48.12757,46.6635],[48.13231,46.66021],[48.1559,46.65885],[48.18271,46.6598],[48.19537,46.65835],[48.20304,46.65541],[48.21212,46.64477],[48.22397,46.62788],[48.22891,46.62549],[48.25919,46.61806],[48.26525,46.61525],[48.27557,46.60514],[48.28057,46.59825],[48.29592,46.59101],[48.30355,46.57977],[48.31601,46.57505],[48.31745,46.5697],[48.32909,46.55437],[48.3431,46.55212],[48.3489,46.54616]],[[48.07208,46.36078],[48.07407,46.36095],[48.0751,46.35594]],[[48.0775,46.35587],[48.0751,46.35594]],[[48.0751,46.35594],[48.07603,46.35581],[48.0775,46.35587]],[[48.0775,46.35587],[48.07753,46.34648]],[[48.08194,46.37281],[48.08249,46.37279]],[[48.08249,46.37279],[48.08214,46.37296]],[[48.09679,46.35355],[48.09635,46.35723],[48.09708,46.36052],[48.08694,46.37131],[48.08249,46.37279]],[[48.10593,46.39965],[48.10362,46.39936],[48.09106,46.39966],[48.08808,46.39977],[48.08312,46.40148]],[[48.09167,46.35016],[48.09218,46.35035]],[[48.09192,46.34947],[48.09218,46.35035]],[[48.09218,46.35035],[48.09687,46.35202],[48.09679,46.35355]],[[48.11053,46.35648],[48.09668,46.35483]],[[48.09679,46.35355],[48.11029,46.35568],[48.11053,46.35648]],[[48.09764,46.39951],[48.09801,46.40689],[48.09956,46.40719],[48.09996,46.40978],[48.11098,46.40817],[48.12696,46.40832],[48.13,46.40744]],[[48.10593,46.39965],[48.10645,46.39967],[48.10683,46.39955]],[[48.1064,46.39977],[48.10593,46.39965]],[[48.10679,46.39985],[48.1064,46.39977]],[[48.10672,46.40021],[48.1064,46.39977]],[[48.10673,46.32129],[48.10673,46.32067]],[[48.10673,46.32067],[48.10778,46.32059]],[[48.10722,46.32092],[48.10673,46.32067]],[[48.17057,46.34077],[48.17202,46.34362],[48.1721,46.34781],[48.16996,46.35043],[48.16518,46.35257],[48.16259,46.35587],[48.13322,46.36],[48.12683,46.3592],[48.12514,46.35776],[48.11882,46.35652],[48.11302,46.35644],[48.11053,46.35648]],[[48.16682,46.34062],[48.16834,46.34069],[48.17057,46.34077]],[[48.16834,46.34069],[48.16829,46.34046]],[[48.16956,46.34024],[48.17033,46.34046]],[[48.17025,46.34075],[48.1704,46.34053],[48.17098,46.34078]],[[48.21361,46.33491],[48.2103,46.33619],[48.20901,46.33941],[48.19453,46.33759],[48.18159,46.34127],[48.17951,46.34136],[48.17513,46.34095],[48.17057,46.34077]],[[48.17064,46.33995],[48.17034,46.34026],[48.17033,46.34046],[48.1704,46.34053],[48.17057,46.34077]],[[48.17158,46.34081],[48.17091,46.34141]],[[48.21361,46.33491],[48.21389,46.33465]],[[48.21419,46.33468],[48.21361,46.33491]],[[48.23316,46.43871],[48.23284,46.43815]],[[48.23432,46.43812],[48.23316,46.43871]],[[48.25677,46.43831],[48.25747,46.43804]],[[48.25747,46.43804],[48.25706,46.43848]],[[48.25747,46.43804],[48.2819,46.42144],[48.30993,46.41176],[48.31904,46.41021],[48.35055,46.40756],[48.43704,46.4092],[48.45654,46.40829],[48.47646,46.40952],[48.52798,46.40887]],[[48.35004,46.53713],[48.35244,46.53023],[48.34496,46.52824]],[[48.3489,46.54616],[48.34906,46.54566]],[[48.34968,46.54562],[48.3489,46.54616]],[[47.98558,46.29533],[47.98595,46.29549],[47.98573,46.29585],[47.98558,46.29587],[47.98543,46.29585],[47.98519,46.2956],[47.9853,46.29541],[47.98543,46.29535],[47.98558,46.29533]],[[48.01093,46.37579],[48.01111,46.37582],[48.01111,46.37595],[48.01086,46.37595],[48.01093,46.37579]],[[48.03961,46.36302],[48.03959,46.36297],[48.03959,46.36291],[48.03962,46.36285],[48.03975,46.36278],[48.04009,46.36291],[48.03961,46.36302]],[[48.06302,46.35951],[48.06285,46.35961],[48.06269,46.3595],[48.06285,46.35938],[48.06302,46.35951]],[[48.06649,46.35988],[48.06636,46.36007],[48.06608,46.35996],[48.0661,46.35986],[48.06625,46.35978],[48.06649,46.35988]]]}},{"type":"Feature","properties":{"roadClass":"tertiary"},"geometry":{"type":"MultiLineString","coordinates":[[[45.26919,48.51472],[45.27694,48.51627],[45.29448,48.51322],[45.2969,48.51165],[45.29323,48.50552],[45.3017,48.5059],[45.30975,48.5048],[45.31431,48.50854],[45.31894,48.50809],[45.32295,48.51007],[45.3311,48.50643],[45.33492,48.50625],[45.36544,48.51513],[45.36802,48.51459],[45.37933,48.51752],[45.38864,48.51775],[45.40966,48.51429],[45.41592,48.50787],[45.4261,48.50518],[45.43875,48.50417],[45.44743,48.50532],[45.45347,48.50117],[45.46005,48.50029],[45.46336,48.4965],[45.46088,48.49441],[45.47203,48.48596],[45.48436,48.4819],[45.50218,48.48037],[45.50565,48.479],[45.51658,48.47958],[45.53276,48.47806],[45.53604,48.47849],[45.54196,48.48252],[45.54456,48.48163],[45.5464,48.48271],[45.54995,48.4824],[45.55654,48.4839],[45.56371,48.48374],[45.57297,48.48225],[45.57773,48.47783],[45.59025,48.47726],[45.59965,48.47185],[45.61015,48.47006]],[[45.29434,48.50221],[45.29713,48.4998],[45.30273,48.49879],[45.30944,48.49561],[45.31279,48.4905],[45.31528,48.48885],[45.32605,48.48629],[45.32937,48.48266],[45.33113,48.47748],[45.33146,48.47287],[45.32684,48.46452],[45.31822,48.46022],[45.31408,48.45585],[45.3073,48.45444]],[[45.56616,48.44641],[45.56111,48.44169],[45.56067,48.4214],[45.55813,48.41184],[45.55569,48.38783],[45.54866,48.37683],[45.54767,48.37355],[45.54536,48.32759]],[[45.61015,48.47006],[45.60649,48.4681]],[[45.76548,48.57008],[45.76239,48.56838],[45.76137,48.56237],[45.76218,48.55964],[45.75927,48.55503],[45.76121,48.54706],[45.75977,48.54254],[45.76224,48.53761],[45.75735,48.53634],[45.7505,48.53055],[45.74944,48.52879],[45.75305,48.52505],[45.74935,48.52345],[45.7484,48.52166],[45.72141,48.51917],[45.70506,48.51221],[45.69433,48.50957],[45.67098,48.49138],[45.66346,48.48967],[45.66479,48.48784],[45.65545,48.48195],[45.64702,48.48178],[45.64143,48.48289],[45.63659,48.47544],[45.63699,48.47353],[45.63138,48.47273],[45.62547,48.47426],[45.61547,48.47318],[45.61015,48.47006]],[[45.71131,48.5885],[45.71666,48.58757]],[[45.71692,48.5882],[45.71157,48.58916]],[[45.71595,48.57683],[45.71734,48.57878]],[[45.7395,48.58117],[45.73484,48.58198],[45.73287,48.58237],[45.73275,48.58238],[45.73053,48.58278],[45.73043,48.5828],[45.72825,48.58319],[45.72186,48.58431],[45.71621,48.58532]],[[45.71692,48.5882],[45.71666,48.58757],[45.71709,48.58749],[45.71736,48.58812],[45.71692,48.5882]],[[45.71709,48.58749],[45.7404,48.58334]],[[45.71734,48.57878],[45.71825,48.57936],[45.71837,48.57956],[45.71873,48.58042],[45.71837,48.58049],[45.71144,48.58173],[45.7091,48.58212],[45.70878,48.58226],[45.71008,48.58549],[45.71157,48.58916],[45.71356,48.59406],[45.74219,48.58895]],[[45.71734,48.57878],[45.71778,48.57941]],[[45.72693,48.58576],[45.71736,48.58812]],[[45.71778,48.57941],[45.71848,48.57984]],[[45.71837,48.58049],[45.71778,48.57941]],[[45.72966,48.57545],[45.73282,48.57594],[45.74408,48.57567],[45.74482,48.57776]],[[45.73028,48.57507],[45.73073,48.57558]],[[45.73878,48.5794],[45.73835,48.5784],[45.72924,48.57995],[45.73043,48.5828],[45.73129,48.58496]],[[45.74482,48.57776],[45.74328,48.57821],[45.74185,48.57857],[45.74164,48.57863],[45.7389,48.57936],[45.73878,48.5794],[45.7387,48.57942],[45.73735,48.57979],[45.73426,48.5806],[45.73484,48.58198],[45.7357,48.58417]],[[45.7395,48.58117],[45.74257,48.58835]],[[45.74091,48.57882],[45.74173,48.58079],[45.7395,48.58117]],[[45.74307,48.58919],[45.74278,48.58906],[45.74219,48.58895]],[[45.74219,48.58895],[45.74257,48.58835]],[[45.74219,48.58895],[45.7427,48.58859]],[[45.74348,48.59022],[45.74278,48.58906],[45.74269,48.58894],[45.74219,48.58895]],[[45.74257,48.58835],[45.74307,48.58919]],[[45.74307,48.58919],[45.74366,48.59019]],[[45.74482,48.57776],[45.75402,48.57548],[45.76548,48.57008]],[[45.76548,48.57008],[45.76719,48.57116],[45.78794,48.56568]],[[45.78794,48.56568],[45.78766,48.56483]],[[45.79309,48.56384],[45.78794,48.56568]],[[45.9636,48.48569],[45.95381,48.47727],[45.9503,48.47565]],[[46.11308,48.06152],[46.11264,48.06306],[46.11234,48.06413],[46.11207,48.06525],[46.11055,48.07338],[46.10681,48.07352],[46.07688,48.07035]],[[46.10295,48.06225],[46.10955,48.06282],[46.1117,48.06298],[46.11264,48.06306],[46.11532,48.06325],[46.11554,48.06159],[46.11308,48.06152],[46.10348,48.06013],[46.08164,48.0572]],[[46.08311,48.05346],[46.09717,48.05684]],[[46.08428,48.05047],[46.11146,48.04829],[46.11164,48.0531],[46.11041,48.05686],[46.10471,48.05671],[46.10354,48.05976],[46.10348,48.06013],[46.10295,48.06225],[46.1026,48.06362],[46.10032,48.0725]],[[46.14868,48.29886],[46.15367,48.30016],[46.1563,48.301],[46.15639,48.30103],[46.15766,48.30142],[46.16148,48.30261]],[[46.15217,48.30705],[46.15406,48.30427]],[[46.15225,48.29265],[46.15592,48.29354],[46.15819,48.294],[46.15951,48.2943],[46.16063,48.29454],[46.16194,48.29485],[46.16676,48.29591]],[[46.15824,48.30546],[46.15406,48.30427]],[[46.15406,48.30427],[46.15639,48.30103],[46.15823,48.29647],[46.15905,48.29513],[46.15951,48.2943],[46.16026,48.29292],[46.16219,48.28913]],[[46.15536,48.28673],[46.16102,48.28884],[46.16436,48.28965],[46.16835,48.29056]],[[46.15611,48.30806],[46.14563,48.30548],[46.15088,48.29392],[46.15163,48.29408],[46.15421,48.28813],[46.15536,48.28673]],[[46.16071,48.28131],[46.15536,48.28673]],[[46.16099,48.25837],[46.16284,48.26477],[46.15938,48.26677],[46.1575,48.2721],[46.15961,48.28031],[46.15996,48.28094],[46.16071,48.28131],[46.16285,48.28234],[46.1692,48.28212]],[[46.16105,48.2471],[46.15865,48.25262],[46.15904,48.2564],[46.16099,48.25837]],[[46.16099,48.25837],[46.16107,48.25545],[46.16339,48.2527],[46.1635,48.24474],[46.16982,48.23493],[46.16854,48.23318],[46.17026,48.23116]],[[46.16323,48.2474],[46.16216,48.2473],[46.16152,48.24721],[46.16135,48.24718],[46.16105,48.2471]],[[46.16105,48.2471],[46.16324,48.24644]],[[46.16127,48.24716],[46.16125,48.24709]],[[46.16436,48.28965],[46.1672,48.28427],[46.16959,48.28384]],[[46.16959,48.28384],[46.16636,48.2901]],[[46.16959,48.28384],[46.1692,48.28212],[46.17762,48.2754],[46.17893,48.27586]],[[46.17195,48.28378],[46.16959,48.28384]],[[46.16982,48.23493],[46.17058,48.23483]],[[46.17032,48.28137],[46.17263,48.28287]],[[46.18571,48.28724],[46.18682,48.28855],[46.18355,48.29007],[46.17805,48.28494],[46.17515,48.28415]],[[46.73729,48.21794],[46.76695,48.21193]],[[46.76825,48.22267],[46.76695,48.21193]],[[46.76695,48.21193],[46.77838,48.20985],[46.78498,48.21061],[46.7912,48.20926],[46.79547,48.20969],[46.79288,48.22199]],[[46.80681,47.74978],[46.79864,47.74534]],[[46.82099,48.22295],[46.82599,48.2232]],[[46.82599,48.2232],[46.82598,48.21555],[46.8301,48.21452],[46.83186,48.22129],[46.83115,48.22355],[46.82599,48.2232]],[[46.84308,47.38037],[46.84852,47.38136]],[[46.87308,47.62858],[46.87712,47.62972]],[[46.91642,47.32303],[46.93262,47.32973],[46.96563,47.32691]],[[47.12021,47.11765],[47.11986,47.11538],[47.12198,47.1116],[47.11814,47.10754],[47.12043,47.10428],[47.1192,47.10031],[47.10763,47.0827],[47.09775,47.07848],[47.05893,47.0658],[47.01051,47.02439],[47.00702,47.02016],[46.99911,46.97065],[46.99736,46.96553],[46.97379,46.92714],[46.96596,46.90427],[46.95905,46.8919],[46.95266,46.875],[46.95456,46.86281],[46.95346,46.85835],[46.94954,46.85403],[46.93986,46.84702]],[[46.96078,47.33263],[46.96414,47.32818],[47.00679,47.29261],[47.02409,47.27],[47.02908,47.26353],[47.0354,47.2567],[47.02549,47.25396],[47.02167,47.24449],[46.99779,47.24177],[46.9891,47.23951]],[[47.01588,47.28073],[47.03041,47.28322],[47.03493,47.28522],[47.03625,47.28658],[47.03501,47.29028],[47.03258,47.29312],[47.0297,47.29431],[47.02752,47.29776],[47.0081,47.2909]],[[47.11689,45.92142],[47.07596,45.91588],[47.05565,45.91071],[47.04505,45.91092],[47.0368,45.90818]],[[47.0368,45.90818],[47.03704,45.91069],[47.04842,45.9332]],[[47.0368,45.90818],[47.03848,45.88537],[47.04054,45.88199],[47.08695,45.85441],[47.10556,45.85101],[47.11522,45.83751]],[[47.15,45.98445],[47.12482,45.98892],[47.11813,45.99146],[47.0951,45.99246]],[[47.11689,45.92142],[47.13206,45.87514],[47.11894,45.85239],[47.11522,45.83751]],[[47.11522,45.83751],[47.11598,45.79154],[47.11948,45.78721],[47.12863,45.78239],[47.14006,45.77]],[[47.11522,45.83751],[47.1664,45.80747],[47.18656,45.7996]],[[47.27483,46.18703],[47.27476,46.18126],[47.27144,46.17902],[47.24111,46.17542],[47.21041,46.17356],[47.19224,46.15571],[47.15654,46.14045],[47.13618,46.12511],[47.14092,46.12148],[47.14193,46.117],[47.13478,46.10805],[47.1333,46.09163],[47.13093,46.07914],[47.12608,46.0709],[47.12968,46.06839],[47.12752,46.05884],[47.12108,46.0411],[47.09007,46.00612],[47.0951,45.99246],[47.09634,45.97554],[47.09076,45.95986],[47.09132,45.95249],[47.09852,45.94379],[47.11911,45.92871],[47.11689,45.92142]],[[47.14006,45.77],[47.13843,45.76171],[47.13938,45.75591],[47.14568,45.74564],[47.16071,45.72656],[47.15984,45.71986]],[[47.21468,45.76711],[47.21082,45.76645],[47.14006,45.77]],[[47.17102,45.71157],[47.15984,45.71986]],[[47.15984,45.71986],[47.17131,45.71936]],[[47.17102,45.71157],[47.16901,45.68609]],[[47.17131,45.71936],[47.17102,45.71157]],[[47.18465,45.7026],[47.18427,45.70283],[47.17656,45.7079],[47.17378,45.7097],[47.17102,45.71157]],[[47.21468,45.76711],[47.20967,45.75746],[47.20174,45.75565],[47.19842,45.75306],[47.19435,45.75221],[47.18034,45.74378],[47.17457,45.73603],[47.17131,45.71936]],[[47.18496,45.70286],[47.18427,45.70283],[47.18434,45.70234]],[[47.18656,45.7996],[47.20838,45.77993],[47.22058,45.77681]],[[47.18656,45.7996],[47.21066,45.79034],[47.22464,45.78772]],[[47.22058,45.77681],[47.21468,45.76711]],[[47.216,47.34209],[47.21689,47.34132],[47.21732,47.33488],[47.22723,47.33252],[47.25844,47.33673],[47.2631,47.33864],[47.26587,47.34285],[47.27303,47.34523],[47.27872,47.34323],[47.2815,47.34389],[47.28384,47.34986],[47.28908,47.35325],[47.28929,47.35772],[47.292,47.36434],[47.29057,47.36803],[47.29062,47.37433],[47.28826,47.37999],[47.28486,47.38294],[47.28619,47.38479],[47.29341,47.38846],[47.29391,47.39121],[47.29291,47.3927],[47.29453,47.39627],[47.29312,47.40113]],[[47.2235,45.78166],[47.22058,45.77681]],[[47.22058,45.77681],[47.23139,45.77664],[47.2341,45.77736],[47.23641,45.77887],[47.24234,45.78579]],[[47.2235,45.78166],[47.22233,45.78227],[47.22464,45.78772]],[[47.2235,45.78166],[47.2374,45.7804]],[[47.22464,45.78772],[47.23582,45.7848],[47.24234,45.78579]],[[47.23795,47.41748],[47.24383,47.41574]],[[47.24391,47.41585],[47.23867,47.41764]],[[47.24391,47.41585],[47.24062,47.41086],[47.23867,47.40848]],[[47.24234,45.78579],[47.26427,45.79033],[47.2807,45.79056]],[[47.25385,47.41116],[47.24391,47.41585]],[[47.24693,47.40445],[47.24938,47.40543],[47.24854,47.40627],[47.25185,47.40937]],[[47.26974,47.41074],[47.2675,47.40944],[47.24769,47.40347]],[[47.24943,47.40108],[47.26776,47.40446],[47.26692,47.40631],[47.26908,47.4076]],[[47.25607,47.41794],[47.25088,47.41313]],[[47.25185,47.40937],[47.25385,47.41116],[47.25984,47.41532]],[[47.25526,47.40596],[47.25185,47.40937]],[[47.26555,46.19858],[47.26476,46.20417],[47.2529,46.2131],[47.24689,46.22422],[47.2182,46.22655],[47.23358,46.23616],[47.23846,46.25124],[47.26116,46.27448]],[[47.26555,46.19858],[47.26018,46.19667],[47.24663,46.19449],[47.24506,46.18401],[47.2571,46.18387],[47.25863,46.1852],[47.27483,46.18703]],[[47.27483,46.18703],[47.27386,46.18997],[47.26663,46.19628],[47.26555,46.19858]],[[47.27385,47.40572],[47.26985,47.40399],[47.2679,47.40459]],[[47.27545,45.76806],[47.27621,45.76865]],[[47.27621,45.76865],[47.27574,45.76883]],[[47.27621,45.76865],[47.27587,45.76922]],[[47.28133,45.79067],[47.2807,45.79056]],[[47.2807,45.79056],[47.28126,45.79029]],[[47.30239,45.79478],[47.29986,45.79363]],[[47.31505,45.79301],[47.30371,45.79534],[47.30239,45.79478]],[[47.30404,45.79342],[47.30239,45.79478]],[[47.30509,45.79336],[47.31505,45.79301]],[[47.3155,45.793],[47.31342,45.79397],[47.31424,45.79554]],[[47.31505,45.79301],[47.3155,45.793]],[[47.3155,45.793],[47.36394,45.7895],[47.39809,45.7849],[47.44446,45.78124],[47.4768,45.78308],[47.51305,45.78158],[47.51547,45.77714],[47.52835,45.77516],[47.53,45.76951],[47.53343,45.76633],[47.53768,45.76305],[47.54868,45.75761],[47.55146,45.75102],[47.55104,45.74929],[47.54157,45.74092],[47.53402,45.7367],[47.53022,45.72774],[47.52347,45.71644],[47.52102,45.70574],[47.51217,45.69833],[47.5103,45.68787],[47.49791,45.67226],[47.50185,45.66321],[47.50222,45.65963],[47.4933,45.6418],[47.49367,45.63947],[47.52119,45.62211],[47.52197,45.61945],[47.51895,45.61511],[47.52088,45.61445]],[[47.38315,46.97981],[47.39248,46.9831],[47.39857,46.98856],[47.41631,46.99992],[47.44167,47.01056],[47.46815,47.01051],[47.48682,47.00317],[47.49566,46.99601],[47.50418,46.9861],[47.51145,46.97971],[47.53415,46.96296]],[[47.38655,47.31815],[47.38351,47.31776]],[[47.38351,47.31776],[47.37907,47.31747],[47.37409,47.3169],[47.3742,47.31828],[47.37727,47.31861],[47.38351,47.31776]],[[47.43625,45.88065],[47.42492,45.88526],[47.41883,45.89707],[47.41813,45.90186],[47.41558,45.90767],[47.41374,45.91862],[47.40725,45.93057],[47.40074,45.93929],[47.4063,45.95127],[47.41405,45.95493],[47.45047,45.95439]],[[47.43639,45.8803],[47.43625,45.88065]],[[47.43697,45.88058],[47.43625,45.88065]],[[47.43722,46.92267],[47.52996,46.96194],[47.53432,46.96298],[47.54396,46.96198]],[[47.44816,47.16925],[47.45315,47.17439]],[[47.45229,45.94822],[47.45047,45.95439]],[[47.45047,45.95439],[47.46374,45.95408],[47.46958,45.95719],[47.47966,45.9596],[47.49202,45.95872]],[[47.47372,46.07952],[47.48659,46.07952],[47.48822,46.0786],[47.48867,46.0756],[47.49114,46.07463],[47.50665,46.07431],[47.52553,46.07727],[47.56726,46.07758],[47.58748,46.07625],[47.60207,46.07864],[47.61545,46.07926],[47.6243,46.08316],[47.65351,46.08751],[47.66032,46.08672],[47.66259,46.08536],[47.66865,46.08098],[47.67247,46.0802],[47.69291,46.08564],[47.69936,46.08857],[47.72961,46.09288]],[[47.48687,46.87797],[47.48628,46.87805]],[[47.48651,46.87785],[47.48687,46.87797],[47.49805,46.88177],[47.51251,46.88636],[47.5353,46.88952],[47.5399,46.8925],[47.54078,46.89472],[47.54662,46.89503],[47.54835,46.8982],[47.55024,46.90689],[47.55729,46.92186],[47.55627,46.92539],[47.55848,46.93518],[47.55318,46.94734],[47.54452,46.95938],[47.54651,46.96052],[47.54396,46.96198]],[[47.53343,45.76633],[47.55152,45.7739]],[[47.55214,46.97065],[47.54798,46.96732],[47.54396,46.96198]],[[47.59941,45.87293],[47.59808,45.87108],[47.59924,45.86648],[47.59255,45.85646],[47.58986,45.84946],[47.58103,45.84838],[47.5671,45.84988],[47.56521,45.84613]],[[47.60273,46.8849],[47.6062,46.88654],[47.60968,46.89033],[47.61298,46.89758],[47.60442,46.90447],[47.61822,46.90861],[47.63189,46.92172],[47.63265,46.92401],[47.63186,46.92566],[47.62274,46.93241],[47.61359,46.93534],[47.61374,46.9413],[47.61228,46.94446],[47.61379,46.94671],[47.61174,46.95154],[47.61279,46.96349],[47.6182,46.97154],[47.61718,46.97592],[47.61892,46.98668],[47.61833,46.99855],[47.61418,47.01381],[47.60157,47.02166],[47.59191,47.02276],[47.57407,47.03013],[47.56431,47.04081],[47.5626,47.05091],[47.55987,47.0565],[47.56917,47.08557],[47.5675,47.1132],[47.57897,47.12827],[47.5795,47.14375]],[[47.59821,45.86456],[47.6063,45.86655],[47.6185,45.86644],[47.63325,45.86212],[47.63713,45.85962],[47.638,45.85458],[47.64472,45.84971]],[[47.59851,45.87237],[47.59871,45.87222]],[[47.60208,46.88539],[47.60273,46.8849]],[[47.60273,46.8849],[47.61117,46.87884],[47.62339,46.8723],[47.63025,46.86474],[47.63101,46.83991],[47.63504,46.83595],[47.63865,46.8361],[47.63951,46.83429]],[[47.61726,45.94358],[47.62458,45.9406],[47.66163,45.93834]],[[47.62593,46.11511],[47.62967,46.11612],[47.64552,46.11673],[47.65512,46.11603]],[[47.62763,46.8161],[47.63323,46.82221],[47.64134,46.82579]],[[47.63653,47.14034],[47.6318,47.1391]],[[47.63729,46.08541],[47.63537,46.08902],[47.62194,46.09475],[47.61913,46.10226],[47.62137,46.10929],[47.62577,46.11406],[47.62612,46.12045],[47.63522,46.12228],[47.6536,46.12117],[47.66396,46.1218]],[[47.64392,46.0571],[47.64169,46.05654],[47.64158,46.05731]],[[47.66765,46.08168],[47.66316,46.07661],[47.65581,46.06168],[47.65147,46.06072],[47.64565,46.05722]],[[47.64812,45.84869],[47.64788,45.84489],[47.64978,45.84211],[47.65566,45.83884],[47.66591,45.83048],[47.66894,45.81912],[47.67402,45.81386],[47.6794,45.81121],[47.67668,45.80448],[47.66177,45.797],[47.65756,45.79264],[47.64612,45.77654],[47.64863,45.77475]],[[47.65019,45.77393],[47.65638,45.77208]],[[47.65314,45.7416],[47.65218,45.75251],[47.66042,45.75273],[47.66071,45.75418],[47.65998,45.75977],[47.65621,45.7668]],[[47.94366,46.38725],[47.94074,46.38627],[47.90326,46.37771],[47.8619,46.37864],[47.84036,46.3802],[47.80533,46.3761],[47.78573,46.37209],[47.77917,46.36928],[47.75771,46.35305],[47.75222,46.34499],[47.75012,46.33953],[47.69727,46.3363],[47.69561,46.32511],[47.68429,46.32209],[47.67749,46.31704],[47.6765,46.31502],[47.67266,46.31402],[47.64981,46.31416],[47.63293,46.30562],[47.62126,46.2962],[47.62187,46.29409],[47.63625,46.28269],[47.64569,46.27352],[47.64748,46.26917],[47.64768,46.26435],[47.65403,46.25673]],[[47.65638,45.77208],[47.66002,45.77191],[47.65621,45.7668]],[[47.65621,45.7668],[47.65522,45.76938],[47.65638,45.77208]],[[47.66735,45.93823],[47.66891,45.93769],[47.67374,45.94066],[47.68121,45.94925],[47.68448,45.94972],[47.68939,45.95334],[47.68904,45.96096],[47.702,45.97392],[47.70544,45.98016],[47.70285,45.98678]],[[47.81048,46.07763],[47.80425,46.07012],[47.80277,46.06234],[47.79972,46.05975],[47.7663,46.05802],[47.75727,46.05863],[47.74195,46.05646],[47.73739,46.03826],[47.734,46.03422],[47.71568,46.02011],[47.71441,46.01363],[47.7028,46.00838],[47.70114,46.00649],[47.70095,46.00252],[47.70829,45.99411],[47.71484,45.9921],[47.72306,45.99372],[47.73077,45.99342],[47.73732,45.99196],[47.73995,45.99027],[47.74078,45.98838],[47.74065,45.98251],[47.73373,45.97599],[47.72948,45.96971],[47.7189,45.94823],[47.71883,45.94504],[47.71351,45.9364],[47.71129,45.92372],[47.70538,45.90492],[47.70733,45.90329],[47.71407,45.90261],[47.72183,45.89452],[47.71753,45.88573],[47.71475,45.88316],[47.71261,45.87599],[47.71192,45.86628],[47.70984,45.86334],[47.68636,45.84303],[47.68636,45.83877],[47.6884,45.83352],[47.68977,45.82465],[47.67785,45.82209],[47.68284,45.81466],[47.69182,45.81216],[47.69349,45.80518],[47.6952,45.80237],[47.69447,45.79892],[47.70349,45.79288],[47.7079,45.79151],[47.71692,45.78134]],[[47.72417,46.05393],[47.72524,46.05372]],[[47.73161,46.05273],[47.73516,46.05417],[47.74068,46.05418]],[[47.76523,46.09838],[47.77403,46.09688],[47.77799,46.09741],[47.77893,46.08597],[47.79189,46.08688],[47.80297,46.07953],[47.81048,46.07763]],[[47.77525,46.72523],[47.77489,46.72583],[47.77374,46.72582]],[[47.77449,46.72553],[47.77489,46.72583],[47.77613,46.72675],[47.78911,46.73664],[47.79221,46.73961],[47.80265,46.75536],[47.80456,46.75677]],[[47.80151,47.02813],[47.81009,47.03289],[47.82542,47.033]],[[47.93319,46.19794],[47.93184,46.19322],[47.92622,46.18947],[47.92309,46.1837],[47.91292,46.17324],[47.912,46.17153],[47.91232,46.16284],[47.90921,46.15832],[47.88638,46.14165],[47.88181,46.14065],[47.86799,46.14071],[47.86246,46.13852],[47.84763,46.11967],[47.84511,46.11464],[47.83928,46.09586],[47.8368,46.09198],[47.82769,46.08567],[47.81385,46.08146],[47.81048,46.07763]],[[47.8549,46.12928],[47.84112,46.13687],[47.83905,46.14026],[47.83917,46.14649],[47.83808,46.14993],[47.83464,46.15369],[47.82908,46.1555]],[[47.92705,46.09875],[47.92066,46.09544],[47.91131,46.08793],[47.90546,46.08551],[47.8992,46.07858],[47.88938,46.07655],[47.87257,46.06277],[47.85825,46.05772],[47.85341,46.05407],[47.84175,46.03989],[47.83988,46.02781]],[[47.94366,46.38725],[47.90829,46.3928],[47.87871,46.38967]],[[48.0565,46.63976],[48.04956,46.63939],[48.02995,46.64336],[48.02459,46.64718],[48.01505,46.64945],[48.00977,46.65212],[48.0046,46.65109],[48.00294,46.64767],[47.99352,46.64888],[47.97206,46.64448],[47.95752,46.64569],[47.9461,46.63806],[47.94334,46.63748],[47.93687,46.6394],[47.93544,46.64415],[47.93133,46.64901],[47.92664,46.65087],[47.91953,46.65011],[47.91746,46.64895],[47.91218,46.6428],[47.91038,46.63703],[47.90856,46.63554]],[[47.91622,46.54717],[47.93174,46.55567],[47.93287,46.55794],[47.93786,46.55955],[47.93837,46.56177],[47.94107,46.56273],[47.94708,46.56377],[47.95232,46.56311],[47.95613,46.55849]],[[47.93319,46.19794],[47.93038,46.19804],[47.92576,46.20108]],[[47.95821,46.10958],[47.92967,46.09963]],[[47.93511,46.19844],[47.93319,46.19794]],[[47.94119,46.20249],[47.93886,46.2004]],[[47.9863,46.33868],[47.97744,46.34278],[47.97004,46.34318],[47.9598,46.34219],[47.95736,46.33914],[47.95262,46.33903],[47.95174,46.33803],[47.93991,46.33801]],[[47.94287,46.38736],[47.94284,46.38701]],[[47.94441,46.38713],[47.94412,46.38718],[47.944,46.38719],[47.94366,46.38725]],[[47.97969,46.24645],[47.96622,46.25079],[47.95019,46.25027],[47.94373,46.24857]],[[47.94473,46.38789],[47.94412,46.38718],[47.94421,46.38662]],[[47.98074,45.9344],[47.97912,45.93362],[47.97995,45.93136],[47.98974,45.91546],[47.99135,45.90453],[47.98898,45.89634],[47.98621,45.86302],[47.98539,45.86104],[47.98296,45.85956],[47.96232,45.85659],[47.95789,45.85498]],[[47.96424,46.33507],[47.96328,46.33152],[47.96134,46.33122],[47.95945,46.32457]],[[47.96342,46.3365],[47.96424,46.33507]],[[47.96424,46.33507],[47.96586,46.33506],[47.96661,46.33508],[47.96723,46.33516],[47.96999,46.33588],[47.97483,46.33901],[47.97584,46.33665]],[[47.96657,46.26633],[47.96911,46.27064],[47.96794,46.27479],[47.96807,46.27561],[47.96842,46.27646],[47.96906,46.27782]],[[47.96842,46.27646],[47.9694,46.27643]],[[47.98909,46.42004],[47.97627,46.41686]],[[48.05269,46.67166],[48.05176,46.67298],[48.0528,46.68138],[48.05009,46.68773],[48.02987,46.69867],[48.02458,46.70023],[48.01868,46.69985],[47.99526,46.70552],[47.98108,46.7063]],[[47.99891,46.259],[47.99842,46.25895],[47.99548,46.25861],[47.99189,46.25821],[47.99166,46.25819],[47.99029,46.25756],[47.97969,46.24645],[47.97114,46.2376],[47.9646,46.2338],[47.96082,46.22801],[47.95101,46.22207],[47.94521,46.21983],[47.93313,46.20821],[47.93465,46.20557],[47.94001,46.20326],[47.94119,46.20249],[47.94627,46.19931],[47.9505,46.19623],[47.95943,46.18309],[47.96409,46.17998],[47.96587,46.17534],[47.971,46.16962],[47.96964,46.16624],[47.95719,46.15313],[47.94928,46.12698],[47.94908,46.12288],[47.95162,46.11871],[47.95579,46.11296],[47.95799,46.10989],[47.95821,46.10958],[47.95842,46.10926],[47.97181,46.09085],[47.97346,46.08866],[47.99001,46.06576],[48.00128,46.04579],[48.00538,46.02582],[48.01361,46.01073],[48.01264,46.00853],[48.00581,46.00511],[48.00396,46.00242],[48.00745,45.99501],[48.01098,45.96224],[47.98345,45.93442]],[[47.98567,45.93584],[48.00154,45.91084],[48.00012,45.90341],[47.99777,45.9002],[47.99553,45.88958],[47.99591,45.87956],[47.99798,45.87546],[47.99907,45.86856],[48.00932,45.8554],[48.00353,45.85227],[47.99961,45.85241]],[[47.98597,46.29563],[47.98872,46.29989],[47.99577,46.30698]],[[47.98703,46.3667],[47.99101,46.36594],[47.99876,46.36721]],[[47.99184,46.40529],[48.00203,46.40684],[48.01143,46.40691],[48.01272,46.40358],[48.01173,46.40225],[48.0166,46.39523],[48.01747,46.39153],[48.00592,46.38928],[48.0032,46.38699]],[[47.99577,46.30698],[47.99272,46.30842]],[[47.99348,46.0597],[48.02104,46.05703],[48.03226,46.0576],[48.03532,46.06014]],[[47.99465,46.81334],[47.99601,46.81341]],[[47.995,46.81454],[47.99465,46.81334]],[[47.99874,46.80819],[47.99436,46.81176],[47.99465,46.81334]],[[47.99577,46.30698],[48.004,46.31499],[48.00171,46.31758]],[[47.99577,46.30698],[48.00509,46.30236],[48.02229,46.30203],[48.02977,46.30298]],[[47.99618,46.81044],[47.99845,46.8108]],[[47.99845,46.8108],[47.9962,46.81318]],[[48.00268,46.35969],[48.00113,46.36119],[47.9984,46.36166],[47.99849,46.36412],[47.99697,46.3668]],[[48.053,46.49153],[48.0447,46.48686],[48.03715,46.47984],[48.01337,46.47658],[48.009,46.47919],[47.99737,46.47225],[47.99753,46.46805]],[[47.99845,46.8108],[47.99826,46.80878],[47.99833,46.80868],[47.99874,46.80819],[47.99937,46.80736],[48.0003,46.80605],[48.00156,46.80377],[48.00278,46.80309],[48.00569,46.7973],[48.01118,46.79728],[48.01856,46.78538],[48.02772,46.78188]],[[47.99857,46.35515],[48.00085,46.35362]],[[47.99886,46.25931],[47.99842,46.25895],[47.99898,46.25862]],[[48.00085,46.35362],[48.0051,46.35611]],[[48.00085,46.35362],[48.00261,46.3524]],[[48.00376,46.73031],[48.01001,46.72863],[48.01629,46.72903],[48.02708,46.72261],[48.03229,46.7232],[48.05067,46.72071],[48.05536,46.72405]],[[48.01756,46.33596],[48.04232,46.33821]],[[48.02018,46.31156],[48.0204,46.31152]],[[48.02074,46.3119],[48.02018,46.31156]],[[48.02018,46.31156],[48.02,46.31022],[48.02055,46.31171]],[[48.02191,46.32643],[48.03114,46.32704]],[[48.03138,46.32556],[48.03926,46.32612]],[[48.03427,46.35131],[48.03284,46.35201]],[[48.034,46.35156],[48.03427,46.3516]],[[48.03427,46.35131],[48.0372,46.35219],[48.04225,46.35134]],[[48.03427,46.35131],[48.03393,46.34963],[48.0456,46.34885]],[[48.03532,46.06014],[48.04437,46.06108],[48.05443,46.06487],[48.05894,46.06368],[48.06458,46.05955]],[[48.03532,46.06014],[48.03696,46.05324],[48.04002,46.05101],[48.04238,46.04557],[48.03961,46.04345],[48.03653,46.04327]],[[48.03539,46.35468],[48.03947,46.35406],[48.04283,46.35278],[48.04467,46.35232],[48.0494,46.35134],[48.04954,46.35131],[48.04973,46.35126],[48.05375,46.34923]],[[48.03679,46.34943],[48.03703,46.34742]],[[48.05294,46.49164],[48.04421,46.49192],[48.03799,46.49637]],[[48.03851,46.31864],[48.03351,46.31415],[48.03331,46.31215],[48.04996,46.30013],[48.04943,46.29735],[48.05049,46.29497],[48.06272,46.27592],[48.06344,46.26997],[48.07499,46.25729],[48.07826,46.25065],[48.07885,46.24983],[48.07919,46.24938],[48.0808,46.24771],[48.08994,46.24003],[48.1016,46.23265]],[[48.04001,46.32061],[48.03939,46.3201]],[[48.03939,46.3201],[48.03893,46.32074],[48.04136,46.32145],[48.03966,46.31919]],[[48.03939,46.3201],[48.03966,46.31968]],[[48.04033,46.36424],[48.03961,46.36302]],[[48.04009,46.36291],[48.04033,46.36424]],[[48.04033,46.36424],[48.04069,46.3664],[48.04114,46.36764],[48.04211,46.36759],[48.04422,46.36743]],[[48.04382,46.36501],[48.04177,46.36513],[48.04053,46.36523]],[[48.04116,46.3546],[48.04064,46.35816],[48.04177,46.36513],[48.04211,46.36759]],[[48.0456,46.34885],[48.04207,46.34787]],[[48.04265,46.33835],[48.04232,46.33821]],[[48.04232,46.33821],[48.04264,46.33814]],[[48.04264,46.33814],[48.04376,46.33825]],[[48.04264,46.33814],[48.04265,46.33835]],[[48.04376,46.33825],[48.04265,46.33835]],[[48.05308,46.49182],[48.04275,46.50104]],[[48.04382,46.36501],[48.04278,46.35803]],[[48.04374,46.33479],[48.04417,46.32898]],[[48.04376,46.33825],[48.04834,46.34074]],[[48.04382,46.36501],[48.04422,46.36743]],[[48.04984,46.36462],[48.04382,46.36501]],[[48.04422,46.36743],[48.0487,46.36715]],[[48.0456,46.34885],[48.04812,46.34868]],[[48.0481,46.35376],[48.04903,46.35527],[48.04797,46.35776]],[[48.04816,46.3464],[48.04869,46.34967],[48.04909,46.3505],[48.04949,46.35122],[48.04954,46.35131],[48.0496,46.35141],[48.04997,46.35218],[48.05083,46.35375],[48.05179,46.35526],[48.04903,46.35527]],[[48.04875,46.37921],[48.05014,46.37923]],[[48.05029,46.37979],[48.04875,46.37921]],[[48.04878,46.36956],[48.04306,46.3714],[48.04604,46.37681],[48.04848,46.37742],[48.04875,46.37921]],[[48.04876,46.34084],[48.05036,46.34142]],[[48.04907,46.36918],[48.05731,46.36889],[48.05941,46.37218]],[[48.05016,46.33893],[48.05151,46.33916]],[[48.05036,46.34142],[48.05017,46.34198]],[[48.05151,46.33916],[48.05036,46.34142]],[[48.05151,46.33916],[48.06042,46.34108]],[[48.06689,46.47866],[48.0684,46.47964],[48.06853,46.47976],[48.06863,46.47986],[48.0686,46.48061],[48.05898,46.4858],[48.05343,46.49147]],[[48.0538,46.36127],[48.05606,46.36892]],[[48.05725,46.35141],[48.05643,46.35157]],[[48.05794,46.35131],[48.05725,46.35141],[48.0567,46.35153],[48.0565,46.35182]],[[48.05662,46.35206],[48.06109,46.35136]],[[48.05755,46.34795],[48.05794,46.35131]],[[48.05794,46.35131],[48.06077,46.35079],[48.06109,46.35136]],[[48.05866,46.335],[48.0606,46.33553]],[[48.06363,46.34746],[48.06406,46.35074],[48.06109,46.35136]],[[48.06183,46.3605],[48.06251,46.36044]],[[48.06291,46.36108],[48.06183,46.3605]],[[48.06183,46.3605],[48.06021,46.36086],[48.05945,46.36725],[48.06056,46.368],[48.06317,46.36739]],[[48.06271,46.3605],[48.06362,46.3608]],[[48.06362,46.3608],[48.06304,46.3612]],[[48.06362,46.3608],[48.07169,46.36188]],[[48.06482,46.37211],[48.06577,46.374],[48.06667,46.37376],[48.07776,46.37058],[48.08309,46.36712]],[[48.06689,46.47866],[48.06644,46.47839]],[[48.06659,46.477],[48.06689,46.47866]],[[48.06853,46.47976],[48.06678,46.48071]],[[48.07696,46.11542],[48.07437,46.11455],[48.06706,46.11546]],[[48.06887,46.06003],[48.07169,46.06042]],[[48.10058,46.31735],[48.10602,46.29213],[48.1048,46.28326],[48.10477,46.26436],[48.0959,46.25613],[48.09212,46.25444],[48.08822,46.25323],[48.08425,46.25211],[48.07897,46.25056],[48.07531,46.24945],[48.06988,46.24746]],[[48.07022,46.09046],[48.06833,46.09581],[48.06969,46.10567],[48.08566,46.10363]],[[48.07339,46.37853],[48.07108,46.37472]],[[48.08249,46.37279],[48.08398,46.3758],[48.08304,46.37568],[48.07635,46.37768],[48.07488,46.37809],[48.07339,46.37853],[48.07275,46.37872],[48.07118,46.3761]],[[48.07325,46.40411],[48.07341,46.40544]],[[48.07341,46.40544],[48.07324,46.40482],[48.07325,46.40411]],[[48.07325,46.40411],[48.07327,46.40321],[48.07527,46.40322],[48.0804,46.40003],[48.08312,46.40148],[48.08444,46.40437],[48.08253,46.40802]],[[48.09996,46.40978],[48.08939,46.41176],[48.08378,46.4159],[48.07609,46.41655],[48.07341,46.40544]],[[48.07477,46.35524],[48.07469,46.35525]],[[48.07483,46.35586],[48.07451,46.35452],[48.07386,46.351],[48.07373,46.34926],[48.07384,46.34836],[48.07526,46.3467]],[[48.07526,46.3467],[48.07385,46.34863],[48.07396,46.351],[48.07459,46.35451],[48.07477,46.35524],[48.07492,46.35585]],[[48.07524,46.11463],[48.07822,46.10503]],[[48.07526,46.3467],[48.07544,46.34646]],[[48.07768,46.11595],[48.10099,46.11947],[48.10983,46.12328]],[[48.07973,46.12897],[48.07915,46.12912]],[[48.08273,46.25166],[48.08285,46.25055],[48.07919,46.24938]],[[48.22523,46.08069],[48.2195,46.08673],[48.20458,46.09589],[48.20032,46.10081],[48.18084,46.09925],[48.17354,46.10154],[48.1591,46.11456],[48.15817,46.11853],[48.15062,46.13045],[48.13393,46.13735],[48.13039,46.13746],[48.12118,46.13464],[48.1087,46.13842],[48.09833,46.13171],[48.09681,46.13141],[48.08471,46.12965],[48.08122,46.12918],[48.07973,46.12897],[48.07937,46.12892]],[[48.08174,46.38607],[48.0953,46.38161]],[[48.08253,46.40802],[48.08208,46.40854],[48.08189,46.40854],[48.08189,46.40831],[48.08253,46.40802]],[[48.08821,46.0992],[48.09032,46.09634],[48.0971,46.09311],[48.10693,46.0836],[48.1705,46.0852],[48.17229,46.08428],[48.17628,46.07754],[48.17933,46.07487],[48.19551,46.06777],[48.20165,46.05702],[48.20571,46.05254],[48.20489,46.04795],[48.20742,46.03696],[48.20901,46.03455],[48.22814,46.02484],[48.24038,46.01524],[48.24162,46.01313],[48.24397,46.0],[48.25691,45.98447],[48.263,45.9736],[48.26503,45.9727],[48.28031,45.97422],[48.2884,45.96772],[48.29388,45.95332],[48.29511,45.94437]],[[48.09112,46.38428],[48.09902,46.38218],[48.11131,46.37331],[48.1124,46.36715]],[[48.12074,46.20766],[48.11419,46.21788],[48.10681,46.22223],[48.10535,46.22505],[48.10505,46.23027],[48.1016,46.23265]],[[48.1016,46.23265],[48.10363,46.23217],[48.11179,46.23193],[48.12561,46.23353],[48.14234,46.23351],[48.14548,46.23074],[48.14586,46.22854],[48.15355,46.227],[48.15569,46.22757],[48.16105,46.22894],[48.16747,46.22999],[48.17462,46.23335],[48.1814,46.23386],[48.18777,46.23615],[48.20003,46.23694]],[[48.10321,46.23163],[48.10363,46.23217]],[[48.1124,46.36715],[48.11236,46.36624],[48.11525,46.36625]],[[48.1124,46.36715],[48.11511,46.36709],[48.11525,46.36625]],[[48.11525,46.36625],[48.12776,46.36776]],[[48.12586,46.0051],[48.12006,45.9985],[48.1188,45.99524],[48.12564,45.97898],[48.1295,45.96472],[48.12366,45.94898],[48.13867,45.93477],[48.15199,45.92514],[48.1473,45.91962],[48.14775,45.90263],[48.14266,45.88593],[48.14289,45.88294],[48.13733,45.88112],[48.12493,45.86833],[48.12311,45.86143],[48.12581,45.85168],[48.12347,45.84891],[48.11922,45.84942]],[[48.15657,46.2278],[48.15767,46.22273],[48.16059,46.22041]],[[48.16747,46.22999],[48.17299,46.2229],[48.18811,46.22299],[48.19879,46.22028],[48.20072,46.21428],[48.19858,46.20927],[48.20373,46.20271],[48.20604,46.19637],[48.20918,46.1816],[48.20892,46.18066],[48.20694,46.18049]],[[48.19626,46.43189],[48.19084,46.43904],[48.18859,46.4563],[48.19337,46.45876]],[[48.21696,46.35978],[48.21654,46.35989]],[[48.21682,46.35944],[48.217,46.35975]],[[48.2171,46.35983],[48.22114,46.36229]],[[48.2171,46.35983],[48.21705,46.35982],[48.21696,46.35978],[48.2168,46.3597],[48.21673,46.35967],[48.21669,46.35963],[48.2171,46.35983]],[[48.2287,46.29401],[48.23202,46.29423],[48.23921,46.3045],[48.2385,46.3122],[48.2377,46.31478],[48.23377,46.31701],[48.23153,46.32501],[48.2242,46.33194],[48.22047,46.33337]],[[48.22523,46.08069],[48.22568,46.07974],[48.22186,46.07508],[48.22521,46.0698],[48.2338,46.06316],[48.23461,46.05829],[48.24404,46.05557],[48.25191,46.05098],[48.25934,46.048],[48.25987,46.04776],[48.26001,46.04769],[48.26076,46.04723],[48.26678,46.04206],[48.27015,46.03655],[48.28449,46.03216],[48.29333,46.03226],[48.30496,46.0387],[48.31476,46.03473],[48.32353,46.02864],[48.32693,46.03349],[48.32995,46.04282],[48.33193,46.04329],[48.33245,46.04723],[48.33634,46.05026],[48.33968,46.05042],[48.34846,46.05674],[48.35662,46.057],[48.35756,46.05255],[48.36082,46.05292]],[[48.22523,46.08069],[48.22568,46.08054],[48.226,46.08073]],[[48.22568,46.07974],[48.226,46.08073]],[[48.226,46.08073],[48.22757,46.08313],[48.23636,46.08589],[48.2407,46.0905],[48.24619,46.09074],[48.26459,46.09742],[48.27117,46.11924],[48.28618,46.12636],[48.30115,46.13885],[48.3095,46.14244],[48.32006,46.14252],[48.326,46.13146],[48.32745,46.13088]],[[48.22711,46.34789],[48.22866,46.34755],[48.23043,46.34652],[48.23089,46.34633],[48.23165,46.34621]],[[48.22949,46.10688],[48.23735,46.09485],[48.23757,46.09172],[48.2408,46.09117]],[[48.23747,46.34763],[48.23088,46.3477]],[[48.23165,46.34621],[48.23081,46.34698],[48.23232,46.34751]],[[48.23165,46.34621],[48.23215,46.3462],[48.23305,46.34635],[48.23606,46.34743],[48.23747,46.34763]],[[48.23578,46.34486],[48.23596,46.34697],[48.23863,46.34761]],[[48.23747,46.34763],[48.23863,46.34761]],[[48.23863,46.34761],[48.2481,46.34741],[48.29122,46.34115],[48.30044,46.33492],[48.30397,46.32762]],[[48.2408,46.09117],[48.24102,46.09061]],[[48.2408,46.09117],[48.2429,46.0909]],[[48.24224,45.93793],[48.28836,45.94018],[48.29511,45.94437]],[[48.25159,46.16837],[48.25541,46.16485],[48.25666,46.16121]],[[48.25666,46.16121],[48.26503,46.16666],[48.27486,46.17692]],[[48.25666,46.16121],[48.26016,46.14426],[48.27361,46.12076]],[[48.25934,46.048],[48.2554,46.04544],[48.25611,46.04282],[48.25513,46.03477],[48.25722,46.03091],[48.25755,46.02422],[48.2625,46.01741],[48.26201,46.01487],[48.26743,46.00279],[48.27329,45.99521],[48.27524,45.98946],[48.28899,45.97622],[48.29589,45.97156],[48.29871,45.9667]],[[48.25943,46.04769],[48.25987,46.04776]],[[48.26069,46.2971],[48.26115,46.29634]],[[48.26172,46.29694],[48.26089,46.297]],[[48.29511,45.94437],[48.29853,45.9403],[48.2978,45.93186],[48.30267,45.92415]],[[48.30397,46.32762],[48.30438,46.32659],[48.30482,46.32565]],[[48.50665,46.21458],[48.50554,46.21443],[48.50164,46.2183],[48.49513,46.2296],[48.49104,46.23021],[48.45808,46.24263],[48.43693,46.24895],[48.42007,46.2568],[48.40581,46.2672],[48.3979,46.27776],[48.39266,46.28153],[48.38583,46.2853],[48.37188,46.29122],[48.34082,46.3046],[48.32535,46.31122],[48.31983,46.31577],[48.31237,46.32503],[48.30397,46.32762]],[[48.30482,46.32565],[48.30435,46.32665]],[[48.30482,46.32565],[48.3062,46.32625]],[[48.30482,46.32565],[48.30767,46.3194],[48.30723,46.31669],[48.29629,46.30809],[48.29214,46.30662],[48.27057,46.30497],[48.26836,46.30365],[48.26721,46.30252],[48.26172,46.29694],[48.26145,46.29664],[48.26115,46.29634],[48.25667,46.29184],[48.25289,46.28799],[48.24895,46.28416],[48.23665,46.27743],[48.23771,46.25376],[48.23564,46.25049],[48.23071,46.24659],[48.21742,46.22832],[48.21124,46.2149],[48.21401,46.19247],[48.22208,46.18258],[48.22772,46.18033],[48.22818,46.1759],[48.23462,46.16873],[48.24209,46.16656],[48.25324,46.16878],[48.25825,46.17115],[48.26721,46.17795],[48.28313,46.18499],[48.28577,46.18493],[48.32898,46.16322],[48.34614,46.1627],[48.36494,46.14995],[48.3751,46.14934],[48.38105,46.13825],[48.38507,46.13352],[48.3921,46.13011],[48.39917,46.13127],[48.42239,46.13074],[48.43029,46.12732],[48.44128,46.12673],[48.45299,46.12318],[48.46182,46.11693],[48.46888,46.11352],[48.48891,46.09707],[48.48953,46.09519],[48.51334,46.08572],[48.57513,46.06451],[48.59221,46.02567],[48.59705,46.01978],[48.60099,46.01805]],[[48.31652,46.57403],[48.3218,46.57455],[48.32342,46.57805],[48.33032,46.58292],[48.3361,46.5946],[48.34382,46.60298],[48.3521,46.6071],[48.36078,46.61343],[48.42855,46.62551],[48.44316,46.63705],[48.46362,46.64739],[48.46421,46.64774],[48.46455,46.64799],[48.46471,46.64811],[48.45671,46.65052]],[[48.33082,46.40922],[48.33723,46.4],[48.34047,46.39711],[48.35937,46.39006],[48.36628,46.38264],[48.36775,46.37842],[48.36338,46.37628]],[[48.34082,46.3046],[48.3334,46.29706],[48.33301,46.29512],[48.33581,46.29198],[48.3418,46.28819],[48.34579,46.27994],[48.35117,46.27483]],[[48.36611,46.50686],[48.36203,46.51084],[48.36347,46.51627],[48.36289,46.51767],[48.34617,46.52706]],[[48.36611,46.50686],[48.36512,46.50552],[48.3658,46.50342],[48.37945,46.50076],[48.37647,46.50455],[48.36611,46.50686]],[[48.45671,46.65052],[48.45072,46.652]],[[48.45671,46.65052],[48.46455,46.64799]],[[48.49069,46.35943],[48.47894,46.35941],[48.46579,46.35581],[48.46163,46.3506],[48.45782,46.35166]],[[48.54936,46.28264],[48.5384,46.29665],[48.53092,46.30884],[48.50472,46.32894],[48.4916,46.33311],[48.49209,46.33596],[48.49093,46.33826]],[[48.55725,46.27483],[48.55064,46.27405],[48.54954,46.27651],[48.54058,46.2801],[48.51932,46.28315],[48.50058,46.2812]],[[48.52817,46.23535],[48.5117,46.22265],[48.50849,46.21581]],[[48.52138,46.38195],[48.52198,46.38202]],[[48.52178,46.38243],[48.52138,46.38195]],[[48.52817,46.23535],[48.52073,46.2401],[48.52065,46.25282],[48.51458,46.25653],[48.50527,46.26877],[48.50273,46.27923],[48.48985,46.29043],[48.48555,46.29689],[48.48052,46.31592],[48.48896,46.32696],[48.49098,46.33321],[48.49103,46.33798],[48.48844,46.34313],[48.4884,46.35007],[48.48985,46.35784],[48.49028,46.35879],[48.49069,46.35943],[48.49175,46.36091],[48.49191,46.36126],[48.49527,46.37071],[48.49752,46.37264],[48.51885,46.37638],[48.52138,46.38195]],[[48.542,46.51858],[48.5394,46.52051],[48.53761,46.52385],[48.52952,46.52531],[48.52437,46.53253],[48.52361,46.5342],[48.52363,46.53512],[48.52368,46.53623],[48.52381,46.5375],[48.52418,46.53956],[48.52246,46.54303],[48.52222,46.54726]],[[48.52286,46.40075],[48.54338,46.40262]],[[48.52325,46.38415],[48.52178,46.38243],[48.52198,46.38202],[48.52432,46.38374],[48.52397,46.38416],[48.52325,46.38415]],[[48.52369,46.38465],[48.52325,46.38415]],[[48.52354,46.38278],[48.52439,46.38298]],[[48.52368,46.53623],[48.52362,46.53484]],[[48.52916,46.3905],[48.52867,46.39022],[48.52369,46.38465]],[[48.52397,46.38416],[48.52369,46.38465]],[[48.52439,46.38298],[48.52397,46.38332]],[[48.52439,46.38298],[48.54037,46.38221],[48.54326,46.3754],[48.53747,46.36705],[48.53727,46.36508],[48.53893,46.36318],[48.56278,46.35948],[48.57103,46.35689],[48.58418,46.35101],[48.59281,46.34248],[48.61793,46.33848],[48.63881,46.31835],[48.64857,46.30193]],[[48.52716,46.40887],[48.52745,46.40868]],[[48.52743,46.40858],[48.52763,46.40887]],[[48.52752,46.40887],[48.52743,46.40858]],[[48.52743,46.40858],[48.52295,46.40308],[48.52274,46.40105],[48.52286,46.40075],[48.5235,46.39982],[48.52723,46.39545],[48.52758,46.39463],[48.52916,46.3905],[48.5302,46.38863],[48.5344,46.38634],[48.5455,46.40004],[48.54358,46.40096],[48.54409,46.40864],[48.54405,46.40878],[48.544,46.40889],[48.54386,46.40921],[48.54356,46.41001],[48.54316,46.41065],[48.54198,46.41183],[48.54106,46.41256],[48.52906,46.42007],[48.52909,46.40887]],[[48.52751,46.40868],[48.54243,46.40893],[48.54428,46.40905],[48.54916,46.40944],[48.55125,46.40967],[48.56034,46.41297],[48.56627,46.41449],[48.58025,46.41798],[48.61387,46.42068],[48.62772,46.41918],[48.67582,46.4177],[48.68953,46.41613],[48.69705,46.41496],[48.70821,46.40816]],[[48.60397,46.18318],[48.58935,46.18833],[48.57887,46.19494],[48.57007,46.2035],[48.5552,46.21236],[48.5359,46.22607],[48.53315,46.2306],[48.52817,46.23535]],[[48.52899,46.39095],[48.52867,46.39022],[48.52932,46.39017]],[[48.53759,46.40887],[48.54198,46.41183]],[[48.76823,46.3263],[48.75915,46.32728],[48.74234,46.33242],[48.73144,46.32937],[48.71383,46.3273],[48.69867,46.33012],[48.69676,46.33195],[48.69303,46.34067],[48.68926,46.34427],[48.68592,46.34599],[48.66863,46.35029],[48.66168,46.3555],[48.65901,46.35983],[48.65572,46.37124],[48.62493,46.38077],[48.60297,46.39396],[48.5833,46.40392],[48.56836,46.41501]],[[48.60289,46.01769],[48.61009,46.01745]],[[48.60397,46.18318],[48.6034,46.17728],[48.62153,46.17668]],[[48.6405,46.1745],[48.62216,46.17425],[48.62117,46.17959],[48.60397,46.18318]],[[48.68319,46.26985],[48.6826,46.26954],[48.68165,46.26895],[48.67807,46.26667],[48.67724,46.26646],[48.66096,46.26385],[48.64249,46.26314]],[[48.64857,46.30193],[48.6499,46.30234]],[[48.72454,46.19021],[48.72397,46.19295],[48.72625,46.19411],[48.71816,46.21164],[48.71237,46.23351],[48.70507,46.24685],[48.69508,46.24954],[48.68429,46.2687],[48.68374,46.26931],[48.68347,46.26957],[48.68319,46.26985],[48.68296,46.27007],[48.68111,46.27175],[48.67521,46.27642],[48.662,46.29076],[48.64857,46.30193]],[[48.65302,46.30408],[48.6557,46.30548],[48.65727,46.3096]],[[48.68296,46.27007],[48.6826,46.26954],[48.68347,46.26957]],[[48.71992,46.41069],[48.7107,46.409]],[[48.83007,46.43772],[48.81669,46.43525],[48.78138,46.41744],[48.77381,46.41735],[48.76087,46.41918],[48.71992,46.41069]],[[48.86368,46.34868],[48.8656,46.35022],[48.86576,46.35391],[48.87587,46.35774],[48.87254,46.36404],[48.86974,46.36618],[48.86411,46.36834],[48.85756,46.368],[48.85534,46.3743],[48.84319,46.37241],[48.84141,46.37317],[48.83533,46.37248],[48.81815,46.38514],[48.81045,46.38794],[48.80332,46.38862],[48.79285,46.39436],[48.77976,46.39468],[48.77581,46.39152],[48.75672,46.38472],[48.74824,46.38573],[48.73527,46.39028],[48.72568,46.39722],[48.726,46.40237],[48.71992,46.41069]],[[45.74283,48.58883],[45.74275,48.58894],[45.74261,48.58888],[45.74267,48.58879],[45.74283,48.58883]],[[48.04828,46.3488],[48.04815,46.34862],[48.0484,46.3486],[48.04843,46.34874],[48.04828,46.3488]],[[48.05324,46.49186],[48.05308,46.49182],[48.05298,46.49174],[48.05294,46.49164],[48.053,46.49153],[48.05343,46.49147],[48.05324,46.49186]]]}},{"type":"Feature","properties":{"roadClass":"trunk"},"geometry":{"type":"MultiLineString","coordinates":[[[45.03643,48.42619],[45.05011,48.42689],[45.11496,48.42544],[45.14549,48.4216],[45.19295,48.40798],[45.2062,48.40544],[45.2304,48.40336],[45.25296,48.40591],[45.2741,48.40289],[45.28213,48.3996],[45.29064,48.38997],[45.29724,48.38632],[45.3716,48.361],[45.42665,48.34677],[45.48968,48.33826],[45.54536,48.32759],[45.58714,48.33056],[45.59407,48.32986],[45.62477,48.3116],[45.719,48.27498],[45.75264,48.26862],[45.91355,48.23011],[45.91694,48.22716],[45.9309,48.2063],[45.93493,48.20363],[45.96232,48.20755],[45.97047,48.20576],[46.00367,48.17968],[46.01677,48.16769],[46.05113,48.13002],[46.07884,48.09214],[46.07984,48.08506],[46.07674,48.07334],[46.07694,48.06978],[46.12476,47.93658],[46.12706,47.9002],[46.1298,47.89423],[46.14186,47.87893],[46.14717,47.87545],[46.1623,47.87227],[46.17228,47.86793],[46.19042,47.85078],[46.23528,47.81833],[46.28916,47.78304],[46.3412,47.77204],[46.38852,47.75444],[46.39324,47.75004],[46.40321,47.73053],[46.42459,47.70247],[46.4464,47.68629],[46.46991,47.67673],[46.51702,47.66351],[46.58019,47.64399],[46.64881,47.62542],[46.65525,47.62096],[46.68936,47.58263],[46.70225,47.57218]],[[47.84893,46.26437],[47.82317,46.2635],[47.80201,46.26516],[47.77145,46.2648],[47.72443,46.26773],[47.67663,46.26628],[47.66371,46.26369],[47.65695,46.25931],[47.65013,46.25262],[47.64709,46.25124],[47.5905,46.25237],[47.5671,46.24336],[47.55634,46.24076],[47.54614,46.23987],[47.51759,46.24271],[47.50049,46.25048],[47.48147,46.25563],[47.43199,46.25817],[47.42107,46.26332],[47.40583,46.26195],[47.36763,46.26718],[47.32432,46.26567],[47.29269,46.27129],[47.2605,46.27453],[47.22225,46.27383],[47.20075,46.27723],[47.17901,46.27584],[47.0898,46.27973],[47.05006,46.27784],[47.03042,46.27858],[46.98803,46.28828],[46.91119,46.28889],[46.85669,46.2847],[46.75637,46.28624],[46.74268,46.28738],[46.71567,46.29303],[46.6632,46.29728],[46.60418,46.29424],[46.52814,46.29611],[46.51551,46.29782],[46.48619,46.3062],[46.43315,46.3167],[46.37572,46.31696],[46.33073,46.3232],[46.23564,46.32314],[46.16397,46.33038],[46.11383,46.34082],[46.07493,46.34458],[46.0365,46.35614],[46.02475,46.35865]],[[47.9609,46.47077],[47.96067,46.47127],[47.95965,46.47328],[47.95491,46.48195],[47.92657,46.53343],[47.85603,46.62792],[47.85398,46.63415],[47.85474,46.6432],[47.86035,46.65797],[47.86039,46.67056],[47.85142,46.68554],[47.84424,46.6926],[47.83632,46.70329],[47.82945,46.70698],[47.79784,46.71642],[47.73303,46.74204],[47.70645,46.76212],[47.68949,46.77948],[47.62093,46.82],[47.61434,46.82141],[47.59137,46.82031],[47.58189,46.8218],[47.55567,46.82875],[47.52661,46.84358],[47.44742,46.91066],[47.39866,46.96946],[47.39165,46.97567],[47.35409,46.99239],[47.25722,47.06314],[47.23026,47.07634],[47.20379,47.09737],[47.16209,47.11346],[47.13528,47.11743],[47.11414,47.11842],[47.08348,47.13382],[47.05255,47.16145],[47.0388,47.16912],[47.02618,47.18004],[47.01577,47.192],[47.00588,47.20725],[46.98485,47.24723],[46.97735,47.2544],[46.95281,47.27092],[46.93881,47.29169],[46.93313,47.30424],[46.92122,47.31311],[46.91642,47.32303],[46.91326,47.32709],[46.90203,47.33292],[46.87959,47.33717],[46.8713,47.34343],[46.85205,47.37143],[46.84034,47.38366],[46.83842,47.38952],[46.8388,47.40822],[46.82509,47.43782],[46.79044,47.47202],[46.75816,47.49138],[46.75248,47.49604],[46.73617,47.51565],[46.72687,47.53541],[46.71955,47.54687]],[[47.28121,45.78977],[47.27818,45.78429],[47.27654,45.77161],[47.27463,45.76636],[47.27014,45.76015],[47.2622,45.75328],[47.25545,45.73886],[47.24974,45.73558],[47.222,45.72916],[47.21247,45.72521],[47.17119,45.69044],[47.16867,45.68471],[47.16454,45.65516],[47.16001,45.64295],[47.1482,45.61793],[47.13752,45.59056],[47.13086,45.55871],[47.12694,45.55129],[47.11203,45.53164],[47.10176,45.50893],[47.08703,45.48996],[47.08281,45.48225]],[[47.28121,45.78977],[47.28173,45.78995]],[[47.28135,45.79015],[47.28121,45.78977]],[[47.28217,45.79089],[47.28135,45.79015]],[[47.28135,45.79015],[47.28173,45.78995]],[[47.28173,45.78995],[47.28262,45.79059]],[[47.28279,45.79104],[47.28217,45.79089]],[[47.28262,45.79059],[47.28217,45.79089]],[[47.28262,45.79059],[47.28279,45.79104]],[[47.84809,46.20905],[47.84809,46.1954],[47.83537,46.18203],[47.81831,46.17338],[47.81466,46.16493],[47.81314,46.16358],[47.80281,46.16238],[47.79919,46.16043],[47.7976,46.14449],[47.79095,46.13675],[47.78816,46.12636],[47.77965,46.11943],[47.76394,46.11163],[47.75244,46.1073],[47.74668,46.10336],[47.7384,46.10334],[47.73737,46.09874],[47.73263,46.09824],[47.7297,46.0956],[47.72944,46.07338],[47.72465,46.05484],[47.71733,46.04399],[47.7001,46.02612],[47.69916,46.02079],[47.69348,46.00967],[47.67499,45.99466],[47.66247,45.98226],[47.64714,45.98302],[47.63706,45.98229],[47.627,45.97597],[47.62608,45.97052],[47.62687,45.9676],[47.62169,45.94994],[47.60958,45.93093],[47.60819,45.91725],[47.60638,45.91414],[47.60838,45.90055],[47.61268,45.88997],[47.61265,45.88722],[47.59941,45.87293],[47.59579,45.87151],[47.58093,45.87311],[47.54471,45.8737],[47.49257,45.87855],[47.47389,45.87843],[47.43672,45.88052],[47.43615,45.86959],[47.43132,45.86493],[47.35929,45.84325],[47.32521,45.81669],[47.31809,45.79962],[47.31424,45.79554],[47.30684,45.79336],[47.28972,45.79373],[47.28279,45.79104]],[[47.84556,46.21361],[47.83702,46.2206],[47.83629,46.22426],[47.83709,46.2294],[47.8412,46.24675],[47.85323,46.26223]],[[47.84556,46.21361],[47.84718,46.21186]],[[47.84822,46.21239],[47.84556,46.21361]],[[47.84822,46.21239],[47.84718,46.21186]],[[47.84718,46.21186],[47.8477,46.21079]],[[47.8477,46.21079],[47.84809,46.20905]],[[47.8477,46.21079],[47.849,46.21018]],[[47.84809,46.20905],[47.849,46.21018]],[[47.849,46.21018],[47.8507,46.2112],[47.84822,46.21239]],[[47.85055,46.26434],[47.84971,46.26437],[47.84893,46.26437]],[[47.84893,46.26437],[47.85134,46.26429],[47.85209,46.26435],[47.85339,46.26448],[47.8555,46.26469],[47.85575,46.26468],[47.85646,46.26406],[47.85498,46.26444]],[[47.85739,46.26746],[47.85055,46.26434]],[[47.85483,46.26471],[47.85129,46.26435],[47.85092,46.26434],[47.85055,46.26434]],[[47.85064,46.26427],[47.8527,46.26381],[47.85323,46.26223]],[[47.85323,46.26223],[47.85438,46.26368]],[[47.85438,46.26368],[47.85316,46.26358],[47.85339,46.26448]],[[47.85438,46.26368],[47.85498,46.26444]],[[47.85583,46.26554],[47.85692,46.26597],[47.85753,46.26539],[47.857,46.26494],[47.85483,46.26471]],[[47.85483,46.26471],[47.85399,46.26556],[47.8554,46.26496]],[[47.85498,46.26444],[47.8554,46.26496]],[[47.8554,46.26496],[47.85583,46.26554]],[[47.85583,46.26554],[47.85739,46.26746]],[[47.85739,46.26746],[47.86115,46.27159],[47.87086,46.27618],[47.87587,46.28371],[47.89045,46.2876],[47.8943,46.29058],[47.895,46.29176],[47.89844,46.29788],[47.89902,46.29898],[47.90016,46.30214],[47.90043,46.30711],[47.89855,46.31555],[47.8995,46.31954],[47.9026,46.32273],[47.91702,46.32991],[47.92092,46.33346],[47.92372,46.3436],[47.93511,46.36398],[47.94486,46.38818],[47.95871,46.40562],[47.95933,46.40956],[47.95694,46.41764],[47.94929,46.42782],[47.94678,46.4334],[47.94436,46.45378],[47.94688,46.45921],[47.95295,46.46435],[47.96031,46.47041],[47.9609,46.47077]],[[47.895,46.29176],[47.89439,46.29141]],[[47.96067,46.47127],[47.96031,46.47041],[47.96108,46.47038]],[[47.96108,46.47038],[47.9609,46.47077]],[[48.0451,46.36209],[48.03985,46.36295],[48.00845,46.37351],[48.00982,46.37772],[48.00053,46.39039],[47.99838,46.39778],[47.98753,46.41012],[47.97523,46.4179],[47.96677,46.4339],[47.96301,46.44449],[47.96108,46.47038]],[[48.0451,46.36209],[48.04782,46.36183],[48.05104,46.37933]],[[48.05014,46.37923],[48.05003,46.37716],[48.04839,46.36716],[48.04768,46.36262],[48.04761,46.36197],[48.0451,46.36209]],[[48.04796,46.36259],[48.04768,46.36262]],[[48.05034,46.37982],[48.05014,46.37923]],[[48.05014,46.37923],[48.05063,46.37914],[48.05104,46.37933]],[[48.05108,46.3794],[48.05097,46.37973],[48.05066,46.37985],[48.05034,46.37982]],[[48.09428,46.42321],[48.08763,46.42419],[48.07153,46.42457],[48.06964,46.42424],[48.06824,46.42338],[48.0677,46.42263],[48.06747,46.42173],[48.06445,46.40116],[48.06461,46.39973],[48.06733,46.39298],[48.06625,46.37935],[48.06504,46.37864],[48.05121,46.38003],[48.05034,46.37982]],[[48.05104,46.37933],[48.05108,46.3794]],[[48.05108,46.3794],[48.05194,46.37986],[48.06504,46.37856],[48.06627,46.37912],[48.06749,46.39297],[48.06462,46.40139],[48.06833,46.42331],[48.07155,46.42445],[48.09428,46.42321]],[[48.05148,46.37979],[48.05128,46.38002]],[[48.09428,46.42321],[48.12455,46.41802],[48.13661,46.42211],[48.14181,46.42266],[48.1465,46.4215],[48.15092,46.41876]],[[48.15092,46.41876],[48.15393,46.41675],[48.15482,46.41614],[48.15524,46.41585],[48.15552,46.4155],[48.15425,46.41476],[48.15332,46.41583],[48.15379,46.41626],[48.15483,46.41665],[48.15583,46.417]],[[48.15544,46.41746],[48.15092,46.41876]],[[48.15583,46.417],[48.15544,46.41746]],[[48.15721,46.41752],[48.15618,46.41729],[48.15544,46.41746]],[[48.15583,46.417],[48.15721,46.41752]],[[48.15721,46.41752],[48.20031,46.43338],[48.21514,46.43741],[48.22241,46.43829],[48.25581,46.43823]],[[48.25581,46.43823],[48.25677,46.43831]],[[48.25671,46.43857],[48.25581,46.43823]],[[48.25758,46.43904],[48.25676,46.43859]],[[48.25706,46.43848],[48.25758,46.43904]],[[48.25758,46.43904],[48.25977,46.44097],[48.27699,46.47225],[48.28857,46.47875],[48.30129,46.4979],[48.34,46.51473],[48.34344,46.51711],[48.34034,46.52086]],[[48.34034,46.52086],[48.34081,46.52163]],[[48.34081,46.52163],[48.34037,46.52124],[48.34034,46.52086]],[[48.34081,46.52163],[48.34422,46.52555]],[[48.34422,46.52555],[48.34509,46.52627]],[[48.34509,46.52627],[48.34488,46.52618],[48.34422,46.52555]],[[48.34509,46.52627],[48.34617,46.52706],[48.34058,46.53449],[48.35004,46.53713],[48.34937,46.54448]],[[48.34968,46.54562],[48.34908,46.54559]],[[48.34937,46.54448],[48.34908,46.54559]],[[48.34908,46.54559],[48.34944,46.54559],[48.34968,46.54562]],[[48.34937,46.54448],[48.34981,46.54561]],[[48.34968,46.54562],[48.34981,46.54561]],[[48.34981,46.54561],[48.38995,46.54872],[48.39882,46.54626],[48.41138,46.54472],[48.42582,46.54527],[48.44672,46.54844],[48.46246,46.54632],[48.48554,46.54513],[48.5068,46.54794],[48.53352,46.5478],[48.54912,46.55043],[48.57243,46.55206],[48.59294,46.54934],[48.60806,46.54413],[48.64999,46.54601],[48.66319,46.54024],[48.68164,46.53725],[48.68847,46.53791],[48.70692,46.5433],[48.71764,46.54513],[48.74354,46.54404],[48.74765,46.54514],[48.75265,46.54835]],[[48.25698,46.43834],[48.25697,46.43857],[48.25676,46.43859],[48.25671,46.43857],[48.25667,46.43854],[48.25665,46.43851],[48.25698,46.43834]]]}}],"provenance":{"sources":[{"id":"osm-south-260916","url":"https://download.geofabrik.de/russia/south-fed-district-260916.osm.pbf","snapshot":"2026-09-16T20:21:21Z","sha256":"3ccca698671dbc4d23d4a4fbc8f83bca9ea620c541d0f15c2d60ac03919f99d7","md5":"3ba975cd945a4f9f637abd451290e6d7","bytes":313497295,"license":"ODbL-1.0","attribution":"© OpenStreetMap contributors, Geofabrik","downloadDate":"2026-09-17"}],"attribution":"© OpenStreetMap contributors, Geofabrik; ODbL-1.0","geometryMethod":"Actual OSM road ways, merged by class and endpoint, display simplification 0.0007 degrees; not routing geometry","sourceWayCount":2229,"routingUse":false}}