{"type":"FeatureCollection","features":[{"type":"Feature","properties":{"roadClass":"primary"},"geometry":{"type":"MultiLineString","coordinates":[[[-179.11552,66.31832],[-179.1087,66.31412],[-179.1084,66.2992],[-179.11165,66.27611],[-179.1187,66.26065],[-179.11999,66.25816],[-179.12344,66.25582],[-179.1292,66.24478],[-179.1585,66.21863],[-179.16469,66.21097],[-179.17672,66.19057],[-179.18224,66.18602],[-179.189,66.18257],[-179.20622,66.16981],[-179.22315,66.16252],[-179.23326,66.15362],[-179.25082,66.14098],[-179.30146,66.10975],[-179.31153,66.10674],[-179.31589,66.10421],[-179.34558,66.09722],[-179.39843,66.08729],[-179.41948,66.08725],[-179.45204,66.08107],[-179.49971,66.06975],[-179.51093,66.06413],[-179.51721,66.05909],[-179.52446,66.05101],[-179.534,66.04569],[-179.55625,66.03687],[-179.56575,66.03192],[-179.58152,66.02119],[-179.60171,66.01066],[-179.6207,65.98963],[-179.63145,65.97995],[-179.63912,65.9753],[-179.6631,65.95366],[-179.67336,65.94623],[-179.68401,65.93173],[-179.68717,65.9239],[-179.70396,65.90601],[-179.70875,65.89814],[-179.71441,65.87353],[-179.71384,65.86993],[-179.72314,65.86283],[-179.72477,65.85871],[-179.72007,65.84721],[-179.71662,65.82472],[-179.70771,65.80793],[-179.70964,65.80662],[-179.69871,65.79442],[-179.6884,65.78555],[-179.68514,65.78067],[-179.6845,65.77779],[-179.68177,65.77661],[-179.67784,65.77218],[-179.64587,65.75085],[-179.59873,65.72528],[-179.55147,65.70518],[-179.4753,65.67782],[-179.46771,65.66733],[-179.46971,65.66406],[-179.46886,65.6608],[-179.47107,65.65609],[-179.46903,65.64998],[-179.44984,65.64099],[-179.43349,65.63496],[-179.41949,65.62568],[-179.39904,65.61675],[-179.39409,65.61584],[-179.39077,65.61261],[-179.38019,65.60768],[-179.37164,65.6018],[-179.3538,65.59794],[-179.34444,65.59221],[-179.34004,65.58005],[-179.34102,65.5789],[-179.33949,65.57661],[-179.34037,65.57187],[-179.34377,65.56716],[-179.34261,65.56177],[-179.33936,65.55491],[-179.33515,65.55044],[-179.31799,65.5436],[-179.28974,65.5374],[-179.295,65.5271],[-179.30925,65.51762],[-179.31854,65.51428],[-179.37378,65.48336],[-179.40799,65.47188],[-179.41267,65.46972],[-179.42681,65.45806],[-179.44814,65.45124],[-179.4595,65.43824],[-179.46561,65.43419],[-179.48175,65.429],[-179.50438,65.4184],[-179.50691,65.41618],[-179.50847,65.41064],[-179.51549,65.40513],[-179.51864,65.3985],[-179.52231,65.39679],[-179.5223,65.3924],[-179.52685,65.39004],[-179.56479,65.37842],[-179.61179,65.36717],[-179.65208,65.35551],[-179.68775,65.34795],[-179.76931,65.3187],[-179.78521,65.3111],[-179.85277,65.28812],[-179.88383,65.28088],[-179.89555,65.27673],[-179.94552,65.26506],[-180.0,65.25787]],[[-179.20249,66.44698],[-179.21536,66.44581],[-179.23124,66.44879],[-179.24263,66.44789],[-179.26426,66.45653],[-179.27072,66.46024],[-179.28136,66.46305],[-179.28771,66.46648],[-179.29473,66.47376],[-179.30145,66.47823],[-179.3026,66.4804],[-179.32114,66.4904],[-179.32667,66.49585],[-179.35758,66.5106],[-179.3601,66.51283],[-179.36027,66.51593],[-179.36779,66.52039],[-179.36659,66.52278],[-179.36857,66.52417],[-179.36771,66.52629],[-179.36837,66.52801],[-179.37219,66.52903],[-179.37948,66.5341],[-179.39947,66.53476],[-179.42127,66.53865],[-179.43942,66.53724],[-179.47826,66.53717],[-179.48076,66.53804],[-179.48203,66.54209],[-179.48622,66.54513],[-179.51146,66.55445],[-179.51355,66.55611],[-179.5141,66.56107],[-179.50316,66.5713],[-179.51068,66.58355],[-179.49749,66.58934],[-179.49679,66.591],[-179.49967,66.59405],[-179.50983,66.59805],[-179.51,66.6009],[-179.51365,66.6054],[-179.51608,66.61122],[-179.52027,66.615],[-179.53357,66.62211],[-179.53859,66.62968],[-179.54334,66.63183],[-179.55314,66.63194],[-179.57003,66.6281],[-179.57197,66.62636],[-179.57011,66.62478],[-179.57075,66.6238],[-179.57748,66.6203],[-179.57962,66.61733],[-179.59141,66.6112],[-179.59464,66.60436],[-179.59789,66.60045],[-179.6024,66.59762],[-179.61276,66.59515],[-179.62528,66.58811],[-179.63874,66.5753],[-179.65272,66.57307],[-179.66647,66.57328],[-179.68525,66.57046],[-179.70059,66.57224],[-179.70768,66.57524],[-179.7099,66.57758],[-179.72639,66.58204],[-179.73307,66.58225],[-179.74329,66.58452],[-179.75759,66.59091],[-179.77253,66.60261],[-179.78034,66.60638],[-179.78315,66.60942],[-179.79716,66.61574],[-179.80895,66.61905],[-179.82025,66.62376],[-179.83994,66.62583],[-179.87633,66.62519],[-179.89802,66.62988],[-179.91865,66.63267],[-179.94354,66.64],[-179.95185,66.63984],[-179.965,66.64213],[-179.97824,66.63987],[-180.0,66.64067]],[[-179.18691,66.4484],[-179.20108,66.44712]],[[-179.18649,66.44843],[-179.18691,66.4484]],[[-179.18661,66.44859],[-179.18691,66.4484]],[[-179.18691,66.4484],[-179.18634,66.44828]],[[-179.18661,66.44859],[-179.19337,66.45787],[-179.183,66.47658],[-179.17893,66.48717],[-179.18291,66.49663],[-179.18205,66.49911],[-179.19581,66.51917],[-179.19188,66.53],[-179.183,66.53689],[-179.17144,66.54185],[-179.16632,66.54676],[-179.16189,66.55362],[-179.16568,66.56071],[-179.16579,66.56308],[-179.17246,66.5723],[-179.17224,66.57449],[-179.17526,66.57871],[-179.17567,66.58416],[-179.17737,66.58624],[-179.17551,66.59804],[-179.16325,66.62505],[-179.1516,66.63193],[-179.0452,66.67098],[-179.0439,66.67364],[-179.05623,66.69803],[-179.05551,66.70253],[-179.05736,66.70969],[-179.05653,66.71132],[-179.03898,66.72132],[-179.02689,66.7317],[-178.97529,66.75211],[-178.96454,66.76384],[-178.96315,66.77515],[-178.96375,66.78004],[-178.96127,66.78726],[-178.96237,66.80014],[-178.96892,66.80819],[-178.97786,66.81392],[-178.97984,66.81745],[-178.97321,66.82405],[-178.97703,66.82659],[-178.98539,66.84541],[-178.9939,66.84978],[-178.99916,66.86271],[-179.00552,66.86631],[-179.00721,66.87194],[-179.02208,66.88223],[-179.0339,66.88775],[-179.02945,66.89624],[-179.02983,66.90113],[-179.01593,66.90921],[-179.01584,66.91088],[-179.01906,66.91446],[-179.01855,66.91786],[-179.00964,66.92304],[-178.99441,66.94198],[-178.969,66.95679],[-178.95165,66.97451],[-178.93355,66.98521],[-178.9168,67.00124],[-178.91338,67.00573],[-178.89795,67.01108],[-178.88803,67.01791],[-178.88619,67.02323],[-178.87532,67.03374]],[[-179.18661,66.44859],[-179.18649,66.44843]],[[-179.1185,66.31688],[-179.11424,66.31934],[-179.11202,66.32341],[-179.11649,66.32804],[-179.12128,66.32953],[-179.12304,66.33442],[-179.12157,66.33866],[-179.12211,66.34199],[-179.11077,66.37104],[-179.12896,66.39105],[-179.163,66.40247],[-179.16207,66.40403],[-179.15913,66.40528],[-179.16107,66.40701],[-179.16043,66.40943],[-179.16215,66.41726],[-179.16058,66.42179],[-179.17186,66.43119],[-179.18634,66.44828],[-179.18649,66.44843]],[[-178.87521,67.03385],[-178.86661,67.04103],[-178.80326,67.06729],[-178.795,67.0783],[-178.79154,67.09081],[-178.77212,67.10676],[-178.75463,67.13044],[-178.74824,67.1549],[-178.70651,67.17895],[-178.66774,67.23589],[-178.67391,67.25856],[-178.69742,67.27438],[-178.6977,67.27652],[-178.68436,67.29435],[-178.68283,67.29775],[-178.69956,67.37377],[-178.67961,67.39084],[-178.67924,67.39559],[-178.6947,67.41514],[-178.69708,67.43924],[-178.71282,67.46302],[-178.7105,67.46633],[-178.69737,67.4732],[-178.69592,67.47506],[-178.69681,67.47694],[-178.70421,67.48165],[-178.71008,67.4873],[-178.71356,67.49397],[-178.71533,67.49779],[-178.71529,67.5156],[-178.68585,67.55582],[-178.66935,67.56593],[-178.66216,67.57176],[-178.66207,67.57478],[-178.66862,67.5863],[-178.66329,67.59485],[-178.65737,67.61907]],[[160.40013,65.25535],[160.40824,65.25607],[160.4126,65.25197],[160.41949,65.25312],[160.4267,65.25156],[160.43425,65.25208],[160.44363,65.24957],[160.45532,65.25241],[160.45504,65.25462],[160.45303,65.25671],[160.45479,65.25858],[160.45337,65.26006],[160.45363,65.2618],[160.46773,65.2618],[160.48248,65.26441]],[[160.4856,65.26409],[160.48336,65.26465],[160.48248,65.26441]],[[160.48248,65.26441],[160.4856,65.26409]],[[160.4856,65.26409],[160.50226,65.25838],[160.51297,65.25136],[160.51846,65.24589],[160.52728,65.24806],[160.53449,65.24662],[160.55632,65.24723],[160.57708,65.25016],[160.61785,65.2536],[160.68463,65.26345],[160.72219,65.26296],[160.73689,65.26629],[160.77941,65.26927],[160.80081,65.27201],[160.81939,65.27206],[160.82861,65.2704],[160.86395,65.26776],[160.87573,65.27052],[160.91393,65.27434],[160.97078,65.27092],[160.97307,65.2726],[160.9855,65.27486],[160.9932,65.27782],[161.01364,65.28269],[161.02424,65.28758],[161.0405,65.28994],[161.09113,65.29221],[161.11145,65.28803],[161.12435,65.28756],[161.14654,65.29076],[161.15503,65.29084],[161.18263,65.29545],[161.19978,65.29592],[161.21216,65.29783],[161.23106,65.30315],[161.24957,65.30434],[161.26005,65.30696],[161.27952,65.3153],[161.2862,65.31633],[161.29546,65.32095],[161.31446,65.32313],[161.32277,65.32541],[161.33947,65.32654],[161.35621,65.32914],[161.36189,65.33141],[161.38794,65.33501],[161.40511,65.33626],[161.42774,65.3346],[161.43945,65.3349],[161.46234,65.33362],[161.48661,65.33077],[161.51088,65.34248],[161.51464,65.34137],[161.53887,65.34245],[161.54194,65.34114],[161.54209,65.33708],[161.54533,65.33714],[161.59851,65.34985],[161.63173,65.36378],[161.65348,65.37465],[161.67261,65.37921],[161.71153,65.3914],[161.748,65.40035],[161.78614,65.41724],[161.79094,65.42071],[161.79964,65.42398],[161.80484,65.43173],[161.81581,65.44298],[161.81733,65.44607],[161.81672,65.45053],[161.81325,65.45629],[161.81352,65.46171],[161.81012,65.46592],[161.8102,65.46799],[161.82247,65.47714],[161.84093,65.48329],[161.8547,65.48612],[161.8882,65.48895],[161.9059,65.48828],[161.9445,65.49158],[161.96488,65.49152],[162.01305,65.49586],[162.0287,65.49598],[162.03762,65.49484],[162.04779,65.49134],[162.05227,65.48952],[162.05825,65.48404],[162.06076,65.4832],[162.0894,65.4752],[162.10009,65.47443],[162.10656,65.47185],[162.10902,65.46929],[162.11806,65.46405],[162.13287,65.46035],[162.15468,65.45998],[162.16522,65.46133],[162.17762,65.46505],[162.19006,65.4646],[162.20891,65.46668],[162.22368,65.47026],[162.23437,65.4797],[162.23652,65.48454],[162.25211,65.49252],[162.25625,65.4961],[162.28262,65.508],[162.30092,65.51346],[162.3121,65.51839],[162.31909,65.52287],[162.33053,65.52802],[162.33291,65.53019],[162.34609,65.5354],[162.34916,65.53951],[162.3626,65.54242],[162.37131,65.54576],[162.38069,65.5473],[162.38399,65.54901],[162.38725,65.55326],[162.39774,65.56109],[162.40659,65.56573],[162.41366,65.57367],[162.41495,65.57994],[162.41447,65.58101],[162.41087,65.58216],[162.41015,65.58727],[162.40242,65.60148],[162.40081,65.60824],[162.40122,65.61137],[162.40897,65.62253],[162.40897,65.6313],[162.41392,65.64033],[162.42836,65.65043],[162.44052,65.65572],[162.4374,65.65822],[162.43722,65.6602],[162.44674,65.66408],[162.4481,65.66628],[162.44688,65.66818],[162.44987,65.67076],[162.45094,65.67493],[162.45244,65.67593],[162.44679,65.67892],[162.44633,65.68092],[162.44819,65.68569],[162.45053,65.68713],[162.45009,65.69274],[162.45263,65.69916],[162.45032,65.70196],[162.45021,65.705],[162.453,65.70763],[162.45143,65.71113],[162.45309,65.71558],[162.45313,65.72645],[162.44689,65.73633],[162.44656,65.74359],[162.44055,65.74996],[162.45354,65.75595],[162.45879,65.76125],[162.45917,65.76518],[162.46113,65.76814],[162.45993,65.77173],[162.46444,65.77925],[162.46484,65.78564],[162.46122,65.79019],[162.46184,65.79367],[162.46444,65.79493],[162.4641,65.79559],[162.47073,65.79777],[162.47327,65.81003],[162.47565,65.81178],[162.48763,65.81566],[162.48839,65.81709],[162.48788,65.81836],[162.48084,65.82017],[162.47186,65.83591],[162.45411,65.85446],[162.45298,65.8575],[162.43972,65.86675],[162.4343,65.87247],[162.42682,65.88222],[162.42602,65.88577],[162.42262,65.89027],[162.41845,65.89295],[162.41635,65.89763],[162.40648,65.90924],[162.40281,65.9162],[162.3961,65.91899],[162.39002,65.926],[162.38856,65.92978],[162.389,65.93669],[162.39135,65.93901],[162.39066,65.94038],[162.39364,65.94453],[162.41938,65.96019],[162.43624,65.96774],[162.4507,65.97268],[162.48312,65.97559],[162.49563,65.97573],[162.51243,65.97881],[162.52737,65.98544],[162.54007,65.99467],[162.54606,65.99531],[162.55439,65.99442],[162.55647,65.99884],[162.56002,65.99864],[162.5667,65.9951],[162.57717,65.99347],[162.58238,65.99776],[162.58993,65.99911],[162.61656,66.00211],[162.63647,66.00066],[162.63798,66.00258],[162.64016,66.01191],[162.64327,66.01492],[162.64855,66.02469],[162.65888,66.02779],[162.70788,66.03599],[162.7328,66.04345],[162.74731,66.05242],[162.75448,66.05416],[162.75571,66.05491],[162.75615,66.05724],[162.76405,66.06024],[162.77276,66.06562],[162.78578,66.06892],[162.78649,66.07521],[162.79502,66.08057],[162.79606,66.08262],[162.79484,66.08554],[162.79713,66.09001],[162.79746,66.09976],[162.80083,66.10398],[162.83296,66.11699],[162.83644,66.11982],[162.84208,66.12154],[162.85104,66.12641],[162.85498,66.13028],[162.85465,66.13177],[162.85693,66.13309],[162.8571,66.13484],[162.86701,66.13868],[162.87292,66.14499],[162.89238,66.16047],[162.90728,66.16939],[162.9057,66.17348],[162.90116,66.17687],[162.9026,66.17978],[162.90167,66.18158],[162.90475,66.1859],[162.91801,66.19174],[162.92088,66.19601],[162.92759,66.19965],[162.94219,66.20367],[162.94451,66.20561],[162.96373,66.21007],[162.9685,66.21288],[162.98921,66.21932],[163.00462,66.22245],[163.02961,66.23211],[163.04225,66.24049],[163.04753,66.24572],[163.0556,66.2498],[163.05798,66.25361],[163.06574,66.25583],[163.06837,66.25975],[163.06784,66.26141],[163.07446,66.26167],[163.07435,66.26306],[163.06881,66.26692],[163.06955,66.27059],[163.05617,66.29733],[163.05773,66.31953],[163.06487,66.33236],[163.06399,66.33679],[163.06531,66.34218],[163.0685,66.3445],[163.08435,66.34907],[163.08824,66.36283],[163.09165,66.36766],[163.09174,66.37253],[163.09297,66.37383],[163.09615,66.38562],[163.09428,66.3941],[163.10065,66.40135],[163.13685,66.41111],[163.14473,66.43283],[163.15224,66.44422],[163.16062,66.46056],[163.16086,66.46175],[163.15688,66.46615],[163.15912,66.47463],[163.15893,66.48339],[163.17156,66.48763],[163.17404,66.49024],[163.18361,66.49486],[163.15855,66.52144],[163.15136,66.53053],[163.13891,66.54079],[163.1337,66.54955],[163.12844,66.56475],[163.12786,66.57008],[163.13052,66.60123],[163.13319,66.60325],[163.13417,66.61599],[163.13659,66.62057],[163.1382,66.633],[163.13875,66.64306],[163.13802,66.644],[163.14132,66.68919],[163.14963,66.69758],[163.18606,66.72639],[163.21046,66.74923],[163.23051,66.77136],[163.24836,66.78429],[163.32111,66.82054],[163.33072,66.82613],[163.34399,66.83816],[163.36499,66.84867],[163.37937,66.85289],[163.38323,66.85672],[163.40762,66.86321],[163.40995,66.86442],[163.40917,66.86573],[163.45542,66.88471],[163.46392,66.89081],[163.48633,66.89944],[163.49808,66.90264],[163.53923,66.89804],[163.55462,66.89465],[163.57159,66.88789],[163.59661,66.88496],[163.60654,66.88128],[163.65555,66.87162],[163.70892,66.86773],[163.74042,66.86117],[163.7648,66.86323],[163.79245,66.86353],[163.80996,66.86162],[163.81813,66.85931],[163.87532,66.85341],[163.90237,66.84886],[163.95822,66.84588],[164.00346,66.84692],[164.04843,66.84345],[164.0711,66.84391],[164.1138,66.83918],[164.13189,66.83995],[164.16708,66.83721],[164.22647,66.82966],[164.22968,66.83032],[164.23112,66.83242],[164.23071,66.83457],[164.23811,66.83361],[164.24192,66.83599],[164.24896,66.83724],[164.24581,66.84337],[164.2439,66.84457],[164.24684,66.84784],[164.25205,66.84805],[164.25805,66.84604],[164.2627,66.84843],[164.26655,66.84435],[164.27801,66.8423],[164.28772,66.84215],[164.2929,66.84332],[164.29954,66.84648],[164.30323,66.85218],[164.31263,66.85798],[164.31203,66.8614],[164.31594,66.86525],[164.33415,66.87306],[164.33859,66.87612],[164.35374,66.879],[164.36383,66.88782],[164.36587,66.89117],[164.37479,66.89129],[164.37359,66.89294],[164.37409,66.89455],[164.38005,66.89949],[164.38181,66.90433],[164.38687,66.90763],[164.39314,66.90879],[164.42136,66.92052],[164.42979,66.92094],[164.43357,66.92226],[164.46297,66.923],[164.47833,66.92607],[164.49587,66.93427],[164.49885,66.93902],[164.51276,66.94394],[164.51338,66.94669],[164.51208,66.95059],[164.52385,66.9572],[164.52907,66.96335],[164.53796,66.97755],[164.54461,66.98213],[164.54615,66.98649],[164.54871,66.98965],[164.54671,66.99244],[164.54617,67.00147],[164.54159,67.00817],[164.53988,67.01758],[164.54621,67.02262],[164.55103,67.02897],[164.5543,67.0391],[164.5664,67.04194],[164.5785,67.04829],[164.58474,67.04953],[164.5805,67.05201],[164.58017,67.05371],[164.5736,67.05918],[164.56929,67.06709],[164.5734,67.06934],[164.57519,67.07173],[164.61366,67.08342],[164.6236,67.08846],[164.61957,67.0893],[164.61637,67.09148],[164.61757,67.09246],[164.61702,67.09396],[164.62307,67.09941],[164.62444,67.10632],[164.61399,67.11017],[164.612,67.11278],[164.60686,67.11613],[164.608,67.11822],[164.60736,67.11994],[164.6138,67.12232],[164.61072,67.13223],[164.61417,67.13694],[164.61371,67.13863],[164.61032,67.14065],[164.60856,67.14554],[164.60857,67.14899],[164.6059,67.15227],[164.60434,67.15703],[164.60577,67.15977],[164.60496,67.1613],[164.60564,67.1626],[164.60853,67.16533],[164.62009,67.16868],[164.62019,67.17131],[164.61728,67.17508],[164.61808,67.17896],[164.62024,67.18048],[164.62327,67.18587],[164.62736,67.18825],[164.6282,67.1908],[164.63163,67.1943],[164.63147,67.1982],[164.63284,67.20006],[164.63719,67.20217],[164.63796,67.20428],[164.64414,67.20919],[164.66153,67.21901],[164.66688,67.2207],[164.67753,67.22882],[164.68465,67.23821],[164.6839,67.24022],[164.68484,67.24398],[164.67921,67.2462],[164.68092,67.25044],[164.67887,67.25298],[164.68796,67.25891],[164.70347,67.26296],[164.70817,67.26592],[164.71991,67.27917],[164.73493,67.28898],[164.74604,67.29875],[164.75902,67.3123],[164.76341,67.31433],[164.76316,67.31912],[164.76918,67.32515],[164.78546,67.33239],[164.79119,67.33614],[164.80709,67.34137],[164.82095,67.34857],[164.82855,67.35032],[164.82621,67.35126],[164.82649,67.35282],[164.83127,67.3556],[164.83253,67.35713],[164.83222,67.35843],[164.82595,67.37007],[164.82256,67.38177],[164.81765,67.38589],[164.81597,67.39117],[164.81082,67.3932],[164.8111,67.39386],[164.85968,67.40585],[164.89912,67.41237],[164.90723,67.41621],[164.92964,67.42344],[164.9401,67.43061],[164.94165,67.43324],[164.95216,67.43775],[164.95929,67.44288],[164.97448,67.44816],[165.00993,67.45277],[165.03585,67.46002],[165.04203,67.46048],[165.05113,67.46386],[165.07014,67.47443],[165.10254,67.48179],[165.12287,67.48832],[165.13443,67.48834],[165.16932,67.48298],[165.19668,67.48263],[165.20201,67.48425],[165.20397,67.48593],[165.20916,67.48691],[165.20639,67.48982],[165.2078,67.49121],[165.22116,67.4916],[165.25103,67.49623],[165.25732,67.49907],[165.27358,67.50294],[165.30789,67.49633],[165.32609,67.49692],[165.34171,67.49996],[165.38209,67.5023],[165.38338,67.505],[165.40509,67.50739],[165.43762,67.51537],[165.44574,67.5202],[165.46196,67.533],[165.4668,67.53738],[165.46646,67.53933],[165.49856,67.55182],[165.51229,67.56154],[165.50663,67.5681],[165.49963,67.57131],[165.49397,67.57809],[165.50461,67.58244],[165.52302,67.58593],[165.52907,67.59036],[165.53362,67.59707],[165.53817,67.59997],[165.59006,67.6181],[165.63415,67.6299],[165.67097,67.64263],[165.68285,67.64864],[165.69433,67.65099],[165.69615,67.6546],[165.72131,67.66298],[165.73453,67.67389],[165.74101,67.67329],[165.7482,67.67426],[165.75485,67.6777],[165.79313,67.68564],[165.81785,67.69451],[165.83219,67.69796],[165.83598,67.70053],[165.85451,67.70639],[165.85835,67.70893],[165.862,67.71339],[165.87363,67.72017],[165.87329,67.72168],[165.88066,67.72574],[165.88932,67.72646],[165.88616,67.7299],[165.8914,67.73303],[165.90337,67.73567],[165.90157,67.73621],[165.90515,67.73825],[165.90562,67.73987],[165.90449,67.74263],[165.89998,67.74338],[165.89563,67.74674],[165.89159,67.75673],[165.89309,67.75826],[165.89402,67.76184],[165.90253,67.77116],[165.91056,67.77645],[165.91502,67.79443],[165.91614,67.79511],[165.91189,67.79918],[165.9024,67.81798],[165.9017,67.82061],[165.90409,67.82285],[165.91053,67.82266],[165.91704,67.82096],[165.91951,67.81874],[165.92704,67.81682],[165.94659,67.82382],[165.96715,67.82603],[166.03264,67.82458],[166.04818,67.82256],[166.07028,67.82257],[166.07718,67.82141],[166.13495,67.82337],[166.14555,67.82264],[166.14731,67.82226],[166.14784,67.82082],[166.16435,67.82456],[166.18529,67.82626],[166.24975,67.83672],[166.27709,67.84653],[166.28357,67.85001],[166.28874,67.85628]],[[166.45129,68.06375],[166.43928,68.06318],[166.43777,68.06801],[166.43397,68.07014],[166.37214,68.09035],[166.35035,68.09592],[166.33805,68.10079],[166.32187,68.10372],[166.28952,68.11664],[166.26908,68.12853],[166.24226,68.13846],[166.2267,68.14633],[166.22199,68.15038],[166.22082,68.15401],[166.21747,68.1572],[166.2169,68.15992],[166.21725,68.16641],[166.2193,68.16944],[166.22589,68.17448],[166.22716,68.18698],[166.21959,68.19146],[166.20845,68.19285],[166.19147,68.20187],[166.176,68.20514],[166.17197,68.20694],[166.16856,68.21135],[166.16884,68.21487],[166.16354,68.21179],[166.14996,68.20985],[166.14717,68.21192],[166.14893,68.2132],[166.14545,68.21651],[166.1444,68.21371],[166.1401,68.21274],[166.1159,68.21979],[166.08022,68.21769],[166.07496,68.2191],[166.04637,68.22115],[166.04087,68.22256],[166.02715,68.22986],[166.02375,68.23011],[166.02007,68.22906],[166.01963,68.22665],[166.01851,68.22622],[165.94196,68.21028],[165.9382,68.20869],[165.90406,68.18463],[165.88065,68.14806],[165.86664,68.14596],[165.79896,68.1544],[165.75272,68.15485],[165.68892,68.17286],[165.63866,68.19492],[165.62777,68.19875],[165.61538,68.20167],[165.58069,68.20556],[165.5718,68.20777],[165.50242,68.25177],[165.48302,68.26064],[165.23477,68.31999],[165.20859,68.32238],[165.15542,68.31606],[165.15316,68.316],[165.11172,68.31604],[165.1047,68.31607],[165.0965,68.31606],[165.08183,68.31616],[165.06522,68.31815],[165.00972,68.33337],[164.99904,68.33502],[164.91796,68.33145],[164.87544,68.33109],[164.78699,68.33518],[164.7754,68.33825],[164.74369,68.3591],[164.73977,68.36094],[164.69691,68.37335],[164.66245,68.38969],[164.65218,68.39291],[164.58126,68.40741],[164.57571,68.40823],[164.5725,68.40844],[164.56088,68.4089],[164.55593,68.4091],[164.54421,68.40951],[164.40537,68.41429],[164.39815,68.41488],[164.33553,68.43377],[164.29395,68.43903],[164.24414,68.43922],[164.18444,68.42905],[164.13683,68.43125],[164.09931,68.42432],[164.08275,68.41494],[164.04208,68.41181],[163.92521,68.43158],[163.90413,68.43143],[163.85261,68.42587],[163.84348,68.42612],[163.8368,68.4282],[163.80531,68.45343],[163.79992,68.45564],[163.75064,68.4641],[163.69066,68.47127],[163.53232,68.48154],[163.40076,68.47555],[163.30787,68.46597],[163.29652,68.46563],[163.24705,68.47186],[163.22171,68.47939],[163.21346,68.4808],[163.0866,68.48881],[163.04056,68.48895],[163.0284,68.48584],[162.98747,68.46161],[162.98205,68.46046],[162.96123,68.46016],[162.95564,68.45907],[162.89953,68.43776],[162.85251,68.42464],[162.83799,68.42479],[162.74079,68.43994],[162.73382,68.43969],[162.63817,68.42488],[162.62469,68.42574],[162.61148,68.42978],[162.60885,68.42312],[162.60027,68.41539],[162.58443,68.41042],[162.56164,68.39086],[162.5553,68.37883],[162.55764,68.37226],[162.55721,68.36853],[162.54705,68.35281],[162.55484,68.33447],[162.55412,68.33277],[162.52375,68.31783],[162.47263,68.30282],[162.46944,68.29983],[162.46887,68.29161],[162.44805,68.28112],[162.41255,68.27651],[162.40404,68.27313],[162.40013,68.27271],[162.36516,68.27784],[162.34122,68.28644],[162.27298,68.29513],[162.24441,68.30602],[162.22075,68.30849],[162.20098,68.31327],[162.18751,68.32189],[162.16871,68.32384],[162.14483,68.32421],[162.13066,68.32681],[162.10262,68.32934],[162.07157,68.32673],[162.0542,68.32889],[162.03137,68.32822],[161.99792,68.3313],[161.94873,68.33045],[161.9288,68.33466],[161.89589,68.33807],[161.83577,68.33673],[161.7526,68.33921],[161.66698,68.34888],[161.65005,68.34722],[161.62772,68.34791],[161.60234,68.3504],[161.58636,68.34927],[161.58102,68.35059],[161.57365,68.35442],[161.56563,68.35275],[161.56476,68.35203],[161.56491,68.34905],[161.55386,68.34559],[161.55472,68.34961],[161.54932,68.3517],[161.54612,68.35624],[161.53126,68.36235],[161.50546,68.36449],[161.48286,68.36183],[161.48162,68.36205],[161.48326,68.36352],[161.48221,68.36398],[161.47329,68.36428],[161.47139,68.36664],[161.47536,68.36833],[161.47557,68.36957],[161.46857,68.37229],[161.46812,68.37566],[161.46403,68.37852],[161.46791,68.38066],[161.46871,68.38279],[161.45834,68.38255],[161.45883,68.38427],[161.46454,68.38851],[161.4558,68.38933],[161.45389,68.39315],[161.45575,68.39524],[161.45542,68.39647],[161.44004,68.40202],[161.42283,68.40425],[161.40912,68.40162],[161.39545,68.40446],[161.38701,68.40098],[161.37528,68.39939],[161.36909,68.3965],[161.36001,68.39533],[161.35522,68.39336],[161.34955,68.39766],[161.33915,68.40124],[161.32293,68.40995],[161.32058,68.41184],[161.32382,68.41464],[161.3174,68.41635],[161.30122,68.41473],[161.30033,68.41371],[161.30388,68.41184],[161.29868,68.40955],[161.28464,68.40873],[161.27622,68.40598],[161.25675,68.40356],[161.25504,68.40549],[161.24198,68.40813],[161.22289,68.40831],[161.22018,68.41269],[161.20017,68.41354],[161.19925,68.41429],[161.20201,68.41698],[161.19848,68.41736],[161.19098,68.41563],[161.18811,68.4175],[161.17919,68.4201],[161.17891,68.42193],[161.17567,68.42425],[161.18726,68.42364],[161.19309,68.42478],[161.18853,68.42726],[161.19613,68.42978],[161.19667,68.43087],[161.18933,68.43078],[161.18797,68.43169],[161.19631,68.43552],[161.19385,68.43843],[161.17179,68.44373],[161.16951,68.4459],[161.17256,68.44838],[161.17143,68.44931],[161.16381,68.44989],[161.16057,68.44806],[161.15542,68.44911],[161.15511,68.45075],[161.15363,68.45108],[161.14766,68.44915],[161.13026,68.44996],[161.12882,68.45063],[161.13087,68.4531],[161.12599,68.4545],[161.1222,68.45219],[161.11584,68.4532],[161.11162,68.4509],[161.10738,68.45088],[161.10783,68.44884],[161.10048,68.44828],[161.09617,68.44569],[161.08974,68.44907],[161.08024,68.45082],[161.08042,68.45305],[161.07823,68.45481],[161.08104,68.45735],[161.08029,68.45994],[161.08318,68.46296],[161.07721,68.46416],[161.07532,68.4661],[161.06657,68.46888],[161.06644,68.47057],[161.06335,68.47309],[161.0835,68.47359],[161.08816,68.47274],[161.09037,68.47514],[161.08752,68.4769],[161.0924,68.47834],[161.08663,68.47866],[161.08167,68.48279],[161.0762,68.48321],[161.07487,68.48449],[161.07643,68.48805],[161.0837,68.4909],[161.08503,68.49604],[161.08904,68.49718],[161.089,68.49814],[161.0849,68.49908],[161.08704,68.5],[161.08721,68.50169],[161.0928,68.50401],[161.09095,68.5057],[161.09418,68.5061],[161.09396,68.50813],[161.09549,68.50879],[161.12635,68.5175],[161.14446,68.52527],[161.155,68.53119],[161.15374,68.53277],[161.12682,68.53997],[161.14201,68.54744],[161.14851,68.55255],[161.16981,68.58547],[161.1736,68.59807],[161.17586,68.6012],[161.19001,68.61289],[161.21597,68.63044],[161.22843,68.63753],[161.24868,68.65348],[161.24162,68.65862]],[[164.17639,68.11342],[164.18054,68.11423],[164.18235,68.1157],[164.18781,68.11498],[164.1934,68.11567],[164.19641,68.1174],[164.20244,68.11624],[164.2024,68.11908],[164.19736,68.1209],[164.20287,68.123],[164.20589,68.12724],[164.21146,68.13132],[164.22509,68.1375],[164.22906,68.14336],[164.23571,68.1469],[164.23466,68.14966],[164.23543,68.15093],[164.23374,68.1541],[164.23704,68.15661],[164.23713,68.1586],[164.23863,68.15998],[164.23865,68.16324],[164.24676,68.16794],[164.24805,68.17108],[164.24567,68.1804],[164.24636,68.18279],[164.23979,68.1911],[164.23829,68.1961],[164.2384,68.19824],[164.24018,68.20059],[164.23674,68.20372],[164.23591,68.20809],[164.23116,68.21145],[164.22835,68.21512],[164.2225,68.21782],[164.22037,68.2207],[164.21812,68.22171],[164.21415,68.22653],[164.21136,68.23302],[164.21389,68.23873],[164.21717,68.24114],[164.24344,68.25373],[164.2538,68.26125],[164.25764,68.26923],[164.24769,68.2799],[164.24732,68.28233],[164.25498,68.28679],[164.25638,68.28921],[164.26857,68.29547],[164.27024,68.29749],[164.27026,68.29958],[164.28416,68.31175],[164.29646,68.31842],[164.3062,68.32159],[164.30564,68.33323],[164.30268,68.33664],[164.31459,68.35192],[164.32135,68.36342],[164.32356,68.3652],[164.32429,68.36833],[164.32356,68.37221],[164.32483,68.3762],[164.32307,68.38311],[164.31509,68.38818],[164.28959,68.39823],[164.23573,68.41366],[164.22634,68.42074],[164.21252,68.4256],[164.20267,68.43189]],[[164.2024,68.11908],[164.20382,68.12083],[164.20287,68.123]],[[164.56202,68.40886],[164.55855,68.40899]],[[164.61316,68.40087],[164.61077,68.40135]],[[164.75562,68.35114],[164.75692,68.35026]],[[165.03416,68.32662],[165.03032,68.32769]],[[165.14589,68.31602],[165.1422,68.31602]],[[166.24639,67.87064],[166.22387,67.86369],[166.18637,67.84546],[166.13995,67.84325]],[[166.4859,68.03666],[166.48092,68.03025],[166.42633,67.99371],[166.38676,67.98701],[166.3714,67.9796],[166.31022,67.96591],[166.28795,67.95412],[166.28687,67.94235],[166.27924,67.93737],[166.27062,67.92599],[166.27157,67.91884],[166.27076,67.91521],[166.25804,67.89263],[166.25027,67.87535],[166.24639,67.87064]],[[166.24639,67.87064],[166.26636,67.86865],[166.27999,67.86399],[166.27453,67.86179],[166.27514,67.85983],[166.28874,67.85628]],[[166.28874,67.85628],[166.33398,67.84979],[166.38764,67.83115],[166.3985,67.8259],[166.40579,67.8165],[166.41485,67.80817],[166.42725,67.80167],[166.42824,67.79744],[166.43158,67.7928],[166.43223,67.79018],[166.42716,67.78659],[166.42639,67.78333],[166.42755,67.78083],[166.42257,67.77052],[166.41566,67.76374],[166.39785,67.75368],[166.40287,67.7403],[166.40081,67.73465],[166.39916,67.72045],[166.39526,67.7145],[166.39826,67.71275],[166.39903,67.70795],[166.41412,67.69819],[166.42813,67.69507],[166.46414,67.67938],[166.48381,67.67619],[166.49216,67.67217],[166.49443,67.67003],[166.49482,67.66499],[166.49343,67.66207],[166.48843,67.65464],[166.47761,67.64302],[166.4792,67.64092],[166.4778,67.63877],[166.4727,67.63592],[166.45991,67.62548],[166.45905,67.62233],[166.45424,67.61622],[166.44699,67.61051],[166.43815,67.59823],[166.43824,67.59537],[166.43609,67.59256],[166.43721,67.5849],[166.43579,67.58365],[166.43133,67.5832],[166.41953,67.57444],[166.39197,67.56082],[166.38451,67.5577],[166.37335,67.55667],[166.36079,67.54876],[166.33979,67.5391],[166.31357,67.53239],[166.31082,67.53085],[166.31151,67.52601],[166.31048,67.52362],[166.31335,67.51851],[166.31404,67.5144],[166.31391,67.50898],[166.31123,67.50297],[166.32202,67.49967],[166.32533,67.49673],[166.32324,67.47038],[166.3185,67.46062],[166.32125,67.4538],[166.32287,67.4434],[166.31886,67.43976],[166.3174,67.43375],[166.31011,67.42675],[166.30719,67.41849],[166.30803,67.40851],[166.31127,67.3984],[166.32105,67.38851],[166.32105,67.38052],[166.32636,67.37781],[166.32724,67.37305],[166.32674,67.36673],[166.3276,67.36534],[166.33756,67.36062],[166.34511,67.35427],[166.3506,67.34545],[166.36629,67.32784],[166.3788,67.31808],[166.38614,67.3098],[166.38756,67.30488],[166.38614,67.29386],[166.37549,67.27692],[166.37338,67.27253],[166.37412,67.27095],[166.39704,67.2603],[166.49806,67.23624],[166.53735,67.22816],[166.58093,67.2069],[166.58144,67.2036],[166.5802,67.19951],[166.57505,67.19472],[166.57226,67.18179],[166.56417,67.16061],[166.56492,67.15173],[166.56793,67.14407],[166.57139,67.13979],[166.60303,67.12402],[166.60792,67.11955],[166.61753,67.11524],[166.62417,67.11049],[166.6338,67.10929],[166.65198,67.10424],[166.65672,67.10109],[166.67386,67.09505],[166.67414,67.09157],[166.67571,67.09052],[166.70178,67.07969],[166.71753,67.08285],[166.72543,67.08087],[166.72637,67.07914],[166.72294,67.07365],[166.70906,67.06475],[166.70243,67.05896],[166.69329,67.0431],[166.69123,67.03084],[166.6927,67.02985],[166.69341,67.02746],[166.69188,67.02421],[166.69692,67.01375],[166.71437,67.00668],[166.72405,67.00508],[166.7388,66.99975],[166.74772,66.99824],[166.75056,66.99458],[166.75905,66.99055],[166.76422,66.98673],[166.78256,66.97867],[166.80113,66.97267],[166.81412,66.96994],[166.82468,66.9632],[166.82521,66.96125],[166.82688,66.96018],[166.84416,66.95295],[166.85631,66.95057],[166.86147,66.94814],[166.86735,66.94733],[166.87999,66.94281],[166.8899,66.9411],[166.89597,66.93903],[166.90079,66.93585],[166.91445,66.93305],[166.92158,66.93319],[166.94013,66.93091],[166.96675,66.92645],[166.97149,66.92186],[166.97159,66.91567],[166.97291,66.914],[166.98287,66.91087],[166.99168,66.91033],[167.00464,66.90686],[167.00659,66.90548],[167.00709,66.90341],[167.00568,66.90154],[167.00854,66.89709],[167.01672,66.89289],[167.01733,66.88967],[167.02458,66.88805],[167.03295,66.88278],[167.03311,66.88056],[167.0293,66.87931],[167.03008,66.87618],[167.04081,66.8694],[167.0399,66.86617],[167.04354,66.85909],[167.04295,66.8534],[167.04478,66.84989],[167.04909,66.84766],[167.0563,66.84676],[167.05907,66.84341],[167.06129,66.84259],[167.06206,66.83996],[167.06607,66.83708],[167.07293,66.83634],[167.07538,66.83565],[167.07682,66.83473],[167.07934,66.83391],[167.07927,66.8352],[167.0881,66.84019],[167.09545,66.84619],[167.10025,66.85183],[167.11025,66.85703],[167.12537,66.85964],[167.13954,66.86375],[167.15578,66.87029],[167.17105,66.87363],[167.19229,66.88269],[167.19403,66.88698],[167.19872,66.88958],[167.21262,66.89238],[167.21536,66.89446],[167.21695,66.89832],[167.22513,66.90357],[167.22917,66.91044],[167.23425,66.91475],[167.23455,66.91685],[167.22728,66.92282],[167.22806,66.92601],[167.27392,66.94444],[167.30728,66.95166],[167.38557,66.95696],[167.41192,66.96501],[167.42001,66.96943],[167.43271,66.97366],[167.45256,66.97903],[167.48037,66.9826],[167.50355,66.98031],[167.52058,66.9827],[167.56632,66.9797],[167.58964,66.98505],[167.59626,66.98755],[167.61731,66.99175],[167.63699,66.99325],[167.64587,66.99772],[167.6521,67.0025],[167.65791,67.00449],[167.65705,67.00547],[167.6339,67.01104],[167.633,67.01205],[167.63345,67.01576],[167.62892,67.02182],[167.65183,67.03421],[167.66308,67.05454],[167.68656,67.06334],[167.7051,67.07553],[167.71394,67.08637],[167.71879,67.08941],[167.78355,67.10753],[167.78921,67.11018],[167.79121,67.11377],[167.78546,67.12382],[167.79106,67.13223],[167.81788,67.14857],[167.83869,67.15608],[167.85762,67.16533],[167.92431,67.20741],[167.92706,67.21047],[167.92993,67.21706],[167.94263,67.23255],[167.94927,67.24554],[167.95518,67.24956],[167.99632,67.25716],[168.02471,67.25388],[168.04685,67.25591],[168.05871,67.25829],[168.08987,67.27137],[168.09082,67.27295],[168.09031,67.27499],[168.08368,67.27972],[168.08363,67.28157],[168.0892,67.28715],[168.09572,67.28891],[168.12409,67.28952],[168.14125,67.29397],[168.15209,67.29538],[168.20407,67.29636],[168.23603,67.29832],[168.26278,67.29808],[168.28371,67.30311],[168.30509,67.30411],[168.30809,67.30608],[168.30716,67.31061],[168.30803,67.31218],[168.31912,67.31486],[168.32044,67.32093],[168.32484,67.32426],[168.33242,67.32745],[168.34407,67.32975],[168.36954,67.34053],[168.38786,67.34216],[168.40218,67.34663],[168.43176,67.34745],[168.44155,67.34947],[168.44443,67.35187],[168.44443,67.35321],[168.43991,67.3567],[168.4366,67.36189],[168.43983,67.36393],[168.4462,67.36421],[168.47157,67.36064],[168.48069,67.3608],[168.50363,67.368],[168.53285,67.37234],[168.57498,67.37687],[168.58127,67.37851],[168.58696,67.38366],[168.58705,67.38592],[168.57585,67.3921],[168.57481,67.39488],[168.57894,67.39804],[168.59064,67.40155],[168.59605,67.40749],[168.60576,67.41263],[168.62725,67.41812],[168.6336,67.42133],[168.63561,67.4245],[168.637,67.43771],[168.64346,67.44281],[168.64733,67.45192],[168.65571,67.45701],[168.6577,67.46382],[168.66238,67.46609],[168.6801,67.47009],[168.72844,67.49163],[168.74065,67.50351],[168.75105,67.50984],[168.76537,67.51603],[168.78442,67.52194],[168.80645,67.53196],[168.81084,67.53545],[168.82295,67.56539],[168.8348,67.57666],[168.83583,67.58195],[168.83821,67.58486],[168.85631,67.5939],[168.89209,67.60651],[168.9096,67.61671],[168.9118,67.62113],[168.91902,67.62788],[168.93978,67.63993],[168.95573,67.64411],[168.99894,67.66875],[169.03034,67.68291],[169.04211,67.68669],[169.05523,67.69615],[169.05957,67.69801],[169.09185,67.70688],[169.11419,67.71542],[169.15544,67.72557],[169.18887,67.73651],[169.19313,67.73966],[169.1968,67.74523],[169.20555,67.74869],[169.24655,67.75266],[169.26001,67.75608],[169.26408,67.76068],[169.26022,67.77057],[169.26031,67.77314],[169.26254,67.77642],[169.2691,67.78046],[169.29417,67.79209],[169.32841,67.80377],[169.38765,67.82101],[169.39171,67.82336],[169.40293,67.82559],[169.42363,67.83199]],[[166.45129,68.06375],[166.4536,68.06377],[166.45583,68.06359],[166.48364,68.06046],[166.4885,68.05879],[166.49626,68.05045],[166.4859,68.03666]],[[166.45129,68.06375],[166.4494,68.06587],[166.4518,68.06771],[166.45462,68.06844],[166.46063,68.0678],[166.46733,68.07286],[166.47759,68.07228],[166.48237,68.07727],[166.49525,68.0816],[166.50475,68.08755],[166.50806,68.0908],[166.51802,68.09603],[166.52227,68.10159],[166.5227,68.11315],[166.53119,68.11938],[166.5319,68.12249],[166.54052,68.12387],[166.55479,68.12885],[166.57507,68.13106],[166.58075,68.13362],[166.58107,68.13536],[166.58418,68.13764],[166.58081,68.141],[166.59062,68.13997],[166.59867,68.14413],[166.5997,68.14704],[166.60384,68.14571],[166.60967,68.14578],[166.62477,68.15085],[166.63281,68.14992],[166.63427,68.15047],[166.63406,68.15198],[166.63777,68.15283],[166.6406,68.15278],[166.64303,68.15043],[166.64498,68.15007],[166.65833,68.15152],[166.66419,68.15526],[166.66564,68.15855],[166.67356,68.16059],[166.68073,68.16511],[166.68702,68.16408],[166.69588,68.16684],[166.70405,68.16685],[166.70766,68.16888],[166.70652,68.17123],[166.70774,68.17223],[166.73116,68.17236],[166.73824,68.17382],[166.73457,68.17597],[166.73633,68.17696],[166.7489,68.17645],[166.7533,68.17729],[166.76362,68.18057],[166.76525,68.18345],[166.77083,68.18732],[166.77825,68.18872],[166.77997,68.19188],[166.79752,68.19581],[166.80207,68.19911],[166.8258,68.20514],[166.86057,68.21845],[166.87906,68.22184],[166.91872,68.22283],[166.97481,68.23304],[167.03686,68.24708],[167.04939,68.25253],[167.06283,68.25356],[167.11557,68.2684],[167.13403,68.27093],[167.14481,68.27111],[167.19498,68.27951],[167.26916,68.28568],[167.37971,68.28059],[167.41559,68.27433],[167.45417,68.265],[167.47241,68.25929],[167.49992,68.25395],[167.51764,68.25435],[167.55309,68.2522],[167.58274,68.25636],[167.59781,68.25655],[167.60566,68.2596],[167.62369,68.26096],[167.63933,68.26036],[167.71149,68.25311],[167.83206,68.2449],[167.89635,68.23715],[167.96044,68.23445],[168.07932,68.22097],[168.1321,68.2175],[168.15459,68.21439],[168.17257,68.21794],[168.1918,68.21911],[168.19386,68.22073],[168.20605,68.23862],[168.21476,68.24584],[168.21781,68.25206],[168.21677,68.25949],[168.21939,68.26821],[168.21909,68.27012],[168.2161,68.27383],[168.21792,68.27789],[168.22372,68.28437],[168.23537,68.29154],[168.2485,68.29737],[168.27089,68.29724],[168.28239,68.29967],[168.29626,68.30662],[168.29806,68.31266],[168.31231,68.31705],[168.32591,68.31672],[168.34647,68.31352],[168.37247,68.31247],[168.41414,68.31632],[168.42595,68.31849],[168.48071,68.33484],[168.55014,68.34466],[168.56306,68.34778],[168.58881,68.35159],[168.60301,68.35702],[168.62529,68.37153],[168.63464,68.37579],[168.67468,68.37746],[168.70193,68.38116],[168.71944,68.3787],[168.75837,68.3779],[168.79802,68.37414],[168.88196,68.36169],[168.90291,68.35569],[168.93239,68.35045],[168.98522,68.33427],[169.0265,68.32371],[169.04161,68.32138],[169.08967,68.3175],[169.12654,68.31791],[169.15714,68.32225],[169.19593,68.32262],[169.21739,68.32488],[169.28558,68.33716],[169.29498,68.34046],[169.30661,68.34279],[169.36601,68.35197],[169.41901,68.36387],[169.43759,68.36974],[169.46136,68.37488],[169.4763,68.37686],[169.49664,68.38238],[169.54054,68.38981],[169.55385,68.39079],[169.5726,68.39583],[169.58209,68.39621],[169.62706,68.40283],[169.63805,68.40275],[169.65024,68.40649],[169.71293,68.41731],[169.78915,68.42702],[169.80919,68.43197],[169.8528,68.43631],[169.90356,68.44717],[169.94236,68.45252],[169.99167,68.45378],[169.9951,68.45468],[169.99819,68.4577],[170.00399,68.45896],[170.0157,68.45778],[170.03278,68.45395],[170.08411,68.4514],[170.14432,68.45037],[170.20101,68.45135],[170.20286,68.46553],[170.20972,68.48578],[170.20723,68.49322],[170.20565,68.50527],[170.19032,68.52935],[170.19071,68.54194],[170.18977,68.54949],[170.18166,68.58302],[170.17038,68.59991],[170.167,68.61483],[170.16436,68.62041],[170.149,68.65031],[170.14118,68.66059],[170.13085,68.67739],[170.12325,68.69624],[170.12196,68.72342],[170.11509,68.75129],[170.11196,68.75626],[170.11177,68.76224],[170.11424,68.76898],[170.11861,68.77422],[170.12419,68.77806],[170.14458,68.78834],[170.1287,68.7894],[170.12766,68.78982],[170.1281,68.79074],[170.15509,68.793],[170.17496,68.79868],[170.24517,68.80938],[170.30293,68.82115],[170.36,68.83135],[170.43717,68.85247],[170.54472,68.88604],[170.63424,68.92119],[170.66325,68.92774],[170.74754,68.9439],[170.78891,68.9554],[170.8138,68.96378],[170.83938,68.9741],[170.90289,69.00183],[170.93954,69.01886],[170.98555,69.04212],[170.99336,69.04743],[171.02237,69.07261],[171.03009,69.0807],[171.03568,69.08977],[171.03673,69.09395],[171.03503,69.10247],[171.01782,69.14454],[170.99997,69.1555],[170.99507,69.16036],[170.97812,69.19278],[170.97705,69.19714],[170.97834,69.20915],[170.97645,69.22204],[170.9816,69.22991],[170.98546,69.24412],[170.99125,69.25352],[171.00374,69.26773],[171.00391,69.269],[170.99374,69.28272],[170.99113,69.29061],[170.99168,69.30108],[170.96151,69.32041],[170.93812,69.33715],[170.9092,69.35444],[170.88581,69.37448],[170.86487,69.38506],[170.8392,69.4062],[170.80805,69.43403],[170.78359,69.44898],[170.77638,69.46177],[170.76556,69.47623],[170.76286,69.48242],[170.76269,69.48661],[170.77114,69.50655],[170.77058,69.51176],[170.73936,69.55021],[170.7335,69.55455],[170.71677,69.56298],[170.71239,69.56899],[170.71565,69.58782],[170.71645,69.60192]],[[166.4859,68.03666],[166.51549,68.03315],[166.5199,68.03054],[166.52847,68.02892],[166.52942,68.029],[166.52796,68.02969],[166.54629,68.02868],[166.5545,68.02986],[166.58621,68.02936],[166.58959,68.02642],[166.59297,68.0259],[166.60436,68.02741],[166.61535,68.02746],[166.62882,68.0311],[166.64369,68.03245],[166.6528,68.03549],[166.65873,68.03958],[166.67414,68.04145],[166.69433,68.03984],[166.69662,68.03902],[166.69734,68.03703],[166.70316,68.03763],[166.70463,68.03618],[166.70775,68.03764],[166.71016,68.03697],[166.71325,68.03788],[166.71297,68.03918],[166.72455,68.03567],[166.74016,68.03609],[166.75475,68.03494],[166.76441,68.03521],[166.77499,68.03953],[166.78334,68.03939],[166.80162,68.0422],[166.80975,68.04167],[166.81901,68.03927],[166.82959,68.03947],[166.8392,68.03802],[166.84058,68.03604],[166.84386,68.03556],[166.85393,68.03585],[166.86793,68.03428],[166.8708,68.0357],[166.88111,68.03628],[166.89986,68.03463],[166.90502,68.03321],[166.91305,68.03438],[166.93703,68.03204],[166.94425,68.03427],[166.97806,68.03301],[167.00813,68.03109],[167.02979,68.02808],[167.06404,68.02609],[167.07598,68.02753],[167.09294,68.03318],[167.12643,68.03853],[167.14614,68.03914],[167.17153,68.04265],[167.20853,68.04138],[167.21083,68.04415],[167.21162,68.04961],[167.22767,68.05236],[167.25129,68.05116],[167.26102,68.05281],[167.27415,68.05115],[167.30904,68.05005],[167.31101,68.05169],[167.30665,68.05843],[167.33167,68.074],[167.35647,68.07486],[167.36867,68.0782],[167.38245,68.08399],[167.39167,68.08415],[167.41523,68.0877],[167.42083,68.09061],[167.42049,68.09426],[167.42479,68.09768],[167.42426,68.10003],[167.42583,68.10184],[167.43255,68.10185],[167.44963,68.10633],[167.47095,68.1044],[167.481,68.10484],[167.50794,68.10199],[167.52475,68.09387],[167.5252,68.08974],[167.52689,68.08758],[167.55034,68.08104],[167.57005,68.08072],[167.60888,68.09058],[167.61964,68.09035],[167.66607,68.08412],[167.6725,68.07949],[167.6798,68.07729],[167.68394,68.07429],[167.69051,68.0717],[167.69089,68.07],[167.69374,68.06815],[167.70692,68.06663],[167.72462,68.06192],[167.74252,68.05154],[167.75073,68.04864],[167.75574,68.04393],[167.7699,68.03765],[167.78654,68.03592],[167.8058,68.03178],[167.84803,68.03438],[167.89513,68.04518],[167.89867,68.04881],[167.90871,68.05411],[167.91386,68.05797],[167.91421,68.0593],[167.91175,68.06792],[167.90576,68.07338],[167.90282,68.08033],[167.90377,68.08318],[167.9306,68.09109],[167.94534,68.09286],[167.95893,68.0973],[167.96262,68.10173],[167.96866,68.10374],[167.9728,68.1065],[167.97391,68.10982],[167.97264,68.11388],[167.97359,68.11477],[167.98942,68.11854],[167.99212,68.1226],[167.99594,68.12544],[168.01256,68.13033],[168.01947,68.13596],[168.07047,68.15172],[168.09386,68.16021],[168.13696,68.17925],[168.1744,68.19082],[168.18797,68.19614],[168.19685,68.19765],[168.22452,68.19838],[168.25776,68.19085],[168.29398,68.18595],[168.34932,68.17279],[168.38393,68.16328],[168.41138,68.15285],[168.41754,68.15018],[168.42862,68.13961],[168.42924,68.13724],[168.42747,68.1346],[168.43017,68.13319],[168.43308,68.12509],[168.43716,68.12268],[168.43483,68.12004],[168.44292,68.11816],[168.44794,68.11534],[168.45839,68.10469],[168.46668,68.09387],[168.49854,68.08256],[168.51308,68.07464],[168.51605,68.07155],[168.52273,68.06796],[168.55026,68.06095],[168.57207,68.05335],[168.64621,68.01973],[168.66265,68.01585],[168.67753,68.01007],[168.70649,68.00553],[168.73116,67.99961],[168.73668,67.99716],[168.75591,67.99627],[168.77276,67.99157],[168.80092,67.98933],[168.84215,67.98167],[168.8758,67.98199],[168.89186,67.97514],[168.90675,67.97246],[168.91853,67.9727],[168.9288,67.97122],[168.93182,67.96805],[168.93377,67.96246],[168.93812,67.95748],[168.9561,67.94256],[168.96209,67.93546],[168.96624,67.92526],[168.9604,67.9147],[168.96568,67.90819],[168.96972,67.90551],[168.97633,67.89243],[168.99533,67.86965],[169.01205,67.86385],[169.04016,67.84995],[169.09596,67.83188],[169.10492,67.82701],[169.11353,67.82011],[169.11522,67.81629],[169.12802,67.81541],[169.13422,67.81172],[169.14948,67.80667],[169.15199,67.804],[169.16208,67.80331],[169.19598,67.80497],[169.2307,67.81259],[169.2595,67.81295],[169.30644,67.82156],[169.34783,67.82439],[169.37804,67.82819],[169.42363,67.83199]],[[167.07759,66.83452],[167.07906,66.8347]],[[169.42363,67.83199],[169.45909,67.84297],[169.47679,67.84083],[169.50574,67.84809],[169.60923,67.85869],[169.66257,67.86648],[169.69317,67.87382],[169.72066,67.88201],[169.86121,67.92646],[170.00564,67.95448],[170.05376,67.97026],[170.06042,67.97148],[170.10303,67.97698],[170.12411,67.97803],[170.19856,67.97595],[170.27557,67.97183],[170.35594,67.97515],[170.39606,67.98006],[170.47262,67.9967],[170.47803,67.99887],[170.48593,68.00775],[170.49876,68.01811],[170.50095,68.0264],[170.50086,68.03604],[170.50426,68.03844],[170.52314,68.04379],[170.55856,68.04992],[170.57759,68.0563],[170.61036,68.06935],[170.62688,68.07258],[170.65409,68.08233],[170.65599,68.08424],[170.66055,68.08562],[170.66594,68.09151],[170.70657,68.10726],[170.7264,68.11019],[170.7638,68.11331],[170.77779,68.11069],[170.84547,68.0789],[170.89838,68.05828],[170.9245,68.0469],[170.96653,68.03773],[171.00251,68.03269],[171.01884,68.02452],[171.07019,68.02542],[171.17727,68.02448],[171.28065,68.03619],[171.28775,68.03391],[171.29395,68.01599],[171.29935,68.01356],[171.36935,68.00916],[171.40041,68.01902],[171.40724,68.01971],[171.4165,68.01793],[171.44484,68.00562],[171.45993,68.00178],[171.52767,67.99981],[171.59982,68.0069],[171.63919,68.01359],[171.71554,68.03148],[171.73621,68.03183],[171.7461,68.03129],[171.7487,68.02961],[171.73349,68.01735],[171.7356,68.01566],[171.75599,68.02092],[171.77937,68.02431],[171.82018,68.01584],[171.84964,68.01609],[171.87896,68.0122],[171.88766,68.01307],[171.94422,68.02451],[171.98747,68.02824],[172.03231,68.02746],[172.04511,68.02929],[172.0696,68.03516],[172.08194,68.03982],[172.08746,68.04362],[172.09669,68.04567],[172.09531,68.05029],[172.09759,68.05434],[172.09704,68.0552],[172.08238,68.05766],[172.08066,68.05927],[172.08695,68.0643],[172.1224,68.07529],[172.13007,68.07891],[172.13045,68.07984],[172.12876,68.08078],[172.11362,68.08592],[172.11274,68.08913],[172.11344,68.09194],[172.11531,68.09416],[172.12083,68.09609],[172.12377,68.09925],[172.14121,68.1049],[172.20781,68.11521],[172.24481,68.1186],[172.303,68.12759],[172.32367,68.1275],[172.33384,68.13067],[172.34312,68.14326],[172.34573,68.14515],[172.36017,68.14698],[172.36952,68.14946],[172.38187,68.15449],[172.38891,68.15952],[172.39392,68.16149],[172.40288,68.16345],[172.41337,68.16417],[172.4261,68.16737],[172.46636,68.16459],[172.48441,68.16482],[172.5127,68.16302],[172.53525,68.16538],[172.57343,68.16617],[172.579,68.16725],[172.59293,68.17274],[172.60776,68.17197],[172.61715,68.17402],[172.61991,68.17588],[172.61752,68.17766],[172.60247,68.18186],[172.60063,68.1836],[172.6006,68.18568],[172.61956,68.19692],[172.62776,68.19783],[172.65214,68.19545],[172.66062,68.19348],[172.66729,68.19391],[172.67268,68.19785],[172.66983,68.19915],[172.66321,68.19963],[172.66211,68.20045],[172.66268,68.2014],[172.67698,68.20472],[172.68463,68.20505],[172.69444,68.2078],[172.70173,68.20729],[172.71154,68.2092],[172.71701,68.21521],[172.72922,68.22383],[172.74621,68.23136],[172.7525,68.2328],[172.81258,68.2344],[172.95176,68.23273],[172.96396,68.23483],[172.97407,68.2398],[172.98219,68.24056],[173.0009,68.23783],[173.02909,68.23131],[173.05208,68.2301],[173.07333,68.23288],[173.09834,68.23102],[173.10771,68.23187],[173.11666,68.23558],[173.13599,68.24699],[173.152,68.26306],[173.15898,68.26792],[173.1703,68.27345],[173.17745,68.27516],[173.17861,68.28408],[173.17651,68.28611],[173.19014,68.28963],[173.19534,68.29421],[173.19238,68.30107],[173.19832,68.30392],[173.19755,68.30887],[173.19221,68.31179],[173.17809,68.31539],[173.17026,68.32111],[173.16869,68.32374],[173.17114,68.32674],[173.18172,68.33059],[173.2,68.33025],[173.2029,68.33084],[173.20341,68.33192],[173.20066,68.33298],[173.17648,68.33228],[173.17255,68.33388],[173.17069,68.33636],[173.17163,68.33864],[173.16964,68.3477],[173.16384,68.35081],[173.1538,68.36389],[173.15378,68.36683],[173.15706,68.3703],[173.15723,68.37182],[173.14891,68.37707],[173.14131,68.38641],[173.14015,68.38954],[173.14194,68.39357],[173.15256,68.40637],[173.16895,68.41655],[173.19046,68.44045],[173.23545,68.45487],[173.26945,68.45978],[173.28554,68.46791],[173.291,68.47177],[173.29376,68.47575],[173.29809,68.47836],[173.33123,68.49009],[173.3362,68.49236],[173.34146,68.49706],[173.3493,68.50087],[173.38061,68.5101],[173.42601,68.51764],[173.45314,68.52689],[173.45959,68.52999],[173.47127,68.53824],[173.48118,68.5431],[173.49292,68.54416],[173.5005,68.54325],[173.51103,68.54639],[173.51311,68.54976],[173.52897,68.55834],[173.52934,68.56174],[173.53167,68.5638],[173.54438,68.56842],[173.54904,68.57365],[173.56551,68.58202],[173.56849,68.585],[173.57951,68.58765],[173.58315,68.59171],[173.5889,68.59302],[173.59343,68.59569],[173.59877,68.6013],[173.5972,68.60328],[173.5967,68.60691],[173.59907,68.61235],[173.59866,68.61484],[173.60248,68.61914],[173.61129,68.62231],[173.6147,68.62506],[173.62273,68.6286],[173.62658,68.63211],[173.65262,68.64091],[173.66973,68.64993],[173.67728,68.65562],[173.69914,68.66472],[173.71127,68.67242],[173.71238,68.67413],[173.70932,68.67762],[173.72523,68.68429],[173.73309,68.68944],[173.74092,68.69185],[173.75029,68.6988],[173.75614,68.70619],[173.76737,68.71426],[173.79032,68.71864]],[[170.36421,69.6934],[170.35306,69.69591],[170.3355,69.7049],[170.32215,69.70416],[170.31042,69.69871],[170.2861,69.69693],[170.27731,69.69724],[170.27796,69.69491],[170.26849,69.68898],[170.26831,69.68424],[170.26536,69.68192]],[[170.36421,69.6934],[170.37053,69.69559],[170.37846,69.69544],[170.38395,69.69934],[170.46141,69.71591],[170.50423,69.72082],[170.51167,69.72719],[170.55046,69.73738],[170.59634,69.75275],[170.60944,69.76009],[170.60833,69.76711],[170.6113,69.77178],[170.60735,69.7751],[170.60688,69.78019],[170.60847,69.78229],[170.60584,69.78548],[170.60721,69.78843],[170.60582,69.79094]],[[170.71645,69.60192],[170.69058,69.60729],[170.65776,69.60942],[170.5939,69.62557],[170.40117,69.68996],[170.36421,69.6934]],[[173.66649,68.97596],[173.5475,68.98163],[173.47409,68.9755],[173.45641,68.97523],[173.42695,68.98061],[173.42083,68.98394],[173.41676,68.98886],[173.41156,68.99022],[173.37646,68.99332],[173.36263,68.99336],[173.31076,69.0037],[173.26136,69.00282],[173.10486,69.01533],[173.08351,69.02106],[173.08339,69.0244],[173.08626,69.03626],[173.08434,69.04198],[173.08,69.04599],[173.07596,69.04652],[173.06161,69.04507],[173.01222,69.04971],[172.99322,69.04766],[172.98262,69.04895],[172.96643,69.05353],[172.9536,69.05342],[172.93867,69.05786],[172.91596,69.06042],[172.90843,69.06286],[172.90552,69.06627],[172.87564,69.07526],[172.85487,69.07978],[172.84563,69.0861],[172.8376,69.08883],[172.83593,69.09028],[172.83619,69.0926],[172.83176,69.09513],[172.8115,69.09776],[172.79854,69.09521],[172.79559,69.09894],[172.78948,69.10313],[172.77349,69.10403],[172.77013,69.10752],[172.74746,69.11262],[172.74048,69.11764],[172.73516,69.11842],[172.72622,69.12323],[172.70318,69.12253],[172.66377,69.11802],[172.6518,69.11881],[172.26877,69.20068],[172.25237,69.21339],[172.21963,69.21822],[172.12694,69.26045],[172.12542,69.26173],[172.12192,69.26962],[172.10206,69.27111],[172.10062,69.27228],[172.10773,69.27701],[172.10319,69.28066],[172.10271,69.28613],[172.09642,69.29765],[172.11677,69.33955],[172.11697,69.34128],[172.11454,69.34499],[172.0961,69.361],[172.00822,69.39123],[172.00258,69.40383],[171.98274,69.41487],[171.98338,69.41623],[171.98868,69.4192],[171.98834,69.42353],[171.96676,69.42999],[171.94693,69.42835],[171.91296,69.4295],[171.80595,69.44468],[171.64088,69.48018],[171.60274,69.48977],[171.53948,69.49477],[171.46146,69.49782],[171.40668,69.50204],[171.38339,69.50166],[171.33178,69.51955],[171.25451,69.53373],[171.23739,69.53278],[171.17229,69.54148],[171.11625,69.5421],[171.08458,69.54395],[171.0458,69.5483],[170.93496,69.57196],[170.874,69.58283],[170.74225,69.59637],[170.71645,69.60192]],[[173.79032,68.71864],[173.8323,68.72714],[173.8368,68.73189],[173.83823,68.73572],[173.83729,68.74686],[173.83337,68.75428],[173.82135,68.76503],[173.81465,68.76663],[173.79039,68.77613],[173.74571,68.797],[173.73064,68.79666],[173.7205,68.79944],[173.74597,68.8114],[173.76187,68.8243],[173.77628,68.8302],[173.78889,68.833],[173.78974,68.83422],[173.78912,68.83574],[173.78417,68.83888],[173.78774,68.84253],[173.7803,68.84557],[173.76628,68.84898],[173.77068,68.85127],[173.75752,68.86628],[173.75082,68.87765],[173.74301,68.88408],[173.72254,68.8978],[173.71927,68.90391],[173.69769,68.91986],[173.69276,68.92873],[173.69238,68.93491],[173.68,68.93493],[173.67315,68.93257],[173.66313,68.93289],[173.65511,68.93623],[173.65078,68.94132],[173.65254,68.94318],[173.65126,68.94472],[173.64227,68.94876],[173.64056,68.95225],[173.64218,68.95407],[173.66106,68.96401],[173.66649,68.97596]],[[173.66649,68.97596],[173.69781,68.97402],[173.69746,68.97277],[173.70181,68.9689],[173.70206,68.9668],[173.71198,68.96459],[173.70832,68.96295],[173.70929,68.96227],[173.73871,68.95634],[173.77438,68.95236],[173.80118,68.95172],[173.815,68.95029],[173.85851,68.95343],[173.88207,68.95336],[173.91409,68.94974],[173.95963,68.94191],[173.99381,68.93814],[174.03845,68.93074],[174.06605,68.9294],[174.07695,68.93016],[174.09227,68.93427],[174.1224,68.9383],[174.16404,68.93917],[174.19441,68.94355],[174.33213,68.95007],[174.43809,68.95767],[174.47409,68.96193],[174.51614,68.97621],[174.52439,68.97798],[174.55819,68.98092],[174.56771,68.98539],[174.58467,68.98869],[174.63547,69.00245],[174.67918,69.00954],[174.73827,69.02134],[174.77265,69.02571],[174.77862,69.02824],[174.81412,69.0366],[174.8206,69.04274],[174.82738,69.04733],[174.84715,69.05644],[174.85232,69.06082],[174.85806,69.06333],[174.8598,69.06684],[174.85771,69.07285],[174.85926,69.07508],[174.85771,69.0766],[174.86115,69.0798],[174.90697,69.0883],[174.953,69.10625],[174.96094,69.11043],[174.99139,69.13273],[174.99254,69.13523],[175.00025,69.14028],[175.00272,69.14372],[175.02446,69.16064],[175.05467,69.18934],[175.06431,69.19616],[175.06693,69.1998],[175.06539,69.20177],[175.06585,69.20338],[175.06022,69.20757],[175.05928,69.21508],[175.05339,69.22042],[175.05214,69.22508],[175.04974,69.22668],[175.045,69.23256],[175.04183,69.23905],[175.03786,69.24164],[175.03268,69.24908],[175.03311,69.25008],[175.03088,69.25334],[175.0366,69.25477],[175.0446,69.25927],[175.04192,69.26145],[175.04251,69.26211],[175.03744,69.26422],[175.03919,69.26547],[175.03958,69.26886],[175.03236,69.28043],[175.0277,69.28531],[175.01781,69.29026],[175.00835,69.29992],[174.97922,69.31865],[174.97786,69.31994],[174.97742,69.32366],[174.97099,69.32864],[174.96962,69.33235],[174.96619,69.33641],[174.93621,69.36544],[174.92062,69.38209],[174.91844,69.38585],[174.91348,69.38969],[174.90961,69.39068],[174.88971,69.40309],[174.87129,69.42219],[174.86518,69.43148],[174.8648,69.43465],[174.86262,69.43808],[174.863,69.44179],[174.85706,69.44732],[174.84823,69.45007],[174.84114,69.44953],[174.84021,69.44831],[174.83092,69.45004],[174.80275,69.44924],[174.77211,69.45426],[174.76652,69.45712],[174.74686,69.46327],[174.6961,69.4746],[174.67763,69.48476],[174.67228,69.4892],[174.67374,69.49201],[174.67351,69.50069],[174.67679,69.50369],[174.67806,69.50861],[174.68449,69.51278],[174.70839,69.53665],[174.72759,69.54784],[174.73668,69.55085],[174.80309,69.56763],[174.902,69.59027],[175.09086,69.62132],[175.15215,69.63262],[175.20202,69.64614],[175.23078,69.66289],[175.23833,69.66605],[175.2532,69.66914],[175.26933,69.67788],[175.29484,69.68559],[175.3071,69.69145],[175.31979,69.69423],[175.33121,69.69824],[175.33508,69.70126],[175.34071,69.70939],[175.3384,69.71327],[175.35135,69.72037],[175.37183,69.7199],[175.40965,69.73179],[175.4251,69.73355],[175.43216,69.73885],[175.45324,69.74416],[175.51263,69.75202],[175.51402,69.75427],[175.51826,69.75727],[175.53907,69.76827],[175.54284,69.77159],[175.54395,69.77707],[175.55028,69.7787],[175.59127,69.81044],[175.60609,69.81917],[175.62125,69.83045],[175.65472,69.85028],[175.66791,69.85674],[175.69887,69.86722],[175.75247,69.87541],[175.75562,69.87674],[175.77212,69.87647],[175.82106,69.8741],[175.90575,69.8676],[175.92779,69.86467],[175.94152,69.86469],[175.95928,69.86258],[175.97813,69.85846],[175.98778,69.86605],[175.99989,69.86835],[176.05838,69.87465],[176.07248,69.87568],[176.10756,69.87539],[176.12595,69.87216],[176.13668,69.86869],[176.15166,69.86154],[176.22784,69.82003],[176.22668,69.81935],[176.23278,69.8153],[176.2527,69.80887],[176.33905,69.76953],[176.36315,69.75995],[176.36462,69.75838],[176.36909,69.74516],[176.37679,69.74277],[176.38821,69.73568],[176.40378,69.72851],[176.424,69.72398],[176.47174,69.71701],[176.56484,69.69882],[176.59784,69.69037],[176.61102,69.68469]],[[178.69847,66.63484],[178.68201,66.6335],[178.66777,66.63475],[178.65041,66.63911],[178.5744,66.64774],[178.55136,66.64654],[178.54314,66.64758],[178.51984,66.64783],[178.50339,66.64644],[178.4633,66.64562],[178.40286,66.64599],[178.38859,66.6437],[178.37544,66.63868],[178.35817,66.62478],[178.34639,66.62446],[178.33752,66.62223],[178.32398,66.61189],[178.3183,66.60894],[178.29991,66.60934],[178.27509,66.60566],[178.27002,66.60566],[178.26299,66.60739],[178.21657,66.60427],[178.21397,66.60341],[178.20794,66.59824],[178.18767,66.58929],[178.17896,66.5735],[178.16141,66.55734],[178.15993,66.55053],[178.15603,66.54477],[178.15337,66.54315],[178.14824,66.54212],[178.13884,66.54268],[178.11805,66.54149],[178.07879,66.54229],[178.03523,66.53711],[178.01012,66.53287],[177.96369,66.51454],[177.96137,66.51011],[177.96163,66.50772],[177.95856,66.50528],[177.94594,66.50026],[177.92667,66.49459],[177.87927,66.4741],[177.87269,66.46618],[177.8708,66.45985],[177.86088,66.44341],[177.85583,66.43857],[177.82726,66.43409],[177.82237,66.43235],[177.81977,66.43048],[177.82065,66.4289],[177.81986,66.427],[177.81638,66.42369],[177.79636,66.41399],[177.78117,66.41385],[177.74452,66.41722],[177.73704,66.41438],[177.73548,66.41266],[177.73531,66.40874],[177.73781,66.40467],[177.74129,66.40173],[177.73375,66.39394],[177.67691,66.37748],[177.66055,66.37435],[177.64168,66.37263],[177.63273,66.37032],[177.62165,66.36933],[177.57032,66.37488],[177.57503,66.37876],[177.57745,66.38682],[177.57697,66.38921],[177.57814,66.39409],[177.58786,66.40218],[177.58739,66.40628],[177.58112,66.42162],[177.58151,66.42603],[177.58534,66.4333],[177.58541,66.43555],[177.58106,66.43986],[177.57806,66.44122],[177.53519,66.45167],[177.5215,66.45713],[177.51619,66.46149],[177.51637,66.46393],[177.51348,66.46732],[177.50017,66.47144],[177.49919,66.47481],[177.50152,66.47888],[177.51214,66.48369],[177.51221,66.48517],[177.48579,66.48836],[177.47831,66.49021],[177.45121,66.49282],[177.40848,66.49138],[177.38919,66.48929],[177.3712,66.48523],[177.35126,66.48499],[177.32438,66.49165],[177.31577,66.49692],[177.30584,66.50582],[177.29994,66.50839],[177.27782,66.5096],[177.28761,66.51552],[177.29832,66.51828],[177.30421,66.52118],[177.32185,66.52526],[177.33976,66.53244],[177.35297,66.53893],[177.35881,66.54344],[177.36207,66.54433],[177.36259,66.5457],[177.37563,66.55287],[177.37666,66.55499],[177.38044,66.55594],[177.38937,66.56107],[177.39658,66.56311],[177.40619,66.58379],[177.40619,66.58966],[177.40367,66.59394],[177.39103,66.60048],[177.37683,66.61238],[177.32952,66.63992],[177.24953,66.67604],[177.15782,66.71042],[177.14679,66.71781],[177.13242,66.743],[177.12409,66.74666],[177.11326,66.75684],[177.11175,66.75961],[177.11396,66.76315],[177.11326,66.76537],[177.10033,66.77116],[177.08678,66.78289],[177.08124,66.7897],[177.0851,66.7994],[177.10856,66.81208],[177.12413,66.82196],[177.14147,66.82914],[177.16302,66.86163],[177.2207,66.88862],[177.23266,66.89665],[177.24971,66.91196],[177.25636,66.91983],[177.26436,66.93333],[177.26555,66.93738],[177.2981,66.9465],[177.31439,66.95392],[177.31613,66.95705],[177.31602,66.96202],[177.31121,66.96624],[177.31056,66.96918],[177.31254,66.97197],[177.31353,66.97773],[177.31273,66.98169],[177.30337,66.98942],[177.30244,66.99229],[177.29201,66.99846],[177.28658,67.00449],[177.24622,67.02195],[177.24537,67.0242],[177.23606,67.0289],[177.22076,67.02799],[177.20768,67.03006],[177.19111,67.0302],[177.18362,67.03705],[177.16532,67.04722],[177.16036,67.06925],[177.14607,67.08611],[177.14468,67.08952],[177.14668,67.10051],[177.14969,67.10493],[177.1542,67.10764],[177.16996,67.13349],[177.17357,67.19044],[177.1667,67.19948],[177.153,67.20674],[177.1463,67.21272],[177.14368,67.21841],[177.13654,67.22212],[177.1321,67.22654],[177.13103,67.2325],[177.11968,67.24159],[177.12057,67.24925],[177.12298,67.2561],[177.1227,67.25904],[177.11472,67.26646],[177.10519,67.28664],[177.07556,67.29926],[177.06129,67.30655],[177.0147,67.32022],[176.98792,67.31879],[176.93204,67.31812],[176.9008,67.31557],[176.89434,67.31595],[176.88184,67.32022],[176.86344,67.32266],[176.82838,67.33488],[176.8154,67.33835],[176.81525,67.3438],[176.81699,67.3457],[176.81752,67.35062],[176.82008,67.35466],[176.81947,67.36241],[176.81731,67.36657],[176.81932,67.37236],[176.81765,67.38223],[176.8284,67.39536],[176.85554,67.40703],[176.86608,67.41911],[176.86677,67.42335],[176.8645,67.43183],[176.86357,67.44078],[176.85565,67.45],[176.85167,67.45203],[176.83677,67.45841],[176.81005,67.46611],[176.70281,67.47233],[176.69596,67.47386],[176.69537,67.47619],[176.69779,67.48109],[176.69739,67.48308],[176.70125,67.48515],[176.7044,67.49146],[176.68917,67.50761],[176.67016,67.52117],[176.66767,67.52483],[176.68037,67.54705],[176.68936,67.5576],[176.69804,67.57187],[176.70572,67.59593],[176.70608,67.60333],[176.70286,67.61135],[176.69416,67.61691],[176.69118,67.62215],[176.6796,67.63116],[176.66782,67.64641],[176.66449,67.67448],[176.66504,67.67706],[176.65961,67.68019],[176.65627,67.68472],[176.63683,67.697],[176.6213,67.70369],[176.60905,67.71552],[176.6039,67.72938],[176.60141,67.73311],[176.57547,67.74924],[176.56136,67.75609],[176.54085,67.76082],[176.53049,67.76107],[176.5036,67.75907],[176.47714,67.75947],[176.45858,67.76164],[176.43895,67.76578],[176.38252,67.77069],[176.36142,67.77045],[176.34413,67.76755],[176.33031,67.76706],[176.30108,67.76737],[176.28486,67.76911],[176.26019,67.77437],[176.23353,67.78682],[176.1998,67.79803],[176.13925,67.80958],[176.12874,67.81326],[176.12178,67.81717],[176.11578,67.82569],[176.11732,67.84022],[176.10951,67.85242],[176.11037,67.86026],[176.10796,67.86484],[176.09861,67.87181],[176.09672,67.87433],[176.09655,67.88559],[176.10226,67.89494],[176.1029,67.90221],[176.10908,67.91485],[176.11972,67.92129],[176.13509,67.92553],[176.13732,67.92701],[176.13929,67.9319],[176.13822,67.93364],[176.13191,67.93759],[176.11929,67.94229],[176.11595,67.94507],[176.1147,67.94893],[176.1205,67.95311],[176.12071,67.95586],[176.10715,67.96488],[176.1047,67.97035],[176.10685,67.97677],[176.1147,67.98276],[176.13137,67.98937],[176.1451,67.99839],[176.14858,68.00514],[176.14809,68.00921],[176.14557,68.0126],[176.12476,68.02814],[176.12007,68.03422],[176.10197,68.04439],[176.06149,68.0618],[176.05065,68.06703],[176.04629,68.07172],[176.01334,68.08683],[175.98458,68.09315],[175.97876,68.09841],[175.95563,68.10933],[175.94748,68.11648],[175.94066,68.13092],[175.94044,68.13477],[175.94572,68.14229],[175.94499,68.15826],[175.94853,68.16825],[175.94286,68.17904],[175.93822,68.18304],[175.91383,68.19434],[175.89856,68.19886],[175.89132,68.20361],[175.86967,68.21194],[175.87082,68.21513],[175.87017,68.21566],[175.85531,68.22254],[175.84776,68.22452],[175.84264,68.23148],[175.81461,68.24231],[175.81056,68.24635],[175.81298,68.2546],[175.79747,68.2622],[175.78371,68.27267],[175.76337,68.28199],[175.73033,68.2891],[175.72228,68.29212],[175.68422,68.30116],[175.67134,68.30712],[175.66546,68.31978],[175.65508,68.32515],[175.62645,68.33369],[175.57789,68.34262],[175.5414,68.35191],[175.52981,68.35249],[175.51618,68.35143],[175.50056,68.34943],[175.48578,68.34561],[175.46966,68.34588],[175.45391,68.34206],[175.44505,68.33562],[175.43559,68.33395],[175.42589,68.33709],[175.39817,68.33808],[175.37396,68.33574],[175.35053,68.33199],[175.33854,68.33168],[175.32738,68.33397],[175.30776,68.33576],[175.26603,68.34329],[175.24552,68.34338],[175.23052,68.3418],[175.21713,68.34266],[175.17181,68.34976],[175.1696,68.35096],[175.1681,68.35447],[175.16215,68.35853],[175.13879,68.35835],[175.11104,68.3653],[175.076,68.36807],[175.03285,68.37391],[175.00148,68.37577],[174.96461,68.38198],[174.9497,68.39003],[174.94178,68.39198],[174.92208,68.39254],[174.90432,68.39169],[174.87953,68.396],[174.82525,68.39534],[174.81606,68.39855],[174.77965,68.40575],[174.76568,68.40987],[174.76289,68.41149],[174.7554,68.41976],[174.72652,68.42904],[174.69266,68.43049],[174.68436,68.43379],[174.66228,68.44659],[174.63687,68.45687],[174.59983,68.46325],[174.59479,68.46526],[174.5847,68.47308],[174.55865,68.48239],[174.54704,68.48466],[174.51664,68.48761],[174.46802,68.50274],[174.43772,68.50661],[174.37697,68.51922],[174.36325,68.5195],[174.33324,68.5146],[174.31259,68.51929],[174.30332,68.52008],[174.26059,68.50919],[174.20536,68.50393],[174.18634,68.50458],[174.1771,68.50646],[174.1617,68.51223],[174.1463,68.52267],[174.08755,68.53125],[174.0567,68.53942],[173.97175,68.5446],[173.94758,68.54785],[173.92294,68.55802],[173.89705,68.57783],[173.89595,68.5825],[173.88384,68.58964],[173.88393,68.59217],[173.88979,68.59569],[173.88162,68.59987],[173.89427,68.60161],[173.88889,68.60606],[173.88617,68.61362],[173.85203,68.62963],[173.83864,68.638],[173.8356,68.64218],[173.82266,68.67059],[173.79629,68.70643],[173.79032,68.71864]],[[177.6429,64.73676],[177.62817,64.73913],[177.57056,64.73852],[177.53893,64.73968],[177.53514,64.73865],[177.53251,64.73648]],[[177.6403,64.73613],[177.6429,64.73676]],[[177.6429,64.73676],[177.68204,64.73657],[177.69619,64.73348],[177.71092,64.73205],[177.71237,64.73607],[177.71071,64.74362],[177.70169,64.75785],[177.71211,64.78172],[177.71702,64.78488],[177.72076,64.78958],[177.72879,64.79512],[177.73794,64.79753],[177.74714,64.79816],[177.7713,64.80707],[177.77771,64.81181],[177.78774,64.82821],[177.79835,64.84155],[177.8206,64.85211],[177.86584,64.86932],[177.90066,64.88458],[177.90801,64.8867],[177.92115,64.89455],[177.94207,64.90035],[177.96355,64.90911],[177.98825,64.91719],[178.01721,64.92502],[178.07993,64.93962],[178.10937,64.9482],[178.25769,64.96799],[178.27152,64.97043],[178.27857,64.97344],[178.29625,64.97513],[178.34721,64.98409],[178.44756,65.00879],[178.46766,65.00903],[178.50266,65.01297],[178.53459,65.02167],[178.57308,65.02817],[178.63138,65.03401],[178.6792,65.03305],[178.72416,65.0336],[178.75934,65.0393],[178.77395,65.0406],[178.78186,65.04268],[178.81578,65.04615],[178.8302,65.05008],[178.83715,65.05042],[178.86991,65.05648],[178.89168,65.06156],[179.06365,65.09085],[179.07566,65.08983],[179.09002,65.08651],[179.15419,65.10079],[179.16498,65.10364],[179.17405,65.10779],[179.19038,65.10898],[179.21618,65.11458],[179.25741,65.12014],[179.2819,65.1254],[179.39772,65.14616],[179.42584,65.14942],[179.4458,65.15565],[179.51636,65.17254],[179.54282,65.18101],[179.55844,65.18445],[179.60309,65.19021],[179.6323,65.19673],[179.6896,65.20508],[179.73638,65.21688],[179.75863,65.21983],[179.78692,65.22568],[179.83499,65.23262],[179.87397,65.24043],[179.88116,65.24129],[179.89051,65.24067],[179.91978,65.24411],[179.97397,65.25496],[180.0,65.25787]],[[178.7108,66.63398],[178.70433,66.63586],[178.69847,66.63484]],[[178.69847,66.63484],[178.70497,66.63331],[178.7108,66.63398]],[[180.0,66.64067],[179.97002,66.63809],[179.96624,66.63939],[179.95886,66.64464],[179.94389,66.64661],[179.92525,66.65781],[179.90746,66.66035],[179.88795,66.66651],[179.88524,66.66796],[179.88348,66.67249],[179.87458,66.6756],[179.87255,66.68234],[179.86623,66.68765],[179.85956,66.6908],[179.84671,66.69447],[179.83865,66.70045],[179.82941,66.70349],[179.80116,66.70688],[179.76195,66.71417],[179.75169,66.71334],[179.73536,66.70973],[179.6931,66.7116],[179.67705,66.70785],[179.65903,66.70644],[179.64084,66.70828],[179.63921,66.70949],[179.63934,66.71154],[179.63345,66.71413],[179.62163,66.71261],[179.61419,66.71043],[179.59718,66.71187],[179.56695,66.70899],[179.55643,66.71184],[179.52293,66.71534],[179.50424,66.72048],[179.49592,66.72526],[179.48783,66.7265],[179.46146,66.72633],[179.44651,66.72227],[179.42589,66.72202],[179.41101,66.71971],[179.39397,66.72252],[179.34844,66.7249],[179.33634,66.72759],[179.30726,66.73035],[179.29157,66.72844],[179.27248,66.71842],[179.25308,66.71527],[179.25179,66.71563],[179.2519,66.71751],[179.24824,66.72106],[179.24336,66.72305],[179.21957,66.7257],[179.20891,66.72765],[179.2032,66.7299],[179.17437,66.73366],[179.16347,66.73758],[179.14794,66.74136],[179.10147,66.74406],[179.09852,66.74278],[179.09099,66.73442],[179.06972,66.72081],[179.05844,66.70807],[179.03402,66.70236],[178.99264,66.69651],[178.97924,66.69078],[178.96231,66.68752],[178.9364,66.67876],[178.91876,66.67071],[178.91309,66.66765],[178.91047,66.66204],[178.90688,66.65785],[178.90043,66.65375],[178.89996,66.64705],[178.87739,66.6368],[178.87193,66.6294],[178.86635,66.62584],[178.8566,66.62459],[178.83889,66.62671],[178.83128,66.62534],[178.76814,66.62584],[178.75435,66.62906],[178.75041,66.63168],[178.7491,66.63453],[178.74718,66.63516],[178.71938,66.63314],[178.7108,66.63398]],[[179.73315,66.70976],[179.7317,66.70822]],[[179.73334,66.70919],[179.73408,66.70903]]]}},{"type":"Feature","properties":{"roadClass":"secondary"},"geometry":{"type":"MultiLineString","coordinates":[[[-178.6658,67.56851],[-178.66295,67.57222],[-178.66327,67.57441],[-178.66559,67.57865],[-178.67443,67.58689],[-178.67417,67.59073],[-178.67596,67.59927],[-178.67504,67.60284],[-178.6774,67.61306],[-178.67216,67.61813],[-178.67903,67.62437],[-178.6834,67.63223],[-178.69952,67.639],[-178.71979,67.6536],[-178.71595,67.65875],[-178.71575,67.66146],[-178.72256,67.67765],[-178.72077,67.68044],[-178.72514,67.68876],[-178.72556,67.69911],[-178.72265,67.70595],[-178.73106,67.7161],[-178.73252,67.72145],[-178.737,67.72669],[-178.7413,67.74492],[-178.73899,67.74685],[-178.73914,67.75468],[-178.73653,67.76072],[-178.74852,67.77202],[-178.74784,67.77487],[-178.75186,67.78626],[-178.75167,67.78844],[-178.73838,67.81025],[-178.73961,67.81261],[-178.7399,67.82132],[-178.73596,67.8248],[-178.74166,67.82893],[-178.73998,67.83136],[-178.72948,67.83775],[-178.72882,67.83975],[-178.73622,67.84375],[-178.7432,67.84404],[-178.73809,67.84779],[-178.73918,67.85159],[-178.74065,67.85272],[-178.74578,67.85404],[-178.75956,67.85209],[-178.75472,67.85489],[-178.73893,67.85734],[-178.73446,67.85977],[-178.73118,67.86464],[-178.73208,67.87062],[-178.73953,67.86998],[-178.74568,67.86773],[-178.74692,67.86848],[-178.7431,67.87263],[-178.73904,67.88213],[-178.73882,67.90415],[-178.73378,67.91123],[-178.72668,67.91729],[-178.70778,67.93062],[-178.6879,67.97111],[-178.72469,67.99412],[-178.77583,68.01097],[-178.79358,68.0154],[-178.7964,68.01716],[-178.79756,68.01986],[-178.79542,68.0228],[-178.79578,68.02449],[-178.81318,68.02706],[-178.83916,68.03878],[-178.84053,68.03983],[-178.84014,68.0411],[-178.83652,68.04347],[-178.84666,68.05185],[-178.84699,68.05732],[-178.84625,68.05882],[-178.83831,68.06384],[-178.83264,68.07225],[-178.82273,68.07836],[-178.80021,68.08774],[-178.79709,68.09081],[-178.79875,68.09248],[-178.79514,68.09961],[-178.7853,68.105],[-178.78218,68.11611],[-178.77938,68.1209],[-178.77754,68.12276],[-178.76616,68.12434],[-178.76391,68.12597],[-178.761,68.1297],[-178.74887,68.13934],[-178.73811,68.15207],[-178.73572,68.15601],[-178.72475,68.18649],[-178.72072,68.19318],[-178.71827,68.20205],[-178.70952,68.21529],[-178.70626,68.23364],[-178.69725,68.25906],[-178.69584,68.26069],[-178.65695,68.28548],[-178.6508,68.29799],[-178.64609,68.30403],[-178.62028,68.32697],[-178.60403,68.33892],[-178.55425,68.36242],[-178.52441,68.37055],[-178.52865,68.37721],[-178.55932,68.45526],[-178.835,68.56582],[-178.8401,68.56884],[-178.84177,68.57127],[-178.86539,68.57809],[-179.00593,68.63398],[-179.01753,68.63448],[-179.0307,68.64199],[-179.05554,68.64955],[-179.0764,68.65757],[-179.09291,68.6575],[-179.11449,68.65552],[-179.12006,68.65613],[-179.12968,68.65947],[-179.13106,68.66105],[-179.12507,68.66534],[-179.11291,68.66669],[-179.11177,68.66801],[-179.11286,68.67426],[-179.1145,68.6768],[-179.19894,68.71839],[-179.2131,68.72096],[-179.21444,68.72179],[-179.21435,68.72632],[-179.237,68.73898],[-179.28311,68.76207],[-179.32928,68.7876],[-179.46227,68.84456],[-179.46845,68.86898],[-179.4676,68.87238],[-179.46583,68.87486],[-179.45677,68.87872],[-179.44132,68.8946],[-179.43239,68.89458],[-179.42805,68.89646],[-179.42668,68.89813],[-179.43171,68.90089],[-179.42774,68.90231],[-179.45151,68.91584],[-179.45773,68.91744],[-179.47627,68.91845],[-179.51518,68.89954],[-179.57209,68.88998],[-179.61683,68.8901],[-179.65219,68.89726],[-179.68213,68.89901],[-179.71828,68.90361],[-179.80492,68.91964],[-179.83934,68.92761],[-179.93126,68.95419],[-179.93762,68.95263],[-180.0,68.95887]],[[-179.20108,66.44712],[-179.20249,66.44698]],[[-179.1597,66.40486],[-179.13632,66.40326],[-179.12806,66.405]],[[-179.1584,66.40488],[-179.15913,66.40528]],[[-179.12034,66.32913],[-179.12103,66.32896]],[[-178.87532,67.03374],[-178.87521,67.03385]],[[-169.84611,66.16448],[-169.91228,66.1713],[-169.97805,66.17992],[-170.03564,66.18971],[-170.06092,66.1925],[-170.08218,66.19662],[-170.0896,66.19929],[-170.11656,66.20562],[-170.15539,66.21853],[-170.17533,66.22636],[-170.20577,66.2339],[-170.24285,66.24919],[-170.28186,66.27117],[-170.28359,66.27934],[-170.283,66.28231],[-170.28491,66.28521],[-170.28525,66.28799],[-170.27764,66.29479],[-170.27391,66.2957]],[[161.59116,68.34934],[161.58941,68.35033],[161.60583,68.35365],[161.61135,68.35629],[161.64296,68.36528],[161.66104,68.36963],[161.67811,68.37037],[161.70437,68.37735],[161.7207,68.383],[161.72393,68.3869],[161.73172,68.39036],[161.73251,68.39246],[161.73522,68.39331],[161.73783,68.39738],[161.73538,68.4005],[161.73612,68.40207],[161.73398,68.40524],[161.74519,68.41294],[161.75974,68.42904],[161.76091,68.43305],[161.7664,68.43764],[161.7701,68.4466],[161.76955,68.45102],[161.77242,68.45933],[161.77076,68.46175],[161.77104,68.46384],[161.76801,68.46605],[161.75998,68.46717],[161.75603,68.46909],[161.76306,68.47445],[161.76241,68.47989],[161.7599,68.48439],[161.76043,68.48651],[161.77135,68.49118],[161.79419,68.50871],[161.7955,68.511],[161.80524,68.51945],[161.80502,68.52139],[161.79611,68.5273],[161.78017,68.53523],[161.78229,68.54176]],[[166.44838,68.05352],[166.44248,68.05542],[166.44062,68.05791],[166.43928,68.06318]],[[166.44838,68.05352],[166.45064,68.05459],[166.45105,68.06294],[166.4536,68.06377]],[[166.44838,68.05352],[166.45244,68.05232],[166.45778,68.0541],[166.45743,68.05679],[166.45883,68.05784],[166.4591,68.06038],[166.45848,68.06331]],[[170.26536,69.68192],[170.22285,69.65181],[170.21219,69.64813],[170.20732,69.64774],[170.17376,69.62815],[170.16955,69.62306],[170.169,69.62071],[170.1623,69.61478],[170.17299,69.61254],[170.18084,69.60681]],[[170.60582,69.79094],[170.62027,69.79283],[170.62263,69.79556],[170.63391,69.79854],[170.65971,69.79987],[170.66465,69.80293],[170.66947,69.80901],[170.67389,69.82613],[170.66664,69.85031],[170.65948,69.85551],[170.64651,69.86186],[170.62615,69.86856],[170.61793,69.87268],[170.61778,69.87484],[170.62109,69.87719],[170.62103,69.87891],[170.60538,69.89678],[170.55566,69.91755],[170.538,69.92187]],[[172.72622,69.12323],[172.73463,69.12461],[172.73802,69.12816]],[[173.69781,68.97402],[173.70536,68.9745],[173.74556,68.97141],[173.75738,68.96919]],[[176.61102,69.68469],[176.69634,69.66828],[176.77492,69.65462],[176.8401,69.64068],[176.91497,69.63112],[176.93563,69.62735],[176.95473,69.62219],[176.99157,69.61742],[177.02236,69.61066],[177.07177,69.60654],[177.15814,69.59405],[177.23776,69.5873],[177.34266,69.57304],[177.37498,69.57053],[177.39719,69.57107],[177.40169,69.56986],[177.41377,69.57009],[177.43308,69.56814],[177.47375,69.56696],[177.48621,69.56558],[177.49544,69.56337],[177.57234,69.53482],[177.66494,69.50859],[177.71065,69.49659],[177.84866,69.46811],[177.87167,69.46142],[177.88053,69.46001],[177.95362,69.45865],[178.08348,69.44727],[178.18021,69.44482],[178.21356,69.44133],[178.24115,69.43331],[178.25126,69.42858],[178.27826,69.41932],[178.32899,69.40495],[178.34351,69.39923],[178.36773,69.38684],[178.37606,69.38029],[178.3946,69.37006],[178.40405,69.37036],[178.40553,69.36652],[178.41647,69.36316],[178.41676,69.36045],[178.42626,69.36176],[178.44273,69.36083],[178.44949,69.35918],[178.46452,69.36217],[178.47416,69.36082],[178.48103,69.36186],[178.49166,69.35682],[178.50977,69.35129],[178.54854,69.33337],[178.60733,69.31256],[178.64336,69.29677],[178.68434,69.28473],[178.7698,69.25603],[178.82925,69.2391],[178.92327,69.21466],[178.95294,69.20152],[178.99559,69.17952],[179.02671,69.17058],[179.04104,69.16434],[179.05595,69.15536],[179.06536,69.15249],[179.1392,69.13324],[179.25049,69.1127],[179.3222,69.0977],[179.3791,69.08736],[179.44153,69.06891],[179.48593,69.05807],[179.60715,69.01867],[179.652,69.01057],[179.68643,69.0015],[179.72812,68.99256],[179.74364,68.99039],[179.82908,68.97371],[179.90727,68.96783],[180.0,68.95887]]]}},{"type":"Feature","properties":{"roadClass":"tertiary"},"geometry":{"type":"MultiLineString","coordinates":[[[-179.41681,68.89777],[-179.42774,68.90231]],[[-179.41681,68.89777],[-179.43278,68.89379],[-179.43198,68.89213],[-179.41521,68.88908],[-179.40281,68.88476]],[[-179.40281,68.88476],[-179.39801,68.88731],[-179.40483,68.8911],[-179.40393,68.89208],[-179.41681,68.89777]],[[-179.40281,68.88476],[-179.40743,68.88211],[-179.39519,68.87556],[-179.39496,68.87221],[-179.3822,68.86573]],[[-179.1185,66.31688],[-179.1213,66.31875],[-179.11843,66.32325],[-179.12128,66.32953]],[[-173.22279,64.42441],[-173.23538,64.42069],[-173.24305,64.42028]],[[-173.15167,64.44018],[-173.1666,64.42989],[-173.18252,64.42296],[-173.19493,64.41382],[-173.20624,64.403],[-173.21856,64.39855],[-173.22493,64.39171],[-173.22612,64.38744],[-173.22884,64.38377]],[[-173.22884,64.38377],[-173.22957,64.38408],[-173.22997,64.38369],[-173.22961,64.38366],[-173.22884,64.38377]],[[-173.22279,64.42441],[-173.22449,64.42507]],[[-173.15167,64.44018],[-173.16359,64.44574],[-173.16988,64.44658],[-173.17692,64.44588],[-173.1905,64.44277],[-173.19378,64.43975],[-173.20196,64.43786],[-173.20598,64.43566],[-173.20732,64.43341],[-173.21659,64.42952],[-173.22279,64.42441]],[[-173.15167,64.44018],[-173.1476,64.44283],[-173.14226,64.45041],[-173.14174,64.45271],[-173.13877,64.45533],[-173.13447,64.45671],[-173.12527,64.45492],[-173.11453,64.45511],[-173.10653,64.45982],[-173.10347,64.46283],[-173.10157,64.46666],[-173.10073,64.47315],[-173.09657,64.47603],[-173.07282,64.48243],[-173.05892,64.48423],[-173.05705,64.4859],[-173.05889,64.4873],[-173.05483,64.48802],[-173.05032,64.49094],[-173.04957,64.49441],[-173.04384,64.49275],[-173.01727,64.49365],[-172.99585,64.49199],[-172.94289,64.49462],[-172.92808,64.49323],[-172.91596,64.49567],[-172.88895,64.49821],[-172.86546,64.49671],[-172.8555,64.49965]],[[-171.01929,65.58878],[-171.02533,65.58655],[-171.03578,65.58657],[-171.07091,65.59373],[-171.08336,65.59208],[-171.08863,65.58903],[-171.08998,65.58375],[-171.09309,65.57988],[-171.10483,65.57464],[-171.13953,65.57208],[-171.16084,65.56874],[-171.19442,65.5588],[-171.22862,65.55188],[-171.23244,65.55024],[-171.23343,65.54581],[-171.2361,65.54349],[-171.25526,65.53783],[-171.3101,65.54019],[-171.32452,65.53572],[-171.341,65.53273],[-171.38,65.53235],[-171.42955,65.54079],[-171.44369,65.5448],[-171.47695,65.55589],[-171.47719,65.55762],[-171.47012,65.56205],[-171.48401,65.56482],[-171.51602,65.55291],[-171.53616,65.54788],[-171.54508,65.54299],[-171.55463,65.54116],[-171.56445,65.54089],[-171.57537,65.54285],[-171.58808,65.54969],[-171.59806,65.5515],[-171.6259,65.54098],[-171.63843,65.53392],[-171.66662,65.52448],[-171.67391,65.52108],[-171.68254,65.52054],[-171.68572,65.51616],[-171.68589,65.51182],[-171.69333,65.5058],[-171.6963,65.50465]],[[-171.48401,65.56482],[-171.48964,65.56805],[-171.49158,65.57213],[-171.49143,65.57722],[-171.4939,65.58036],[-171.49713,65.58198],[-171.50975,65.58271],[-171.5284,65.57783],[-171.53576,65.57268],[-171.55056,65.56689],[-171.56524,65.56289],[-171.56975,65.5638],[-171.5759,65.56283],[-171.58199,65.55638],[-171.59879,65.55138]],[[-171.04168,65.58757],[-171.04878,65.58474],[-171.07182,65.58009],[-171.08412,65.57916],[-171.09309,65.57988]],[[161.74759,69.37802],[161.74368,69.38349],[161.70248,69.39424],[161.70684,69.39994],[161.71357,69.40344],[161.73503,69.40964],[161.83873,69.41628],[161.9505,69.41752],[161.99202,69.43243],[162.06276,69.43842],[162.06654,69.44041],[162.0674,69.44249],[162.07057,69.45807],[162.07117,69.46635],[162.06679,69.49081],[162.068,69.49331],[162.07486,69.49878],[162.07546,69.50256],[162.0789,69.5053],[162.07907,69.50719],[162.08096,69.50921],[162.10671,69.52122],[162.11125,69.52224],[162.13047,69.52238],[162.14748,69.52485],[162.18576,69.53953],[162.20387,69.54805],[162.22138,69.55845],[162.22618,69.56789],[162.2309,69.57245],[162.24,69.57913],[162.25633,69.58789],[162.29371,69.59245],[162.30579,69.59564],[162.31991,69.59631],[162.33398,69.59944],[162.33705,69.6008],[162.34017,69.60481],[162.34918,69.60932],[162.40385,69.62155],[162.41907,69.6273],[162.42181,69.62974]],[[162.47762,69.65528],[162.45803,69.65183],[162.44302,69.64389],[162.42981,69.63167],[162.41611,69.62883],[162.3439,69.62488],[162.33058,69.62273],[162.30338,69.6248],[162.30409,69.62537]],[[162.72424,68.62405],[162.75619,68.62034],[162.77271,68.61989],[162.78677,68.62223],[162.83443,68.63352],[162.84879,68.63835],[162.86999,68.64204],[162.91317,68.64444],[162.93524,68.63999],[162.93625,68.63723],[162.93911,68.63531],[162.94297,68.63392],[162.95012,68.63338],[162.95285,68.63167],[162.95336,68.62933],[162.95918,68.62313],[163.00113,68.59308],[163.01299,68.58913],[163.02868,68.58951],[163.04089,68.58034],[163.03775,68.57512],[163.02973,68.57066],[163.02171,68.56403],[163.0231,68.55868],[163.02833,68.55217],[163.01825,68.54199],[163.0236,68.53823],[163.02509,68.53544],[163.02481,68.53092],[163.02951,68.52369],[163.02964,68.52167],[163.03468,68.51706],[163.04703,68.51362],[163.07656,68.51178],[163.0706,68.50677],[163.06879,68.50293],[163.06895,68.50073],[163.06667,68.49736],[163.07147,68.49252],[163.07333,68.48906]],[[164.30326,66.76355],[164.31796,66.75547],[164.33126,66.75061],[164.33856,66.74927],[164.34062,66.74731],[164.35845,66.74002],[164.35813,66.73929],[164.36289,66.7347],[164.36289,66.73109],[164.36478,66.73021],[164.3707,66.73068],[164.38418,66.72804],[164.39409,66.72249],[164.39311,66.72057],[164.40032,66.71677],[164.39997,66.71426],[164.40234,66.71206],[164.39922,66.7098],[164.39372,66.70802],[164.39507,66.70572],[164.40671,66.70007],[164.40594,66.69744],[164.41234,66.69442],[164.41421,66.69163],[164.41352,66.68959],[164.4152,66.6875],[164.41267,66.6847],[164.42483,66.67996],[164.42825,66.67628],[164.43289,66.67491],[164.43731,66.66859],[164.4414,66.66513],[164.45329,66.66086],[164.45425,66.65667],[164.45013,66.65248],[164.4593,66.65225],[164.46014,66.65159],[164.4596,66.6506],[164.4668,66.64733],[164.46863,66.64474],[164.46849,66.64244],[164.47567,66.63821],[164.47441,66.63622],[164.47527,66.63407],[164.48059,66.63121],[164.48626,66.63041],[164.50098,66.62454],[164.49972,66.62209],[164.49712,66.62028],[164.49287,66.61289],[164.50003,66.60689],[164.49565,66.60572],[164.49462,66.60434],[164.49764,66.60169]],[[164.47984,66.59964],[164.4899,66.60171],[164.49966,66.60156],[164.53455,66.59192],[164.54303,66.59246],[164.55395,66.58795],[164.57146,66.58908]],[[164.49947,66.6254],[164.50641,66.62426],[164.50788,66.62313],[164.50903,66.61969],[164.5107,66.61905],[164.51385,66.61913],[164.51851,66.62165],[164.52446,66.62085],[164.52929,66.61634],[164.55494,66.60604],[164.5593,66.59975],[164.56552,66.59853],[164.56841,66.59653],[164.57041,66.59221],[164.56891,66.59023],[164.58281,66.58508],[164.58775,66.57997],[164.58772,66.5773]],[[165.88175,68.1488],[165.88045,68.14693]],[[166.13995,67.84325],[166.13327,67.84271]],[[166.44106,68.05723],[166.43614,68.0568],[166.4373,68.05333],[166.44253,68.05084],[166.44033,68.04962],[166.44015,68.04719],[166.44232,68.0447],[166.446,68.04372],[166.45217,68.03792]],[[166.45428,68.05164],[166.45244,68.05232]],[[166.6968,67.01413],[166.70396,67.01414],[166.73683,67.00906],[166.75878,67.00335],[166.78734,66.99283],[166.79087,66.9887],[166.80033,66.98679],[166.80606,66.98347],[166.82072,66.97919],[166.83003,66.97898],[166.8336,66.97768],[166.83409,66.98],[166.82988,66.98172],[166.85249,66.97993],[166.86282,66.97499],[166.87409,66.97376],[166.90562,66.97751],[166.93989,66.98006],[166.96201,66.97722],[166.96866,66.97383],[166.9707,66.97048],[166.97776,66.96638],[167.00143,66.95572],[167.01067,66.9536],[167.01771,66.95261],[167.03074,66.95468],[167.04948,66.95359],[167.06372,66.95715]],[[166.96358,66.92721],[166.97944,66.92778],[167.00424,66.93599],[167.01047,66.93963],[167.02302,66.93782],[167.03656,66.93992],[167.04396,66.94434],[167.04714,66.94905],[167.05323,66.95424],[167.06372,66.95715],[167.1364,66.96631],[167.16074,66.96664],[167.16762,66.96389],[167.18408,66.96184],[167.22398,66.95429],[167.25837,66.94314],[167.26656,66.94195]],[[167.99806,69.93933],[168.02413,69.95025],[168.05065,69.95962],[168.07516,69.96388],[168.14579,69.98485],[168.20618,69.99901],[168.23347,70.00347],[168.25969,70.0063],[168.38706,70.01339],[168.43805,70.01516],[168.51946,70.02135],[168.53959,70.02022],[168.57272,70.01305],[168.6046,70.00345],[168.64082,69.99509],[168.69219,69.98635],[168.81287,69.96954],[168.86403,69.96095],[168.9429,69.94957],[168.952,69.94724],[169.00191,69.94149],[169.01474,69.9417],[169.02723,69.9404],[169.07405,69.93012],[169.20692,69.90818],[169.24271,69.90397],[169.29571,69.90056],[169.33798,69.89616],[169.35373,69.88988],[169.3697,69.88176],[169.41227,69.87131],[169.4481,69.84177],[169.45072,69.83814],[169.45227,69.82949],[169.45591,69.82302],[169.45549,69.82076],[169.46051,69.80833],[169.45978,69.79857],[169.45613,69.78834],[169.45463,69.77929],[169.45682,69.77805],[169.45724,69.77628],[169.46072,69.77288],[169.47527,69.76493],[169.49956,69.75669],[169.51355,69.75512],[169.52887,69.7505],[169.5384,69.74987],[169.54921,69.74696],[169.55973,69.7423],[169.6253,69.73559],[169.62886,69.7343],[169.67045,69.7329],[169.68131,69.73078],[169.71259,69.72806],[169.72795,69.72516],[169.75413,69.71553],[169.8007,69.71131],[169.83443,69.71105],[169.86554,69.71275],[169.91554,69.71131],[169.96682,69.71772],[170.06008,69.70829],[170.07329,69.70391],[170.10587,69.70145],[170.16355,69.69996],[170.26487,69.70198],[170.27083,69.70156],[170.27324,69.70025]],[[170.01643,67.95733],[170.01399,67.95872],[170.01598,67.96144],[170.01901,67.9709],[170.02287,67.97586],[170.04634,67.9954],[170.07793,68.0255],[170.09987,68.03988],[170.10893,68.04888],[170.14771,68.07013],[170.17144,68.08628],[170.18054,68.10191],[170.19295,68.11818],[170.19449,68.12213],[170.19543,68.13136],[170.19449,68.14178],[170.17694,68.16094],[170.16475,68.16788],[170.13587,68.1939],[170.13443,68.19694],[170.13256,68.21278],[170.12911,68.21715],[170.11784,68.22325],[170.12356,68.22874],[170.12578,68.23529],[170.13041,68.23824],[170.13325,68.24405],[170.13462,68.25012],[170.13338,68.25473],[170.12271,68.26962],[170.12029,68.27766],[170.12066,68.2844],[170.1278,68.29962],[170.13888,68.33316],[170.14578,68.34157],[170.14874,68.34744],[170.16119,68.35932],[170.17968,68.39112],[170.20248,68.42445],[170.20101,68.45135]],[[170.27324,69.70025],[170.27993,69.70328],[170.28462,69.70375],[170.28701,69.7029],[170.29593,69.70394],[170.30707,69.7028],[170.32007,69.70394]],[[170.27324,69.70025],[170.27731,69.69724]],[[170.32007,69.70394],[170.32215,69.70416]],[[170.32063,69.70369],[170.32007,69.70394]],[[177.50947,64.73183],[177.50764,64.73071],[177.50093,64.72963],[177.48757,64.72685],[177.48611,64.72598],[177.47634,64.71587],[177.4716,64.71241],[177.47166,64.70692],[177.47358,64.70523],[177.47207,64.70318],[177.47304,64.7008],[177.44812,64.68375],[177.44896,64.68055],[177.47836,64.66364],[177.47848,64.65878],[177.45524,64.62279],[177.44311,64.61295],[177.439,64.6078],[177.41665,64.60545],[177.4109,64.60239],[177.38598,64.59719],[177.37479,64.59223],[177.29137,64.56807],[177.27363,64.56001],[177.26463,64.55708],[177.26111,64.55438],[177.25062,64.55102],[177.24253,64.54582],[177.22798,64.5392],[177.15563,64.53047],[177.15152,64.52652],[177.12976,64.51582],[177.07227,64.49444],[177.01973,64.47989],[177.00255,64.47406],[176.92493,64.4405],[176.90828,64.4051],[176.90602,64.37904],[176.91009,64.3712],[176.90891,64.36507],[176.89675,64.35749],[176.88598,64.33401],[176.86765,64.32156],[176.85388,64.2998],[176.86412,64.28533],[176.86375,64.27517],[176.85184,64.23028],[176.8513,64.22504],[176.86143,64.21413],[176.8651,64.20236],[176.86947,64.19498],[176.88033,64.18256],[176.88121,64.17965],[176.87743,64.15647],[176.87515,64.15398],[176.8769,64.14863],[176.87333,64.13986],[176.86435,64.1292],[176.87312,64.09099],[176.82751,64.04566],[176.8297,64.04111],[176.8372,64.0334],[176.83746,64.02918],[176.8407,64.02172],[176.83335,64.00839],[176.81885,63.98971],[176.80044,63.95724],[176.79433,63.93797],[176.78741,63.92726],[176.78021,63.92604],[176.78041,63.92445],[176.76226,63.92432],[176.74461,63.91908]],[[177.4215,64.73891],[177.41657,64.73738]],[[177.41917,64.74052],[177.4215,64.73891],[177.42942,64.73752],[177.43422,64.73856],[177.45282,64.73723]],[[177.45282,64.73723],[177.44719,64.73842],[177.44676,64.74012],[177.45229,64.74594],[177.48529,64.7624],[177.51106,64.77164],[177.55218,64.78233],[177.55676,64.78324],[177.56867,64.78494]],[[177.45282,64.73723],[177.4802,64.73528],[177.48318,64.73609]],[[177.48318,64.73609],[177.48738,64.73748],[177.50291,64.73659]],[[177.48318,64.73609],[177.48464,64.73349],[177.48178,64.72821],[177.48524,64.72677]],[[177.48524,64.72677],[177.48611,64.72598]],[[177.48524,64.72677],[177.48623,64.72669],[177.48738,64.72679]],[[177.4902,64.7274],[177.49144,64.72866],[177.4903,64.73181],[177.50291,64.73659]],[[177.51922,64.72653],[177.51082,64.72452],[177.50929,64.72181],[177.50657,64.72128],[177.49467,64.72438],[177.49223,64.72776]],[[177.5007,64.73703],[177.49994,64.73681]],[[177.50077,64.73681],[177.50093,64.73726],[177.50087,64.73714],[177.5007,64.73703],[177.50063,64.73696],[177.50073,64.73681]],[[177.50194,64.73673],[177.50095,64.73707]],[[177.51531,64.73482],[177.50291,64.73659]],[[177.51531,64.73482],[177.50947,64.73183]],[[177.50947,64.73183],[177.51646,64.72925]],[[177.52463,64.73321],[177.5255,64.7336],[177.51848,64.73632],[177.51531,64.73482]],[[177.51646,64.72925],[177.52463,64.73321]],[[177.51646,64.72925],[177.51922,64.72653]],[[177.53617,64.7341],[177.53465,64.73138],[177.53075,64.72936],[177.52326,64.72672],[177.51922,64.72653]],[[177.52463,64.73321],[177.52866,64.73266],[177.53012,64.7332],[177.53207,64.73486]],[[177.53076,64.73385],[177.53056,64.73364]],[[177.53251,64.73648],[177.53207,64.73486]],[[177.53207,64.73486],[177.53617,64.7341]],[[177.53617,64.7341],[177.53666,64.73614],[177.52625,64.74314],[177.52502,64.74585],[177.52443,64.75478],[177.52608,64.76163],[177.52952,64.76536],[177.54668,64.77366],[177.55713,64.78051],[177.56328,64.78329],[177.56887,64.78438],[177.56973,64.78446],[177.57048,64.78458],[177.5706,64.7846],[177.573,64.78612],[177.57322,64.78754],[177.58422,64.78832]],[[177.55266,64.76239],[177.56841,64.76718],[177.57031,64.77052],[177.56516,64.77365],[177.56813,64.77744],[177.57732,64.78076],[177.58371,64.78606],[177.58422,64.78832]],[[177.56699,64.7847],[177.568,64.78461]],[[177.56812,64.78448],[177.56744,64.7841]],[[177.57048,64.78458],[177.56867,64.78494]],[[177.56867,64.78494],[177.568,64.78461],[177.56812,64.78448],[177.56887,64.78438]],[[177.68275,64.73647],[177.69033,64.73975],[177.69595,64.7513],[177.70167,64.75696],[177.69674,64.7619],[177.67683,64.76948],[177.6759,64.77063],[177.67613,64.77471],[177.64395,64.77876],[177.63521,64.78316],[177.61704,64.78261],[177.60809,64.78555],[177.60547,64.79074],[177.60274,64.79223],[177.58422,64.78832]],[[177.63284,64.69739],[177.63683,64.69679],[177.64445,64.6977],[177.65513,64.69661],[177.67254,64.69735],[177.68789,64.69585],[177.69214,64.69744],[177.70079,64.70588]],[[177.69684,64.73026],[177.69159,64.73044],[177.68971,64.72938],[177.67893,64.73134]],[[177.69762,64.7333],[177.69684,64.73026]],[[177.69684,64.73026],[177.6988,64.72787],[177.70825,64.72576]],[[177.70079,64.70588],[177.70026,64.70744],[177.70825,64.72576]],[[177.73004,64.71121],[177.71892,64.70385],[177.70079,64.70588]],[[177.70825,64.72576],[177.71092,64.73205]],[[177.73255,64.71253],[177.73004,64.71121]],[[177.73004,64.71121],[177.73942,64.70971],[177.74614,64.71149],[177.747,64.7135],[177.73997,64.71756],[177.74393,64.72129]],[[177.73255,64.71253],[177.73577,64.71311],[177.73607,64.71338],[177.73469,64.71415],[177.73255,64.71253]]]}}],"provenance":{"sources":[{"id":"osm-far-eastern-260916","url":"https://download.geofabrik.de/russia/far-eastern-fed-district-260916.osm.pbf","snapshot":"2026-09-16T20:21:21Z","sha256":"fd264d9cb2c1670512aeaa43ca562920df9b3e676e381a45f4141676843fd1f1","md5":"879d448abc7a6059dd1e48f978330f6e","bytes":387672435,"license":"ODbL-1.0","attribution":"© OpenStreetMap contributors, Geofabrik","downloadDate":"2026-09-17"}],"attribution":"© OpenStreetMap contributors, Geofabrik; ODbL-1.0","geometryMethod":"Actual OSM road ways, merged by class and endpoint, display simplification 0.0007 degrees; not routing geometry","sourceWayCount":664,"routingUse":false}}