{"type":"FeatureCollection","features":[{"type":"Feature","properties":{"roadClass":"primary"},"geometry":{"type":"MultiLineString","coordinates":[[[42.49674,43.25992],[42.51365,43.25724],[42.52412,43.25024],[42.54031,43.24697],[42.55416,43.2486],[42.58563,43.24627],[42.59772,43.24824],[42.60309,43.2461],[42.61594,43.24894],[42.62753,43.24679],[42.63721,43.24799],[42.64863,43.2559],[42.65406,43.2639],[42.66921,43.26809],[42.67232,43.27302],[42.67663,43.27422],[42.68085,43.2735],[42.69012,43.27688],[42.69329,43.27649],[42.70814,43.288],[42.71171,43.28803],[42.72413,43.29694],[42.75588,43.30858],[42.76206,43.30971],[42.76999,43.31463],[42.78601,43.32106],[42.78844,43.32363],[42.79224,43.32528],[42.80229,43.32744],[42.81039,43.32531],[42.8203,43.32783],[42.82308,43.33502],[42.82952,43.3359],[42.8407,43.33955],[42.8445,43.34282],[42.84487,43.34431],[42.8542,43.34831],[42.8598,43.35562],[42.86783,43.35877],[42.8745,43.36407],[42.8814,43.36406],[42.89032,43.36773],[42.908,43.37149],[42.91296,43.37694],[42.91577,43.38189]],[[42.91577,43.38189],[42.91591,43.38197],[42.91603,43.38205],[42.91609,43.38211],[42.91615,43.38218],[42.91742,43.38458],[42.91903,43.38765],[42.91904,43.38783]],[[42.91904,43.38783],[42.91893,43.38776],[42.91879,43.38751],[42.91577,43.38189]],[[42.91598,43.3822],[42.91613,43.38215]],[[42.91768,43.38507],[42.91753,43.38512]],[[42.9186,43.38683],[42.91845,43.38688]],[[42.91903,43.38765],[42.91889,43.38769]],[[42.91904,43.38783],[42.9238,43.3971],[42.92598,43.39874],[42.93714,43.41584],[42.95423,43.42643],[42.9635,43.42877],[42.96847,43.43264],[42.98519,43.43992],[42.99457,43.44107],[43.00001,43.44315],[43.00243,43.44496],[43.00442,43.44879],[43.00943,43.45152],[43.01264,43.45603],[43.01782,43.45916],[43.02745,43.4628],[43.05142,43.46914],[43.05834,43.47387],[43.0752,43.47978],[43.08574,43.48849],[43.09584,43.49103],[43.10336,43.4914],[43.11778,43.49509],[43.1221,43.49737],[43.12285,43.49931],[43.12553,43.50106],[43.13177,43.50139],[43.13547,43.50594],[43.14571,43.50903],[43.15328,43.51267],[43.16667,43.51621],[43.18203,43.52434],[43.18835,43.5359],[43.18844,43.53862],[43.19268,43.54471],[43.19869,43.54962],[43.199,43.55214],[43.21594,43.56714],[43.22896,43.588],[43.23369,43.59244],[43.26462,43.6028],[43.29309,43.60893],[43.32452,43.61131],[43.33817,43.61364],[43.3569,43.62484],[43.37575,43.64362],[43.37965,43.6458],[43.38978,43.6487],[43.39997,43.64688],[43.41441,43.65255],[43.42505,43.65813],[43.44877,43.66194],[43.4646,43.66721],[43.48038,43.66938],[43.4939,43.66902]],[[43.13808,43.97173],[43.14974,43.9576],[43.16823,43.94028],[43.18076,43.93571],[43.18382,43.92587],[43.20484,43.90108],[43.2113,43.89733],[43.21651,43.89146],[43.22445,43.8884],[43.25326,43.86326],[43.27679,43.84879]],[[43.27679,43.84879],[43.27732,43.84844]],[[43.2796,43.85137],[43.27993,43.84884],[43.27856,43.84832],[43.27679,43.84879]],[[43.27732,43.84844],[43.29046,43.84014]],[[43.28742,43.84242],[43.28537,43.84666],[43.27732,43.84844]],[[43.39198,43.07323],[43.41177,43.08349],[43.41997,43.08983],[43.42925,43.09833],[43.43034,43.10182],[43.44177,43.11716],[43.44794,43.12137],[43.45858,43.12612],[43.46369,43.13044],[43.46856,43.13788],[43.48329,43.15446],[43.48351,43.16013],[43.48618,43.16172],[43.48654,43.16342],[43.48928,43.16438],[43.49037,43.1663],[43.49892,43.16898],[43.50692,43.17512],[43.5175,43.17906],[43.51895,43.18281],[43.51821,43.19394],[43.51909,43.1946],[43.51943,43.20064],[43.52087,43.20312],[43.52339,43.20441],[43.5247,43.20743],[43.52618,43.2075],[43.52527,43.2087],[43.52837,43.21325],[43.52928,43.21762],[43.53276,43.22106],[43.53359,43.22468],[43.53989,43.23295],[43.53664,43.23898],[43.53346,43.24946],[43.53674,43.25737],[43.54085,43.26173],[43.54305,43.26654],[43.54737,43.27085],[43.55425,43.28293],[43.57988,43.29787],[43.58589,43.30327],[43.60689,43.3171],[43.63209,43.32862],[43.64605,43.33113],[43.64891,43.33369],[43.6605,43.33789],[43.66686,43.34164],[43.6705,43.34189],[43.68158,43.34818],[43.7009,43.36907],[43.71698,43.37844],[43.72793,43.38874],[43.74038,43.39756],[43.74627,43.40557],[43.74685,43.40819],[43.76076,43.41921],[43.76524,43.42705],[43.77155,43.43278],[43.77505,43.44588],[43.77434,43.45148],[43.77663,43.4646],[43.77405,43.47121],[43.76701,43.47621],[43.76436,43.48606],[43.76391,43.49648]],[[43.4949,43.66946],[43.4939,43.66902]],[[43.4939,43.66902],[43.49504,43.6688]],[[43.49587,43.66989],[43.49563,43.66968]],[[43.53116,43.67003],[43.50336,43.67226],[43.49892,43.6716],[43.49587,43.66989]],[[43.49592,43.66959],[43.49587,43.66989]],[[43.53621,43.67019],[43.53597,43.67023],[43.53539,43.67033],[43.53482,43.67037],[43.53116,43.67003]],[[43.53116,43.67003],[43.53454,43.66989],[43.53696,43.6696],[43.54141,43.66923]],[[43.53597,43.67023],[43.53556,43.66978]],[[43.54163,43.66978],[43.53621,43.67019]],[[43.53834,43.67087],[43.53776,43.67018],[43.53621,43.67019]],[[43.53696,43.6696],[43.53943,43.66833]],[[43.54163,43.66978],[43.53852,43.6709]],[[43.53974,43.668],[43.54141,43.66923]],[[43.54141,43.66923],[43.5419,43.66918]],[[43.54544,43.66893],[43.54347,43.66926],[43.54224,43.66972],[43.54163,43.66978]],[[43.5419,43.66918],[43.54224,43.66972]],[[43.5419,43.66918],[43.54544,43.66893]],[[43.54544,43.66893],[43.58759,43.65982],[43.62412,43.65482],[43.65059,43.65425],[43.65678,43.65665],[43.66072,43.66065]],[[43.5695,43.60521],[43.5693,43.60633],[43.56943,43.60885],[43.56903,43.61022],[43.56424,43.61563]],[[43.56575,43.61219],[43.56997,43.60367]],[[43.56822,43.60951],[43.56809,43.61076],[43.56922,43.6095],[43.56927,43.60579],[43.56997,43.60367]],[[43.5695,43.60521],[43.57011,43.60732],[43.57297,43.6073]],[[43.58622,43.5719],[43.58481,43.57389],[43.58015,43.58387],[43.57895,43.58619],[43.57785,43.58831],[43.57461,43.5947],[43.5695,43.60521]],[[43.56997,43.60367],[43.57363,43.59626],[43.58014,43.58346],[43.58137,43.57787],[43.58604,43.57183]],[[43.57265,43.59826],[43.57303,43.59788]],[[43.57346,43.59701],[43.57304,43.59746]],[[43.57879,43.58615],[43.57895,43.58619]],[[43.58604,43.57183],[43.58622,43.5719]],[[43.58604,43.57183],[43.58952,43.56682],[43.59143,43.56255],[43.5962,43.5534],[43.60918,43.52613],[43.61274,43.52006]],[[43.61328,43.5203],[43.60946,43.5261],[43.59413,43.55802],[43.58963,43.56687],[43.58622,43.5719]],[[43.61328,43.5203],[43.61274,43.52006]],[[43.61274,43.52006],[43.61306,43.51967]],[[43.61306,43.51967],[43.62145,43.508],[43.62296,43.50392],[43.62356,43.503],[43.625,43.50182],[43.63649,43.49392],[43.63807,43.49259],[43.64209,43.48842],[43.64435,43.48336]],[[43.61306,43.51967],[43.61321,43.51966],[43.61336,43.51969],[43.61358,43.51985]],[[43.61358,43.51985],[43.61328,43.5203]],[[43.645,43.4835],[43.64211,43.48855],[43.63784,43.49293],[43.63668,43.4939],[43.62369,43.50299],[43.62163,43.50787],[43.61358,43.51985]],[[43.645,43.4835],[43.64435,43.48336]],[[43.64435,43.48336],[43.64486,43.48292]],[[43.64486,43.48292],[43.64508,43.48346]],[[43.64486,43.48292],[43.64813,43.48231],[43.66573,43.48534]],[[43.64508,43.48346],[43.645,43.4835]],[[43.66567,43.48551],[43.6479,43.48248],[43.64508,43.48346]],[[43.66072,43.66065],[43.66115,43.66132],[43.66166,43.66256],[43.66225,43.66636]],[[43.66225,43.66636],[43.66072,43.66065]],[[43.69743,43.69397],[43.69682,43.68962],[43.69353,43.68555],[43.6673,43.67268],[43.66385,43.66958],[43.66225,43.66636]],[[43.6869,43.49093],[43.67708,43.48758],[43.66567,43.48551]],[[43.66567,43.48551],[43.66573,43.48534]],[[43.66573,43.48534],[43.67803,43.48764],[43.68222,43.48908],[43.68542,43.4902],[43.68695,43.49073],[43.68703,43.49076],[43.68826,43.49119],[43.6932,43.49274],[43.71501,43.50045],[43.71729,43.50111],[43.73849,43.5042],[43.74891,43.50108]],[[43.74891,43.50108],[43.74179,43.50436],[43.73597,43.50449],[43.71812,43.50156],[43.71636,43.5012],[43.71542,43.50089],[43.70251,43.49639],[43.69344,43.49322],[43.6869,43.49093]],[[43.6869,43.49093],[43.68703,43.49076]],[[43.69365,43.4929],[43.69344,43.49322]],[[43.69762,43.69556],[43.6968,43.69477]],[[43.6968,43.69477],[43.69743,43.69397]],[[43.6968,43.69477],[43.69727,43.69466],[43.69772,43.6948]],[[43.69743,43.69397],[43.69772,43.6948]],[[43.69914,43.69576],[43.69762,43.69556]],[[43.6979,43.695],[43.69762,43.69556]],[[43.69772,43.6948],[43.6979,43.695]],[[43.6979,43.695],[43.69914,43.69576]],[[43.97726,43.74089],[43.96054,43.73354],[43.94052,43.72731],[43.91039,43.72523],[43.86273,43.72814],[43.84579,43.71867],[43.79609,43.714],[43.76782,43.70768],[43.69914,43.69576]],[[43.71821,43.50126],[43.71812,43.50156]],[[43.72328,43.50208],[43.72318,43.50238]],[[43.74891,43.50108],[43.75704,43.49757],[43.76391,43.49648]],[[43.98153,43.78196],[43.85921,43.83379],[43.83434,43.83904],[43.82341,43.8486],[43.75123,43.87896]],[[43.76391,43.49648],[43.78927,43.49198]],[[43.78927,43.49198],[43.78979,43.49189]],[[43.79229,43.49651],[43.79173,43.49272],[43.79061,43.49205],[43.79014,43.49199],[43.78975,43.49197],[43.78927,43.49198]],[[43.78979,43.49189],[43.79923,43.48989]],[[43.78979,43.49189],[43.79875,43.49186]],[[43.79875,43.49186],[43.79842,43.49089],[43.79678,43.49155]],[[43.80088,43.48915],[43.79875,43.49186]],[[43.97627,43.75455],[43.97643,43.75619]],[[43.97643,43.75619],[43.97622,43.75499],[43.97627,43.75455]],[[43.97627,43.75455],[43.97838,43.74238]],[[43.99346,43.77525],[43.99213,43.77129],[43.97899,43.76661],[43.97643,43.75619]],[[43.97726,43.74089],[43.97834,43.7413]],[[43.97798,43.74154],[43.97726,43.74089]],[[43.97809,43.74171],[43.97798,43.74154]],[[43.97798,43.74154],[43.97834,43.7413]],[[43.97858,43.74165],[43.97835,43.74176],[43.97809,43.74171]],[[43.97838,43.74238],[43.97809,43.74171]],[[43.97834,43.7413],[43.97858,43.74165]],[[43.97858,43.74165],[43.97838,43.74238]],[[43.98153,43.78196],[43.98496,43.77956]],[[43.98603,43.78006],[43.98153,43.78196]],[[43.98496,43.77956],[43.98603,43.78006]],[[43.98496,43.77956],[43.98684,43.77836]],[[43.99332,43.777],[43.99106,43.77791],[43.98603,43.78006]],[[43.98684,43.77836],[43.98856,43.77749],[43.99374,43.7763]],[[44.04225,43.76555],[44.01304,43.77023],[43.99649,43.77709],[43.99468,43.77741],[43.99048,43.77744],[43.98973,43.7775],[43.98684,43.77836]],[[43.99332,43.777],[43.99374,43.7763]],[[43.99435,43.77653],[43.99332,43.777]],[[43.99346,43.77525],[43.99446,43.77595]],[[43.99374,43.7763],[43.99346,43.77525]],[[43.99435,43.77653],[43.99391,43.77648],[43.99377,43.77635],[43.99374,43.7763],[43.99373,43.77623],[43.99373,43.77616],[43.99446,43.77595]],[[43.99446,43.77595],[43.99435,43.77653]],[[44.04225,43.76555],[44.04353,43.76521]],[[44.04354,43.76549],[44.04225,43.76555]],[[44.04392,43.7652],[44.0454,43.76493]],[[44.04397,43.76545],[44.04368,43.76554],[44.04356,43.76551],[44.04354,43.76549],[44.04349,43.76544],[44.04346,43.76532],[44.04397,43.76545]],[[44.0454,43.76493],[44.04397,43.76545]],[[44.22497,43.7789],[44.22439,43.78017],[44.19235,43.78434],[44.16965,43.78721],[44.15912,43.78737],[44.09197,43.765],[44.08161,43.75929],[44.07834,43.75553],[44.06251,43.7643],[44.0454,43.76493]],[[44.22497,43.7789],[44.22506,43.77825]],[[44.22607,43.77834],[44.22497,43.7789]],[[44.22551,43.77819],[44.22506,43.77825]],[[44.22506,43.77825],[44.22526,43.77813],[44.22551,43.77819]],[[44.22551,43.77819],[44.22607,43.77834]],[[44.33742,43.76346],[44.22607,43.77834]]]}},{"type":"Feature","properties":{"roadClass":"secondary"},"geometry":{"type":"MultiLineString","coordinates":[[[43.51329,43.72931],[43.51455,43.72769],[43.51418,43.72563]],[[43.51418,43.72563],[43.51669,43.72576]],[[43.51418,43.72563],[43.51463,43.72368],[43.51816,43.72344]],[[43.52103,43.72283],[43.51524,43.72781]],[[43.51763,43.72122],[43.51989,43.72233],[43.52214,43.72162]],[[43.52103,43.72283],[43.51959,43.72341],[43.51816,43.72344]],[[43.51816,43.72344],[43.52189,43.72198]],[[43.52189,43.72198],[43.52103,43.72283]],[[43.52189,43.72198],[43.52214,43.72162]],[[43.53414,43.6862],[43.52214,43.72162]],[[43.53414,43.6862],[43.53418,43.68577]],[[43.53433,43.68594],[43.53414,43.6862]],[[43.53441,43.68582],[43.53418,43.68577]],[[43.53418,43.68577],[43.53439,43.68533]],[[43.53441,43.68582],[43.53433,43.68594]],[[43.53462,43.68588],[43.53433,43.68594]],[[43.53439,43.68533],[43.53465,43.68489]],[[43.53439,43.68533],[43.53448,43.68533],[43.53459,43.68542]],[[43.53462,43.68588],[43.53441,43.68582]],[[43.5346,43.68554],[43.53441,43.68582]],[[43.53459,43.68542],[43.5346,43.68554]],[[43.53465,43.68489],[43.53459,43.68542]],[[43.5346,43.68554],[43.53498,43.68593]],[[43.53498,43.68593],[43.53462,43.68588]],[[43.5355,43.67726],[43.53465,43.68489]],[[43.69558,43.69512],[43.68612,43.69347],[43.67126,43.68855],[43.62204,43.68456],[43.5844,43.68312],[43.54406,43.68812],[43.53498,43.68593]],[[43.5355,43.67726],[43.5357,43.67624],[43.54085,43.66552]],[[43.54085,43.66552],[43.5355,43.67726]],[[43.54791,43.64818],[43.54085,43.66552]],[[43.55009,43.64351],[43.54955,43.6415],[43.54665,43.64102]],[[43.54791,43.64818],[43.55009,43.64351]],[[43.55035,43.64334],[43.54791,43.64818]],[[43.55048,43.64226],[43.54845,43.63935],[43.54868,43.63749]],[[43.54868,43.63749],[43.54981,43.63668],[43.55317,43.63581],[43.5547,43.63431]],[[43.5512,43.63879],[43.55089,43.63729],[43.54868,43.63749]],[[43.55009,43.64351],[43.55048,43.64226]],[[43.55048,43.64226],[43.55035,43.64334]],[[43.55384,43.63647],[43.55035,43.64334]],[[43.57264,43.47201],[43.57262,43.47175]],[[43.57262,43.47175],[43.57268,43.47146]],[[43.57262,43.47175],[43.57271,43.47171],[43.57283,43.47175]],[[43.57286,43.47199],[43.57274,43.47204],[43.57264,43.47201]],[[43.57277,43.47231],[43.57264,43.47201]],[[43.57268,43.47146],[43.57283,43.47175]],[[43.57268,43.47146],[43.57241,43.46589],[43.57484,43.46338],[43.58619,43.47084]],[[43.57277,43.47231],[43.57421,43.47613]],[[43.57286,43.47199],[43.57277,43.47231]],[[43.57283,43.47175],[43.57286,43.47199]],[[43.57407,43.47668],[43.56876,43.48348],[43.57952,43.49173]],[[43.57407,43.47668],[43.57437,43.47641]],[[43.57453,43.47656],[43.57407,43.47668]],[[43.57421,43.47613],[43.57452,43.47625]],[[43.57437,43.47638],[43.57421,43.47613]],[[43.57453,43.47656],[43.57437,43.47641]],[[43.57437,43.47641],[43.57437,43.47638]],[[43.57437,43.47638],[43.57452,43.47625]],[[43.57452,43.47625],[43.5748,43.47641]],[[43.57465,43.47655],[43.57461,43.47656],[43.57453,43.47656]],[[43.57496,43.47665],[43.57465,43.47655]],[[43.5748,43.47641],[43.57465,43.47655]],[[43.5748,43.47641],[43.57496,43.47665]],[[43.57496,43.47665],[43.57671,43.4778]],[[43.57671,43.4778],[43.57716,43.4779]],[[43.57706,43.47811],[43.57671,43.4778]],[[43.57722,43.4782],[43.57706,43.47811]],[[43.57706,43.47811],[43.57716,43.4779]],[[43.57716,43.4779],[43.57728,43.47788]],[[43.57748,43.47807],[43.57738,43.47817],[43.5773,43.4782],[43.57726,43.4782],[43.57722,43.4782]],[[43.57763,43.4784],[43.57722,43.4782]],[[43.57728,43.47788],[43.57747,43.478]],[[43.57728,43.47788],[43.57758,43.47778]],[[43.57747,43.478],[43.57748,43.47807]],[[43.57758,43.47778],[43.57747,43.478]],[[43.57748,43.47807],[43.57763,43.4784]],[[43.58619,43.47084],[43.57758,43.47778]],[[43.57763,43.4784],[43.60403,43.4958]],[[43.57952,43.49173],[43.58008,43.4922]],[[43.57964,43.49234],[43.57952,43.49173]],[[43.57987,43.49277],[43.57964,43.49234]],[[43.57964,43.49234],[43.58008,43.4922]],[[43.58031,43.493],[43.57987,43.49277]],[[43.58014,43.49261],[43.57987,43.49277]],[[43.58008,43.4922],[43.58014,43.49261]],[[43.58014,43.49261],[43.58031,43.493]],[[43.58998,43.50049],[43.58031,43.493]],[[43.58619,43.47084],[43.5947,43.47643]],[[43.58998,43.50049],[43.59464,43.50073]],[[43.59477,43.50097],[43.58998,43.50049]],[[43.59477,43.50097],[43.59464,43.50073]],[[43.59464,43.50073],[43.59501,43.50077]],[[43.5947,43.47643],[43.60287,43.48181]],[[43.60516,43.47981],[43.59764,43.4741],[43.5947,43.47643]],[[43.5949,43.50096],[43.59486,43.50097],[43.59482,43.50097],[43.59477,43.50097]],[[43.5954,43.50104],[43.5949,43.50096]],[[43.59501,43.50077],[43.5949,43.50096]],[[43.59501,43.50077],[43.5954,43.50104]],[[43.61235,43.52026],[43.6094,43.51958],[43.60351,43.51556],[43.60437,43.50707],[43.5954,43.50104]],[[43.61564,43.49025],[43.60287,43.48181]],[[43.60516,43.47981],[43.60287,43.48181]],[[43.60403,43.4958],[43.61157,43.50065]],[[43.60975,43.49255],[43.60793,43.49262],[43.60403,43.4958]],[[43.61866,43.48904],[43.60516,43.47981]],[[43.60516,43.47981],[43.6071,43.47755],[43.61066,43.47594]],[[43.60975,43.49255],[43.61162,43.49814],[43.61183,43.50065]],[[43.61157,43.50065],[43.60975,43.49255]],[[43.61564,43.49025],[43.60975,43.49255]],[[43.61066,43.47594],[43.6108,43.47566]],[[43.61106,43.4758],[43.61066,43.47594]],[[43.61106,43.4758],[43.6108,43.47566]],[[43.6108,43.47566],[43.61141,43.47552]],[[43.61123,43.47579],[43.61106,43.4758]],[[43.61141,43.47552],[43.61123,43.47579]],[[43.61185,43.47587],[43.61153,43.47579],[43.61123,43.47579]],[[43.61141,43.47552],[43.61185,43.47587]],[[43.61278,43.51983],[43.61157,43.50065]],[[43.61157,43.50065],[43.61183,43.50065]],[[43.61183,43.50065],[43.61336,43.51969]],[[43.61183,43.50065],[43.61704,43.50057],[43.62064,43.50291]],[[43.62695,43.47762],[43.61185,43.47587]],[[43.61314,43.52031],[43.61235,43.52026]],[[43.61235,43.52026],[43.61272,43.52]],[[43.61866,43.48904],[43.61564,43.49025]],[[43.62189,43.48742],[43.61866,43.48904]],[[43.62064,43.50291],[43.62106,43.50312]],[[43.6208,43.50322],[43.62064,43.50291]],[[43.62106,43.50343],[43.6208,43.50322]],[[43.6208,43.50322],[43.62106,43.50312]],[[43.62106,43.50312],[43.62121,43.50322]],[[43.62165,43.50348],[43.62106,43.50343]],[[43.62121,43.50322],[43.62106,43.50343]],[[43.62121,43.50322],[43.62165,43.50348]],[[43.62165,43.50348],[43.63252,43.50582],[43.63515,43.50756]],[[43.62189,43.48742],[43.63236,43.49792]],[[43.6274,43.47828],[43.62443,43.48461],[43.62189,43.48742]],[[43.62695,43.47762],[43.62767,43.47774]],[[43.62732,43.47791],[43.62695,43.47762]],[[43.62768,43.47815],[43.62738,43.47808]],[[43.6274,43.47828],[43.62738,43.47808]],[[43.62738,43.47808],[43.62732,43.47797],[43.62732,43.47791],[43.62735,43.47785],[43.62767,43.47774]],[[43.62768,43.47815],[43.6274,43.47828]],[[43.62767,43.47774],[43.62775,43.47777]],[[43.62784,43.47807],[43.62768,43.47815]],[[43.62775,43.47777],[43.62849,43.47799]],[[43.62775,43.47777],[43.62784,43.47807]],[[43.62849,43.47799],[43.62784,43.47807]],[[43.64373,43.48326],[43.62849,43.47799]],[[43.63236,43.49792],[43.65727,43.52195],[43.66455,43.52634],[43.66607,43.52769],[43.66696,43.52881]],[[43.66662,43.52886],[43.66436,43.52633],[43.65745,43.52224],[43.63236,43.49792]],[[43.63692,43.4936],[43.66291,43.50469]],[[43.64444,43.48346],[43.64373,43.48326]],[[43.64373,43.48326],[43.64444,43.48301]],[[43.66087,43.67896],[43.66182,43.67502],[43.66503,43.67137]],[[43.66291,43.50469],[43.66362,43.5044],[43.66454,43.5048]],[[43.66454,43.5048],[43.66291,43.50469]],[[43.66454,43.5048],[43.7322,43.53086],[43.73795,43.53177],[43.74231,43.53493]],[[43.66503,43.67137],[43.665,43.67085]],[[43.66578,43.67156],[43.66528,43.67136],[43.66503,43.67137]],[[43.66681,43.52907],[43.66662,43.52886]],[[43.66662,43.52886],[43.66696,43.52881]],[[43.66739,43.52942],[43.66681,43.52907]],[[43.66701,43.5289],[43.66681,43.52907]],[[43.66696,43.52881],[43.66701,43.5289]],[[43.66701,43.5289],[43.66739,43.52942]],[[43.66739,43.52942],[43.67389,43.53969],[43.6952,43.55409],[43.70201,43.56183],[43.71245,43.56459]],[[43.69667,43.69542],[43.69558,43.69512]],[[43.69558,43.69512],[43.69665,43.69491]],[[43.71245,43.56459],[43.71493,43.56508]],[[43.71488,43.56518],[43.71245,43.56459]],[[43.71868,43.56631],[43.71488,43.56518]],[[43.71648,43.56929],[43.7173,43.56754],[43.71488,43.56518]],[[43.71493,43.56508],[43.72016,43.56449],[43.72179,43.563]],[[43.71493,43.56508],[43.71875,43.56621]],[[43.72426,43.56719],[43.71649,43.56948]],[[43.71868,43.56631],[43.71719,43.56674],[43.71867,43.56704]],[[43.71976,43.56657],[43.71868,43.56631]],[[43.71875,43.56621],[43.71986,43.56645]],[[43.71942,43.56611],[43.7187,43.56509],[43.71875,43.56621]],[[43.71927,43.56658],[43.71977,43.56773],[43.72047,43.56728],[43.71976,43.56657]],[[43.71986,43.56645],[43.7214,43.56589],[43.71964,43.56611]],[[43.72426,43.56719],[43.71976,43.56657]],[[43.71986,43.56645],[43.7255,43.56738]],[[43.72193,43.5631],[43.72128,43.56529],[43.72419,43.56706]],[[43.7255,43.56738],[43.72426,43.56719]],[[43.7255,43.56738],[43.76166,43.5781],[43.77693,43.58041],[43.81855,43.59767]],[[43.7411,43.53394],[43.74207,43.53416],[43.74254,43.53502]],[[43.74165,43.53442],[43.74207,43.53416],[43.74285,43.53369],[43.74354,43.53355]],[[43.74231,43.53493],[43.74436,43.536]],[[43.74436,43.536],[43.74337,43.53568],[43.74231,43.53493]],[[43.74354,43.53355],[43.74534,43.53284]],[[43.74368,43.53491],[43.74354,43.53355]],[[43.74547,43.53435],[43.74418,43.53453]],[[43.74436,43.536],[43.74471,43.53615],[43.74563,43.53653],[43.75014,43.53831],[43.75694,43.54089],[43.76104,43.54155],[43.78118,43.53868],[43.78866,43.53859],[43.83654,43.55555]],[[43.74471,43.53615],[43.74547,43.53435]],[[43.74541,43.53298],[43.74547,43.53435]],[[43.79477,43.49985],[43.79328,43.49781],[43.79054,43.49919]],[[43.79276,43.49423],[43.79182,43.49287]],[[43.79276,43.49423],[43.79484,43.49842]],[[43.79337,43.49313],[43.79276,43.49423]],[[43.79366,43.49456],[43.79337,43.49313]],[[43.79337,43.49313],[43.79618,43.49179]],[[43.79477,43.49985],[43.79525,43.50125]],[[43.79484,43.49842],[43.79477,43.49985]],[[43.79491,43.49325],[43.79402,43.49507],[43.79484,43.49842]],[[43.79525,43.50125],[43.79816,43.50299]],[[43.79525,43.50125],[43.79586,43.50273],[43.79816,43.50299]],[[43.8207,43.5075],[43.81697,43.50409],[43.79816,43.50299]],[[43.81855,43.59767],[43.82071,43.59743]],[[43.81954,43.59815],[43.81855,43.59767]],[[43.81993,43.59806],[43.81967,43.5982],[43.81954,43.59815],[43.81949,43.59805],[43.81993,43.59806]],[[43.82071,43.59743],[43.81993,43.59806]],[[43.8207,43.5075],[43.82202,43.50869]],[[43.82188,43.50885],[43.8207,43.5075]],[[43.82071,43.59743],[43.82498,43.59453],[43.82947,43.59377],[43.8428,43.59924]],[[43.82194,43.50892],[43.82188,43.50885]],[[43.82188,43.50885],[43.82202,43.50869]],[[43.82223,43.50881],[43.82212,43.50893],[43.82194,43.50892]],[[43.82295,43.51],[43.82194,43.50892]],[[43.82202,43.50869],[43.82223,43.50881]],[[43.82202,43.50869],[43.82231,43.50817]],[[43.82223,43.50881],[43.82295,43.51]],[[43.82231,43.50817],[43.82223,43.50881]],[[43.82231,43.50817],[43.83063,43.47431],[43.8299,43.47347]],[[43.84072,43.54629],[43.84229,43.53996],[43.84525,43.53656],[43.83636,43.52469],[43.82295,43.51]],[[43.83107,43.47285],[43.83066,43.47414]],[[43.8483,43.55951],[43.83654,43.55555]],[[43.83654,43.55555],[43.8384,43.55951],[43.84755,43.56347]],[[43.83654,43.55555],[43.84072,43.54629]],[[43.84072,43.54629],[43.85102,43.55232],[43.85512,43.55814],[43.85366,43.55867]],[[43.8428,43.59924],[43.84335,43.59932]],[[43.84315,43.59955],[43.8428,43.59924]],[[43.84345,43.5993],[43.84384,43.5991]],[[43.84423,43.59984],[43.84354,43.59973]],[[43.84384,43.5991],[43.84371,43.59943]],[[43.84374,43.59946],[43.84423,43.59984]],[[43.84384,43.5991],[43.84667,43.59572],[43.84379,43.58565],[43.84755,43.56347]],[[43.84423,43.59984],[43.86878,43.61374],[43.8735,43.61739],[43.87843,43.62366],[43.91052,43.64143],[43.99947,43.6534],[44.00563,43.65561],[44.01377,43.6631],[44.03444,43.67075],[44.05628,43.67143],[44.07185,43.66796],[44.07771,43.66449],[44.08123,43.66365]],[[43.8483,43.55951],[43.84755,43.56347]],[[43.85228,43.55909],[43.84894,43.55854],[43.8483,43.55951]],[[43.85302,43.55913],[43.85228,43.55909]],[[43.85228,43.55909],[43.85297,43.55892]],[[43.85302,43.55913],[43.85297,43.55892]],[[43.85297,43.55892],[43.85302,43.5589]],[[43.85302,43.5589],[43.85366,43.55867]],[[43.85302,43.5589],[43.8531,43.55889],[43.85319,43.55892],[43.85323,43.55906]],[[43.85323,43.55906],[43.85314,43.55913],[43.85308,43.55913],[43.85302,43.55913]],[[43.85366,43.55867],[43.85323,43.55906]],[[43.90125,43.41713],[43.90673,43.42052],[43.92821,43.43836],[43.93488,43.43722],[43.93861,43.43787],[43.9866,43.45835],[44.00428,43.46237],[44.01263,43.46681],[44.03487,43.47069],[44.04612,43.47694],[44.05639,43.48649],[44.05915,43.49549],[44.0608,43.49724],[44.06541,43.49536],[44.06687,43.48713],[44.06895,43.48263],[44.08115,43.48414]],[[43.97688,43.75853],[44.01105,43.76033],[44.02755,43.75765],[44.02819,43.75664],[44.03814,43.75391]],[[43.99192,43.7712],[43.99247,43.77095]],[[43.99278,43.77185],[43.99247,43.77095]],[[43.99247,43.77095],[43.99384,43.75958]],[[44.03814,43.75391],[44.0391,43.7555],[44.03781,43.75629],[44.03867,43.758],[44.04358,43.76102],[44.04374,43.76463]],[[44.03814,43.75391],[44.05342,43.74752],[44.07049,43.7429]],[[44.0436,43.76517],[44.04374,43.76463]],[[44.04374,43.76463],[44.04389,43.76518]],[[44.46383,44.02819],[44.37467,43.9934],[44.36666,43.9922],[44.33924,43.99212],[44.30359,43.98126],[44.29102,43.98073],[44.2372,43.97025],[44.21479,43.97442],[44.16968,43.97817],[44.16512,43.97988],[44.15178,43.98863],[44.13211,43.99284],[44.04512,44.00225]],[[44.07049,43.7429],[44.07103,43.74276]],[[44.07096,43.74289],[44.07049,43.7429]],[[44.07071,43.74283],[44.07154,43.74234]],[[44.07834,43.75553],[44.0754,43.75046],[44.06899,43.74512],[44.07083,43.74336]],[[44.07083,43.74336],[44.07099,43.74293]],[[44.07124,43.74293],[44.07083,43.74336]],[[44.07099,43.74293],[44.07096,43.74289]],[[44.07096,43.74289],[44.07103,43.74276]],[[44.07124,43.74293],[44.07111,43.74298],[44.07099,43.74293]],[[44.07103,43.74276],[44.07212,43.74193],[44.07298,43.741],[44.0737,43.73951],[44.07343,43.73149],[44.07702,43.71686],[44.0783,43.71529],[44.08423,43.71102],[44.08582,43.70798],[44.0824,43.67161],[44.08244,43.66885],[44.08242,43.66556],[44.0824,43.6638],[44.08241,43.6628],[44.0824,43.66178],[44.08243,43.66042],[44.08234,43.65959]],[[44.07103,43.74276],[44.07112,43.74274],[44.07123,43.74278],[44.07124,43.74293]],[[44.08256,43.66142],[44.08261,43.66253],[44.08259,43.66337],[44.08258,43.66479],[44.08261,43.66738],[44.08257,43.67163],[44.08593,43.70834],[44.08432,43.71111],[44.07719,43.71688],[44.07361,43.73154],[44.07397,43.73928],[44.0732,43.74084],[44.07124,43.74293]],[[44.08115,43.48414],[44.08261,43.4836]],[[44.08301,43.48404],[44.08115,43.48414]],[[44.08242,43.66556],[44.08123,43.66365]],[[44.08123,43.66365],[44.0824,43.66178]],[[44.08372,43.66202],[44.08407,43.66317],[44.08363,43.66334],[44.08345,43.66337],[44.08311,43.66341],[44.08204,43.66354],[44.08123,43.66365]],[[44.08174,43.65899],[44.08257,43.65937]],[[44.08232,43.65955],[44.08174,43.65899]],[[44.08634,43.63238],[44.08375,43.63729],[44.07248,43.64003],[44.0781,43.65533],[44.08174,43.65899]],[[44.08234,43.65959],[44.08232,43.65955]],[[44.08232,43.65955],[44.08257,43.65937]],[[44.0827,43.65967],[44.08234,43.65959]],[[44.08256,43.66142],[44.08372,43.66202]],[[44.0827,43.65967],[44.08256,43.66142]],[[44.08257,43.65937],[44.08263,43.65938]],[[44.08301,43.48404],[44.08261,43.4836]],[[44.08261,43.4836],[44.0836,43.48349],[44.08356,43.48389],[44.08328,43.48404],[44.08314,43.48405],[44.08301,43.48404]],[[44.08372,43.66202],[44.08261,43.66253]],[[44.08263,43.65938],[44.08279,43.65957]],[[44.08263,43.65938],[44.08354,43.65903]],[[44.08279,43.65957],[44.0827,43.65967]],[[44.08354,43.65903],[44.08279,43.65957]],[[44.08444,43.48402],[44.08341,43.484]],[[44.08634,43.63238],[44.09255,43.65149],[44.09068,43.65433],[44.08354,43.65903]],[[44.08366,43.48368],[44.08444,43.48402]],[[44.08444,43.48402],[44.08951,43.4847],[44.10702,43.49044],[44.11514,43.49668],[44.11593,43.49712],[44.12135,43.49974],[44.12261,43.50034],[44.12436,43.50117],[44.1257,43.50179]],[[44.12225,43.50377],[44.11413,43.52178],[44.11888,43.5354],[44.12027,43.54327],[44.11719,43.56903],[44.11853,43.57667],[44.11479,43.58142],[44.1228,43.59551],[44.12293,43.6046],[44.13653,43.62768],[44.12383,43.62969],[44.10009,43.62129],[44.08864,43.62403],[44.08634,43.63238]],[[44.12225,43.50377],[44.12263,43.50218]],[[44.1231,43.50238],[44.12225,43.50377]],[[44.12267,43.502],[44.12305,43.50109],[44.12321,43.50077],[44.12331,43.50057],[44.12339,43.50041]],[[44.12964,43.50291],[44.12522,43.50263],[44.12364,43.50235],[44.12354,43.50234],[44.1232,43.50234]],[[44.12374,43.50062],[44.12364,43.5007],[44.1236,43.50075],[44.12353,43.50087],[44.12324,43.50152],[44.12329,43.50198]],[[44.12334,43.50205],[44.1257,43.50179]],[[44.12348,43.50025],[44.12423,43.49936]],[[44.12443,43.50074],[44.12385,43.50059]],[[44.12423,43.49936],[44.12397,43.50032]],[[44.124,43.50041],[44.12443,43.50074]],[[44.1558,43.48751],[44.13249,43.4817],[44.12423,43.49936]],[[44.12443,43.50074],[44.12745,43.50172]],[[44.1257,43.50179],[44.12689,43.50223]],[[44.12689,43.50223],[44.12745,43.50172]],[[44.12689,43.50223],[44.12964,43.50291]],[[44.12745,43.50172],[44.13412,43.50396]],[[44.12964,43.50291],[44.13412,43.50396]],[[44.13412,43.50396],[44.13906,43.50316],[44.15291,43.48956],[44.15779,43.48761]],[[44.1558,43.48751],[44.15779,43.48761]],[[44.1558,43.48751],[44.15604,43.48786]],[[44.15582,43.48814],[44.1558,43.48751]],[[44.15779,43.48761],[44.16216,43.48724]],[[44.16216,43.48724],[44.17255,43.48879],[44.19221,43.4945],[44.20979,43.49682],[44.24447,43.4881],[44.27907,43.49148],[44.28887,43.4943],[44.32229,43.51021],[44.33299,43.51894],[44.34039,43.51984],[44.34986,43.53388],[44.35243,43.53547],[44.35993,43.53688],[44.37075,43.53647],[44.3852,43.54252],[44.39749,43.54513],[44.4074,43.53721],[44.41023,43.53613],[44.42554,43.54015],[44.43265,43.53944],[44.44492,43.54105]],[[44.16216,43.48724],[44.164,43.4691],[44.17325,43.45448],[44.19213,43.41572],[44.20165,43.38348],[44.20149,43.38259],[44.19347,43.38027],[44.19447,43.37661],[44.19295,43.37515],[44.19778,43.36281]],[[43.84316,43.59959],[43.84315,43.59955],[43.84315,43.59953],[43.84316,43.59946],[43.8432,43.5994],[43.84345,43.5993],[43.84375,43.59952],[43.84316,43.59959]],[[44.12328,43.50228],[44.12286,43.50237],[44.12263,43.50209],[44.12267,43.502],[44.12275,43.50193],[44.1231,43.50188],[44.12328,43.50228]],[[44.1234,43.50046],[44.12345,43.50028],[44.12348,43.50025],[44.12353,43.50022],[44.12364,43.50019],[44.124,43.50038],[44.1234,43.50046]]]}},{"type":"Feature","properties":{"roadClass":"tertiary"},"geometry":{"type":"MultiLineString","coordinates":[[[42.47892,43.26626],[42.48245,43.26636],[42.48751,43.26267],[42.49674,43.25992]],[[42.65859,43.79765],[42.65835,43.79496],[42.65538,43.79124],[42.66101,43.79417],[42.66109,43.79201],[42.66555,43.79482],[42.66186,43.78705],[42.66087,43.78104],[42.66229,43.77911],[42.66156,43.77677],[42.66478,43.77387],[42.6659,43.76171],[42.6733,43.74776],[42.67705,43.74493],[42.67685,43.74059],[42.68032,43.73702],[42.68086,43.7349],[42.68043,43.72982],[42.67945,43.73221],[42.67844,43.73014],[42.67958,43.72727],[42.68177,43.72764],[42.67852,43.72291],[42.68036,43.71918],[42.68066,43.7149],[42.67704,43.7116],[42.67712,43.70904],[42.67875,43.70751],[42.67861,43.70538],[42.67594,43.70437],[42.67727,43.70238],[42.67607,43.7015],[42.67611,43.70252],[42.67353,43.70011],[42.67476,43.69684],[42.6786,43.69462],[42.67872,43.69238],[42.68094,43.69114],[42.67881,43.68652],[42.68214,43.68688],[42.6777,43.68391],[42.684,43.68617],[42.68527,43.68574],[42.68497,43.68448],[42.68425,43.68544],[42.67864,43.68074],[42.67561,43.67988],[42.66672,43.68094],[42.66092,43.6743],[42.65621,43.67381],[42.65667,43.6715],[42.6539,43.66693],[42.64997,43.66714],[42.63814,43.66312],[42.63408,43.66306],[42.63477,43.65787],[42.63278,43.65532],[42.62922,43.65335],[42.62606,43.64452],[42.62016,43.63988],[42.61489,43.63811],[42.61397,43.63428],[42.60677,43.62695],[42.6022,43.6199],[42.59413,43.6177],[42.58179,43.6205],[42.58219,43.61523],[42.57563,43.60784],[42.57174,43.60549],[42.57248,43.60426],[42.57787,43.60385],[42.57784,43.59903],[42.57584,43.59853],[42.57638,43.59296],[42.58212,43.58792],[42.5834,43.5823],[42.58536,43.57988],[42.58068,43.57825],[42.57676,43.57957],[42.57715,43.57264],[42.57855,43.57389],[42.57814,43.56867],[42.57654,43.56905],[42.57711,43.56559],[42.57568,43.56358],[42.57878,43.56462],[42.58361,43.56941],[42.58551,43.5696],[42.5829,43.56696],[42.58157,43.56171],[42.57684,43.55767],[42.56758,43.55651],[42.56704,43.54968],[42.56336,43.54399],[42.56324,43.54117],[42.56501,43.53772],[42.56417,43.53468],[42.56078,43.53111],[42.55474,43.52926],[42.54048,43.51759],[42.53529,43.51138],[42.53442,43.50754],[42.53106,43.50533],[42.53075,43.50213],[42.53201,43.49841],[42.52755,43.49583],[42.5262,43.49261],[42.52733,43.48447],[42.5288,43.48143],[42.5249,43.47718],[42.5249,43.47212],[42.53127,43.4713],[42.53316,43.46891],[42.53093,43.4677],[42.53558,43.46652],[42.53563,43.46289],[42.53905,43.46306],[42.53973,43.46417],[42.53995,43.46189],[42.54113,43.46301],[42.54144,43.46164],[42.54325,43.46194],[42.54199,43.46057],[42.54618,43.46087],[42.54484,43.45948],[42.54766,43.45938],[42.54515,43.45727],[42.54847,43.45858],[42.55003,43.46122],[42.55019,43.45952],[42.5525,43.4608],[42.55097,43.45759],[42.55192,43.45817],[42.55277,43.45647],[42.55596,43.45614],[42.55656,43.45959],[42.55811,43.45564],[42.55757,43.45175],[42.55841,43.45274],[42.55995,43.44688],[42.55794,43.4428],[42.55308,43.43845],[42.55124,43.44001],[42.54831,43.43925],[42.54578,43.43651],[42.54246,43.4357],[42.53968,43.43704],[42.53837,43.43376],[42.53728,43.43481]],[[43.04834,43.73429],[43.04639,43.73691],[43.03784,43.73934],[43.01963,43.75075],[43.01481,43.75215],[43.01044,43.75783],[42.99924,43.76464],[42.95603,43.78478],[42.9469,43.78958],[42.94403,43.79261],[42.93222,43.79432],[42.92347,43.79808],[42.91967,43.79759],[42.90951,43.80107],[42.90833,43.80058],[42.90881,43.79824],[42.90297,43.7981],[42.8988,43.79621],[42.89213,43.7954],[42.88606,43.79707],[42.88138,43.79685],[42.87286,43.7996],[42.86844,43.7978],[42.86569,43.79508],[42.86496,43.78968],[42.86635,43.78802],[42.86571,43.78378],[42.8672,43.78214],[42.86447,43.78],[42.85629,43.77962],[42.85514,43.77701],[42.85879,43.77268],[42.8524,43.76948],[42.83043,43.7686],[42.82495,43.76632],[42.81567,43.76571],[42.80717,43.7623],[42.79859,43.76052],[42.7863,43.7586],[42.78272,43.75946],[42.76923,43.75777],[42.76251,43.75482],[42.73717,43.75221],[42.72632,43.75383],[42.71369,43.75194],[42.70938,43.7508],[42.69733,43.7442],[42.686,43.74582],[42.67845,43.7438],[42.67739,43.74252]],[[42.67745,43.74299],[42.67771,43.74295]],[[43.04834,43.73429],[43.04735,43.73312],[43.04156,43.73469],[43.02511,43.73616],[42.97191,43.73478],[42.9294,43.72925],[42.92929,43.72821],[42.92089,43.72529],[42.91171,43.72542]],[[43.20368,43.90232],[43.18704,43.89953],[43.16527,43.89271],[43.14762,43.89143],[43.11737,43.88581],[43.11549,43.88388],[43.10394,43.88208],[43.09048,43.88163],[43.05644,43.88415],[43.01755,43.88254]],[[43.0184,43.45944],[43.02727,43.45887],[43.02765,43.45405],[43.03042,43.44785],[43.03243,43.44587],[43.03311,43.44258],[43.03575,43.43961],[43.03551,43.4355],[43.03406,43.4327],[43.0345,43.42738],[43.03661,43.42341],[43.03655,43.42138],[43.04755,43.42531],[43.05069,43.42524],[43.05569,43.42449],[43.05943,43.42241],[43.06016,43.42013],[43.06471,43.42001],[43.06818,43.41767],[43.07144,43.41762],[43.07071,43.41693],[43.07345,43.41491],[43.07622,43.41687],[43.07574,43.41489],[43.08319,43.4158],[43.08447,43.4152],[43.084,43.41422],[43.08566,43.41427],[43.08438,43.41285],[43.08808,43.40916],[43.08877,43.40622],[43.09457,43.40236],[43.09663,43.39811],[43.10237,43.39517],[43.10828,43.3888],[43.10852,43.38963],[43.11275,43.38768],[43.11819,43.38687],[43.11718,43.38559],[43.1207,43.38509],[43.12511,43.37841],[43.1246,43.37643],[43.1256,43.37559],[43.13265,43.3756],[43.13471,43.37774],[43.1406,43.37861],[43.14185,43.38174],[43.1409,43.38385],[43.14933,43.383],[43.15309,43.37987],[43.15713,43.37307],[43.16172,43.3708],[43.16847,43.36955]],[[43.15577,43.72898],[43.12756,43.72325],[43.10413,43.72898],[43.06804,43.7279],[43.05239,43.73047],[43.05294,43.73257],[43.04834,43.73429]],[[43.18901,43.83353],[43.18141,43.83316],[43.16325,43.83702],[43.15105,43.83665],[43.15097,43.83415],[43.14858,43.83157],[43.13906,43.82769],[43.13671,43.82405],[43.11955,43.82242],[43.1167,43.8213],[43.11522,43.82226]],[[43.16847,43.36955],[43.16132,43.36038],[43.16431,43.35468],[43.16468,43.35113],[43.16302,43.34525],[43.16014,43.34075],[43.15188,43.33391],[43.14963,43.32956],[43.15241,43.32726],[43.1537,43.32326],[43.15233,43.32179],[43.15305,43.31931],[43.1506,43.31669],[43.15321,43.31329],[43.15626,43.3051],[43.15478,43.29453],[43.15244,43.28971],[43.15363,43.28692],[43.15366,43.27884],[43.15519,43.27361],[43.15106,43.26849],[43.15253,43.26212],[43.15403,43.26389],[43.15396,43.25828],[43.15069,43.25312],[43.14224,43.24652]],[[43.22896,43.588],[43.19011,43.59081],[43.1781,43.59472],[43.16329,43.59607],[43.15997,43.59721],[43.15844,43.59922],[43.15241,43.59997]],[[43.15296,43.93915],[43.1652,43.9434]],[[43.15577,43.72898],[43.15706,43.72918],[43.16316,43.73019],[43.16535,43.73059],[43.17268,43.73251],[43.18299,43.7382],[43.19281,43.742],[43.20875,43.74683],[43.23798,43.7573]],[[43.47127,43.84788],[43.46219,43.85133],[43.4599,43.85723],[43.42625,43.8549],[43.37028,43.83034],[43.36317,43.82089],[43.34879,43.8077],[43.34106,43.80288],[43.33403,43.80327],[43.32077,43.79661],[43.31936,43.79303],[43.29086,43.77559],[43.26792,43.76845],[43.24235,43.75784],[43.23596,43.75719],[43.23384,43.75681],[43.21658,43.75295],[43.21357,43.75211],[43.21273,43.75179],[43.20711,43.74951],[43.20597,43.74904],[43.20511,43.74876],[43.18989,43.74455],[43.15577,43.72898]],[[43.15706,43.72918],[43.15692,43.72943]],[[43.16847,43.36955],[43.17094,43.37422],[43.18147,43.37966],[43.1834,43.37944],[43.18548,43.38129],[43.19109,43.39093],[43.19131,43.39877],[43.19777,43.40688],[43.21118,43.41197],[43.21854,43.41725],[43.21995,43.41974],[43.23194,43.42373],[43.23216,43.43102],[43.23356,43.43203],[43.23183,43.43373],[43.23598,43.43572],[43.23869,43.4383],[43.24136,43.44378],[43.24764,43.44851],[43.24834,43.45186],[43.25228,43.45718],[43.25338,43.46126],[43.2565,43.46241],[43.25928,43.46689],[43.26909,43.47226],[43.27627,43.47474],[43.28733,43.48653],[43.29142,43.48875],[43.29363,43.49138],[43.29568,43.49932],[43.3036,43.50343],[43.30596,43.50733],[43.31381,43.51472],[43.32073,43.51734],[43.33364,43.51859],[43.35011,43.52504],[43.35553,43.52915],[43.35756,43.53323],[43.36076,43.5365],[43.36763,43.53902],[43.37478,43.53973],[43.37743,43.54202],[43.38871,43.54717],[43.39352,43.55126],[43.3964,43.55202],[43.40045,43.55742],[43.40302,43.5585],[43.43454,43.55983],[43.47029,43.56601],[43.55208,43.57303],[43.57811,43.57887],[43.58035,43.58077]],[[43.25291,43.86353],[43.24864,43.86121],[43.23694,43.86123],[43.23203,43.86014],[43.21812,43.85227],[43.21281,43.84494],[43.20809,43.84119],[43.18901,43.83353]],[[43.20875,43.74683],[43.20807,43.74773],[43.20762,43.74874],[43.20711,43.74951],[43.20656,43.7504],[43.20603,43.75141],[43.19138,43.74706],[43.18133,43.74917],[43.17573,43.75746],[43.17713,43.76069],[43.18036,43.7639],[43.17981,43.76513],[43.17515,43.76632],[43.17326,43.76857],[43.14973,43.77673],[43.14571,43.78089],[43.1541,43.78618],[43.14851,43.79661],[43.14918,43.7978],[43.17089,43.80847],[43.17792,43.81938],[43.18897,43.83068],[43.18901,43.83353]],[[43.20233,43.90392],[43.23229,43.90002],[43.23289,43.90191],[43.25469,43.902]],[[43.23694,43.86123],[43.23669,43.8586],[43.22954,43.85688],[43.23357,43.85186]],[[43.23686,43.75694],[43.2367,43.75726]],[[43.25343,43.90639],[43.25542,43.90218]],[[43.25646,43.90225],[43.25358,43.90643]],[[43.25532,43.90212],[43.25532,43.90189]],[[43.25561,43.90181],[43.25786,43.89852]],[[43.25668,43.90201],[43.25657,43.90222]],[[43.258,43.89856],[43.25664,43.90194]],[[43.25723,43.9023],[43.27144,43.90618]],[[43.31689,43.80637],[43.31159,43.80168],[43.30917,43.80294],[43.30568,43.80156],[43.28319,43.78713],[43.25855,43.77413]],[[43.27629,43.69307],[43.30685,43.70729],[43.31018,43.70993],[43.31861,43.71282],[43.32553,43.72075],[43.34505,43.73561],[43.35059,43.74415],[43.35329,43.74577],[43.35302,43.74889],[43.35616,43.7535],[43.35618,43.75586],[43.36313,43.76152],[43.37242,43.76679],[43.372,43.7695],[43.37356,43.77261],[43.37939,43.77496],[43.3881,43.77654],[43.42331,43.77666]],[[43.5553,43.28319],[43.55238,43.28388],[43.53624,43.28298],[43.51555,43.28639],[43.51396,43.28523],[43.50858,43.28811],[43.50004,43.28703],[43.49763,43.28856],[43.49256,43.28855],[43.48599,43.2925],[43.47385,43.29627],[43.45166,43.29967],[43.43721,43.29935],[43.4382,43.29894],[43.43067,43.29848],[43.42548,43.29684],[43.4211,43.29743],[43.41926,43.29531],[43.41526,43.29656],[43.41476,43.29886],[43.40987,43.29879],[43.39984,43.29078],[43.39495,43.28998],[43.38228,43.28266],[43.37954,43.27949],[43.37951,43.27804],[43.37116,43.27228],[43.36689,43.26397],[43.35937,43.26059],[43.35003,43.24774],[43.34451,43.24518],[43.34183,43.23961],[43.33353,43.23307],[43.32551,43.22995],[43.31749,43.22889],[43.30128,43.22397],[43.29432,43.22012]],[[43.30857,43.61029],[43.30818,43.61305],[43.30698,43.61407],[43.30005,43.6157],[43.29668,43.61509]],[[43.41713,43.65492],[43.41618,43.65359]],[[43.41708,43.65417],[43.41713,43.65492]],[[43.51243,43.68317],[43.49687,43.68202],[43.4747,43.67836],[43.44887,43.67038],[43.42773,43.66588],[43.41845,43.66075],[43.41713,43.65492]],[[43.41785,43.65467],[43.41713,43.65492]],[[43.47127,43.84788],[43.47215,43.84711],[43.48818,43.75048]],[[43.6548,43.73847],[43.6471,43.78467],[43.6544,43.78662],[43.65442,43.78991],[43.65615,43.79334],[43.65283,43.79612],[43.65142,43.79997],[43.64631,43.8317],[43.60894,43.83789],[43.59315,43.83674],[43.56791,43.83236],[43.54626,43.83474],[43.53166,43.84241],[43.51268,43.84754],[43.50569,43.8506],[43.50397,43.85062],[43.47374,43.84794],[43.47256,43.84783],[43.47232,43.84781],[43.47127,43.84788]],[[43.47215,43.84711],[43.47256,43.84783]],[[43.52193,43.54006],[43.51736,43.53999],[43.51111,43.54243],[43.50351,43.54314],[43.48273,43.5576],[43.48038,43.56024],[43.47911,43.56298],[43.47827,43.56669]],[[43.53423,43.5565],[43.53051,43.56061],[43.49209,43.56006],[43.4799,43.56134]],[[43.48818,43.75048],[43.48728,43.75066]],[[43.48818,43.75048],[43.48794,43.75015]],[[43.48889,43.7494],[43.48818,43.75048]],[[43.48956,43.50185],[43.49324,43.50678],[43.49251,43.50899],[43.51971,43.53282]],[[43.51243,43.68317],[43.52013,43.68421]],[[43.52013,43.68421],[43.51765,43.68401],[43.51243,43.68317]],[[43.5147,43.54105],[43.51756,43.54439],[43.51865,43.55333],[43.53495,43.55152],[43.53576,43.55264],[43.53423,43.5565]],[[43.51971,43.53282],[43.52128,43.53443],[43.52193,43.54006]],[[43.55605,43.5205],[43.55358,43.52321],[43.53897,43.52814],[43.53361,43.53175],[43.51971,43.53282]],[[43.5337,43.68524],[43.52013,43.68421]],[[43.52193,43.54006],[43.53439,43.53941],[43.5456,43.53605],[43.54799,43.53578],[43.55955,43.53386],[43.56453,43.53307],[43.5653,43.53293],[43.58454,43.52705],[43.60297,43.52711]],[[43.5337,43.68524],[43.53423,43.68528]],[[43.5342,43.68554],[43.5337,43.68524]],[[43.53423,43.5565],[43.55064,43.56152],[43.58973,43.56665]],[[43.53423,43.68528],[43.53439,43.68533]],[[43.53423,43.68528],[43.5345,43.68516]],[[43.53512,43.67968],[43.5472,43.67862],[43.55886,43.67987],[43.58126,43.67838]],[[43.53699,43.67425],[43.57965,43.67295]],[[43.54239,43.68973],[43.54263,43.69015]],[[43.54241,43.69024],[43.54239,43.68973]],[[43.54253,43.68795],[43.54239,43.68973]],[[43.54254,43.69036],[43.54241,43.69024]],[[43.54241,43.69024],[43.54267,43.69017]],[[43.54267,43.69017],[43.54269,43.6903],[43.54262,43.69035],[43.54257,43.69036],[43.54254,43.69036]],[[43.54321,43.69055],[43.54254,43.69036]],[[43.54267,43.69017],[43.54321,43.69055]],[[43.54321,43.69055],[43.55794,43.70034],[43.56775,43.70145],[43.57175,43.70391],[43.58306,43.70749],[43.59718,43.71735],[43.60435,43.72054],[43.64455,43.73278],[43.6548,43.73847],[43.71,43.76961],[43.74182,43.78681],[43.7586,43.79264],[43.76685,43.79417],[43.77512,43.79772],[43.78378,43.79782],[43.7902,43.7958]],[[43.54523,43.65443],[43.57672,43.65957],[43.59551,43.65592],[43.5994,43.65158],[43.63121,43.6479],[43.63983,43.64806],[43.64179,43.6538]],[[43.55617,43.52006],[43.55605,43.5205]],[[43.55605,43.5205],[43.55658,43.52044]],[[43.55645,43.5203],[43.55617,43.52006]],[[43.56106,43.50837],[43.55659,43.51258],[43.5559,43.51635],[43.55617,43.52006]],[[43.55618,43.51952],[43.55645,43.5203]],[[43.55658,43.52044],[43.55645,43.5203]],[[43.56368,43.5332],[43.55872,43.52248],[43.55658,43.52044]],[[43.56106,43.50837],[43.55195,43.50316],[43.5538,43.50142],[43.55544,43.49727],[43.56638,43.50353]],[[43.56638,43.50353],[43.56106,43.50837]],[[43.57944,43.4929],[43.56638,43.50353]],[[43.57204,43.45816],[43.57076,43.46057],[43.57484,43.46338]],[[43.58051,43.4542],[43.5661,43.4427],[43.55543,43.43691],[43.54209,43.43412],[43.53882,43.43499],[43.54396,43.43653],[43.55408,43.44677],[43.56767,43.45406],[43.57204,43.45816]],[[43.58051,43.4542],[43.57204,43.45816]],[[43.57461,43.47625],[43.57484,43.47612]],[[43.58028,43.48364],[43.57467,43.4881]],[[43.57484,43.47612],[43.57479,43.47635]],[[43.59021,43.46562],[43.57484,43.47612]],[[43.57944,43.4929],[43.57961,43.49255]],[[43.57979,43.49276],[43.57944,43.4929]],[[43.57965,43.67295],[43.58126,43.67838]],[[43.61253,43.68416],[43.61316,43.67827],[43.60931,43.67476],[43.6107,43.66793],[43.60903,43.66629],[43.59946,43.66637],[43.58655,43.66821],[43.57958,43.67202],[43.57965,43.67295]],[[43.5801,43.49222],[43.58042,43.49212]],[[43.58042,43.49212],[43.58018,43.49243]],[[43.59141,43.49095],[43.58617,43.48753],[43.58028,43.48364]],[[43.58668,43.47853],[43.58028,43.48364]],[[43.58035,43.58077],[43.58082,43.58057]],[[43.58035,43.58077],[43.58093,43.58104]],[[43.58068,43.58126],[43.58035,43.58077]],[[43.58042,43.49212],[43.58471,43.48871],[43.58566,43.48794],[43.58609,43.4876],[43.58617,43.48753],[43.58626,43.48747],[43.58903,43.48524],[43.58956,43.48483],[43.59259,43.4824]],[[43.58148,43.45383],[43.58051,43.4542]],[[43.58068,43.58126],[43.58106,43.58103],[43.58135,43.58131],[43.58097,43.58146],[43.58068,43.58126]],[[43.58668,43.47853],[43.58119,43.47489]],[[43.58126,43.67838],[43.58375,43.68318]],[[43.59021,43.46562],[43.58148,43.45383]],[[43.58993,43.45019],[43.58148,43.45383]],[[43.58447,43.49641],[43.59141,43.49095]],[[43.58622,43.5719],[43.65499,43.58646],[43.67442,43.58819],[43.68133,43.58649],[43.69007,43.56737],[43.69383,43.56191],[43.69601,43.56118],[43.70125,43.56215],[43.70145,43.56213],[43.70169,43.56202],[43.70201,43.56183]],[[43.58668,43.47853],[43.58741,43.47891]],[[43.58736,43.47897],[43.58668,43.47853]],[[43.59259,43.4824],[43.58736,43.47897]],[[43.58741,43.47891],[43.58736,43.47897]],[[43.59243,43.47495],[43.58741,43.47891]],[[43.58993,43.45019],[43.59007,43.44993]],[[43.59023,43.45012],[43.58993,43.45019]],[[43.59866,43.49553],[43.58998,43.50049]],[[43.59023,43.45012],[43.59007,43.44993]],[[43.59007,43.44993],[43.59012,43.44986]],[[43.59009,43.44954],[43.59044,43.44987]],[[43.59012,43.44986],[43.59009,43.44954]],[[43.66285,43.339],[43.66516,43.34175],[43.66469,43.34472],[43.65181,43.347],[43.64749,43.34913],[43.64619,43.35792],[43.64839,43.36417],[43.64562,43.36678],[43.64689,43.36924],[43.6456,43.37169],[43.63975,43.37233],[43.63688,43.3713],[43.62941,43.37302],[43.62259,43.37174],[43.6137,43.37196],[43.61126,43.37324],[43.60958,43.37739],[43.60585,43.38125],[43.59212,43.38952],[43.58916,43.39277],[43.58873,43.39597],[43.59062,43.39934],[43.59065,43.40165],[43.58713,43.40783],[43.58191,43.41386],[43.58267,43.42139],[43.57816,43.42696],[43.57956,43.43416],[43.57737,43.43681],[43.59009,43.44954]],[[43.59012,43.44986],[43.59028,43.44981],[43.59044,43.44987]],[[43.59764,43.4741],[43.59021,43.46562]],[[43.59029,43.45013],[43.59023,43.45012]],[[43.59059,43.45026],[43.59029,43.45013]],[[43.59048,43.45002],[43.59029,43.45013]],[[43.59044,43.44987],[43.59048,43.45002]],[[43.59048,43.45002],[43.59059,43.45026]],[[43.61327,43.47092],[43.6058,43.46991],[43.59968,43.4653],[43.59586,43.46406],[43.59479,43.45835],[43.59059,43.45026]],[[43.59511,43.49332],[43.59141,43.49095]],[[43.59141,43.49095],[43.60287,43.48181]],[[43.59259,43.4824],[43.60029,43.47638]],[[43.59511,43.49332],[43.59587,43.49335]],[[43.59566,43.49367],[43.59511,43.49332]],[[43.5958,43.49373],[43.59566,43.49367]],[[43.59566,43.49367],[43.59587,43.49335]],[[43.59614,43.49385],[43.5958,43.49373]],[[43.59616,43.49351],[43.5958,43.49373]],[[43.59587,43.49335],[43.59592,43.49333]],[[43.59592,43.49333],[43.5965,43.49306]],[[43.59592,43.49333],[43.59601,43.49332],[43.59611,43.49335],[43.59618,43.49347]],[[43.59866,43.49553],[43.59614,43.49385]],[[43.59616,43.49351],[43.59614,43.49385]],[[43.59618,43.49347],[43.59616,43.49351]],[[43.5965,43.49306],[43.59618,43.49347]],[[43.62189,43.48742],[43.6145,43.48259],[43.61165,43.4808],[43.5965,43.49306]],[[43.6005,43.49669],[43.59866,43.49553]],[[43.6145,43.48259],[43.59866,43.49553]],[[43.6005,43.49669],[43.60129,43.49682]],[[43.601,43.49716],[43.6005,43.49669]],[[43.60151,43.49715],[43.60121,43.4975],[43.601,43.49716]],[[43.601,43.49716],[43.60129,43.49682]],[[43.60129,43.49682],[43.60135,43.49682]],[[43.60135,43.49682],[43.60285,43.49666]],[[43.60135,43.49682],[43.60151,43.49715]],[[43.60262,43.49679],[43.60151,43.49715]],[[43.60238,43.50573],[43.60986,43.49956]],[[43.60285,43.49666],[43.60262,43.49679]],[[43.60483,43.49631],[43.60262,43.49679]],[[43.60403,43.4958],[43.60285,43.49666]],[[43.60357,43.52726],[43.60297,43.52711]],[[43.60297,43.52711],[43.60353,43.52698]],[[43.60357,43.52726],[43.60353,43.52698]],[[43.60353,43.52698],[43.60373,43.52696]],[[43.60377,43.52724],[43.60367,43.52727],[43.60357,43.52726]],[[43.60373,43.52696],[43.60434,43.52712]],[[43.60373,43.52696],[43.60377,43.52724]],[[43.60434,43.52712],[43.60377,43.52724]],[[43.60434,43.52712],[43.60546,43.52713]],[[43.61879,43.51191],[43.612,43.51211],[43.60437,43.50707]],[[43.60546,43.52713],[43.60816,43.5272],[43.61036,43.52786],[43.60918,43.52898]],[[43.60819,43.5282],[43.60805,43.5273],[43.60546,43.52713]],[[43.60546,43.52713],[43.60888,43.52675]],[[43.60918,43.52898],[43.60772,43.5296]],[[43.60856,43.52784],[43.60918,43.52898]],[[43.61114,43.47534],[43.61151,43.47523]],[[43.61151,43.47523],[43.61141,43.47552]],[[43.61327,43.47092],[43.61151,43.47523]],[[43.61151,43.47523],[43.62702,43.47519],[43.64608,43.47906]],[[43.61189,43.50373],[43.61176,43.50368]],[[43.61189,43.50373],[43.61177,43.50391]],[[43.61189,43.50373],[43.6205,43.5034]],[[43.64608,43.47906],[43.64687,43.47703],[43.63323,43.47431],[43.62436,43.47115],[43.61327,43.47092]],[[43.61547,43.50053],[43.61518,43.49799],[43.62492,43.49026]],[[43.62096,43.50343],[43.6205,43.5034]],[[43.6205,43.5034],[43.62078,43.50325]],[[43.62302,43.48647],[43.62791,43.48856]],[[43.62791,43.48856],[43.63692,43.4936]],[[43.62791,43.48856],[43.62968,43.4863],[43.64732,43.4897],[43.66362,43.5044]],[[43.63477,43.50031],[43.62839,43.50481]],[[43.64542,43.50257],[43.63987,43.50547]],[[43.64435,43.48311],[43.64472,43.48236]],[[43.64472,43.48236],[43.64494,43.48294]],[[43.64472,43.48236],[43.64608,43.47906]],[[43.64523,43.5108],[43.65077,43.50783]],[[43.64542,43.50257],[43.65077,43.50783]],[[43.65077,43.50783],[43.6576,43.50414],[43.64723,43.50013],[43.64542,43.50257]],[[43.67279,43.50805],[43.65384,43.51889]],[[43.72737,43.52905],[43.72954,43.52509],[43.72798,43.52342],[43.72828,43.52178],[43.73019,43.51884],[43.71608,43.51185],[43.71226,43.51078],[43.71208,43.51073],[43.71178,43.51059],[43.67737,43.49361],[43.67512,43.49749],[43.66683,43.49505],[43.66555,43.49314],[43.66567,43.48551]],[[43.68606,43.49787],[43.69075,43.49228]],[[43.70307,43.56243],[43.70124,43.56111]],[[43.71208,43.51073],[43.71495,43.50763],[43.71638,43.50795],[43.71983,43.50183]],[[43.71591,43.77266],[43.71634,43.75646]],[[43.74095,43.21736],[43.75058,43.22107]],[[43.74684,43.67946],[43.75677,43.68293],[43.75973,43.68362],[43.76553,43.68483],[43.76584,43.6849],[43.76743,43.68527],[43.76949,43.68573],[43.771,43.68639],[43.77605,43.68695],[43.77977,43.68741],[43.78264,43.68663],[43.79046,43.68708],[43.79295,43.68748],[43.80141,43.69137]],[[43.81332,43.82034],[43.80855,43.82218],[43.79749,43.82967],[43.78261,43.83589],[43.76643,43.8447],[43.76441,43.84425],[43.75249,43.83527],[43.7515,43.83552]],[[43.75936,43.22397],[43.76145,43.22086],[43.75725,43.20083],[43.75679,43.18955],[43.74253,43.15238],[43.73133,43.14919],[43.72719,43.14667],[43.72204,43.14805],[43.71013,43.14873],[43.68957,43.14231],[43.67827,43.14644],[43.68231,43.15239],[43.67877,43.15222],[43.68046,43.15462],[43.67997,43.16084],[43.67358,43.1749],[43.6737,43.17877],[43.67008,43.17968],[43.6656,43.17768],[43.66865,43.18016],[43.66437,43.18303],[43.66258,43.18593],[43.66004,43.18658],[43.66115,43.18841],[43.659,43.19228],[43.65962,43.19418],[43.65708,43.19343],[43.65699,43.19517],[43.65944,43.19808],[43.66017,43.20479],[43.65931,43.20693],[43.65566,43.20866],[43.65839,43.21264],[43.67138,43.24343],[43.66759,43.24904],[43.66153,43.25107],[43.65789,43.26008],[43.6528,43.26525],[43.65279,43.26898],[43.64909,43.27021],[43.65444,43.2832],[43.66036,43.29093],[43.67246,43.29926],[43.67541,43.30699],[43.69371,43.32879],[43.71689,43.3377],[43.72631,43.3427],[43.75083,43.36128],[43.76334,43.37472],[43.76635,43.38651],[43.77086,43.39552],[43.77733,43.40021],[43.78651,43.40139],[43.79444,43.4223],[43.79754,43.42179],[43.79876,43.42479],[43.80908,43.43416],[43.82821,43.45651],[43.83742,43.46357],[43.87183,43.48466],[43.89228,43.50041],[43.90815,43.50354],[43.91016,43.50448],[43.91285,43.50581],[43.91467,43.5067],[43.917,43.50784],[43.92379,43.51114],[43.93137,43.51486],[43.93402,43.51611],[43.93639,43.51421],[43.9548,43.51305],[43.96135,43.51726],[43.97677,43.52367],[43.98213,43.52754],[43.98954,43.52971],[44.00118,43.52719],[44.01771,43.5323],[44.03203,43.54392],[44.03996,43.55538],[44.04506,43.56003],[44.047,43.56334],[44.05201,43.56432],[44.05343,43.56455],[44.05381,43.56458],[44.05516,43.56474],[44.05806,43.56512],[44.05952,43.56564]],[[43.77589,43.68696],[43.77321,43.69141],[43.76634,43.69146],[43.76584,43.6849]],[[43.76653,43.75582],[43.77614,43.75754],[43.78103,43.75603],[43.78725,43.75633]],[[43.88642,43.75552],[43.88495,43.75665],[43.88461,43.75673],[43.86806,43.75875],[43.84489,43.75782],[43.84129,43.7568],[43.83515,43.75252],[43.80976,43.74978],[43.80031,43.74724],[43.79526,43.7448],[43.79303,43.74204],[43.78974,43.74109]],[[43.7901,43.68706],[43.79056,43.6952],[43.7999,43.69808]],[[43.7902,43.7958],[43.79403,43.80291],[43.81529,43.80175],[43.81644,43.80268],[43.81918,43.80958],[43.82406,43.8076]],[[43.80141,43.69137],[43.80111,43.69365],[43.79603,43.71229],[43.79562,43.71368],[43.79556,43.7139],[43.79549,43.71413],[43.79471,43.7167],[43.79185,43.72604],[43.7913,43.72796],[43.78725,43.75633],[43.7902,43.7958]],[[43.79278,43.54019],[43.79394,43.54634],[43.79683,43.54584],[43.80088,43.55994],[43.8377,43.55884]],[[43.79506,43.71379],[43.79532,43.71385]],[[43.80178,43.68917],[43.80141,43.69137]],[[43.81051,43.81743],[43.82643,43.8106]],[[43.83419,43.81945],[43.81744,43.82247],[43.81468,43.82166],[43.81332,43.82034],[43.81249,43.8197],[43.81153,43.81856],[43.81051,43.81743],[43.80966,43.81646],[43.808,43.81384],[43.81193,43.80689],[43.8172,43.8052]],[[43.82016,43.5985],[43.8196,43.59818]],[[43.81993,43.59806],[43.82016,43.5985]],[[43.86131,43.61006],[43.84239,43.61041],[43.83419,43.60614],[43.82016,43.5985]],[[43.82406,43.8076],[43.82719,43.81149],[43.82874,43.81084],[43.83111,43.81335],[43.83419,43.81945]],[[43.92734,43.78216],[43.90127,43.792],[43.89149,43.77991],[43.88647,43.78023],[43.88526,43.77776],[43.8729,43.78109],[43.86585,43.78623],[43.83707,43.8019],[43.82406,43.8076]],[[43.83242,43.60515],[43.84304,43.59988]],[[43.83419,43.81945],[43.84533,43.84162],[43.84523,43.90162],[43.8562,43.91782],[43.86032,43.92859],[44.02551,43.92856],[44.02728,43.93069],[44.04422,43.9289]],[[43.83544,43.28709],[43.85607,43.30231],[43.87002,43.3096],[43.88922,43.33158],[43.93118,43.36637],[43.9368,43.36957],[43.94615,43.38154]],[[43.84633,43.57003],[43.84393,43.56927],[43.8378,43.55897]],[[43.84304,43.59988],[43.84316,43.59959]],[[43.84345,43.59974],[43.84304,43.59988]],[[43.8462,43.53785],[43.84594,43.53885],[43.8442,43.54864]],[[43.84425,43.53523],[43.84808,43.53386]],[[43.85035,43.54344],[43.84478,43.5455]],[[43.8462,43.53785],[43.84525,43.53656]],[[43.85659,43.55368],[43.85143,43.54495],[43.85053,43.54368],[43.85035,43.54344],[43.84962,43.54248],[43.8462,43.53785]],[[43.84697,43.56649],[43.84866,43.56783],[43.85137,43.56943],[43.86125,43.57519],[43.86165,43.57548],[43.86654,43.58428],[43.89132,43.60963],[43.89377,43.60735],[43.9096,43.61684],[43.92011,43.61897],[43.92452,43.6173],[43.94361,43.62486],[43.95119,43.62532],[43.9547,43.62775],[43.95652,43.63076]],[[43.85137,43.56943],[43.85383,43.5667],[43.84776,43.56226]],[[43.84808,43.53386],[43.8641,43.55025]],[[43.84808,43.53386],[43.87821,43.51944]],[[43.85381,43.55944],[43.85308,43.55913]],[[43.85659,43.55368],[43.85311,43.55528]],[[43.85321,43.55894],[43.85381,43.55944]],[[43.85966,43.56155],[43.8591,43.56242],[43.85766,43.56196],[43.85381,43.55944]],[[43.85801,43.55709],[43.85659,43.55368]],[[43.85876,43.55269],[43.85659,43.55368]],[[43.86086,43.55979],[43.85801,43.55709]],[[43.85801,43.55709],[43.85512,43.55814],[43.85966,43.56155]],[[43.86105,43.55598],[43.85801,43.55709]],[[43.86105,43.55598],[43.85876,43.55269]],[[43.89616,43.53699],[43.88983,43.5385],[43.85876,43.55269]],[[43.85966,43.56155],[43.86086,43.55979]],[[43.86086,43.55979],[43.86224,43.55774],[43.86105,43.55598]],[[43.8634,43.61056],[43.86131,43.61006]],[[43.86131,43.61006],[43.86174,43.60953]],[[43.86201,43.6097],[43.86181,43.60987]],[[43.87149,43.7276],[43.87313,43.73668],[43.88242,43.755],[43.88266,43.75513],[43.88642,43.75552],[43.88943,43.75586],[43.89064,43.75598],[43.90907,43.75388],[43.91068,43.76197],[43.91835,43.76349],[43.92161,43.76735]],[[43.87821,43.51944],[43.87861,43.51904]],[[43.87927,43.51927],[43.87821,43.51944]],[[43.87927,43.51927],[43.87861,43.51904]],[[43.87861,43.51904],[43.8795,43.51855]],[[43.87985,43.51884],[43.87927,43.51927]],[[43.88027,43.51926],[43.87927,43.51927]],[[43.8795,43.51855],[43.87985,43.51884]],[[43.8795,43.51855],[43.88025,43.51842]],[[43.87985,43.51884],[43.88027,43.51926]],[[43.88025,43.51842],[43.87985,43.51884]],[[43.88025,43.51842],[43.88555,43.51748],[43.89688,43.52142],[43.90246,43.51985],[43.90829,43.51349],[43.9124,43.5092],[43.91467,43.5067],[43.91637,43.50493],[43.9181,43.50299],[43.9201,43.49936],[43.96367,43.4506],[43.97427,43.43733],[43.99792,43.42238],[43.99947,43.41987],[44.01229,43.40947],[44.01287,43.40519]],[[43.88027,43.51926],[43.89616,43.53699]],[[43.88611,43.75576],[43.88604,43.75549]],[[43.97113,43.62602],[43.97262,43.62029],[43.97979,43.61198],[43.99248,43.60647],[43.99938,43.60538],[43.99577,43.59485],[43.99478,43.58801],[43.97294,43.57896],[43.96069,43.56905],[43.93871,43.55426],[43.92863,43.54541],[43.92725,43.54121],[43.91686,43.53583],[43.91147,43.53307],[43.89616,43.53699]],[[43.90882,43.4112],[43.92109,43.42755],[43.93671,43.4373]],[[43.91415,43.35194],[43.92215,43.34529],[43.94113,43.35503]],[[43.92161,43.76735],[43.92295,43.77828],[43.92734,43.78216]],[[43.95271,43.76218],[43.92161,43.76735]],[[43.92734,43.78216],[43.94154,43.79894]],[[43.95264,43.76247],[43.94554,43.76996],[43.93261,43.77719],[43.93289,43.77963],[43.92734,43.78216]],[[44.04994,43.62297],[44.03908,43.62558],[44.03009,43.63495],[44.00935,43.63727],[44.00068,43.64054],[43.99844,43.63916],[43.99692,43.63645],[43.99367,43.63629],[43.98479,43.63135],[43.98043,43.63064],[43.97775,43.62674],[43.97717,43.62661],[43.9719,43.62611],[43.97113,43.62602],[43.96937,43.6258],[43.96538,43.62513],[43.96434,43.62518],[43.95652,43.63076],[43.95294,43.63469],[43.94334,43.6336],[43.93693,43.63417],[43.93614,43.63496],[43.93537,43.63735],[43.93445,43.64044],[43.93334,43.64452]],[[43.93583,43.63598],[43.94605,43.63743],[43.95908,43.6397]],[[43.94113,43.35503],[43.9419,43.3552]],[[43.94182,43.35536],[43.94113,43.35503]],[[43.94184,43.35538],[43.94182,43.35536]],[[43.94182,43.35536],[43.9419,43.3552]],[[43.94182,43.35558],[43.95949,43.37054]],[[43.94182,43.35558],[43.94184,43.35538]],[[43.94206,43.35541],[43.94182,43.35558]],[[43.94206,43.35541],[43.94184,43.35538]],[[43.9419,43.3552],[43.94206,43.35541]],[[43.94314,43.79828],[43.94252,43.81304],[43.93948,43.8139],[43.93844,43.86333],[43.94059,43.86508],[43.95862,43.86269],[43.97415,43.85811],[43.97956,43.85758],[43.97973,43.85641],[43.98273,43.85565],[43.98532,43.85541],[43.99733,43.85864],[44.00038,43.85797],[44.00426,43.85455],[44.01144,43.85105],[44.01735,43.85106],[44.02893,43.84788],[44.03902,43.84157],[44.04403,43.84142]],[[43.94462,43.66304],[43.94878,43.66425],[43.95246,43.66034],[43.95582,43.64749]],[[43.95264,43.76247],[43.95271,43.76218]],[[43.95335,43.76206],[43.95264,43.76247]],[[43.95299,43.76213],[43.95271,43.76218]],[[43.95299,43.76213],[43.953,43.76219]],[[43.95335,43.76206],[43.95299,43.76213]],[[43.95335,43.76206],[43.97688,43.75853]],[[43.95894,43.63967],[43.95594,43.64751]],[[43.96563,43.7357],[43.96553,43.73585],[43.96548,43.73599],[43.96504,43.7394],[43.96456,43.73999],[43.95683,43.74105]],[[44.1067,43.92004],[44.04427,43.93931],[44.03399,43.94246],[44.01476,43.94845],[43.96594,43.96869],[43.96066,43.97001]],[[43.96285,43.7345],[43.96442,43.72262],[43.96132,43.72242]],[[43.96548,43.73599],[43.96522,43.73553]],[[43.96583,43.7358],[43.96553,43.73585]],[[44.0096,43.39909],[43.9669,43.36449]],[[43.9736,43.6891],[43.98458,43.69526],[43.97749,43.73832],[43.97836,43.74092]],[[43.97797,43.74118],[43.97832,43.74111]],[[43.97813,43.74134],[43.97828,43.74119],[43.97832,43.74111],[43.97836,43.74092]],[[43.97819,43.76411],[44.00292,43.7633],[44.00554,43.76269],[44.00588,43.76269],[44.00624,43.76272],[44.0068,43.76278]],[[43.97836,43.74092],[43.97857,43.74138]],[[43.97853,43.74136],[43.97857,43.74138]],[[43.97857,43.74138],[43.97911,43.74166]],[[43.97857,43.74138],[43.97859,43.74143]],[[43.97911,43.74166],[43.97858,43.74165]],[[43.97911,43.74166],[43.99248,43.74729],[44.00718,43.74746],[44.01252,43.74596]],[[43.99446,43.77595],[43.99562,43.77598]],[[43.99562,43.77598],[43.99453,43.77644]],[[44.00716,43.76617],[44.00699,43.76642],[44.00691,43.76654],[44.00683,43.7667],[44.00662,43.76838],[44.00414,43.77075],[43.99562,43.77598]],[[44.0096,43.39909],[44.02228,43.39533],[44.02456,43.3937],[44.01974,43.35739],[44.01841,43.35439],[44.02095,43.31989],[44.01866,43.31051],[44.01114,43.29326],[43.99769,43.27322]],[[44.00721,43.76279],[44.0068,43.76299],[44.00654,43.76275]],[[44.0068,43.76278],[44.01085,43.7625]],[[44.0068,43.76278],[44.0068,43.76299],[44.00672,43.76524],[44.00672,43.76534],[44.00716,43.76617]],[[44.00755,43.76632],[44.00699,43.76642]],[[44.01304,43.77023],[44.01114,43.76784],[44.00936,43.76701],[44.00788,43.76644],[44.00755,43.76632],[44.00716,43.76617]],[[44.0096,43.39909],[44.01241,43.40468]],[[44.01085,43.7625],[44.01112,43.75823],[44.02039,43.75624]],[[44.01085,43.7625],[44.01988,43.76115],[44.02183,43.76026],[44.02426,43.75914],[44.0244,43.75903],[44.02415,43.75713],[44.02873,43.7565]],[[44.01276,43.40468],[44.01241,43.40468]],[[44.01271,43.40486],[44.01241,43.40468]],[[44.0128,43.74609],[44.01252,43.74596]],[[44.01252,43.74596],[44.01268,43.74577]],[[44.01252,43.74596],[44.01272,43.7459]],[[44.01268,43.74577],[44.01272,43.7459]],[[44.04929,43.74771],[44.03784,43.74021],[44.02858,43.74242],[44.02139,43.74224],[44.01255,43.74469],[44.01268,43.74577]],[[44.01271,43.40486],[44.01276,43.40491]],[[44.01276,43.40468],[44.01271,43.40486]],[[44.01272,43.7459],[44.0128,43.74609],[44.01282,43.74615],[44.01294,43.74642],[44.01326,43.7472],[44.01368,43.74838],[44.0143,43.74987],[44.01463,43.75048],[44.01891,43.75365],[44.02039,43.75624]],[[44.01276,43.40491],[44.013,43.40493]],[[44.01287,43.40519],[44.01276,43.40491]],[[44.013,43.40493],[44.01307,43.40471],[44.01292,43.40465],[44.01276,43.40468]],[[44.013,43.40493],[44.01287,43.40519]],[[44.0174,43.76955],[44.0149,43.76722],[44.03137,43.76093],[44.03066,43.7595],[44.03287,43.75826],[44.04188,43.75647],[44.05296,43.75185],[44.05854,43.75411]],[[44.03477,43.32109],[44.03378,43.30872],[44.01811,43.27754]],[[44.02175,43.7603],[44.02039,43.75624]],[[44.02039,43.75624],[44.03735,43.75276],[44.03814,43.75391]],[[44.04376,43.76607],[44.04359,43.76552]],[[44.04376,43.76607],[44.04401,43.83924],[44.04404,43.83988],[44.04406,43.84513],[44.04413,43.84997],[44.04415,43.91802],[44.04422,43.9289],[44.04427,43.93931],[44.04434,43.96869],[44.0445,43.99092],[44.04416,43.99668],[44.04512,44.00225]],[[44.04393,43.76549],[44.04376,43.76607]],[[44.04404,43.76509],[44.05854,43.75411]],[[44.1067,43.92004],[44.10638,43.84854],[44.05675,43.84637],[44.04409,43.84703]],[[44.04931,43.74915],[44.04929,43.74771]],[[44.04929,43.74771],[44.04932,43.74483],[44.06337,43.74115],[44.06487,43.74506]],[[44.04932,43.74877],[44.04975,43.74896]],[[44.04994,43.62297],[44.05191,43.6277]],[[44.05652,43.62162],[44.04994,43.62297]],[[44.05191,43.6277],[44.05215,43.62823]],[[44.05191,43.6277],[44.05586,43.62702]],[[44.05215,43.62823],[44.0577,43.64097]],[[44.05586,43.62702],[44.05215,43.62823]],[[44.05479,43.67156],[44.05513,43.67126],[44.05581,43.67148]],[[44.06124,43.6436],[44.05618,43.64738],[44.05185,43.65586],[44.05336,43.66967],[44.05451,43.67031],[44.05467,43.67049],[44.05513,43.67126],[44.05528,43.67152]],[[44.05586,43.62702],[44.05715,43.62664]],[[44.05652,43.62162],[44.05715,43.62664]],[[44.05652,43.62162],[44.05555,43.61444],[44.05869,43.61333]],[[44.05715,43.62664],[44.059,43.6312],[44.06513,43.63039]],[[44.05715,43.62664],[44.06376,43.62454]],[[44.0577,43.64097],[44.05786,43.64102]],[[44.0577,43.64097],[44.0584,43.64028]],[[44.05786,43.64102],[44.0595,43.64157]],[[44.05948,43.63917],[44.05921,43.63962],[44.05901,43.63984],[44.05848,43.64038],[44.05786,43.64102]],[[44.0595,43.64157],[44.05873,43.64068],[44.05848,43.64038],[44.0584,43.64028]],[[44.0584,43.64028],[44.05948,43.63917]],[[44.05854,43.75411],[44.06409,43.75364],[44.06939,43.75039],[44.07217,43.75236],[44.0748,43.75156],[44.07645,43.75335]],[[44.06376,43.62454],[44.06003,43.61962],[44.05869,43.61333]],[[44.05869,43.61333],[44.06003,43.61118],[44.05968,43.59899],[44.06151,43.59364],[44.06368,43.5854],[44.06396,43.58351],[44.06017,43.57126],[44.05949,43.55977]],[[44.05948,43.63917],[44.0645,43.63395],[44.06513,43.63039]],[[44.06293,43.58821],[44.05717,43.58364],[44.05383,43.57604],[44.05375,43.56471],[44.05381,43.56458],[44.05408,43.56416],[44.05472,43.56354],[44.05949,43.55977]],[[44.05949,43.55977],[44.0556,43.53168],[44.0513,43.51066],[44.0608,43.49724]],[[44.06124,43.6436],[44.0595,43.64157]],[[44.0683,43.63048],[44.07248,43.64003],[44.06749,43.64035],[44.0662,43.64239],[44.06124,43.6436]],[[44.06247,43.58719],[44.06319,43.58725]],[[44.06259,43.58738],[44.06272,43.58724]],[[44.0631,43.58722],[44.06321,43.58716]],[[44.06513,43.63039],[44.06376,43.62454]],[[44.0683,43.63048],[44.06513,43.63039]],[[44.06575,43.63046],[44.06521,43.63076]],[[44.0683,43.63048],[44.0693,43.62977],[44.06959,43.63012],[44.07008,43.63069],[44.07304,43.63454],[44.07544,43.63816],[44.0839,43.6588]],[[44.06946,43.62996],[44.06901,43.63001]],[[44.07253,43.64033],[44.07201,43.64016]],[[44.15012,43.49222],[44.12938,43.48543],[44.12288,43.4821],[44.088,43.4814],[44.08331,43.48331]],[[44.08606,43.70934],[44.08552,43.70913]],[[44.08558,43.70898],[44.08605,43.70913]],[[44.08596,43.70807],[44.08605,43.70913],[44.08606,43.70934],[44.08848,43.71344],[44.08991,43.71449],[44.09145,43.71862]],[[44.08649,43.65712],[44.08899,43.66099],[44.09585,43.66415],[44.10335,43.67404],[44.11266,43.68331],[44.11629,43.68415],[44.11888,43.68629],[44.12443,43.69347],[44.12812,43.70405],[44.13302,43.7081],[44.14143,43.70832],[44.15334,43.7046],[44.15819,43.70781],[44.21787,43.73488]],[[44.09804,43.617],[44.09995,43.62131]],[[44.1067,43.92004],[44.1801,43.89749],[44.18108,43.89812],[44.18185,43.92815],[44.34369,43.92771]],[[44.11139,43.55399],[44.11923,43.55409]],[[44.13628,43.62798],[44.14257,43.63219]],[[44.14257,43.63219],[44.16833,43.6486],[44.21168,43.68334],[44.21919,43.68489],[44.22203,43.69533],[44.22203,43.69999],[44.22425,43.7009],[44.23895,43.70181],[44.26214,43.6982],[44.29218,43.68352],[44.30108,43.67503],[44.3013,43.67269]],[[44.14257,43.63219],[44.14529,43.62992],[44.15932,43.62712],[44.16759,43.6293],[44.1796,43.6283],[44.18824,43.63363],[44.19993,43.62936],[44.20739,43.63131],[44.22099,43.63097],[44.25084,43.63482],[44.25868,43.63345],[44.26655,43.62979]],[[44.17305,43.45481],[44.17335,43.45566],[44.18795,43.45704],[44.21709,43.45828],[44.23245,43.47016],[44.23975,43.47274],[44.21352,43.49596]],[[44.36492,43.48998],[44.37312,43.45948],[44.3183,43.4594],[44.31805,43.4512],[44.29829,43.44057],[44.29293,43.44125],[44.27953,43.43013],[44.26319,43.42177],[44.25992,43.41909],[44.22471,43.40834],[44.22133,43.40617],[44.21938,43.40679],[44.20168,43.39996],[44.19701,43.39924]],[[44.20866,43.49668],[44.20538,43.50621],[44.20213,43.51119],[44.20155,43.51688],[44.19735,43.52586],[44.19607,43.53114],[44.19704,43.53384]],[[44.21229,43.49635],[44.20548,43.51086],[44.19829,43.53218],[44.19377,43.54116],[44.19358,43.54987],[44.19526,43.55685],[44.2025,43.55631],[44.20406,43.55745],[44.20319,43.57174],[44.23042,43.57198],[44.23536,43.57593],[44.24017,43.5765],[44.24188,43.57954],[44.2488,43.58366],[44.24692,43.59312],[44.26154,43.60016],[44.26338,43.60208],[44.26492,43.6093],[44.26565,43.62793],[44.26727,43.62899]],[[44.22506,43.77825],[44.22522,43.77789]],[[44.22522,43.77789],[44.22551,43.77819]],[[44.22522,43.77789],[44.22913,43.77014],[44.22389,43.76464],[44.23199,43.76031]],[[44.26655,43.62979],[44.29239,43.66409],[44.3013,43.67269]],[[44.26727,43.62899],[44.26655,43.62979]],[[44.26782,43.62948],[44.26701,43.62941]],[[44.26727,43.62899],[44.26782,43.62948],[44.26794,43.62949],[44.26819,43.62947],[44.28035,43.62711],[44.28798,43.62856],[44.29797,43.62651],[44.30896,43.62819],[44.32199,43.62633],[44.32421,43.62826],[44.35595,43.62637]],[[44.4108,43.56311],[44.40997,43.55854],[44.41022,43.55258],[44.40957,43.54939],[44.40956,43.54592],[44.40748,43.5384],[44.40718,43.53335],[44.388,43.52069],[44.37499,43.5045],[44.36859,43.48864],[44.36535,43.48998],[44.36492,43.48998],[44.36067,43.49006],[44.28274,43.49238]],[[44.3013,43.67269],[44.31322,43.67018],[44.32249,43.67158],[44.3553,43.66989],[44.35595,43.62637]],[[44.34278,43.80745],[44.3442,43.99243]],[[44.35595,43.62637],[44.35649,43.62224]],[[44.35649,43.62224],[44.35873,43.62243],[44.37631,43.61689],[44.39881,43.62159],[44.40514,43.62151],[44.41398,43.61906],[44.42272,43.62449],[44.43561,43.62262]],[[44.35649,43.62224],[44.3622,43.60838],[44.3996,43.60829],[44.4006,43.60723],[44.40068,43.60106],[44.4219,43.5928],[44.42461,43.58994]],[[44.39749,43.54513],[44.4055,43.54891],[44.40891,43.56065],[44.4108,43.56311]],[[44.40744,43.53788],[44.40666,43.53775]],[[44.4074,43.53632],[44.40837,43.53665]],[[44.4264,43.54019],[44.4224,43.54187],[44.4204,43.54471],[44.41471,43.54813],[44.40957,43.54939]],[[44.44007,43.60455],[44.42778,43.59341],[44.42703,43.591],[44.42448,43.58981],[44.41707,43.57736],[44.41282,43.57284],[44.4108,43.56311]],[[43.25527,43.90195],[43.25532,43.90189],[43.25544,43.90183],[43.25561,43.90181],[43.25668,43.90201],[43.25646,43.90225],[43.25542,43.90218],[43.25532,43.90212],[43.25527,43.90206],[43.25527,43.90195]]]}},{"type":"Feature","properties":{"roadClass":"trunk"},"geometry":{"type":"MultiLineString","coordinates":[[[43.21999,43.95919],[43.22118,43.95472],[43.22336,43.95069],[43.22668,43.94657],[43.23384,43.93946],[43.25628,43.9015],[43.27282,43.86962],[43.27879,43.85316],[43.28031,43.85005],[43.28277,43.84662],[43.28581,43.84355],[43.28804,43.84176],[43.29365,43.8381],[43.28587,43.84369],[43.28061,43.84986],[43.27296,43.86966],[43.25643,43.90154],[43.23397,43.93952],[43.22353,43.95073],[43.22011,43.9595]],[[43.34508,43.81504],[43.39209,43.79464],[43.42606,43.7752],[43.46183,43.7685],[43.49046,43.74824],[43.49801,43.74523],[43.50217,43.73913],[43.50897,43.733]],[[43.4956,43.66969],[43.49498,43.66953]],[[43.49522,43.67024],[43.49498,43.66953]],[[43.49498,43.66953],[43.49514,43.66875]],[[43.49514,43.66875],[43.49587,43.66785]],[[43.49514,43.66875],[43.49559,43.66869],[43.496,43.66884]],[[43.49522,43.67024],[43.49197,43.6861],[43.49264,43.69089],[43.51493,43.71585],[43.51742,43.72041]],[[43.4956,43.66969],[43.49522,43.67024]],[[43.496,43.66884],[43.4956,43.66969]],[[43.49587,43.66785],[43.496,43.66884]],[[43.49587,43.66785],[43.49763,43.66377],[43.50082,43.66025],[43.51292,43.65188],[43.5245,43.64721],[43.54665,43.64102]],[[43.50897,43.733],[43.51631,43.72637],[43.51742,43.72041]],[[43.51742,43.72041],[43.51781,43.72314],[43.51671,43.72611],[43.50897,43.733]],[[43.54665,43.64102],[43.55362,43.6364],[43.56575,43.61219],[43.56667,43.61079],[43.56807,43.60945],[43.56926,43.60867],[43.57113,43.60782],[43.57297,43.6073],[43.57645,43.60706],[43.5793,43.60748],[43.63233,43.62154],[43.64041,43.62132],[43.64768,43.61857],[43.65197,43.61476],[43.66591,43.59703],[43.66961,43.59385],[43.67352,43.59151],[43.71166,43.57264],[43.71572,43.56993],[43.71942,43.56611],[43.73432,43.54659],[43.74843,43.529],[43.75029,43.52679],[43.75182,43.52532],[43.75479,43.52314],[43.75822,43.5214],[43.76159,43.52025],[43.7716,43.51731],[43.77765,43.51418],[43.78177,43.51037],[43.79366,43.49456],[43.7955,43.49242],[43.79801,43.49056],[43.80653,43.48605]],[[43.80653,43.48605],[43.79577,43.49236],[43.78185,43.51054],[43.77765,43.51435],[43.77169,43.5174],[43.7582,43.52157],[43.75071,43.5265],[43.71927,43.56658],[43.71586,43.57001],[43.71128,43.57295],[43.67096,43.5931],[43.66581,43.59737],[43.65164,43.61537],[43.64778,43.61866],[43.64045,43.62143],[43.63232,43.62164],[43.57927,43.60759],[43.57259,43.60751],[43.56642,43.61136],[43.56593,43.6122],[43.56088,43.6224],[43.55739,43.62936],[43.55496,43.63415],[43.55384,43.63647],[43.55058,43.63943],[43.54665,43.64102]],[[43.55723,43.62932],[43.55739,43.62936]],[[43.80653,43.48605],[43.84184,43.46634],[44.01662,43.32346],[44.03477,43.32109],[44.06164,43.32159]],[[44.04412,43.84914],[44.04446,43.84914]],[[44.09984,43.32253],[44.06164,43.32159]],[[44.06164,43.32159],[44.09985,43.32242]]]}}],"provenance":{"sources":[{"id":"osm-north-caucasus-260916","url":"https://download.geofabrik.de/russia/north-caucasus-fed-district-260916.osm.pbf","snapshot":"2026-09-16T20:21:21Z","sha256":"6b57ddc7e26ed9a599b733fd201ead0c5669ff108d34a05bd9005bb2ceea91a6","md5":"1e96bf0e0cc7972e18ec11f3d33d563c","bytes":128531657,"license":"ODbL-1.0","attribution":"© OpenStreetMap contributors, Geofabrik","downloadDate":"2026-09-17"}],"attribution":"© OpenStreetMap contributors, Geofabrik; ODbL-1.0","geometryMethod":"Actual OSM road ways, merged by class and endpoint, display simplification 0.0007 degrees; not routing geometry","sourceWayCount":2828,"routingUse":false}}