{"type":"FeatureCollection","features":[{"type":"Feature","properties":{"roadClass":"primary"},"geometry":{"type":"MultiLineString","coordinates":[[[156.58207,52.93767],[156.58543,52.93637],[156.60606,52.91982],[156.61299,52.91619],[156.63198,52.90945],[156.68428,52.89637],[156.79966,52.89206],[156.87563,52.89868],[156.90733,52.9035],[156.92467,52.90207],[156.99276,52.90033],[157.05098,52.90577],[157.06263,52.90747],[157.12174,52.92313],[157.12585,52.92529],[157.12804,52.92784],[157.13697,52.95426],[157.14173,52.95815],[157.15763,52.96277],[157.2063,52.96571],[157.23026,52.96322],[157.23984,52.9638],[157.24366,52.96552],[157.25438,52.97474],[157.28955,52.99363],[157.33626,53.04698],[157.34,53.0527],[157.34732,53.05609],[157.3562,53.06372],[157.36738,53.07022],[157.37467,53.07821],[157.40625,53.104],[157.40997,53.10966],[157.41441,53.12749],[157.42897,53.16075],[157.43133,53.17111],[157.43163,53.18133],[157.43324,53.18666],[157.43879,53.19329],[157.4486,53.20107],[157.4605,53.20578],[157.47032,53.20596]],[[157.46919,53.20701],[157.47032,53.20596]],[[157.47032,53.20596],[157.47098,53.20602]],[[157.47063,53.20618],[157.47032,53.20596]],[[157.47063,53.20618],[157.46919,53.20701],[157.46482,53.2107],[157.46344,53.21338],[157.46716,53.28364],[157.47093,53.29202],[157.46984,53.2966],[157.47034,53.29981],[157.4825,53.31304],[157.4856,53.32229],[157.48396,53.33742],[157.48846,53.36981],[157.53488,53.42638],[157.54856,53.43405],[157.55801,53.44796],[157.57247,53.45861],[157.58075,53.46879],[157.60734,53.53136],[157.635,53.58723],[157.6412,53.61033],[157.63423,53.63739],[157.62424,53.69809],[157.62474,53.70228],[157.65169,53.73386],[157.65815,53.75145],[157.65725,53.7748],[157.67449,53.80878],[157.68387,53.83369],[157.6875,53.8602],[157.69611,53.87892],[157.70041,53.89128],[157.73554,53.93917],[157.74637,53.95932],[157.76177,53.98058],[157.7674,53.98609],[157.7791,53.99302],[157.85252,54.02594],[157.8659,54.04554],[157.87076,54.05777],[157.87905,54.07221],[157.87715,54.08321],[157.88117,54.09255],[157.88973,54.1001],[157.90395,54.11705],[157.91989,54.13119],[157.94211,54.15748],[157.95766,54.16678],[157.96555,54.16951],[158.00652,54.17532],[158.02549,54.18046],[158.03437,54.18405],[158.05619,54.19633],[158.07979,54.21309],[158.11533,54.25768],[158.12576,54.26778],[158.20121,54.29248],[158.20684,54.29557],[158.21493,54.30251],[158.24003,54.31281],[158.24477,54.31596],[158.26664,54.33835],[158.26997,54.3704],[158.2713,54.37337],[158.33682,54.40878],[158.35064,54.41784],[158.35582,54.42285],[158.36248,54.43502],[158.37356,54.44025],[158.38342,54.44802],[158.38386,54.45084],[158.38063,54.45552],[158.37843,54.46279],[158.37863,54.46815],[158.40508,54.52297],[158.39983,54.56652],[158.40333,54.57079],[158.43783,54.5943],[158.44499,54.59708],[158.45938,54.60021],[158.46246,54.60218],[158.46894,54.61105],[158.46787,54.61772],[158.46554,54.62047],[158.46075,54.63082],[158.46168,54.63417],[158.46646,54.63929],[158.47717,54.643],[158.52682,54.6694],[158.57726,54.67678],[158.60882,54.69044],[158.60574,54.69659],[158.60771,54.70025],[158.6103,54.70254],[158.633,54.71398],[158.63599,54.71768],[158.64044,54.72843],[158.64358,54.73188],[158.72447,54.76839],[158.73512,54.77228],[158.75057,54.78051],[158.75953,54.78664],[158.76999,54.79914],[158.77344,54.80898],[158.76819,54.86731],[158.77777,54.89566],[158.78469,54.90279],[158.82718,54.91947],[158.8311,54.92167],[158.83641,54.9268],[158.85106,54.95535],[158.85192,54.95966],[158.85105,54.96364],[158.84021,54.98578],[158.8397,54.99111],[158.84153,54.99743],[158.91838,55.1059],[158.92528,55.11166],[158.93365,55.11575],[159.00744,55.13904],[159.01581,55.14373],[159.09261,55.23213],[159.12519,55.25935],[159.16134,55.28299],[159.21777,55.33713],[159.22706,55.3477],[159.25869,55.36923],[159.2617,55.37309],[159.26425,55.38103],[159.26091,55.38993],[159.26128,55.40615],[159.26392,55.41189],[159.27076,55.42064],[159.31942,55.45324],[159.38079,55.48243],[159.42352,55.50815],[159.42947,55.51372],[159.46732,55.56711],[159.46943,55.57192],[159.46952,55.57691],[159.45151,55.66036],[159.45442,55.67289],[159.45409,55.67914],[159.4487,55.68813],[159.41288,55.71994],[159.40965,55.72504],[159.39544,55.79512],[159.3985,55.80348],[159.40522,55.81026],[159.47698,55.85631]],[[157.47098,53.20602],[157.47063,53.20618]],[[158.38243,53.19011],[158.38114,53.19249],[158.36996,53.20262],[158.35273,53.21435],[158.3456,53.22136],[158.32868,53.22808],[158.29409,53.24752],[158.28761,53.25346],[158.26957,53.26314],[158.26159,53.26955],[158.20281,53.27788],[158.16858,53.26782],[158.14463,53.26496],[158.07768,53.24789],[158.03334,53.2299],[157.97976,53.21927],[157.96065,53.21649],[157.93827,53.20483],[157.92933,53.19736],[157.92097,53.18287],[157.88964,53.15868],[157.88529,53.14693],[157.8739,53.13315],[157.86137,53.12745],[157.85458,53.12275],[157.85043,53.11277],[157.84254,53.10668],[157.83011,53.10491],[157.7865,53.10587],[157.76144,53.10369],[157.75283,53.10491],[157.74891,53.10703],[157.74345,53.11136],[157.7407,53.11999],[157.73394,53.12679],[157.7076,53.14171],[157.68606,53.15689],[157.68035,53.15951],[157.66203,53.17388],[157.62493,53.18322],[157.62041,53.18499],[157.61496,53.19008],[157.6053,53.19249],[157.59463,53.19343],[157.57624,53.19268],[157.52842,53.20064],[157.51208,53.20471],[157.49729,53.20484],[157.48691,53.20358],[157.47098,53.20602]],[[158.34252,53.07652],[158.33184,53.06895],[158.32935,53.06533],[158.33323,53.05687],[158.32417,53.04177],[158.31995,53.03911],[158.31083,53.03665],[158.30671,53.03066],[158.28285,53.02222],[158.27299,53.01451],[158.26582,53.0071],[158.26723,52.99985],[158.26515,52.99259],[158.242,52.97978],[158.24903,52.96714],[158.24901,52.96309],[158.24068,52.95872],[158.23964,52.95458],[158.23426,52.94531]],[[158.34252,53.07652],[158.3442,53.07685]],[[158.34365,53.0773],[158.34252,53.07652]],[[158.34448,53.07729],[158.34407,53.07742],[158.34365,53.0773]],[[158.34365,53.0773],[158.3442,53.07685]],[[158.3442,53.07685],[158.34597,53.07711]],[[158.3442,53.07685],[158.34448,53.07729]],[[158.34597,53.07711],[158.34448,53.07729]],[[158.50476,53.12477],[158.50241,53.123],[158.48781,53.11818],[158.47804,53.11701],[158.45736,53.11084],[158.44912,53.10532],[158.43605,53.10127],[158.4215,53.0939],[158.40893,53.08981],[158.40177,53.08343],[158.39653,53.081],[158.38286,53.0787],[158.34597,53.07711]],[[158.38285,53.18945],[158.38237,53.18945]],[[158.38243,53.19011],[158.38237,53.18945]],[[158.38237,53.18945],[158.3829,53.18904]],[[158.38285,53.18945],[158.38243,53.19011]],[[158.38301,53.18922],[158.38285,53.18945]],[[158.3829,53.18904],[158.38301,53.18922]],[[158.3829,53.18904],[158.38344,53.18884]],[[158.38344,53.18884],[158.38301,53.18922]],[[158.38344,53.18884],[158.38653,53.18595]],[[158.38933,53.18495],[158.3887,53.18627],[158.38653,53.18595]],[[158.38653,53.18595],[158.38886,53.18467]],[[158.38886,53.18467],[158.38928,53.18444]],[[158.38886,53.18467],[158.38929,53.18464],[158.38933,53.18495]],[[158.38928,53.18444],[158.38935,53.18474]],[[158.38928,53.18444],[158.38983,53.18424]],[[158.38983,53.18424],[158.38933,53.18495]],[[158.40221,53.18018],[158.39722,53.18272],[158.38983,53.18424]],[[158.40221,53.18018],[158.40395,53.17869]],[[158.40446,53.1793],[158.40221,53.18018]],[[158.40446,53.1793],[158.40395,53.17869]],[[158.40395,53.17869],[158.40465,53.17826]],[[158.40487,53.1793],[158.40446,53.1793]],[[158.40465,53.17826],[158.4061,53.1773]],[[158.40465,53.17826],[158.40517,53.17826],[158.40543,53.17849]],[[158.40624,53.17958],[158.40487,53.1793]],[[158.4055,53.17875],[158.40487,53.1793]],[[158.40543,53.17849],[158.4055,53.17875]],[[158.4061,53.1773],[158.40543,53.17849]],[[158.4055,53.17875],[158.40624,53.17958]],[[158.4061,53.1773],[158.41353,53.16996],[158.42036,53.16697],[158.43176,53.15936],[158.44248,53.14757],[158.46492,53.14084],[158.46754,53.14142],[158.47068,53.14526],[158.47387,53.1458],[158.49449,53.13644],[158.49832,53.12903],[158.50476,53.12477]],[[158.63639,53.08481],[158.63495,53.08808],[158.63178,53.09072],[158.61554,53.09476],[158.60641,53.10231],[158.60154,53.10498],[158.59433,53.10687],[158.58184,53.10724],[158.57581,53.1089],[158.5723,53.11154],[158.56937,53.11761],[158.5659,53.12059],[158.5069,53.14628],[158.4983,53.1533],[158.47585,53.18291],[158.46815,53.18817],[158.45979,53.19088],[158.44879,53.1925],[158.4372,53.19228],[158.42888,53.19004],[158.40624,53.17958]],[[158.50476,53.12477],[158.50996,53.12406],[158.51556,53.12175],[158.52177,53.11567],[158.52346,53.11214],[158.5227,53.10431],[158.52558,53.10043],[158.54747,53.09024],[158.57081,53.08266],[158.5729,53.08284],[158.57437,53.0805],[158.58768,53.07977]],[[158.58901,53.07982],[158.58768,53.07977]],[[158.58768,53.07977],[158.58856,53.0795]],[[158.5884,53.07893],[158.58919,53.07916]],[[158.58858,53.07931],[158.5884,53.07893]],[[158.5884,53.07893],[158.58147,53.07649],[158.59059,53.07152],[158.61516,53.06937],[158.62098,53.06768],[158.62602,53.06488],[158.63239,53.05816],[158.64238,53.05171],[158.65085,53.04927],[158.65325,53.04646],[158.66074,53.04293]],[[158.58901,53.07982],[158.58856,53.0795]],[[158.58856,53.0795],[158.58858,53.07931]],[[158.58858,53.07931],[158.58919,53.07916]],[[158.58919,53.07916],[158.58901,53.07982]],[[158.63639,53.08481],[158.63649,53.08396],[158.63649,53.08393],[158.63695,53.08094],[158.63707,53.07993],[158.6373,53.0791],[158.63714,53.07887]],[[158.63665,53.08395],[158.63639,53.08481]],[[158.63665,53.08395],[158.63649,53.08396]],[[158.63787,53.07896],[158.63665,53.08395]],[[158.63787,53.07896],[158.63714,53.07887]],[[158.63714,53.07887],[158.63745,53.07831]],[[158.63745,53.07831],[158.64148,53.06897],[158.63977,53.06535]],[[158.63745,53.07831],[158.63761,53.0783],[158.63778,53.07832],[158.63806,53.07843]],[[158.63806,53.07843],[158.63787,53.07896]],[[158.64042,53.06522],[158.64165,53.06907],[158.63806,53.07843]],[[158.64042,53.06522],[158.63977,53.06535]],[[158.63977,53.06535],[158.64038,53.06486]],[[158.64038,53.06486],[158.64108,53.06491]],[[158.64038,53.06486],[158.64042,53.06522]],[[158.64108,53.06491],[158.64042,53.06522]],[[158.66213,53.04842],[158.65155,53.05304],[158.65025,53.05444],[158.65037,53.05977],[158.64902,53.06216],[158.64108,53.06491]],[[158.6465,53.02513],[158.6462,53.02485]],[[158.6462,53.02485],[158.64436,53.02422],[158.65131,53.01241],[158.64669,53.02466]],[[158.64669,53.02466],[158.6462,53.02485]],[[158.6462,53.02485],[158.64638,53.02485],[158.64647,53.02487],[158.64655,53.02501]],[[158.6465,53.02513],[158.64656,53.02993],[158.64954,53.03269],[158.65348,53.03376],[158.65387,53.0353],[158.66139,53.04218]],[[158.64669,53.02466],[158.64655,53.02501],[158.6465,53.02513]],[[158.66074,53.04293],[158.66113,53.04257]],[[158.66152,53.04292],[158.66074,53.04293]],[[158.66113,53.04257],[158.66139,53.04218]],[[158.66113,53.04257],[158.66131,53.0425],[158.66146,53.04257]],[[158.66139,53.04218],[158.66146,53.04257]],[[158.66146,53.04257],[158.66152,53.04292]],[[158.66152,53.04292],[158.66207,53.04532]],[[158.66207,53.04532],[158.66294,53.04587]],[[158.66223,53.04636],[158.66208,53.04563],[158.66207,53.04532]],[[158.66213,53.04842],[158.66234,53.04704]],[[158.66366,53.04717],[158.66213,53.04842]],[[158.66218,53.0461],[158.66274,53.04591]],[[158.66234,53.04704],[158.66223,53.04636]],[[158.66223,53.04636],[158.66294,53.04587]],[[158.66366,53.04717],[158.66234,53.04704]],[[158.66294,53.04587],[158.66535,53.04597],[158.66366,53.04717]],[[158.67258,53.04381],[158.67266,53.04376]],[[158.72353,55.94792],[158.74623,55.96752],[158.77149,55.98496],[158.79855,56.00782],[158.80834,56.01124],[158.80892,56.0145],[158.81182,56.01675],[158.83404,56.02215],[158.84094,56.02477],[158.84431,56.02724],[158.84813,56.0263],[158.87196,56.03259],[158.88275,56.03741],[158.88796,56.04163],[158.89432,56.04358],[158.90207,56.05103],[158.90695,56.053],[158.9204,56.05627],[158.93399,56.05647],[158.93641,56.05741],[158.93895,56.06018],[158.94168,56.06078],[158.94631,56.06057],[158.95298,56.05813],[158.96334,56.05907],[158.99033,56.05543],[158.99947,56.0561],[159.00563,56.05945],[159.02878,56.05736],[159.04439,56.0552],[159.05354,56.05161],[159.06404,56.04433],[159.06469,56.04155],[159.06321,56.03765],[159.0543,56.03117],[159.05413,56.02926],[159.05832,56.029],[159.08954,56.02006],[159.11988,56.00593],[159.12743,56.00527],[159.1365,56.00153],[159.13888,55.99581],[159.15003,55.99115],[159.15067,55.98788],[159.15431,55.98317],[159.15151,55.97783],[159.16034,55.97474],[159.1606,55.97313],[159.15768,55.9705],[159.15752,55.96911],[159.16703,55.96224],[159.17102,55.96107],[159.20379,55.95826],[159.22159,55.95348],[159.23986,55.95138],[159.24623,55.94944],[159.25016,55.94634],[159.26104,55.93324],[159.27676,55.92056],[159.29099,55.91361],[159.33092,55.88966],[159.37981,55.86707],[159.39015,55.86482],[159.47698,55.85631]],[[159.99504,59.04619],[160.004,59.03665],[160.006,59.03272],[160.00516,59.03096],[160.00761,59.02378],[160.00021,59.01567],[160.00163,59.0121],[160.00058,59.00945],[159.99007,59.00737],[159.97393,59.00022],[159.96272,58.9982],[159.94618,58.99336],[159.91621,58.99484],[159.905,58.99223],[159.87224,58.97818],[159.86207,58.96962],[159.85377,58.96512],[159.83374,58.9584],[159.8071,58.9537],[159.76869,58.9381],[159.75811,58.91087],[159.7571,58.8999],[159.74331,58.87424],[159.73529,58.86444],[159.71958,58.85189],[159.72218,58.84781],[159.74109,58.83794],[159.7427,58.83541],[159.73826,58.82772],[159.72645,58.82473],[159.72278,58.82243],[159.71488,58.80655],[159.71621,58.80329],[159.71562,58.80151],[159.71166,58.79738],[159.71238,58.78324],[159.7114,58.77968],[159.69904,58.77452],[159.68693,58.77116],[159.6751,58.75883],[159.65166,58.75016],[159.60578,58.73942],[159.59322,58.74143],[159.58866,58.74089],[159.57793,58.73234],[159.56925,58.72797],[159.54591,58.72099],[159.53765,58.71525],[159.53528,58.71152],[159.52699,58.70474],[159.51966,58.69175],[159.52023,58.6859],[159.52475,58.68318],[159.55661,58.67045],[159.5679,58.66441],[159.57247,58.65979],[159.57233,58.65681],[159.56341,58.64148],[159.57865,58.6154],[159.57089,58.59863],[159.56916,58.54117],[159.59397,58.49646],[159.595,58.49219],[159.59433,58.47993],[159.5903,58.4757],[159.50455,58.43418],[159.5019,58.43144],[159.49181,58.41038],[159.46788,58.39084],[159.46965,58.36402],[159.46737,58.34499],[159.4645,58.34311],[159.44987,58.34092],[159.44778,58.33916],[159.45009,58.32843],[159.45096,58.30936],[159.45002,58.30679],[159.44645,58.30453],[159.44247,58.30372],[159.41141,58.30419],[159.39212,58.29474],[159.38423,58.29504],[159.36908,58.29863],[159.35937,58.29663],[159.35399,58.2924],[159.34803,58.26954],[159.34281,58.26455],[159.24707,58.23596],[159.21155,58.23174],[159.20736,58.23043],[159.19197,58.21766],[159.19712,58.20171],[159.19559,58.19956],[159.15951,58.19453],[159.15367,58.19275],[159.12591,58.17688],[159.10226,58.15482],[159.08575,58.1498],[159.07047,58.15161],[159.06173,58.15152],[159.04665,58.14798],[159.04631,58.14673],[159.04894,58.14208],[159.04802,58.14023],[159.03915,58.13831],[159.01746,58.11819],[159.01242,58.11494],[158.96747,58.10095],[158.96645,58.09862],[158.95404,58.09163],[158.91281,58.07906],[158.90647,58.06683],[158.89531,58.05911],[158.89058,58.05114],[158.89351,58.04808],[158.91082,58.0363],[158.91901,58.02875],[158.93382,58.00657],[158.95483,57.97317],[158.95519,57.96745],[158.95342,57.95544],[158.94836,57.95096],[158.93181,57.94215],[158.91683,57.93705],[158.91108,57.93355],[158.90239,57.92428],[158.90194,57.92161],[158.90333,57.91538],[158.90185,57.91135],[158.87589,57.87976],[158.86521,57.8713],[158.8307,57.85739],[158.82164,57.85541],[158.79367,57.8523],[158.78801,57.8485],[158.77822,57.83841],[158.77575,57.83398],[158.77204,57.80476],[158.77399,57.79863],[158.77368,57.79453],[158.75164,57.76873],[158.73175,57.75618],[158.70881,57.7632],[158.70275,57.76347],[158.69687,57.76209],[158.69459,57.76243],[158.69218,57.76443],[158.68629,57.76258],[158.68444,57.75753],[158.68916,57.7571],[158.68298,57.75107],[158.68358,57.74957],[158.68561,57.74878],[158.68388,57.74477],[158.67911,57.7401],[158.66617,57.73322],[158.66351,57.73334],[158.66143,57.73199],[158.65687,57.72366],[158.65093,57.71718],[158.6453,57.70918],[158.64286,57.70352],[158.63941,57.70002],[158.64207,57.68469],[158.6379,57.67207],[158.62239,57.66323],[158.61189,57.66178],[158.60608,57.65981],[158.60515,57.65507],[158.6067,57.64851],[158.60958,57.64365],[158.61222,57.63567],[158.61357,57.62789],[158.60595,57.62136],[158.60207,57.6161],[158.5999,57.60869],[158.59609,57.60605],[158.59527,57.60412],[158.59581,57.60254],[158.5934,57.59507],[158.59318,57.59007],[158.58565,57.58107],[158.58667,57.57766],[158.58619,57.56364],[158.58359,57.55131],[158.58017,57.54485],[158.58121,57.54153],[158.58301,57.54002],[158.5806,57.5344],[158.5852,57.51899],[158.58899,57.51282],[158.60199,57.5057],[158.60915,57.50402],[158.62715,57.4946],[158.62841,57.48658],[158.63086,57.48075],[158.64417,57.47012],[158.67271,57.46292],[158.67512,57.45769],[158.68063,57.45487],[158.68299,57.45235],[158.68269,57.45037],[158.70214,57.43309],[158.72267,57.43477],[158.74082,57.43116],[158.75978,57.42522],[158.76139,57.42305],[158.76228,57.42059],[158.76216,57.41215],[158.76046,57.40693],[158.76071,57.39672],[158.77105,57.37697],[158.77331,57.37473],[158.77836,57.37283],[158.77988,57.36563],[158.77685,57.36315],[158.7614,57.35875],[158.75859,57.35492],[158.76056,57.33721],[158.76391,57.33292],[158.76906,57.32907],[158.77125,57.32329],[158.76816,57.31805],[158.75302,57.30447],[158.74374,57.29996],[158.74162,57.29511],[158.74595,57.29089],[158.74697,57.28389],[158.76267,57.26572],[158.77473,57.25921],[158.77998,57.25504],[158.77953,57.25123],[158.78304,57.2439],[158.77724,57.23542],[158.76836,57.22539],[158.7552,57.21587],[158.75282,57.21555],[158.75304,57.21455],[158.74991,57.21222],[158.74686,57.2079],[158.74006,57.20386],[158.73622,57.2001],[158.72195,57.1926],[158.71562,57.18711],[158.71036,57.18455],[158.70485,57.17714],[158.69431,57.17321],[158.69431,57.17158],[158.69261,57.17122],[158.68787,57.16411],[158.68835,57.15955],[158.68174,57.15116],[158.68505,57.14398],[158.68376,57.14181],[158.6741,57.13382],[158.67538,57.12869],[158.67346,57.12662],[158.67248,57.12235],[158.67662,57.11821],[158.67305,57.11454],[158.67244,57.10921],[158.66933,57.1057],[158.66914,57.101],[158.66299,57.09195],[158.66389,57.08121],[158.65936,57.07637],[158.65996,57.0692],[158.66243,57.0637],[158.66706,57.06019],[158.67363,57.05861],[158.68525,57.05263],[158.6966,57.04992],[158.69741,57.04467],[158.69381,57.03956],[158.69433,57.03657],[158.69261,57.033],[158.68344,57.02791],[158.67219,57.0257],[158.66772,57.02387],[158.66296,57.01987],[158.64989,57.01599],[158.64706,57.01166],[158.64695,57.00556],[158.6418,56.98905],[158.64085,56.98739],[158.63664,56.98555],[158.6306,56.98068],[158.61449,56.97365],[158.59505,56.97108],[158.59676,56.96833],[158.594,56.96016],[158.59553,56.9563],[158.60122,56.95034],[158.60641,56.9469],[158.60606,56.93697],[158.61234,56.93122],[158.6121,56.92914],[158.61759,56.92638],[158.61813,56.92521],[158.61493,56.92243],[158.61504,56.92042],[158.61877,56.91149],[158.61839,56.90912],[158.62037,56.90664],[158.61914,56.90066],[158.61559,56.89645],[158.61213,56.88888],[158.60716,56.88589],[158.60583,56.88196],[158.6014,56.87833],[158.59693,56.87234],[158.59732,56.86771],[158.60069,56.86564],[158.60208,56.86253],[158.60097,56.85954],[158.60577,56.8566],[158.60466,56.85102],[158.60274,56.84817],[158.60191,56.83542],[158.60642,56.82764],[158.61211,56.80874],[158.6163,56.80312],[158.62223,56.79815],[158.62756,56.79571],[158.65561,56.78787],[158.66449,56.78319],[158.66785,56.7795],[158.69247,56.77293],[158.70006,56.76825],[158.72778,56.75512],[158.74441,56.74451],[158.75825,56.73765],[158.78981,56.72639],[158.80364,56.72445],[158.80995,56.72197],[158.82632,56.71902],[158.86547,56.7038],[158.8867,56.70048],[158.89242,56.70088],[158.8985,56.69833],[158.91299,56.69707],[158.91944,56.69171],[158.92004,56.68885],[158.92283,56.68659],[158.92776,56.68451],[158.93571,56.67745],[158.9437,56.67356],[158.94655,56.67021],[158.9813,56.65847],[158.99469,56.65542],[159.00497,56.64905],[159.01111,56.63287],[159.01869,56.6253],[159.02418,56.62263],[159.02774,56.61944],[159.032,56.61395],[159.03763,56.60297],[159.04281,56.60035],[159.04592,56.59659],[159.05045,56.59515],[159.05256,56.59586],[159.05384,56.59406],[159.05285,56.59193],[159.05469,56.58804],[159.05364,56.5852],[159.04385,56.57838],[159.04517,56.57627],[159.04446,56.57539],[159.04567,56.57456],[159.045,56.57279],[159.04257,56.57137],[159.04743,56.56928],[159.03989,56.56569],[159.0385,56.5638],[159.03991,56.55135],[159.04165,56.54997],[159.04519,56.54142],[159.045,56.53774],[159.05106,56.53218],[159.05341,56.52822],[159.05049,56.52272],[159.05077,56.52083],[159.04249,56.50953],[159.04316,56.504],[159.04557,56.4985],[159.04848,56.49645],[159.04897,56.49327],[159.06144,56.48414],[159.05957,56.47543],[159.07673,56.46646],[159.07987,56.46113],[159.0822,56.45933],[159.08385,56.45515],[159.08379,56.45305],[159.08229,56.45251],[159.0626,56.44879],[159.05422,56.44932],[159.04536,56.45229],[159.03365,56.45406],[159.01482,56.44653],[159.0095,56.4467],[159.00433,56.4445],[159.00198,56.43955],[158.99788,56.43586],[158.9744,56.42748],[158.94818,56.41257],[158.94324,56.40139],[158.94462,56.39601],[158.94357,56.3877],[158.93983,56.37943],[158.94053,56.37379],[158.9422,56.37136],[158.9419,56.36714],[158.93831,56.35946],[158.93333,56.35592],[158.90862,56.34541],[158.9055,56.34094],[158.89837,56.33555],[158.90253,56.32218],[158.90084,56.3198],[158.90205,56.31373],[158.90705,56.308],[158.90749,56.30302],[158.90653,56.30077],[158.90403,56.29705],[158.89013,56.28477],[158.87742,56.27632],[158.86581,56.26498],[158.85869,56.26059],[158.8557,56.25664],[158.85584,56.25373],[158.85406,56.25095],[158.85527,56.24806],[158.85508,56.2413],[158.85772,56.23803],[158.85875,56.22959],[158.85577,56.22604],[158.85477,56.22156],[158.85225,56.21854],[158.84865,56.21044],[158.84883,56.1991],[158.85012,56.19279],[158.85426,56.1877],[158.86865,56.17622],[158.87593,56.17211],[158.8845,56.16923],[158.89741,56.15205],[158.9058,56.15012],[158.91564,56.13901],[158.91874,56.12631],[158.92107,56.12256],[158.92636,56.11808],[158.93894,56.09222],[158.93821,56.08908],[158.92926,56.07989],[158.92802,56.07469],[158.93086,56.07048],[158.93416,56.06129],[158.93785,56.05934]],[[159.47698,55.85631],[159.49158,55.86488],[159.57385,55.89994],[159.64592,55.91464],[159.69443,55.92719],[159.72122,55.92948],[159.73442,55.93301],[159.82703,56.00091],[159.88505,56.03898],[159.89272,56.04281],[159.93191,56.05618],[159.94301,56.06181],[159.95037,56.06882],[159.97794,56.11114],[159.97925,56.11765],[159.97902,56.14897],[159.98227,56.15754],[160.03487,56.2062],[160.04662,56.21288],[160.17105,56.24502],[160.27992,56.2901],[160.36391,56.32322],[160.44593,56.321],[160.47975,56.31776],[160.49358,56.31761],[160.65047,56.33607],[160.67798,56.33286],[160.70024,56.33198],[160.74581,56.32526],[160.80518,56.32327],[160.80759,56.32244],[160.81461,56.31649],[160.83244,56.31488],[160.83651,56.31894],[160.83886,56.32365],[160.84247,56.32643],[160.84319,56.33145],[160.84044,56.33381],[160.84202,56.33807],[160.86246,56.3487],[160.86396,56.35222],[160.87106,56.35592],[160.87999,56.35719],[160.88979,56.36086],[160.89382,56.36366],[160.89538,56.37364],[160.89867,56.3788],[160.89456,56.38309],[160.89089,56.39372],[160.8907,56.3986],[160.89281,56.40512],[160.89941,56.41091],[160.90259,56.41751],[160.91113,56.42975],[160.92195,56.43935],[160.92697,56.44196],[160.94333,56.44607],[160.96871,56.44529],[160.97312,56.4441],[160.98036,56.43975],[160.98532,56.43905],[161.00037,56.44169],[161.03495,56.44513],[161.04094,56.44474],[161.12874,56.43152],[161.14354,56.42655],[161.17665,56.42608],[161.20426,56.421],[161.23164,56.42071],[161.25359,56.42643],[161.32591,56.42743],[161.34047,56.43159],[161.3491,56.43289],[161.37799,56.43261],[161.38878,56.43532],[161.43947,56.45832],[161.51319,56.471],[161.56232,56.48946],[161.62552,56.50255],[161.69478,56.51949],[161.70475,56.51962],[161.73857,56.51203],[161.74512,56.51211],[161.77178,56.52616],[161.78951,56.53229],[161.79718,56.53385],[161.79932,56.53926],[161.8193,56.55165],[161.82825,56.55009],[161.83588,56.55202],[161.84563,56.55098],[161.85865,56.5439],[161.86897,56.54144],[161.8888,56.53899],[161.8965,56.54006],[161.90673,56.54478],[161.91654,56.54625],[161.93762,56.54715],[161.94188,56.54532],[161.94705,56.53948],[161.95559,56.53841],[161.95909,56.53694],[161.96114,56.53241],[161.96859,56.52831],[161.98095,56.51259],[162.00016,56.50979],[162.00537,56.50768],[162.0071,56.50428],[162.00579,56.49485],[162.00647,56.48932],[162.01346,56.46591],[162.0152,56.4629],[162.0287,56.45441],[162.03736,56.43941],[162.05497,56.42629],[162.0618,56.42201],[162.09736,56.40466],[162.10301,56.40033],[162.12741,56.35566],[162.12904,56.34974],[162.14123,56.34648],[162.14727,56.33826],[162.14954,56.32626],[162.15716,56.31948],[162.15869,56.31685],[162.16056,56.30157],[162.16289,56.29646],[162.1621,56.29027],[162.16342,56.28769],[162.16654,56.28519],[162.17321,56.28234],[162.20472,56.27518],[162.23507,56.27177],[162.25929,56.26399],[162.26967,56.2623],[162.31606,56.26589],[162.3432,56.27308],[162.36223,56.27243],[162.37051,56.26893],[162.39211,56.26405],[162.42671,56.25886],[162.43928,56.25814],[162.44812,56.25491],[162.46536,56.2515],[162.47498,56.25114],[162.49427,56.24199],[162.50314,56.24005],[162.51248,56.23528],[162.51518,56.23575]]]}},{"type":"Feature","properties":{"roadClass":"secondary"},"geometry":{"type":"MultiLineString","coordinates":[[[156.27135,52.82958],[156.28521,52.83338],[156.30444,52.842],[156.33387,52.84816],[156.41892,52.88046],[156.45539,52.88598],[156.50665,52.89857],[156.51945,52.90278],[156.53896,52.91262],[156.56039,52.93115],[156.57222,52.93607],[156.58207,52.93767],[156.5915,52.9455],[156.60113,52.94926],[156.60914,52.95097],[156.61597,52.95458],[156.62149,52.96043],[156.6338,52.96859],[156.63576,52.97684],[156.63412,52.98692],[156.65225,52.99705],[156.67874,53.00484],[156.68293,53.01012],[156.69279,53.01719],[156.69685,53.02716],[156.72384,53.03607],[156.73564,53.03807],[156.74253,53.04218],[156.78237,53.05201],[156.79213,53.05733],[156.80375,53.06131],[156.82327,53.06231],[156.88186,53.08504],[156.8829,53.09907],[156.85905,53.12093],[156.86209,53.12883],[156.86135,53.14037],[156.87289,53.16124],[156.87633,53.16425],[156.88347,53.18047],[156.88136,53.2057],[156.8778,53.21215],[156.87879,53.21658],[156.86582,53.22434],[156.84431,53.24201],[156.83176,53.29955],[156.82742,53.30439],[156.82685,53.3093],[156.81586,53.32846],[156.76569,53.34042],[156.72788,53.35856],[156.70989,53.36174],[156.70896,53.36304],[156.70951,53.37192],[156.70817,53.37435],[156.67825,53.39732],[156.67363,53.43333],[156.67325,53.44332],[156.67197,53.44515],[156.67148,53.46102],[156.66896,53.46437],[156.67151,53.48108],[156.68369,53.51135],[156.68562,53.54931],[156.68291,53.57096],[156.68444,53.57872],[156.67291,53.59018],[156.63254,53.64185],[156.64285,53.66945],[156.64226,53.67617],[156.64529,53.68424],[156.64344,53.6872],[156.63014,53.70538],[156.60396,53.72355],[156.59704,53.72495],[156.57,53.73729],[156.55692,53.74752],[156.55403,53.75635],[156.48955,53.79889],[156.4792,53.82179],[156.4799,53.83304],[156.46483,53.83844],[156.46189,53.84235],[156.41806,53.87125],[156.41359,53.87964],[156.40194,53.89438],[156.4011,53.91541],[156.39927,53.92248],[156.37125,54.00278],[156.34599,54.0405],[156.34482,54.04375],[156.28737,54.08351],[156.28872,54.09657],[156.29982,54.1046],[156.32795,54.11652],[156.35074,54.12254],[156.37616,54.16093],[156.37544,54.16988],[156.37724,54.17162],[156.37294,54.2241],[156.38096,54.24187],[156.37765,54.27365],[156.37288,54.27971],[156.37622,54.28134],[156.37727,54.28446],[156.37238,54.28793],[156.31809,54.31593],[156.3164,54.31984],[156.27598,54.34867],[156.21438,54.34537],[156.20587,54.34764],[156.12013,54.3464],[156.10486,54.34532],[156.1017,54.34298],[156.10187,54.33324],[156.10397,54.32081],[156.09494,54.31315],[156.06481,54.31405],[156.04943,54.31592],[156.04336,54.31523],[156.03482,54.31699],[155.9942,54.30732],[155.99107,54.30802],[155.98438,54.31248],[155.98242,54.31258],[155.97868,54.31094],[155.97018,54.30979],[155.96002,54.30482]],[[158.23426,52.94531],[158.22178,52.94441],[158.20662,52.93053],[158.20498,52.91807],[158.19861,52.9064],[158.18821,52.89548],[158.1882,52.8894],[158.17872,52.88406],[158.17152,52.87699],[158.15608,52.86698],[158.153,52.86284],[158.15331,52.86069],[158.15729,52.8561],[158.15799,52.85308],[158.15532,52.84536],[158.15199,52.84106],[158.1519,52.83855],[158.16319,52.83176],[158.16603,52.82491],[158.17027,52.82013],[158.17198,52.81291],[158.17154,52.79456],[158.17523,52.7878],[158.17612,52.78078],[158.1813,52.77699],[158.18137,52.77377],[158.17943,52.76886],[158.18083,52.76201],[158.18435,52.75827],[158.18492,52.7542],[158.19201,52.74819],[158.19872,52.74057],[158.2078,52.73864],[158.21296,52.72205],[158.21127,52.71727],[158.20339,52.71156],[158.1836,52.70186],[158.16837,52.69658],[158.15869,52.6893],[158.16336,52.68937],[158.16045,52.68717],[158.16101,52.68574],[158.16706,52.68759],[158.16473,52.68601],[158.16525,52.68493],[158.1676,52.68629],[158.16747,52.68481],[158.1742,52.68422],[158.17462,52.68241],[158.17678,52.68206],[158.17391,52.68073],[158.18291,52.6772],[158.18454,52.67176],[158.18041,52.67154],[158.17918,52.66966],[158.17603,52.67044],[158.16748,52.66799],[158.15868,52.66409],[158.15899,52.66217],[158.15538,52.65835],[158.15056,52.64231],[158.14599,52.63493],[158.14823,52.6318],[158.14805,52.63024],[158.13956,52.62608],[158.13833,52.62303],[158.12708,52.60803],[158.12401,52.59704],[158.12622,52.59081],[158.12544,52.58732],[158.13561,52.57299],[158.1396,52.57158],[158.15965,52.57013],[158.17129,52.56415],[158.18129,52.56435],[158.1917,52.56216],[158.19264,52.56103],[158.19114,52.5585],[158.19137,52.55626],[158.19471,52.55406],[158.19981,52.55302],[158.19942,52.55043],[158.2026,52.54666],[158.20215,52.54083]],[[158.40384,52.93945],[158.40709,52.94248],[158.41087,52.94877],[158.40464,52.95592],[158.39199,52.9579],[158.38117,52.96242],[158.37792,52.96485],[158.35553,52.96999],[158.34326,52.97594],[158.32723,52.98046],[158.30307,52.98205],[158.29444,52.98709],[158.29119,52.99587],[158.28741,52.9983],[158.28229,52.999],[158.26643,52.99631]],[[158.34452,53.07793],[158.34365,53.0773]],[[158.34448,53.07729],[158.34452,53.07793]],[[158.34452,53.07793],[158.34696,53.08085],[158.36013,53.11648],[158.3581,53.12212],[158.36475,53.12962],[158.36817,53.1384],[158.37092,53.14202],[158.37564,53.16815],[158.38009,53.17191],[158.38416,53.18401],[158.38265,53.18863]],[[158.37304,53.19249],[158.37336,53.19246]],[[158.37323,53.18628],[158.37381,53.18614]],[[158.38244,53.1891],[158.38265,53.18863]],[[158.38265,53.18863],[158.38273,53.189]],[[158.40313,52.93895],[158.4031,52.93849]],[[158.4031,52.93849],[158.40371,52.93806]],[[158.4031,52.93849],[158.40329,52.93845],[158.4037,52.93852]],[[158.40368,52.93893],[158.40335,52.93899],[158.40313,52.93895]],[[158.40384,52.93945],[158.40313,52.93895]],[[158.40368,52.93893],[158.40384,52.93945]],[[158.4037,52.93852],[158.40368,52.93893]],[[158.40371,52.93806],[158.4037,52.93852]],[[158.42996,52.90428],[158.43222,52.90605],[158.4239,52.91321],[158.42246,52.91587],[158.4233,52.91771],[158.42266,52.91872],[158.41728,52.92003],[158.40615,52.9255],[158.40584,52.93585],[158.40371,52.93806]],[[158.42389,53.18456],[158.42405,53.1846],[158.42411,53.18462]],[[158.42587,53.18242],[158.42564,53.18254],[158.42405,53.1846],[158.42215,53.18698],[158.42389,53.18456],[158.42546,53.18251],[158.42552,53.18233]],[[158.42588,53.18188],[158.4261,53.18178]],[[158.4261,53.18178],[158.42613,53.18193]],[[158.4261,53.18178],[158.42621,53.18152],[158.42692,53.1799],[158.42697,53.17985],[158.42859,53.18009],[158.428,53.18151],[158.42621,53.18152]],[[158.42844,53.18],[158.42979,53.18042],[158.42914,53.18173],[158.42778,53.18157]],[[158.42996,52.90428],[158.42904,52.90385],[158.42869,52.90326]],[[158.42869,52.90326],[158.4287,52.90265]],[[158.42869,52.90326],[158.42898,52.90323]],[[158.4287,52.90265],[158.42898,52.90323]],[[158.4287,52.90265],[158.42952,52.89896],[158.42791,52.89326],[158.42992,52.89193],[158.43582,52.89093],[158.43903,52.89131],[158.44509,52.89472],[158.45958,52.89431],[158.46538,52.89595],[158.4727,52.89508],[158.49034,52.88912],[158.50169,52.88807],[158.50958,52.88801],[158.51698,52.89088],[158.52237,52.89171],[158.54975,52.88853],[158.5523,52.88983],[158.55293,52.89198],[158.54293,52.89849],[158.54021,52.90482],[158.54075,52.90769],[158.53806,52.91191],[158.5257,52.91559],[158.51975,52.91607]],[[158.42898,52.90323],[158.42996,52.90428]],[[158.47484,53.1454],[158.47818,53.14908],[158.49556,53.15696]],[[158.53569,53.13353],[158.53375,53.13205],[158.51848,53.12708],[158.50476,53.12477]],[[158.57251,54.67595],[158.57126,54.67899],[158.5722,54.6816],[158.58038,54.68899],[158.58755,54.69312],[158.6089,54.70193]],[[158.60882,54.69044],[158.63223,54.70132],[158.63825,54.70022],[158.67296,54.71843],[158.71178,54.73109],[158.72861,54.74053],[158.73859,54.7428],[158.74404,54.74283],[158.75428,54.74697],[158.76025,54.75579],[158.76695,54.77069],[158.77072,54.77239],[158.7662,54.777],[158.7652,54.78534],[158.7669,54.79016],[158.76449,54.79185]],[[158.60925,54.70173],[158.6089,54.70193]],[[158.6089,54.70193],[158.6103,54.70254]],[[158.62739,53.06729],[158.62624,53.06584],[158.61623,53.06125]],[[158.62824,53.06494],[158.62646,53.06442]],[[158.62788,53.0629],[158.62824,53.06494]],[[158.63882,53.06526],[158.62933,53.06697],[158.62824,53.06494]],[[158.63648,53.08406],[158.62274,53.08391],[158.61479,53.07791],[158.62308,53.07725],[158.63662,53.07854]],[[158.63714,53.07887],[158.63662,53.07854]],[[158.63662,53.07854],[158.63715,53.07842]],[[158.64931,53.07428],[158.65345,53.06596],[158.64743,53.06319],[158.63787,53.05462]],[[158.63874,53.07883],[158.63787,53.07896]],[[158.63806,53.07843],[158.63874,53.07883]],[[158.63874,53.07883],[158.64687,53.08007]],[[158.63882,53.06526],[158.63949,53.06494]],[[158.63964,53.0653],[158.63926,53.06525],[158.63882,53.06526]],[[158.63964,53.06481],[158.63995,53.06416]],[[158.63995,53.06416],[158.64025,53.06479]],[[158.63995,53.06416],[158.62777,53.05518],[158.61931,53.05848],[158.6142,53.05709],[158.61062,53.05782],[158.61186,53.05557],[158.61149,53.05219],[158.61655,53.04726],[158.61635,53.04436],[158.61747,53.04272],[158.62373,53.03805],[158.62823,53.03648],[158.62963,53.03462],[158.63964,53.03311],[158.65721,53.03716]],[[158.64931,53.07428],[158.64407,53.07346],[158.64327,53.07333],[158.64208,53.07315],[158.64054,53.07291]],[[158.64292,53.06931],[158.64208,53.07315]],[[158.65387,53.0353],[158.63842,53.03144],[158.63823,53.03029],[158.64378,53.0248]],[[158.64378,53.0248],[158.64436,53.02422]],[[158.64389,53.02477],[158.64378,53.0248]],[[158.6444,53.0245],[158.64389,53.02477]],[[158.64485,53.02465],[158.64389,53.02477]],[[158.65214,53.08095],[158.64687,53.08007]],[[158.64687,53.08007],[158.64931,53.07428]],[[158.65156,53.05865],[158.65037,53.05977]],[[158.65122,53.05889],[158.65042,53.05922]],[[158.65043,53.05915],[158.65126,53.05878]],[[158.65043,53.05862],[158.65126,53.05878]],[[158.65098,53.01246],[158.65141,53.01202]],[[158.65126,53.05878],[158.65156,53.05865]],[[158.65141,53.01202],[158.65143,53.01253]],[[158.65141,53.01202],[158.65806,53.00704],[158.65729,53.00458],[158.65842,53.00137]],[[158.67128,53.04499],[158.67623,53.04569],[158.67957,53.04759],[158.67896,53.05301],[158.67607,53.05629],[158.67187,53.05729],[158.66262,53.05445],[158.65615,53.05598],[158.65156,53.05865]],[[158.65348,53.03376],[158.65468,53.03403]],[[158.65468,53.03403],[158.65374,53.03417]],[[158.65468,53.03403],[158.66355,53.03577]],[[158.65721,53.03716],[158.65682,53.03743]],[[158.65721,53.03716],[158.65918,53.03736],[158.66363,53.03607]],[[158.65842,53.00137],[158.65833,53.00061],[158.65946,53.00007]],[[158.65946,53.00007],[158.65901,53.0005],[158.65901,53.00059],[158.65904,53.00112],[158.65918,53.00165],[158.65997,53.00177],[158.65918,53.00081],[158.65884,53.00081],[158.65859,53.00091],[158.65842,53.00137]],[[158.65946,53.00007],[158.66297,52.99769],[158.66302,52.9967],[158.66081,52.9955],[158.66707,52.99369],[158.6724,52.98476],[158.67624,52.98452],[158.68067,52.98166],[158.68731,52.98165],[158.68792,52.97774],[158.69349,52.9757],[158.6944,52.97416]],[[158.66355,53.03577],[158.6647,53.03594]],[[158.66363,53.03607],[158.66355,53.03577]],[[158.6647,53.03594],[158.66363,53.03607]],[[158.66429,53.04575],[158.66728,53.04539]],[[158.67434,53.03601],[158.6647,53.03594]],[[158.66728,53.04539],[158.66518,53.04631]],[[158.66728,53.04539],[158.67035,53.04499]],[[158.67035,53.04499],[158.67114,53.04461]],[[158.67035,53.04499],[158.67085,53.04498],[158.67128,53.04499]],[[158.67114,53.04461],[158.67128,53.04499]],[[158.67114,53.04461],[158.67258,53.04381]],[[158.67266,53.04376],[158.67923,53.03956],[158.6753,53.03657]],[[158.6753,53.03657],[158.67434,53.03601]],[[158.67434,53.03601],[158.67472,53.0359],[158.6753,53.03657]],[[162.51518,56.23575],[162.51813,56.23849],[162.53608,56.23953]],[[158.42559,53.18237],[158.42562,53.18191],[158.42628,53.18207],[158.42612,53.18236],[158.42559,53.18237]]]}},{"type":"Feature","properties":{"roadClass":"tertiary"},"geometry":{"type":"MultiLineString","coordinates":[[[155.85379,54.6892],[155.85473,54.6979],[155.85369,54.69904],[155.82728,54.71524],[155.8012,54.7247],[155.79148,54.72717],[155.79255,54.7463],[155.78964,54.74852],[155.78642,54.74862],[155.7923,54.75356],[155.78858,54.75964],[155.78489,54.76173],[155.78258,54.76944],[155.78281,54.77259],[155.7866,54.7773],[155.76258,54.77778],[155.75173,54.78208],[155.74428,54.77987],[155.73167,54.78174],[155.72382,54.78536],[155.71548,54.79263],[155.71299,54.79353],[155.7001,54.8054],[155.69726,54.81045],[155.64117,54.82979],[155.63701,54.82987],[155.63627,54.83103]],[[155.93893,54.29447],[155.93791,54.29611],[155.94222,54.29798],[155.94564,54.30161],[155.95635,54.30505],[155.96002,54.30482],[155.93691,54.29304],[155.93348,54.29356],[155.92873,54.29113],[155.92166,54.2864],[155.91775,54.28156],[155.91472,54.28097],[155.92818,54.27333],[155.92807,54.25695],[155.92442,54.25247],[155.90796,54.24213],[155.9035,54.23658],[155.89846,54.2267],[155.88955,54.2207],[155.88944,54.21915],[155.89384,54.21337],[155.89526,54.20898],[155.89179,54.1847],[155.88797,54.18226],[155.86877,54.17962],[155.84126,54.16936],[155.84434,54.15553]],[[155.85376,54.68636],[155.85379,54.6892]],[[155.85379,54.6892],[155.85342,54.68887],[155.85376,54.68636]],[[155.85376,54.68636],[155.84883,54.67647],[155.85279,54.66795],[155.86127,54.66747],[155.9309,54.64487],[155.92036,54.62566],[155.96162,54.60788],[155.97275,54.59784],[155.98591,54.59012],[156.02412,54.56224],[156.11002,54.5393],[156.15257,54.51886],[156.1572,54.51761],[156.15466,54.51207],[156.16142,54.50144],[156.16266,54.49545],[156.18989,54.48344],[156.21091,54.46389],[156.20961,54.4205],[156.20787,54.41319],[156.20929,54.41183],[156.20936,54.40782],[156.21205,54.40524],[156.21186,54.40268],[156.21579,54.39815],[156.22316,54.37942],[156.26693,54.35562],[156.27633,54.34884]],[[156.26104,52.62784],[156.2511,52.64796],[156.24512,52.65524],[156.24122,52.66274],[156.24186,52.66407],[156.23428,52.67442],[156.2224,52.69359],[156.22016,52.69947],[156.21486,52.70581],[156.20774,52.71822],[156.18579,52.76348],[156.1767,52.78569],[156.17912,52.78816],[156.23675,52.81953],[156.24633,52.82366],[156.27135,52.82958],[156.27461,52.82393],[156.28008,52.81997],[156.292,52.82175],[156.29871,52.82057]],[[156.27633,54.34884],[156.27598,54.34867]],[[156.27654,54.34853],[156.27633,54.34884]],[[157.04262,52.90502],[157.04199,52.91655]],[[157.30756,52.89119],[157.3023,52.8946],[157.28251,52.89451],[157.26403,52.89908],[157.25421,52.90556],[157.21607,52.91085],[157.19733,52.91101],[157.16169,52.91618],[157.15924,52.91884],[157.15579,52.91992],[157.14748,52.92578],[157.12454,52.92439]],[[157.14276,55.30407],[157.14173,55.30368],[157.14622,55.30631],[157.13946,55.30426],[157.14058,55.3061],[157.12728,55.30045],[157.13529,55.30781],[157.13951,55.30971],[157.14224,55.31231],[157.14946,55.31427],[157.15445,55.3182],[157.16631,55.31921],[157.17436,55.31844],[157.17989,55.31992],[157.18075,55.3197]],[[157.22455,55.30718],[157.22633,55.30758],[157.22271,55.30657],[157.22328,55.30342],[157.22169,55.30257],[157.22228,55.30011],[157.22106,55.29971],[157.21686,55.30662],[157.21265,55.30431],[157.2009,55.30894],[157.18941,55.31633],[157.17988,55.31946],[157.20413,55.32146],[157.22976,55.32932],[157.23516,55.3334],[157.24484,55.33443],[157.257,55.33797],[157.27418,55.33969],[157.2886,55.33931],[157.29384,55.33598],[157.30105,55.33618],[157.3322,55.32861],[157.33392,55.32623],[157.34019,55.32299],[157.3449,55.32237],[157.34799,55.31978],[157.35238,55.31879],[157.35401,55.32241],[157.37803,55.33051],[157.39993,55.32934],[157.41074,55.32359],[157.41408,55.32574],[157.41374,55.3267],[157.41563,55.3288],[157.4176,55.32916],[157.42601,55.32857],[157.43331,55.32988],[157.43339,55.32691],[157.4352,55.32607],[157.44087,55.32788],[157.4751,55.35567],[157.47762,55.35624],[157.48669,55.35474],[157.50043,55.36209],[157.52317,55.37103],[157.53142,55.37302],[157.53313,55.37677],[157.53863,55.3778],[157.54043,55.37594],[157.54764,55.37892],[157.54876,55.3834],[157.55708,55.3933],[157.56309,55.40553],[157.56232,55.4068],[157.57196,55.41708],[157.57081,55.42011],[157.5711,55.4296],[157.57699,55.44255],[157.58824,55.45667],[157.5921,55.45902],[157.59631,55.46703],[157.60214,55.47142],[157.60291,55.47107],[157.60249,55.46903],[157.60462,55.46702],[157.60703,55.46679],[157.60892,55.46802],[157.60712,55.4701],[157.61115,55.47277],[157.6163,55.47331],[157.62102,55.47721],[157.62154,55.47979],[157.62643,55.48169],[157.63124,55.486],[157.63458,55.48232],[157.63493,55.47887],[157.64651,55.4722],[157.65552,55.47152],[157.6672,55.46807],[157.67621,55.46675],[157.68016,55.46411],[157.68917,55.46408],[157.6902,55.46309],[157.68951,55.46116],[157.69627,55.45782],[157.69714,55.4563],[157.70415,55.45433],[157.7098,55.45046],[157.71672,55.44885],[157.72325,55.44358],[157.72465,55.44329],[157.72918,55.44656],[157.73141,55.45244],[157.73921,55.45273],[157.74352,55.44444],[157.74468,55.43752],[157.74953,55.43135],[157.74727,55.42578],[157.75002,55.41828],[157.75413,55.41631],[157.75703,55.41226],[157.76853,55.40838],[157.78082,55.40174],[157.78723,55.40149],[157.79169,55.4001],[157.79571,55.39676],[157.79731,55.39381],[157.79586,55.39049],[157.80315,55.38358],[157.80805,55.37639],[157.81365,55.3771],[157.81584,55.37496],[157.81193,55.37206],[157.80369,55.36847],[157.79088,55.36776],[157.78779,55.3667],[157.78015,55.36125],[157.77832,55.35836],[157.76338,55.34981],[157.76183,55.34824],[157.76173,55.34374],[157.75761,55.34217],[157.75549,55.3391],[157.75759,55.33672],[157.77099,55.33324],[157.7826,55.32881],[157.78431,55.32548],[157.78808,55.32585],[157.79202,55.32334],[157.8037,55.32141],[157.80758,55.31915],[157.80772,55.31627],[157.8053,55.31368],[157.80288,55.3082],[157.80691,55.30582],[157.80962,55.30155],[157.80972,55.29857],[157.81254,55.29407],[157.81395,55.28545],[157.82123,55.27919],[157.83143,55.27555],[157.83009,55.2728],[157.83414,55.2671],[157.83441,55.26366],[157.83565,55.26249],[157.83479,55.25889],[157.83646,55.25231],[157.83355,55.24807],[157.83279,55.24418],[157.83459,55.24106],[157.83271,55.238],[157.82798,55.23489],[157.82684,55.23192],[157.81654,55.22322],[157.81943,55.22055],[157.81889,55.21725],[157.81978,55.21484],[157.82271,55.21337],[157.82691,55.20649],[157.82642,55.20014],[157.82956,55.19454],[157.83288,55.19294],[157.83662,55.1931],[157.84361,55.18936],[157.84909,55.18409],[157.85645,55.18277],[157.86311,55.17568],[157.87606,55.16664],[157.88527,55.16416],[157.88776,55.16018],[157.88798,55.15774],[157.88464,55.15235],[157.88779,55.14953],[157.89573,55.13722],[157.89892,55.1341],[157.90073,55.12786],[157.90331,55.12666],[157.90872,55.11989],[157.92297,55.10724],[157.92933,55.10372],[157.93368,55.10303],[157.94617,55.09763],[157.95598,55.09635],[157.96834,55.07925],[157.97584,55.07372],[157.98139,55.07223],[157.98479,55.06883],[157.98391,55.06656],[157.98454,55.06549],[157.99136,55.06271],[157.99454,55.05613],[158.00272,55.05257],[158.00803,55.04834],[158.01658,55.03748],[158.03247,55.02889],[158.038,55.02772],[158.04015,55.02552],[158.04871,55.02176],[158.0508,55.01724],[158.05039,55.01322],[158.05275,55.01143],[158.0542,55.00767],[158.06825,54.99632],[158.07574,54.99359],[158.07812,54.989],[158.07868,54.98326],[158.08064,54.98063],[158.08173,54.97069],[158.07551,54.96716],[158.0778,54.96476],[158.07853,54.96067],[158.07536,54.95702],[158.07707,54.9528],[158.08903,54.94665],[158.09145,54.94168],[158.10285,54.94087],[158.12159,54.93105],[158.12931,54.92428],[158.16694,54.90899],[158.17924,54.89838],[158.22811,54.88218],[158.23462,54.88195],[158.28795,54.87027],[158.31863,54.85206],[158.34582,54.84089],[158.36624,54.83343],[158.38014,54.83281],[158.40539,54.81434],[158.42825,54.80622],[158.45123,54.79579],[158.46615,54.78501],[158.46748,54.78017],[158.46659,54.7768],[158.46745,54.77473],[158.46593,54.77268],[158.46728,54.76798],[158.46587,54.76219],[158.47067,54.75711],[158.48276,54.75301],[158.48861,54.74889],[158.49617,54.74896],[158.5028,54.7475],[158.50951,54.74825],[158.51683,54.74633],[158.51954,54.74411],[158.52048,54.73827],[158.52498,54.73638],[158.53151,54.73575],[158.53796,54.73773],[158.55415,54.73852],[158.56742,54.73621],[158.58174,54.73142],[158.5854,54.72867],[158.58412,54.72633],[158.58461,54.72403],[158.58864,54.72082],[158.60277,54.71928],[158.60687,54.7174],[158.60844,54.71303],[158.60574,54.71067],[158.61181,54.70329]],[[157.74163,53.11715],[157.74699,53.12091],[157.74889,53.12481],[157.75241,53.12454]],[[158.04963,53.23676],[158.02882,53.25465]],[[158.10048,53.25364],[158.08181,53.26459]],[[158.15836,52.66127],[158.16162,52.66087],[158.16987,52.65558],[158.1758,52.65506],[158.18027,52.65318],[158.17726,52.65242],[158.17763,52.65141],[158.18588,52.6514],[158.19898,52.6531],[158.20057,52.65421],[158.20255,52.65334],[158.21715,52.65644],[158.21837,52.65456],[158.22038,52.65481]],[[158.18544,53.27759],[158.1863,53.2731]],[[158.21255,53.28107],[158.21365,53.28339],[158.21606,53.28372],[158.21828,53.28627],[158.21251,53.29751],[158.20717,53.30044],[158.20801,53.3028],[158.20748,53.30645],[158.21163,53.31766],[158.20963,53.32124],[158.20641,53.3334],[158.20761,53.33615],[158.20192,53.35081],[158.20287,53.35667],[158.20077,53.35908]],[[158.20094,53.27757],[158.20269,53.27813]],[[158.20269,53.27813],[158.21255,53.28107]],[[158.20269,53.27813],[158.20281,53.27788]],[[158.20787,54.40047],[158.23773,54.36787],[158.25014,54.36781],[158.25795,54.37042],[158.27056,54.37246]],[[158.2179,53.27628],[158.21633,53.27952],[158.21255,53.28107]],[[158.23426,52.94531],[158.22885,52.93506]],[[158.24902,52.96343],[158.2545,52.96261],[158.26099,52.96358]],[[158.2858,53.18239],[158.29741,53.19017],[158.31719,53.19671],[158.33524,53.19643],[158.35574,53.19136],[158.3737,53.18988]],[[158.29957,53.08334],[158.30108,53.0796],[158.31872,53.06304],[158.33287,53.05118],[158.33609,53.05019],[158.33659,53.04547],[158.32887,53.04435],[158.32472,53.04191]],[[158.32055,53.23246],[158.32144,53.23265],[158.32197,53.23169]],[[158.32773,53.29518],[158.30922,53.28499],[158.308,53.28333],[158.30637,53.26551],[158.30867,53.25282],[158.31014,53.2506],[158.32171,53.24342],[158.32336,53.24138],[158.32356,53.23866],[158.32232,53.23526],[158.322,53.23427],[158.32162,53.2332],[158.32144,53.23265],[158.32141,53.23256],[158.3211,53.23215]],[[158.32347,53.04111],[158.32472,53.04191]],[[158.32472,53.04191],[158.32444,53.04204]],[[158.35035,53.14837],[158.35025,53.14822]],[[158.35025,53.14822],[158.35029,53.14795],[158.3504,53.1482]],[[158.3504,53.1482],[158.35025,53.14822]],[[158.37442,53.16194],[158.36567,53.16027],[158.35578,53.15372],[158.35524,53.1522],[158.35112,53.1512],[158.35035,53.14837]],[[158.3504,53.1482],[158.35035,53.14837]],[[158.3572,53.1458],[158.3504,53.1482]],[[158.35171,53.14427],[158.35136,53.14447],[158.35113,53.14439],[158.35118,53.1443],[158.35171,53.14427]],[[158.35892,53.14543],[158.35831,53.14345],[158.35171,53.14427]],[[158.3572,53.1458],[158.3522,53.14577]],[[158.35616,53.1468],[158.35598,53.14677]],[[158.35892,53.14543],[158.3572,53.1458]],[[158.37128,53.14711],[158.36774,53.14573],[158.36631,53.14608],[158.36195,53.14537],[158.35892,53.14543]],[[158.3737,53.18988],[158.37327,53.18659]],[[158.37327,53.18659],[158.37327,53.18546],[158.3755,53.18519],[158.37488,53.18285],[158.38349,53.18196]],[[158.37327,53.18659],[158.37613,53.18602],[158.38344,53.18662]],[[158.3737,53.18988],[158.38174,53.18917]],[[158.3748,53.19823],[158.38353,53.20039],[158.39162,53.20429],[158.41198,53.20794]],[[158.38653,53.18595],[158.38124,53.18513],[158.37985,53.18613]],[[158.38174,53.18917],[158.38238,53.18916]],[[158.38231,53.18936],[158.38174,53.18917]],[[158.38353,53.18205],[158.38749,53.18141]],[[158.38931,53.18499],[158.38863,53.18478]],[[158.4093,52.95025],[158.39296,52.94842]],[[158.40577,52.92526],[158.39889,52.92748],[158.39689,52.92962],[158.39626,52.93615],[158.40043,52.93885],[158.40248,52.9388]],[[158.40248,52.9388],[158.40299,52.93855]],[[158.40302,52.9389],[158.40285,52.93882],[158.40269,52.9388],[158.40248,52.9388]],[[158.40903,53.17437],[158.40535,53.17283]],[[158.40615,52.9255],[158.40577,52.92526]],[[158.40577,52.92526],[158.4068,52.92484]],[[158.4305,52.95301],[158.41972,52.95422],[158.41033,52.95031]],[[158.41171,53.29761],[158.41635,53.29571],[158.41796,53.29388],[158.42358,53.29208],[158.42209,53.28586],[158.41578,53.28182],[158.41623,53.27574],[158.41899,53.26972],[158.41182,53.26666],[158.41385,53.26471],[158.41627,53.25813],[158.42029,53.25534]],[[158.41198,53.20794],[158.43302,53.21],[158.44183,53.20729],[158.4449,53.20443]],[[158.42029,53.25534],[158.42528,53.25042],[158.42472,53.24601],[158.41438,53.24173],[158.41324,53.24009],[158.41908,53.23538],[158.41889,53.2327],[158.42452,53.2291],[158.41701,53.22657],[158.41537,53.22275],[158.41191,53.22051],[158.41112,53.21156],[158.41198,53.20794]],[[158.41959,53.16737],[158.42297,53.16855]],[[158.47585,53.18291],[158.48027,53.18457],[158.48685,53.18935],[158.49585,53.19816],[158.49907,53.19973],[158.53888,53.20515],[158.53781,53.20815],[158.53336,53.21108],[158.53225,53.21961],[158.5283,53.23371],[158.52751,53.24037],[158.53082,53.24461],[158.52752,53.25462],[158.51204,53.25804],[158.5077,53.26014],[158.49234,53.26258],[158.48718,53.26172],[158.47791,53.26474],[158.46688,53.26229],[158.46197,53.26309],[158.45607,53.26619],[158.45049,53.26642],[158.44036,53.2652],[158.43486,53.26056],[158.42764,53.26078],[158.42527,53.257],[158.42029,53.25534]],[[158.42297,53.16855],[158.42333,53.16854],[158.42461,53.16896],[158.42449,53.16908],[158.42297,53.16855]],[[158.43182,53.15931],[158.44942,53.1548]],[[158.44942,53.1548],[158.44281,53.14742]],[[158.4449,53.20443],[158.44618,53.20546],[158.45421,53.20632],[158.46183,53.20389],[158.4618,53.20188]],[[158.4449,53.20443],[158.44879,53.1925]],[[158.44942,53.1548],[158.47387,53.1458]],[[158.47298,53.14586],[158.47314,53.14607]],[[158.51843,52.91848],[158.51098,52.9198]],[[158.51843,52.91848],[158.51975,52.91607]],[[158.52325,52.91791],[158.51843,52.91848]],[[158.51956,53.12743],[158.5207,53.12385]],[[158.52058,52.91595],[158.52325,52.91791]],[[158.52325,52.91791],[158.52372,52.91785],[158.5255,52.91768],[158.52617,52.91759],[158.53364,52.91467],[158.53221,52.91723]],[[158.52336,52.91769],[158.52372,52.91785]],[[158.53542,53.06361],[158.5398,53.06391]],[[158.53838,53.06916],[158.53846,53.06574],[158.5398,53.06391]],[[158.5398,53.06391],[158.54464,53.06272],[158.55256,53.06353],[158.57261,53.07295],[158.58263,53.07551]],[[158.60228,53.05207],[158.61152,53.05215]],[[158.61327,53.06953],[158.61439,53.07271],[158.61432,53.07647],[158.61444,53.07753],[158.61479,53.07791]],[[158.61442,53.07733],[158.61523,53.07756]],[[158.61658,53.06911],[158.62222,53.07502],[158.62256,53.07724]],[[158.6277,53.07753],[158.62868,53.07336],[158.62739,53.06729],[158.62933,53.06697]],[[158.62818,53.05497],[158.62777,53.05518]],[[158.6427,53.05155],[158.63707,53.04892],[158.63546,53.04968],[158.63176,53.05195],[158.63174,53.05196],[158.6314,53.0522],[158.62833,53.05478],[158.62818,53.05497],[158.62819,53.05532]],[[158.63174,53.05196],[158.63717,53.05507]],[[158.66027,54.71196],[158.65654,54.71592],[158.65215,54.71622],[158.63721,54.72048]],[[158.64054,53.07291],[158.63998,53.07282]],[[158.64186,53.03209],[158.64253,53.03276],[158.64271,53.03294],[158.64276,53.03298],[158.64347,53.03327],[158.64435,53.03421]],[[158.64282,53.03235],[158.64253,53.03276]],[[158.65341,53.06623],[158.65468,53.06603],[158.65345,53.06596]],[[158.65709,53.05069],[158.66429,53.05165],[158.66521,53.05275],[158.66333,53.05443]],[[158.65834,53.00114],[158.66003,53.00131],[158.65977,53.00359]],[[158.65977,53.00359],[158.65921,53.00173]],[[158.65977,53.00359],[158.66693,53.00624],[158.66813,53.00828],[158.67127,53.00992],[158.66489,53.01049],[158.66326,53.01253],[158.6643,53.01539],[158.65956,53.01779],[158.65911,53.02067],[158.65662,53.02325],[158.68012,53.03029],[158.68026,53.03323]],[[158.67544,53.03557],[158.67472,53.0359]],[[158.67544,53.03557],[158.67495,53.03621]],[[158.68026,53.03323],[158.67544,53.03557]],[[158.69464,52.9736],[158.69592,52.97057],[158.69911,52.97102],[158.7052,52.96459],[158.7096,52.96279],[158.71155,52.95867],[158.71677,52.95418],[158.7167,52.953],[158.71239,52.95109],[158.70558,52.95618],[158.70002,52.95815],[158.69481,52.95527],[158.69851,52.95266],[158.69807,52.95133],[158.68703,52.95238],[158.68115,52.95021],[158.67441,52.94985],[158.67564,52.95463]],[[158.67938,53.04728],[158.67971,53.04726],[158.68002,53.0473],[158.68021,53.04733],[158.68319,53.04783],[158.68563,53.04799],[158.6951,53.04926],[158.70008,53.04844]],[[158.68002,53.0473],[158.68121,53.05208],[158.68546,53.0532],[158.68001,53.05788]],[[158.69964,53.02781],[158.68587,53.03025],[158.68026,53.03323]],[[158.68032,53.03272],[158.68081,53.03292]],[[158.68867,52.96967],[158.69259,52.9703],[158.69425,52.9735]],[[158.69425,52.9735],[158.69434,52.97359]],[[158.69435,52.97376],[158.69425,52.9735]],[[158.69434,52.97359],[158.69464,52.9736]],[[158.69434,52.97359],[158.69456,52.97377]],[[158.69453,52.97384],[158.69435,52.97376]],[[158.69435,52.97376],[158.6944,52.97416],[158.69453,52.97384]],[[158.69453,52.97384],[158.69456,52.97377]],[[158.69456,52.97377],[158.69464,52.9736]],[[158.72277,53.03977],[158.72309,53.03664],[158.71958,53.03086],[158.71645,53.02863],[158.69964,53.02781]],[[158.69964,53.02781],[158.70354,53.02274],[158.71052,53.01977],[158.7136,53.0169],[158.7275,53.01128],[158.7352,53.01067],[158.73826,53.00849],[158.75551,53.00211],[158.75793,53.00037],[158.75905,52.9967],[158.76635,52.99369]],[[158.70008,53.04844],[158.70071,53.04829]],[[158.70081,53.04839],[158.70008,53.04844]],[[158.70071,53.04829],[158.70081,53.04839]],[[158.70071,53.04829],[158.70378,53.04742],[158.71006,53.0424],[158.72277,53.03977]],[[158.70081,53.04839],[158.70313,53.04834],[158.7143,53.04993],[158.71526,53.05264],[158.71227,53.05894],[158.72221,53.06081],[158.72903,53.06367]],[[158.71122,55.93481],[158.72353,55.94792]],[[158.72277,53.03977],[158.72702,53.0414],[158.73452,53.03995],[158.74759,53.04077]],[[158.72903,53.06367],[158.72953,53.06389],[158.72975,53.06382],[158.72964,53.06371],[158.72903,53.06367]],[[158.78782,53.01033],[158.77658,53.01645],[158.77083,53.01714],[158.76704,53.0218],[158.76314,53.02226],[158.75046,53.03009],[158.74916,53.03208],[158.744,53.03324],[158.74344,53.03395],[158.74699,53.03657],[158.74759,53.04077]],[[158.74759,53.04077],[158.76755,53.04361],[158.78362,53.05053],[158.79601,53.05127],[158.80049,53.05363],[158.79559,53.06629],[158.78591,53.07784],[158.78949,53.08875],[158.79286,53.0918],[158.79123,53.10065],[158.7868,53.10357],[158.78589,53.10648],[158.82296,53.11394],[158.8356,53.11539],[158.84132,53.11738],[158.90604,53.13024],[158.90764,53.13238],[158.91909,53.13271],[158.92942,53.1348]],[[158.77447,53.05216],[158.77409,53.04963],[158.77609,53.04748]],[[158.77728,53.04799],[158.77587,53.04785]],[[158.99874,55.13621],[159.01314,55.12796],[159.01955,55.12589],[159.03513,55.1257],[159.06983,55.12828],[159.07454,55.12747],[159.07871,55.12433]],[[159.32759,55.27857],[159.28652,55.29956],[159.22706,55.3477]],[[159.6432,55.60305],[159.59567,55.59768],[159.46675,55.59021]],[[159.63198,55.60487],[159.64242,55.60611]],[[159.64242,55.60611],[159.65258,55.6074]],[[159.6432,55.60305],[159.64242,55.60611]],[[159.74933,55.53518],[159.76146,55.54167],[159.75726,55.54395],[159.75573,55.55048],[159.75931,55.5542],[159.76242,55.56147],[159.76135,55.57077],[159.76426,55.57737],[159.77466,55.58004],[159.78039,55.5852],[159.78029,55.58718],[159.77542,55.59427],[159.7481,55.60137],[159.73484,55.60284],[159.71682,55.60634],[159.69409,55.60673],[159.6832,55.60461],[159.67175,55.60553],[159.6432,55.60305]],[[159.73039,55.60377],[159.73334,55.60623],[159.73658,55.60689]],[[159.73985,55.60618],[159.74161,55.60439],[159.73673,55.60394],[159.73592,55.60273]],[[159.87529,56.0837],[159.87978,56.08327],[159.89485,56.0773],[159.88535,56.06829]],[[159.88535,56.06829],[159.8923,56.06906],[159.94753,56.06557]],[[159.88891,56.04109],[159.86738,56.05192],[159.88535,56.06829]],[[159.95309,59.08286],[159.95126,59.08301]],[[159.95591,59.08156],[159.95309,59.08286]],[[159.95309,59.08286],[159.95571,59.08272],[159.95591,59.08156]],[[159.95591,59.08156],[159.97098,59.07813],[159.97987,59.07487],[159.99204,59.07296],[160.00274,59.06605],[160.01333,59.06098],[160.0117,59.05768],[160.00038,59.05454],[159.9947,59.04952],[159.99504,59.04619]],[[160.0584,56.25213],[160.06522,56.25254],[160.06986,56.25128],[160.06466,56.24665],[160.07208,56.24526],[160.08475,56.24058],[160.09217,56.23532],[160.09953,56.22671]],[[160.83056,56.31469],[160.8367,56.3142]],[[160.8367,56.3142],[160.83419,56.31604]],[[160.8367,56.3142],[160.84345,56.31065],[160.8492,56.313],[160.85804,56.31385],[160.86182,56.31855],[160.83886,56.32365]],[[162.51518,56.23575],[162.52352,56.23332],[162.52608,56.23143],[162.53967,56.23522]],[[162.53967,56.23522],[162.53608,56.23953],[162.55133,56.24113],[162.55324,56.24779],[162.55736,56.25469],[162.55951,56.25616],[162.57005,56.25828],[162.57363,56.26004],[162.58261,56.25941],[162.5914,56.26041],[162.59021,56.26369]],[[162.53967,56.23522],[162.54047,56.23365],[162.53966,56.2326],[162.54049,56.23248]],[[162.62515,56.22796],[162.60251,56.23049],[162.57038,56.23045],[162.55212,56.22803],[162.54979,56.22823],[162.54822,56.23082]],[[162.70351,56.25206],[162.70447,56.24707],[162.70152,56.22988],[162.69195,56.22377],[162.67499,56.22339],[162.6695,56.2212],[162.66454,56.22088],[162.64079,56.22304],[162.62515,56.22796]],[[162.62515,56.22796],[162.63127,56.22778],[162.63861,56.23192],[162.64022,56.23435],[162.63863,56.23668],[162.63876,56.23887],[162.64366,56.24265],[162.66892,56.25179],[162.68,56.25765],[162.69104,56.25674],[162.70351,56.25206]],[[162.70918,56.2592],[162.70351,56.25206]],[[163.06447,59.23738],[163.06237,59.23175],[163.0613,59.21612],[163.0633,59.186],[163.07907,59.17297],[163.097,59.1634],[163.10971,59.14882],[163.1152,59.13989],[163.12702,59.12953],[163.13575,59.11838],[163.13493,59.1147],[163.131,59.11178]],[[163.12676,59.10843],[163.131,59.11178]],[[163.131,59.11178],[163.14627,59.10941],[163.18208,59.10038],[163.20775,59.09727],[163.21002,59.09467],[163.21375,59.09297],[163.22727,59.08928],[163.24329,59.07992],[163.24493,59.07411],[163.23,59.04884],[163.2171,59.04502],[163.1743,59.04071]],[[169.06592,60.82533],[169.07098,60.82504],[169.07785,60.82737],[169.07866,60.82874]],[[169.51859,60.59225],[169.51492,60.59773],[169.50762,60.60069],[169.50195,60.60551],[169.50008,60.61226],[169.49646,60.61807],[169.48464,60.63025],[169.47123,60.64648],[169.46041,60.66178],[169.45892,60.66491],[169.45163,60.66949],[169.4414,60.67889],[169.43046,60.69062],[169.41995,60.6946],[169.4158,60.69735],[169.40214,60.6999],[169.37156,60.69584],[169.36199,60.69211],[169.35365,60.68595],[169.34015,60.67933],[169.32013,60.67742],[169.30863,60.6777],[169.28395,60.68095],[169.27267,60.68456],[169.26183,60.68286],[169.23494,60.68465],[169.2196,60.68746],[169.18857,60.67874],[169.15323,60.65997],[169.14986,60.65484],[169.14864,60.64779],[169.14551,60.64203],[169.14465,60.63388],[169.14119,60.63071],[169.12974,60.62746],[169.11024,60.62565],[169.10387,60.61918],[169.09973,60.61668],[169.09904,60.61396],[169.101,60.6089],[169.11086,60.60385],[169.10892,60.60123],[169.09655,60.59307],[169.09442,60.58995],[169.09397,60.58681],[169.10077,60.58287],[169.10143,60.58148],[169.09477,60.57841],[169.09124,60.57895]],[[169.60861,60.67558],[169.59605,60.67993],[169.56485,60.68431],[169.54402,60.6889],[169.53209,60.69314],[169.52226,60.69927],[169.50896,60.70545],[169.46749,60.72304],[169.45059,60.72523],[169.4381,60.73133],[169.43056,60.73228],[169.41546,60.73137],[169.40583,60.73347],[169.4028,60.73262],[169.39173,60.73532],[169.35834,60.73979],[169.34849,60.74708],[169.34399,60.75249],[169.34122,60.75375],[169.32446,60.75671],[169.30965,60.76237],[169.28807,60.76601],[169.26612,60.78163],[169.26011,60.78739],[169.23736,60.79904],[169.22927,60.80104],[169.22352,60.80784],[169.21367,60.80894],[169.20915,60.81312],[169.19771,60.8141],[169.18924,60.81844],[169.17349,60.81899],[169.16383,60.82228],[169.15538,60.82239],[169.14757,60.82389],[169.13401,60.8274],[169.13231,60.8288],[169.11873,60.82777],[169.09871,60.83035],[169.07866,60.82874],[169.06982,60.82996],[169.06855,60.82817],[169.06404,60.82759],[169.06444,60.82669],[169.06474,60.82653],[169.06592,60.82533],[169.06728,60.82424],[169.07347,60.82041],[169.07311,60.81771],[169.07706,60.81286],[169.07662,60.80623],[169.07379,60.79708],[169.07221,60.77321],[169.07087,60.76829],[169.06585,60.76371],[169.0628,60.75923],[169.06203,60.75282],[169.06597,60.74969],[169.0687,60.7442],[169.07551,60.73961],[169.0742,60.73379],[169.08094,60.72518],[169.07907,60.7211],[169.0812,60.71835],[169.0768,60.71536],[169.07536,60.71179],[169.06646,60.70296],[169.06637,60.69373],[169.07075,60.68666],[169.08041,60.67693],[169.08832,60.6731],[169.09171,60.66985],[169.10103,60.66657],[169.11379,60.65564],[169.11494,60.65343],[169.11202,60.65108],[169.10507,60.64952],[169.08794,60.64211],[169.08766,60.63939],[169.08449,60.63556],[169.07973,60.63303],[169.07486,60.632],[169.07369,60.63041],[169.07389,60.62748],[169.0761,60.62532],[169.07272,60.62123],[169.07286,60.61874],[169.07042,60.61752],[169.07242,60.61617],[169.07243,60.61348],[169.0821,60.61185],[169.08491,60.60893],[169.08323,60.60673],[169.07551,60.60455],[169.07215,60.59922],[169.07337,60.59371],[169.07612,60.58893],[169.08051,60.58747],[169.08228,60.5854],[169.09212,60.58001],[169.09124,60.57895],[169.08414,60.57786],[169.08159,60.57537],[169.09069,60.57002],[169.09883,60.56778]],[[169.49032,60.66461],[169.4634,60.66834],[169.45497,60.6737],[169.44566,60.67524]],[[169.53945,60.67826],[169.51012,60.66923],[169.50211,60.66721],[169.49032,60.66461],[169.48687,60.66378],[169.4804,60.66248],[169.47229,60.6605],[169.46308,60.65868]],[[169.59836,60.45652],[169.60157,60.46387],[169.60833,60.47106],[169.60903,60.47469],[169.61921,60.48396],[169.62748,60.48676],[169.62897,60.49026],[169.62626,60.49278],[169.6256,60.49662],[169.62144,60.50577],[169.6144,60.50976],[169.61348,60.51172],[169.61607,60.51918],[169.61482,60.52295],[169.61518,60.52766],[169.61915,60.53218],[169.62202,60.53365],[169.6204,60.53838],[169.62055,60.54151],[169.60501,60.55451],[169.55741,60.56835],[169.53087,60.57949],[169.52065,60.58621],[169.52031,60.58929],[169.51846,60.5912],[169.51859,60.59225],[169.51846,60.59781],[169.51825,60.60047],[169.51258,60.61264],[169.51085,60.62825],[169.50738,60.63396],[169.5166,60.64159],[169.51807,60.64755],[169.51625,60.65215],[169.51825,60.6566],[169.52645,60.66796],[169.53581,60.67637],[169.53945,60.67826],[169.54679,60.67935],[169.56546,60.67693],[169.59403,60.67642],[169.60234,60.67567],[169.6269,60.67519],[169.64918,60.67253],[169.66127,60.67321],[169.67363,60.67546],[169.68681,60.67534],[169.70746,60.67889],[169.7368,60.68107],[169.76228,60.67726],[169.77377,60.67862],[169.86872,60.67417],[169.87621,60.67613],[169.88977,60.67614],[169.89892,60.67558],[169.90626,60.67383],[169.91355,60.67429],[169.93104,60.68016],[169.93959,60.68139],[169.94537,60.68409],[169.94889,60.68798],[169.95798,60.68886],[169.96295,60.69084],[169.97879,60.69354],[169.99714,60.70264],[170.00397,60.70412],[170.0221,60.71274],[170.02729,60.71422],[170.03113,60.71817],[170.03848,60.72198],[170.04139,60.72604],[170.04495,60.72864],[170.05345,60.73188],[170.05952,60.73644],[170.05972,60.73822],[170.06486,60.74446],[170.06996,60.74737],[170.07867,60.75653],[170.08473,60.76028],[170.10004,60.77753],[170.10688,60.78126],[170.11221,60.78803],[170.11198,60.79036],[170.11342,60.79353],[170.11868,60.80106],[170.12066,60.80175],[170.12769,60.80921],[170.14018,60.81677],[170.14389,60.822],[170.14891,60.82533],[170.15382,60.83552],[170.155,60.84551],[170.15279,60.85029],[170.15358,60.85224],[170.15287,60.85512],[170.15638,60.87074],[170.15824,60.8723],[170.16453,60.87441],[170.17222,60.87928],[170.18463,60.88361],[170.20512,60.88682],[170.21739,60.89113],[170.21707,60.89489],[170.2242,60.89888],[170.23742,60.91001],[170.26039,60.92137],[170.26851,60.92181],[170.27571,60.92361],[170.29173,60.93491],[170.29129,60.93678],[170.29266,60.93916],[170.30236,60.94458],[170.3187,60.95006],[170.33487,60.95784],[170.38954,60.97863],[170.43309,60.98867],[170.45571,60.9958],[170.45994,60.99513],[170.46586,60.99732],[170.48593,61.00016],[170.4996,61.00536]]]}}],"provenance":{"sources":[{"id":"osm-far-eastern-260916","url":"https://download.geofabrik.de/russia/far-eastern-fed-district-260916.osm.pbf","snapshot":"2026-09-16T20:21:21Z","sha256":"fd264d9cb2c1670512aeaa43ca562920df9b3e676e381a45f4141676843fd1f1","md5":"879d448abc7a6059dd1e48f978330f6e","bytes":387672435,"license":"ODbL-1.0","attribution":"© OpenStreetMap contributors, Geofabrik","downloadDate":"2026-09-17"}],"attribution":"© OpenStreetMap contributors, Geofabrik; ODbL-1.0","geometryMethod":"Actual OSM road ways, merged by class and endpoint, display simplification 0.0007 degrees; not routing geometry","sourceWayCount":1563,"routingUse":false}}