{"type":"FeatureCollection","features":[{"type":"Feature","properties":{"roadClass":"primary"},"geometry":{"type":"MultiLineString","coordinates":[[[41.88528,43.89527],[41.87934,43.89663],[41.87703,43.89595],[41.87634,43.89389],[41.8597,43.88454],[41.85267,43.87749],[41.84859,43.87619],[41.83896,43.87742],[41.82379,43.87549],[41.81856,43.87362],[41.79178,43.87717],[41.78746,43.87634],[41.77153,43.86891],[41.74974,43.86338],[41.73609,43.86437],[41.72502,43.8611],[41.7009,43.86378],[41.63976,43.85787],[41.61629,43.85452],[41.57094,43.855],[41.56985,43.85978],[41.56457,43.86064],[41.55384,43.87591],[41.54836,43.87926],[41.53893,43.88327],[41.51171,43.89038],[41.49008,43.90023],[41.48173,43.90778],[41.46674,43.91088],[41.4605,43.91053],[41.45569,43.90894],[41.44518,43.90857],[41.43549,43.90571],[41.42198,43.9043],[41.40303,43.91265],[41.3841,43.91493],[41.36812,43.92073],[41.36687,43.92215],[41.36647,43.92642],[41.35857,43.93011],[41.35069,43.92802],[41.34343,43.92974],[41.30973,43.92543],[41.30211,43.92194],[41.30031,43.91877],[41.29943,43.9132],[41.29289,43.90831],[41.28229,43.90845],[41.27935,43.90747],[41.27631,43.90913],[41.26379,43.90684],[41.25167,43.91053],[41.24442,43.91088],[41.22779,43.91768],[41.2237,43.92026],[41.22137,43.92576],[41.21681,43.92985],[41.21131,43.93377],[41.20042,43.93876],[41.19422,43.93828],[41.16741,43.94276],[41.15995,43.94496],[41.14797,43.94001],[41.14222,43.94033],[41.13023,43.94359],[41.12458,43.94158],[41.11973,43.94149],[41.10291,43.94955],[41.09469,43.95716],[41.08509,43.95869],[41.07681,43.96294],[41.07507,43.96758],[41.07338,43.96873],[41.06707,43.9691],[41.05692,43.96341],[41.05433,43.95958],[41.05202,43.95887],[41.04759,43.96032],[41.04441,43.9662],[41.03429,43.96745],[41.02961,43.97199],[41.02491,43.97473],[41.01323,43.97087],[41.00887,43.96808],[41.00279,43.96803],[40.99298,43.97083],[40.98588,43.97459],[40.98036,43.97976],[40.97584,43.98136],[40.96398,44.00713],[40.95867,44.01014],[40.9544,44.01498],[40.94205,44.01252],[40.93965,44.01314],[40.92757,44.02586],[40.92059,44.03496]],[[41.55518,43.87416],[41.55547,43.87452]],[[41.88528,43.89527],[41.88578,43.8949]],[[41.88599,43.89516],[41.88528,43.89527]],[[41.88599,43.89516],[41.88578,43.8949]],[[41.88578,43.8949],[41.88591,43.89477]],[[41.88591,43.89477],[41.88663,43.89423]],[[41.88591,43.89477],[41.88615,43.89476],[41.88634,43.89489]],[[41.88608,43.89516],[41.88599,43.89516]],[[41.90336,43.95417],[41.90325,43.95254],[41.90034,43.94899],[41.89981,43.94799],[41.89965,43.94758],[41.89939,43.94687],[41.89917,43.94607],[41.89902,43.94364],[41.90014,43.93644],[41.89829,43.92779],[41.88692,43.90608],[41.88663,43.90524],[41.88656,43.90412],[41.88678,43.9032],[41.88739,43.90202],[41.88974,43.89875],[41.88985,43.89811],[41.88608,43.89516]],[[41.88635,43.89495],[41.88608,43.89516]],[[41.88634,43.89489],[41.88635,43.89495]],[[41.88663,43.89423],[41.88634,43.89489]],[[41.88635,43.89495],[41.89003,43.89825],[41.88975,43.899],[41.8889,43.9002],[41.88819,43.90122],[41.88806,43.9014],[41.88742,43.90229],[41.8872,43.90263],[41.88674,43.90381],[41.88835,43.90852]],[[41.88663,43.89423],[41.89887,43.88067],[41.89424,43.87655],[41.89471,43.8674],[41.89908,43.86428],[41.90132,43.85858],[41.90021,43.85341],[41.89745,43.85007],[41.89005,43.82985],[41.89105,43.82602],[41.89782,43.81125],[41.90128,43.80945],[41.9096,43.80857],[41.91247,43.80488],[41.91395,43.7962],[41.91274,43.78811],[41.92062,43.78271],[41.9257,43.78077],[41.93701,43.77884],[41.94313,43.77924],[41.96531,43.77511],[41.97728,43.77467],[41.98852,43.77122],[41.99618,43.77301],[42.00419,43.77305],[42.01454,43.76898],[42.02229,43.76778],[42.03176,43.76812],[42.0386,43.77095],[42.05254,43.77312],[42.05753,43.77046],[42.06286,43.7699],[42.06734,43.76522],[42.0741,43.76231],[42.08114,43.7626],[42.09832,43.75793],[42.1,43.75827],[42.10487,43.7643],[42.11235,43.76445],[42.12074,43.76857],[42.12584,43.76977],[42.12935,43.7692],[42.13386,43.77138],[42.13927,43.77198],[42.14577,43.7772],[42.1457,43.77964],[42.14692,43.77805],[42.14934,43.77806],[42.15464,43.78083],[42.16158,43.77892],[42.16558,43.77579],[42.17311,43.77756],[42.17836,43.78011],[42.17823,43.7769],[42.17271,43.77357],[42.17411,43.77298],[42.17681,43.77402],[42.17979,43.77205],[42.18452,43.77411],[42.18128,43.77425],[42.18503,43.77817],[42.18408,43.77557],[42.19128,43.77967],[42.19441,43.77749],[42.19946,43.77677],[42.2111,43.77762],[42.2136,43.77675],[42.21686,43.77283],[42.2284,43.76758],[42.2384,43.76806],[42.24064,43.76944],[42.24256,43.76838],[42.24801,43.76864],[42.2499,43.76724],[42.24699,43.76771],[42.24403,43.76544],[42.24999,43.765],[42.25868,43.76622],[42.26494,43.77133],[42.26908,43.77218],[42.27626,43.77672],[42.27987,43.77714],[42.29015,43.78269],[42.29947,43.78934],[42.30526,43.79667],[42.30411,43.80024],[42.30528,43.8032],[42.30448,43.8051],[42.30594,43.80756],[42.30397,43.81671],[42.31072,43.82694],[42.31375,43.83433],[42.31662,43.83608],[42.32606,43.84758],[42.33928,43.85705],[42.34136,43.86137],[42.35156,43.86759],[42.3553,43.87282],[42.36466,43.87966],[42.3706,43.88632],[42.38061,43.89163],[42.38133,43.89473],[42.38775,43.90352],[42.4028,43.91866],[42.40921,43.92246],[42.41457,43.92312],[42.41922,43.92645],[42.43206,43.9259],[42.43792,43.92867],[42.45871,43.93389],[42.47193,43.93466],[42.4926,43.94029],[42.51639,43.94499],[42.53042,43.95169],[42.54736,43.95694],[42.56427,43.95637],[42.57853,43.95227],[42.58949,43.95079],[42.60832,43.95313],[42.64213,43.94744]],[[41.88801,43.90115],[41.88819,43.90122]],[[41.88825,43.90855],[41.88835,43.90852]],[[41.88835,43.90852],[41.89128,43.91393],[41.89658,43.92408],[41.89752,43.92557],[41.89795,43.92626],[41.89818,43.92667],[41.89837,43.92711],[41.89857,43.92768],[41.90035,43.93694],[41.89919,43.94495],[41.90325,43.95229],[41.90349,43.95422]],[[41.89128,43.91393],[41.89113,43.91399]],[[41.89795,43.92626],[41.89764,43.92636]],[[41.89803,43.9272],[41.89837,43.92711]],[[41.9,43.9475],[41.89965,43.94758]],[[41.90336,43.95417],[41.90349,43.95422]],[[41.95631,44.00553],[41.94619,43.99546],[41.94222,43.99372],[41.92432,43.9827],[41.9231,43.98188],[41.92111,43.98048],[41.91671,43.97822],[41.91336,43.97619],[41.91266,43.97559],[41.91064,43.97324],[41.90936,43.97104],[41.90868,43.96984],[41.9081,43.9677],[41.90625,43.96616],[41.90585,43.9656],[41.90579,43.96524],[41.90608,43.96306],[41.90533,43.9613],[41.90544,43.95873],[41.90336,43.95417]],[[41.90349,43.95422],[41.90558,43.95888],[41.90539,43.96105],[41.90615,43.96303],[41.90601,43.96574],[41.90804,43.96747],[41.91316,43.97589],[41.92075,43.98013],[41.92432,43.98234],[41.9248,43.98265],[41.92497,43.98276],[41.92602,43.98352],[41.94229,43.99364],[41.94624,43.99535],[41.94858,43.99744],[41.95078,43.9992],[41.95096,43.99935],[41.9513,43.99968],[41.95631,44.00553]],[[41.92443,43.98241],[41.92412,43.98256]],[[41.92459,43.98286],[41.9248,43.98265]],[[41.95096,43.99935],[41.95064,43.99948]],[[41.95631,44.00553],[41.95797,44.0087],[41.95796,44.0116],[41.94806,44.03974],[41.95059,44.04206],[41.96391,44.04554],[41.96663,44.0476],[41.96708,44.06322],[41.97067,44.07459],[41.97489,44.0806],[41.9804,44.09171],[41.98082,44.09898],[41.98381,44.10335],[41.98992,44.10869],[41.99235,44.11521]],[[41.99235,44.11521],[41.99847,44.12404],[42.01971,44.15958],[42.02515,44.16501],[42.02552,44.16568],[42.02573,44.16615],[42.02853,44.17346],[42.03192,44.18272]],[[42.01354,44.14992],[41.99235,44.11521]],[[41.99847,44.12404],[41.99837,44.12408]],[[42.0254,44.16571],[42.0199,44.1601],[42.01354,44.14992]],[[42.01369,44.1499],[42.01354,44.14992]],[[42.03192,44.18272],[42.0254,44.16571]],[[42.0254,44.16571],[42.02552,44.16568]],[[42.02596,44.21773],[42.02595,44.21764]],[[42.03192,44.18272],[42.04421,44.21375],[42.05872,44.21234]],[[42.05658,44.2523],[42.05631,44.25225]],[[42.05631,44.25225],[42.05992,44.24617]],[[42.05631,44.25225],[42.05649,44.25224],[42.05658,44.2523]],[[42.06015,44.24621],[42.05658,44.2523]],[[42.05872,44.21234],[42.06384,44.23095],[42.06431,44.23433],[42.06106,44.24053],[42.06026,44.24591]],[[42.06001,44.24587],[42.06094,44.24038],[42.06417,44.23404],[42.05872,44.21234]],[[42.06015,44.24621],[42.05992,44.24617]],[[42.05992,44.24617],[42.06001,44.24587]],[[42.06001,44.24587],[42.06017,44.24586],[42.06026,44.24591]],[[42.06026,44.24591],[42.06015,44.24621]],[[42.06077,44.24622],[42.06051,44.2462],[42.06015,44.24621]],[[42.06026,44.24591],[42.06077,44.24622]],[[42.06077,44.24622],[42.08509,44.25129]],[[42.08629,44.25158],[42.08509,44.25129]],[[42.08509,44.25129],[42.08623,44.251]],[[42.08935,44.25249],[42.08673,44.25168]],[[42.08721,44.2512],[42.08935,44.25249]],[[42.60113,44.22145],[42.57384,44.23663],[42.5691,44.23808],[42.54936,44.24154],[42.51851,44.24223],[42.45226,44.25993],[42.3636,44.26005],[42.35847,44.26184],[42.35025,44.26965],[42.34627,44.27102],[42.27574,44.27474],[42.22746,44.26285],[42.12939,44.26271],[42.10569,44.2536],[42.10126,44.25406],[42.08935,44.25249]],[[42.08706,44.25099],[42.08694,44.25162],[42.08652,44.25166],[42.08629,44.25158],[42.08612,44.25141],[42.08706,44.25099]]]}},{"type":"Feature","properties":{"roadClass":"secondary"},"geometry":{"type":"MultiLineString","coordinates":[[[41.28024,43.56285],[41.28917,43.56594],[41.32446,43.5654],[41.341,43.56607],[41.35142,43.56827],[41.35957,43.57188],[41.36215,43.57521],[41.36857,43.57953],[41.38454,43.58777],[41.38622,43.59474],[41.38212,43.60443],[41.38178,43.60715],[41.38298,43.61033],[41.38205,43.61433],[41.38581,43.62094],[41.3869,43.62503],[41.38663,43.62986],[41.39367,43.63648],[41.39716,43.64424],[41.39599,43.64903],[41.39628,43.65825],[41.39465,43.66531],[41.39589,43.67103],[41.40004,43.67351],[41.4052,43.67463],[41.4098,43.67477],[41.42289,43.67182],[41.43271,43.67321],[41.43958,43.67574],[41.44767,43.67545],[41.45891,43.68043],[41.464,43.68436],[41.47832,43.68917],[41.48526,43.69683],[41.49133,43.70136],[41.50398,43.7203],[41.50536,43.73009],[41.50854,43.74066],[41.50852,43.75132],[41.51205,43.75544],[41.51445,43.76382],[41.51845,43.77004],[41.5258,43.77643],[41.53224,43.78657],[41.54207,43.78639],[41.54491,43.78731],[41.57877,43.81899],[41.58466,43.83025],[41.58316,43.83661],[41.5852,43.84675],[41.58524,43.85506]],[[41.62514,43.28899],[41.62782,43.29193],[41.62977,43.2973],[41.62941,43.29898],[41.63132,43.30022],[41.63265,43.30517],[41.63562,43.30862],[41.63664,43.31192],[41.64222,43.31531],[41.64716,43.32077],[41.65638,43.32761],[41.6715,43.33255],[41.67066,43.33868],[41.67835,43.34496],[41.68139,43.34977],[41.68116,43.353],[41.68713,43.35748],[41.68724,43.36067],[41.69071,43.36409],[41.69481,43.37442],[41.70107,43.37918],[41.70214,43.3836],[41.70536,43.3873],[41.71121,43.38918],[41.71402,43.39288],[41.7171,43.39487],[41.71946,43.40102],[41.72563,43.4048],[41.72574,43.40703],[41.72715,43.40874],[41.73155,43.41014],[41.73504,43.41329],[41.7365,43.42002],[41.7417,43.42496],[41.74447,43.43753],[41.74426,43.44001],[41.74068,43.44208],[41.7418,43.44463],[41.74005,43.44822],[41.73584,43.44926],[41.73575,43.46777],[41.73851,43.4735],[41.74213,43.4768],[41.74517,43.48203],[41.75566,43.50741],[41.76193,43.51696],[41.77915,43.53525],[41.78134,43.54432],[41.78531,43.54664],[41.79366,43.54817],[41.80957,43.56133],[41.82586,43.57058],[41.83091,43.57602],[41.84583,43.58273],[41.85355,43.58826],[41.85886,43.59475],[41.86614,43.59723],[41.87182,43.60273],[41.86973,43.60903],[41.86966,43.61621],[41.87164,43.61953],[41.87061,43.62879],[41.87656,43.63793],[41.87773,43.64196],[41.8842,43.64723],[41.8882,43.65705],[41.88726,43.66104],[41.88844,43.66374],[41.90108,43.68486],[41.90062,43.68955],[41.90444,43.69515],[41.90347,43.70047],[41.90561,43.70408],[41.9058,43.70815],[41.90381,43.71114],[41.90245,43.71636],[41.90218,43.72361],[41.89408,43.7325],[41.89237,43.74135],[41.8863,43.74804],[41.88593,43.75277],[41.89216,43.76036],[41.90001,43.76742],[41.90991,43.77077]],[[41.67383,43.86097],[41.67742,43.88477],[41.68307,43.8996],[41.69579,43.91874],[41.6972,43.92318],[41.70737,43.94148],[41.73194,43.97224],[41.73925,43.99222],[41.74073,43.99977],[41.74524,44.00846],[41.75603,44.01825],[41.76117,44.027],[41.76667,44.04595],[41.77354,44.05607],[41.77707,44.06825],[41.78438,44.07261],[41.78884,44.08051],[41.79062,44.08633],[41.79341,44.09007],[41.8022,44.0949],[41.81108,44.09804],[41.81604,44.10252],[41.83563,44.13132],[41.84129,44.13029],[41.86278,44.16076],[41.87482,44.17129],[41.88108,44.1786],[41.88341,44.18497],[41.88419,44.19439],[41.88885,44.20114],[41.89371,44.21335]],[[41.89371,44.21335],[41.89413,44.21385]],[[41.89381,44.21389],[41.89371,44.21335]],[[41.8938,44.21401],[41.89381,44.21389],[41.89404,44.21384],[41.8943,44.21405],[41.8938,44.21401]],[[41.8938,44.21401],[41.89112,44.21338],[41.87993,44.21639],[41.88348,44.22452],[41.88301,44.22788],[41.89118,44.24123],[41.89595,44.25479],[41.90271,44.2649],[41.90608,44.27375],[41.90924,44.29],[41.91984,44.32358],[41.92588,44.36091],[41.92741,44.3637],[41.93037,44.36414]],[[41.89499,44.21441],[41.89412,44.21419]],[[41.89428,44.21397],[41.89499,44.21441]],[[42.02011,44.21833],[42.01808,44.21765],[41.96114,44.22142],[41.95813,44.22242],[41.95262,44.22719],[41.94676,44.22863],[41.9487,44.22628],[41.93352,44.22615],[41.92424,44.22818],[41.90277,44.21816],[41.9002,44.21606],[41.89499,44.21441]],[[41.90991,43.77077],[41.91034,43.77084]],[[41.91026,43.771],[41.90991,43.77077]],[[41.91034,43.77084],[41.91055,43.77086],[41.91058,43.77102],[41.91048,43.77107],[41.91041,43.77108],[41.91035,43.77107],[41.9103,43.77104],[41.91026,43.771],[41.91025,43.77095],[41.91034,43.77084]],[[41.91056,43.77128],[41.91035,43.77107]],[[41.91056,43.77128],[41.9123,43.77412]],[[41.91058,43.77102],[41.91056,43.77128]],[[41.91205,43.77516],[41.91139,43.77896],[41.91274,43.78811]],[[41.91205,43.77516],[41.9123,43.77412]],[[41.91254,43.77466],[41.91205,43.77516]],[[41.9123,43.77412],[41.91248,43.77448]],[[42.41922,43.92645],[42.41831,43.92825],[42.41385,43.92492],[42.40954,43.92467],[42.3996,43.92568],[42.39585,43.92733],[42.38314,43.92138],[42.37767,43.92068],[42.36444,43.92891],[42.35896,43.93046],[42.34703,43.9314],[42.33999,43.93552],[42.32274,43.93493],[42.31811,43.9357],[42.31259,43.9446],[42.3102,43.94598],[42.30926,43.94799],[42.30496,43.94936],[42.30779,43.95266],[42.30152,43.95336],[42.30392,43.95838],[42.28768,43.95461],[42.26631,43.95448],[42.2551,43.95325],[42.24926,43.955],[42.23571,43.9548],[42.22044,43.96209],[42.20485,43.9672],[42.19858,43.97171],[42.19535,43.97096],[42.18562,43.97361],[42.18439,43.98229],[42.18291,43.98437],[42.16629,43.98412],[42.16457,43.98545],[42.15989,43.98621],[42.15541,43.98551],[42.15038,43.98203],[42.15041,43.98551],[42.14532,43.98524],[42.14307,43.98692],[42.13928,43.98703],[42.13683,43.98903],[42.13329,43.98785],[42.13252,43.9916],[42.12621,43.99276],[42.12355,43.99523],[42.11647,43.99441],[42.11014,43.99774],[42.10571,44.0037],[42.09085,44.00978],[42.08057,44.00951],[42.07433,44.01137],[42.05504,44.01365],[42.03857,44.01271],[42.03511,44.01646],[42.01914,44.02041],[42.00947,44.02701],[41.99807,44.04363],[41.99569,44.05029],[41.98977,44.05828],[41.99089,44.05998],[41.98512,44.06468],[41.98272,44.06998],[41.97862,44.07347],[41.97842,44.07723],[41.97411,44.07935]],[[42.00302,44.30108],[42.03631,44.30057],[42.03918,44.29901],[42.0436,44.29283],[42.04843,44.28925]],[[42.03538,44.19189],[42.03996,44.19105],[42.0414,44.19115],[42.04344,44.19145],[42.04601,44.19229],[42.05357,44.19543],[42.05428,44.19612],[42.05448,44.19667],[42.05636,44.20367],[42.05673,44.205],[42.05678,44.20512],[42.05688,44.20531],[42.0569,44.20533],[42.05695,44.20542],[42.05687,44.20535],[42.05683,44.20532],[42.05672,44.20514],[42.05663,44.20488],[42.05445,44.19672],[42.05338,44.19539],[42.04331,44.19148],[42.0354,44.19196]],[[42.04191,44.20905],[42.04832,44.20758]],[[42.04749,44.24933],[42.04591,44.23933],[42.04616,44.23317]],[[42.04616,44.23317],[42.04504,44.23321],[42.04382,44.22398],[42.04504,44.22384],[42.04617,44.22375],[42.04634,44.22373],[42.04986,44.22335],[42.05246,44.2231],[42.05358,44.22296]],[[42.04616,44.23317],[42.04777,44.23306]],[[42.04777,44.23306],[42.04687,44.22684]],[[42.04687,44.22684],[42.04678,44.2267],[42.04662,44.22594],[42.0466,44.22583],[42.0462,44.22389],[42.04617,44.22375],[42.04614,44.22364],[42.04603,44.22305],[42.0458,44.22198],[42.04421,44.21375],[42.04456,44.21494],[42.0457,44.22072],[42.04632,44.22362],[42.04634,44.22373],[42.04677,44.22583],[42.04679,44.22593],[42.04695,44.22669],[42.04687,44.22684]],[[42.04878,44.28648],[42.04748,44.28509],[42.05025,44.28336],[42.04869,44.27978],[42.04988,44.27805],[42.05005,44.27042],[42.04756,44.25996],[42.04749,44.24933]],[[42.04749,44.24933],[42.05887,44.24816]],[[42.04777,44.23306],[42.07113,44.23017],[42.0726,44.22918],[42.07732,44.22944],[42.07811,44.23285],[42.08454,44.23271]],[[42.04792,44.19969],[42.04832,44.20758]],[[42.04832,44.20758],[42.05659,44.20536],[42.05683,44.20532],[42.05688,44.20531],[42.05706,44.20527]],[[42.05706,44.20527],[42.0569,44.20533],[42.05687,44.20535],[42.05663,44.20544],[42.05528,44.20581],[42.04832,44.20758]],[[42.04843,44.28925],[42.04907,44.2888]],[[42.04957,44.28931],[42.04912,44.28916],[42.04843,44.28925]],[[42.04878,44.28648],[42.05224,44.28662]],[[42.04878,44.28648],[42.04921,44.287]],[[42.04907,44.2888],[42.04921,44.287]],[[42.04907,44.2888],[42.04952,44.28849]],[[42.04921,44.287],[42.05011,44.2879],[42.05035,44.28814],[42.05073,44.2885],[42.05093,44.28889],[42.05044,44.28941],[42.04957,44.28931]],[[42.04952,44.28849],[42.04957,44.28931]],[[42.04952,44.28849],[42.04994,44.2882],[42.05048,44.28783],[42.05155,44.28707],[42.05224,44.28662]],[[42.05224,44.28662],[42.0557,44.28254],[42.05501,44.26563],[42.06774,44.25632]],[[42.05536,44.22586],[42.05441,44.22609],[42.05547,44.23193]],[[42.05706,44.20527],[42.06518,44.20308]],[[42.06634,44.23677],[42.06341,44.23586]],[[42.0659,44.20317],[42.06518,44.20308]],[[42.06518,44.20308],[42.06618,44.2028]],[[42.06518,44.20308],[42.06544,44.20305],[42.0659,44.20317]],[[42.06644,44.20368],[42.0659,44.20317]],[[42.0659,44.20317],[42.06591,44.20287]],[[42.06604,44.20296],[42.0659,44.20317]],[[42.06604,44.20296],[42.06644,44.20368]],[[42.06618,44.2028],[42.06604,44.20296]],[[42.06618,44.2028],[42.07373,44.20049]],[[42.06644,44.20368],[42.06686,44.20423],[42.06938,44.20802],[42.07514,44.21681],[42.07719,44.21977],[42.08084,44.22319],[42.08188,44.22445],[42.08261,44.22558],[42.08405,44.23044],[42.0845,44.23218],[42.08546,44.23862],[42.08552,44.24045],[42.08548,44.24289],[42.08558,44.24436],[42.08706,44.25099]],[[42.08623,44.251],[42.0865,44.25017],[42.08545,44.24374],[42.08537,44.2381],[42.08493,44.23574],[42.08454,44.23271],[42.08437,44.23181],[42.08252,44.22562],[42.07733,44.22007],[42.0751,44.2168],[42.06644,44.20368]],[[42.06774,44.25632],[42.06831,44.25572]],[[42.06971,44.25529],[42.06912,44.25563],[42.06774,44.25632]],[[42.06872,44.25544],[42.06971,44.25529]],[[42.06971,44.25529],[42.07153,44.25433]],[[42.07153,44.25433],[42.07244,44.25359]],[[42.07281,44.25391],[42.07153,44.25433]],[[42.07459,44.25379],[42.07331,44.25389]],[[42.07336,44.25241],[42.07443,44.24936]],[[42.07351,44.25329],[42.07459,44.25379]],[[42.07351,44.25329],[42.07331,44.25389],[42.07294,44.25394],[42.07281,44.25391],[42.07275,44.2539],[42.07244,44.25359],[42.07351,44.25329]],[[42.07459,44.25379],[42.081,44.25442],[42.08578,44.25214]],[[42.08593,44.25182],[42.08562,44.25143]],[[42.08578,44.25214],[42.08593,44.25182],[42.08608,44.25128]],[[42.08673,44.25168],[42.08578,44.25214]],[[41.91236,43.7747],[41.91227,43.77452],[41.91254,43.77452],[41.91254,43.77466],[41.91236,43.7747]],[[42.06853,44.25584],[42.06833,44.25552],[42.06883,44.2555],[42.06888,44.2557],[42.06853,44.25584]]]}},{"type":"Feature","properties":{"roadClass":"tertiary"},"geometry":{"type":"MultiLineString","coordinates":[[[40.93962,43.59431],[40.93249,43.59853],[40.92654,43.60062],[40.91842,43.60592],[40.91569,43.60933],[40.90208,43.61915],[40.90135,43.62229],[40.89183,43.63147],[40.882,43.63931],[40.87617,43.64187],[40.87517,43.64542],[40.86925,43.6482],[40.86418,43.65393],[40.86301,43.65716],[40.85813,43.65832],[40.85349,43.66161],[40.85072,43.66215],[40.84712,43.66639],[40.83916,43.67105],[40.83327,43.67909],[40.8285,43.68283],[40.82654,43.68835],[40.82821,43.69242],[40.82733,43.69474],[40.82497,43.69389],[40.82774,43.69638],[40.82714,43.7004],[40.82867,43.70331],[40.8283,43.7053],[40.8341,43.70966],[40.83522,43.7137],[40.83924,43.71713],[40.83896,43.71952],[40.8412,43.72535],[40.84386,43.72785],[40.8439,43.73117],[40.84004,43.73608],[40.84346,43.74195],[40.84336,43.74637],[40.84478,43.74878],[40.84495,43.75224],[40.8436,43.7539],[40.84759,43.76206],[40.8516,43.76353],[40.85487,43.76772],[40.85985,43.77053],[40.86098,43.77328],[40.86943,43.77793],[40.87162,43.78075],[40.87663,43.78272],[40.89172,43.78276],[40.89582,43.79081],[40.90523,43.79701],[40.90758,43.80089],[40.90768,43.80313],[40.91159,43.80699],[40.91124,43.80905],[40.91262,43.81002],[40.9131,43.81409],[40.91552,43.8177],[40.9161,43.8253],[40.91719,43.82686],[40.92167,43.82874],[40.92455,43.83287],[40.92828,43.83488],[40.93268,43.84148],[40.93287,43.84303],[40.93107,43.84545],[40.93481,43.85202],[40.93457,43.85672],[40.93736,43.85814],[40.94027,43.86452],[40.94535,43.86628],[40.94922,43.87229],[40.95099,43.87802],[40.94863,43.88422],[40.9506,43.88719],[40.95002,43.88812],[40.94811,43.88739],[40.94732,43.89145],[40.94407,43.89632],[40.94611,43.8976],[40.94836,43.90345],[40.95334,43.90704],[40.95969,43.91506],[40.95899,43.91945],[40.96207,43.92697],[40.95916,43.93058],[40.95959,43.9355],[40.95687,43.9409],[40.95837,43.94485],[40.96133,43.94772],[40.95963,43.95256],[40.96156,43.97235],[40.96829,43.97921],[40.96956,43.9834],[40.97444,43.98376]],[[40.94666,44.08069],[40.9375,44.06719],[40.93497,44.06125],[40.93539,44.05752],[40.9306,44.03606],[40.93288,44.02968],[40.93604,44.02841],[40.94215,44.01863],[40.9486,44.01412]],[[40.94873,44.01416],[40.94993,44.00743],[40.95534,44.00232],[40.95454,43.993],[40.95747,43.9913],[40.95879,43.98703],[40.95792,43.97666],[40.95922,43.97382],[40.95753,43.97186],[40.957,43.96729],[40.95273,43.96159],[40.95237,43.95945],[40.95549,43.95274],[40.96008,43.9476]],[[40.95464,44.01491],[40.95006,44.01853],[40.95056,44.02059],[40.94957,44.0227],[40.95141,44.03009],[40.94649,44.03071],[40.94582,44.03335],[40.94783,44.03551],[40.95052,44.0652],[40.95903,44.07255],[40.95851,44.07616],[40.9679,44.07705],[40.97314,44.07935],[40.97475,44.07844],[40.97658,44.07955],[40.98172,44.07919],[40.98705,44.08138],[40.99676,44.08316],[41.0084,44.08456],[41.01602,44.08393],[41.02337,44.08688]],[[41.28024,43.56285],[41.27527,43.56107],[41.27148,43.55492],[41.26656,43.55156],[41.25959,43.54381],[41.25714,43.54289],[41.25544,43.53954],[41.25008,43.5368],[41.24356,43.53561],[41.23839,43.5374],[41.22968,43.53811],[41.20484,43.53685],[41.1816,43.54217],[41.1791,43.54477],[41.17166,43.54862],[41.16392,43.55071],[41.1601,43.55055],[41.13932,43.55894],[41.13147,43.55876],[41.12003,43.56413],[41.11218,43.56323],[41.10366,43.57537],[41.09485,43.57763],[41.09717,43.57351],[41.0997,43.57227],[41.09907,43.57072],[41.09629,43.57042],[41.0925,43.57163],[41.09374,43.57407],[41.09139,43.57599],[41.08882,43.57676],[41.08413,43.57617],[41.08082,43.58172],[41.07289,43.58117]],[[41.16905,43.91967],[41.1506,43.91283],[41.14421,43.9083],[41.1388,43.90794],[41.13512,43.90492],[41.13453,43.89698],[41.13108,43.89412],[41.12526,43.88111],[41.12359,43.87945],[41.12323,43.87644],[41.12553,43.87189],[41.12896,43.87037],[41.13315,43.86499],[41.13729,43.86297],[41.13763,43.86078],[41.14051,43.85901],[41.14452,43.8526],[41.1517,43.84866],[41.15424,43.84847],[41.16196,43.84231],[41.1657,43.83604]],[[41.21187,43.9334],[41.20751,43.93312],[41.20099,43.92962],[41.18791,43.92627],[41.18652,43.92507],[41.18649,43.92332],[41.18313,43.92214],[41.16905,43.91967]],[[41.16905,43.91967],[41.16679,43.92295],[41.17624,43.92892],[41.1827,43.94267],[41.19051,43.95113],[41.19147,43.95065],[41.19294,43.95208],[41.19203,43.95257],[41.1963,43.9567]],[[41.18024,43.97215],[41.19075,43.96354],[41.1934,43.95771],[41.1963,43.9567]],[[41.222,44.00822],[41.21329,43.99337],[41.2124,43.98228],[41.205,43.96138],[41.20265,43.95757],[41.1963,43.9567]],[[41.21094,43.93362],[41.21099,43.93393]],[[41.42936,43.86466],[41.41876,43.84516],[41.41389,43.8418],[41.41092,43.83759],[41.40275,43.83495],[41.39849,43.82956]],[[41.42198,43.9043],[41.42327,43.89708],[41.42719,43.88967],[41.42803,43.88301],[41.4236,43.87265],[41.4228,43.86704],[41.42936,43.86466]],[[41.46523,43.89463],[41.46174,43.89295],[41.45973,43.88941],[41.45562,43.88989],[41.45422,43.88616],[41.45171,43.88675],[41.44632,43.87424],[41.43912,43.87513],[41.43394,43.87372],[41.43281,43.86967],[41.42936,43.86466]],[[41.45052,43.79617],[41.45211,43.80225],[41.45197,43.81289],[41.45822,43.82092],[41.46419,43.83963],[41.46924,43.87648],[41.4637,43.87687],[41.46553,43.88891]],[[41.45973,43.88941],[41.46553,43.88891]],[[41.47481,43.90921],[41.47009,43.89608],[41.46908,43.89491],[41.46523,43.89463]],[[41.46553,43.88891],[41.46523,43.89463]],[[41.48312,43.90658],[41.51133,43.92242],[41.52047,43.93162],[41.522,43.93639],[41.52722,43.93697],[41.54453,43.96537],[41.56226,43.98653],[41.5664,43.99349],[41.57049,44.00445],[41.58168,44.01942],[41.58169,44.02336],[41.58399,44.02934],[41.59081,44.04312],[41.60192,44.06096]],[[41.52722,43.93697],[41.52823,43.92895],[41.53223,43.92186],[41.53425,43.91575],[41.55391,43.9027],[41.56909,43.89488],[41.5705,43.89312],[41.57648,43.87919],[41.57564,43.87753],[41.577,43.85541]],[[41.60192,44.06096],[41.60293,44.06253],[41.60543,44.06324],[41.61092,44.07695]],[[41.60192,44.06096],[41.60195,44.0644],[41.60621,44.07411],[41.61092,44.07695]],[[41.61092,44.07695],[41.62669,44.09461],[41.63348,44.09835],[41.64231,44.10786],[41.65259,44.13047],[41.66068,44.1399],[41.66948,44.14728],[41.70217,44.16873],[41.71627,44.19427],[41.71941,44.20455],[41.72354,44.21212],[41.73004,44.22857],[41.73847,44.23423],[41.7417,44.24559],[41.74263,44.24605]],[[41.67261,43.86083],[41.67353,43.85454],[41.67076,43.84712],[41.66567,43.82462],[41.66353,43.8148],[41.66405,43.808],[41.66022,43.79379],[41.65525,43.79304],[41.65604,43.7909],[41.6533,43.7866],[41.63566,43.76834],[41.61813,43.74302]],[[41.62514,43.28899],[41.62185,43.28884]],[[41.78062,44.39937],[41.77551,44.39651],[41.7621,44.39635],[41.75182,44.39969],[41.74188,44.39817],[41.7131,44.39853],[41.70397,44.39758],[41.69598,44.39447],[41.68731,44.39345],[41.67836,44.38563],[41.67672,44.37948],[41.67408,44.37953],[41.67333,44.37813],[41.66304,44.37682],[41.66268,44.37669],[41.65361,44.37192],[41.65273,44.37155],[41.64536,44.37061],[41.62704,44.37077]],[[41.67133,44.34997],[41.67015,44.35213],[41.67028,44.36639],[41.66699,44.37194],[41.66395,44.37341],[41.66268,44.37669]],[[41.71375,43.86206],[41.70719,43.83874],[41.70247,43.80465],[41.69686,43.79864],[41.6974,43.79696],[41.70316,43.79359],[41.70399,43.79184],[41.68919,43.78646],[41.68705,43.78461],[41.68712,43.77525],[41.6884,43.77227],[41.68513,43.76729],[41.68283,43.7413],[41.67712,43.72513],[41.67212,43.71712],[41.67085,43.71247]],[[41.72332,44.22917],[41.72953,44.22745]],[[41.72477,43.96372],[41.73537,43.95982],[41.73872,43.96101],[41.74109,43.95966]],[[41.77535,44.41911],[41.77641,44.4046],[41.78057,44.40164],[41.78062,44.39937],[41.78125,44.39051],[41.78279,44.37314],[41.78135,44.35749],[41.77161,44.33105],[41.76587,44.32044],[41.75328,44.3155],[41.7435,44.30575],[41.73714,44.29756],[41.7379,44.29695],[41.73573,44.29368],[41.73748,44.29176],[41.7323,44.28241]],[[41.74263,44.24605],[41.74785,44.25949],[41.74652,44.26118],[41.75123,44.27851],[41.75408,44.28179],[41.76365,44.30008],[41.77518,44.3102],[41.78171,44.32014],[41.78644,44.32028],[41.78931,44.32317],[41.78874,44.32457],[41.79074,44.32863],[41.79916,44.34198],[41.80278,44.34573],[41.80612,44.3524],[41.8051,44.3546],[41.80596,44.35872],[41.80479,44.36335],[41.80712,44.37762],[41.80544,44.38688],[41.80281,44.39487],[41.79639,44.40146],[41.80265,44.41784],[41.80035,44.41833],[41.80141,44.42091],[41.80327,44.44253],[41.80131,44.44809],[41.80211,44.44904]],[[41.74263,44.24605],[41.77572,44.24194],[41.80525,44.22886],[41.82507,44.22484],[41.83942,44.21983],[41.84453,44.21686],[41.87929,44.21528]],[[41.77626,44.44431],[41.77484,44.43864],[41.77405,44.42446],[41.77535,44.41911]],[[41.77626,44.44431],[41.77277,44.44227],[41.76613,44.42671],[41.77161,44.42067],[41.77535,44.41911]],[[41.80185,44.44579],[41.79375,44.44612],[41.77626,44.44431]],[[41.77626,44.44431],[41.7829,44.45863],[41.78353,44.46261],[41.78193,44.46384],[41.78506,44.47011],[41.78841,44.47241]],[[41.8409,44.13003],[41.84145,44.12293],[41.84003,44.11842],[41.83657,44.11568],[41.83582,44.11271],[41.83322,44.10954],[41.82939,44.10831],[41.81601,44.09303],[41.8057,44.08538],[41.80223,44.08111],[41.79884,44.07987],[41.79053,44.07298],[41.78469,44.055],[41.77996,44.04918],[41.77974,44.04368],[41.78246,44.04057],[41.78473,44.03417]],[[41.79263,44.33152],[41.80755,44.33007],[41.81557,44.33256],[41.81696,44.33503],[41.818,44.33405],[41.82161,44.33676],[41.84244,44.33144],[41.86056,44.32914],[41.90195,44.32796],[41.90329,44.32426],[41.9194,44.32204]],[[41.80211,44.44904],[41.8053,44.4499],[41.80694,44.4523],[41.80954,44.44926],[41.81155,44.45105],[41.88532,44.45107],[41.89778,44.45065],[41.90814,44.44721],[41.91318,44.44912]],[[41.82656,44.49646],[41.81985,44.485],[41.81715,44.48438],[41.80998,44.47665],[41.80608,44.46834],[41.80056,44.46492],[41.80211,44.44904]],[[41.87036,44.1811],[41.86952,44.18658],[41.8742,44.20775],[41.87929,44.21528]],[[41.87929,44.21528],[41.87993,44.21639]],[[41.88963,43.89744],[41.89023,43.89779]],[[41.89023,43.89779],[41.89,43.89805]],[[41.89963,43.92994],[41.90155,43.92596],[41.90201,43.90052],[41.89023,43.89779]],[[41.91054,43.75237],[41.91434,43.7589],[41.91717,43.76075],[41.91802,43.77129],[41.92259,43.77649],[41.92472,43.781],[41.92275,43.78693],[41.92374,43.79162],[41.91825,43.80333],[41.91243,43.80785],[41.90958,43.81388],[41.90521,43.83616],[41.90354,43.83786],[41.90452,43.84359],[41.89922,43.84363],[41.89943,43.84632],[41.89641,43.84685]],[[41.89939,44.45076],[41.89778,44.45065]],[[41.89901,43.92974],[41.89963,43.92994]],[[41.89963,43.92994],[41.89926,43.93081]],[[41.90119,44.49081],[41.91127,44.4908],[41.91853,44.48949],[41.91516,44.47931],[41.91574,44.47663],[41.91428,44.46224],[41.91524,44.45802],[41.91318,44.44912]],[[41.91744,43.83876],[41.91308,43.83908],[41.91154,43.83621],[41.90536,43.83554]],[[41.909,43.75261],[41.90855,43.75353],[41.91092,43.75581],[41.91329,43.76071],[41.91439,43.76731]],[[41.909,43.75261],[41.90909,43.75204],[41.91015,43.75073]],[[41.91054,43.75237],[41.909,43.75261]],[[41.90993,43.75107],[41.91016,43.75112]],[[41.91015,43.75073],[41.91054,43.75237]],[[42.09991,43.46052],[42.09948,43.46142],[42.10625,43.47251],[42.10595,43.47775],[42.10958,43.48955],[42.10944,43.49905],[42.11066,43.50346],[42.11877,43.52003],[42.12513,43.52786],[42.12852,43.53647],[42.12931,43.5465],[42.13419,43.55332],[42.13375,43.55919],[42.13593,43.56329],[42.13498,43.56595],[42.13543,43.56939],[42.13361,43.5737],[42.13583,43.5798],[42.13604,43.59012],[42.1341,43.59706],[42.12813,43.60064],[42.11965,43.61007],[42.1146,43.61226],[42.11419,43.61545],[42.10721,43.62287],[42.09612,43.63025],[42.0904,43.63976],[42.06439,43.6527],[42.05772,43.65351],[42.05244,43.65612],[42.04648,43.65384],[42.04197,43.65653],[42.03869,43.65585],[42.03278,43.65781],[42.02431,43.65654],[42.01034,43.65981],[42.002,43.66062],[41.9987,43.65973],[41.98423,43.66146],[41.97852,43.65632],[41.97241,43.65544],[41.96939,43.65576],[41.96166,43.65961],[41.95723,43.6657],[41.94939,43.66967],[41.94651,43.67601],[41.94448,43.67661],[41.94148,43.67561],[41.93965,43.67644],[41.93374,43.68324],[41.92965,43.69103],[41.9244,43.6952],[41.92678,43.71297],[41.92884,43.71617],[41.92831,43.71886],[41.92545,43.72128],[41.92491,43.72496],[41.92044,43.72875],[41.91845,43.73157],[41.91814,43.7341],[41.91474,43.73738],[41.91298,43.74556],[41.91015,43.75073]],[[41.9105,43.77083],[41.91094,43.77082]],[[41.91094,43.77082],[41.91061,43.77097]],[[41.91094,43.77082],[41.91294,43.76972],[41.91283,43.76749],[41.91439,43.76731]],[[41.91289,43.7744],[41.91248,43.77448]],[[41.91439,43.76731],[41.91481,43.7726],[41.91447,43.77308],[41.91353,43.77389],[41.91289,43.7744],[41.91254,43.77466]],[[41.91318,44.44912],[41.91073,44.44462],[41.91094,44.44103],[41.9124,44.44026],[41.91352,44.44104],[41.91439,44.44406],[41.91923,44.44306],[41.91711,44.43308],[41.91761,44.42877]],[[41.92818,44.32707],[41.92809,44.32551],[41.92471,44.32219],[41.9197,44.32303]],[[41.91998,44.32651],[41.92818,44.32707]],[[41.92818,44.32707],[41.93064,44.32687]],[[41.93302,44.33294],[41.93801,44.33259],[41.94293,44.33392],[41.94564,44.33604],[41.96885,44.33609]],[[41.94654,44.36056],[41.94576,44.36143],[41.95022,44.37556],[41.93648,44.37599],[41.9346,44.36291]],[[41.94016,44.40021],[41.93916,44.39497],[41.94873,44.38619],[41.94958,44.38664],[41.95987,44.38384],[41.97044,44.37988]],[[41.96593,44.36953],[41.95979,44.36797],[41.95051,44.36254],[41.94654,44.36056],[41.94554,44.36006],[41.94528,44.35978]],[[42.01684,44.21185],[42.01418,44.20252],[42.01317,44.19411],[42.00408,44.19303],[41.99697,44.1973],[41.99323,44.19162],[41.98951,44.1888],[41.98018,44.18545],[41.97105,44.17909],[41.97104,44.14002],[41.94723,44.13289]],[[41.94913,44.3863],[41.95236,44.38368],[41.96046,44.38139]],[[41.95448,44.06856],[41.95459,44.0661],[41.95012,44.05608],[41.95059,44.04206]],[[41.96676,44.0167],[41.9658,44.01286],[41.96127,44.00755],[41.95752,44.00738]],[[41.967,44.04837],[41.96732,44.04579]],[[42.00573,44.25176],[42.01605,44.25133]],[[42.01684,44.21185],[42.0186,44.2177]],[[42.01684,44.21185],[42.02135,44.21119],[42.02071,44.20469]],[[42.02274,43.91258],[42.02191,43.91382],[42.02458,43.91722],[42.02763,43.92582],[42.03777,43.93457],[42.04556,43.94525],[42.04594,43.94958],[42.04167,43.96324],[42.04096,43.97557],[42.04276,43.97601],[42.04311,43.98034],[42.0452,43.98427],[42.04543,43.99486],[42.04412,43.99702],[42.04427,44.00407],[42.04146,44.00922],[42.03857,44.01258],[42.03857,44.01271]],[[42.23502,44.02912],[42.2318,44.02847],[42.2227,44.02954],[42.22202,44.03314],[42.21761,44.03799],[42.21992,44.04436],[42.21837,44.0464],[42.21688,44.04655],[42.21601,44.05068],[42.21944,44.05401],[42.23476,44.06005],[42.23703,44.06478],[42.24202,44.06918],[42.23098,44.07475],[42.22557,44.07598],[42.22181,44.0893],[42.22325,44.09457],[42.22251,44.09643],[42.21692,44.09758],[42.19338,44.10702],[42.17896,44.11136],[42.14764,44.11647],[42.14652,44.11685],[42.14638,44.1169],[42.14526,44.11734],[42.13633,44.12101],[42.13582,44.12113],[42.12783,44.12093],[42.1153,44.1276],[42.09709,44.13312],[42.08891,44.13976],[42.0783,44.14022],[42.06842,44.14546],[42.06298,44.14702],[42.05914,44.14439],[42.04989,44.14632],[42.03449,44.16001],[42.02552,44.16568]],[[42.03089,44.20873],[42.03399,44.21356],[42.03612,44.2144],[42.03827,44.2195],[42.04226,44.22099],[42.04382,44.22398]],[[42.0352,44.19527],[42.03627,44.19824],[42.03658,44.19914],[42.04018,44.20924],[42.04107,44.21175],[42.04008,44.2123],[42.0412,44.21416]],[[42.0377,44.21424],[42.03296,44.19787],[42.03462,44.19572],[42.0352,44.19527],[42.03558,44.19505],[42.03647,44.19471]],[[42.03672,44.20979],[42.04018,44.20924],[42.04191,44.20905]],[[42.03677,44.21484],[42.0377,44.21424]],[[42.04149,44.19546],[42.03718,44.1964]],[[42.0377,44.21424],[42.03774,44.21464]],[[42.03833,44.01285],[42.03857,44.01258]],[[42.04788,44.19912],[42.04792,44.19969],[42.04528,44.20012],[42.04187,44.20063],[42.03901,44.20108]],[[42.03931,44.24765],[42.04155,44.24769],[42.04724,44.24775]],[[42.04749,44.24933],[42.04464,44.24962],[42.03942,44.2496]],[[42.04554,44.20313],[42.04413,44.20324],[42.04269,44.20339],[42.04234,44.20341],[42.03997,44.20395]],[[42.04554,44.20313],[42.0456,44.20537],[42.04293,44.20561],[42.04269,44.20339],[42.04187,44.20063],[42.04134,44.19903]],[[42.04269,44.19562],[42.04149,44.19546]],[[42.04149,44.19546],[42.04189,44.19527]],[[42.04162,44.24959],[42.04165,44.24861],[42.04155,44.24769],[42.04151,44.2426],[42.04156,44.24121]],[[42.04201,44.19549],[42.04189,44.19527]],[[42.04189,44.19527],[42.04214,44.19518]],[[42.04191,44.19521],[42.04214,44.19518]],[[42.04226,44.1953],[42.04211,44.1955]],[[42.04214,44.19518],[42.04226,44.1953]],[[42.04226,44.1953],[42.04269,44.19562]],[[42.04269,44.19562],[42.04649,44.19727]],[[42.04293,44.22894],[42.04715,44.22859]],[[42.04436,44.22709],[42.04687,44.22684]],[[42.04466,44.23885],[42.04504,44.23321]],[[42.04495,44.20543],[42.04543,44.20827]],[[42.04496,44.21696],[42.04643,44.21568],[42.04622,44.21348]],[[42.05246,44.21902],[42.05167,44.21826],[42.04541,44.21916]],[[42.04809,44.20293],[42.04554,44.20313]],[[42.04596,44.23667],[42.05088,44.23622],[42.04996,44.23089],[42.05403,44.23052]],[[42.04614,44.24104],[42.05034,44.24071],[42.0606,44.23966],[42.0611,44.24041]],[[42.04649,44.19727],[42.04773,44.19782]],[[42.04931,44.19363],[42.04649,44.19727]],[[42.04679,44.22593],[42.05031,44.22564],[42.04986,44.22335]],[[42.04773,44.19782],[42.04814,44.19798],[42.04927,44.19843]],[[42.04788,44.19912],[42.04773,44.19782]],[[42.04779,44.19816],[42.04814,44.19798]],[[42.04806,44.19902],[42.04786,44.19895]],[[42.04927,44.19843],[42.0489,44.19884],[42.04806,44.19902],[42.04788,44.19912]],[[42.04793,44.21882],[42.04869,44.22347]],[[42.04822,44.20293],[42.05611,44.20275]],[[42.04927,44.19843],[42.05271,44.20028],[42.0554,44.20015]],[[42.05034,44.24071],[42.05059,44.2388],[42.05111,44.23749],[42.05119,44.23621]],[[42.05071,44.23853],[42.06254,44.23753]],[[42.05281,44.21874],[42.05144,44.21299]],[[42.05246,44.21902],[42.05308,44.22072],[42.05379,44.22403],[42.0541,44.22509],[42.05441,44.22609]],[[42.05246,44.21902],[42.05281,44.21874],[42.05315,44.21868],[42.05577,44.21833],[42.05733,44.21815],[42.05893,44.21796],[42.06029,44.21779]],[[42.05271,44.20028],[42.05372,44.20279]],[[42.0541,44.22509],[42.056,44.2248]],[[42.05413,44.23596],[42.05776,44.23562]],[[42.05474,44.22281],[42.05454,44.22178],[42.05812,44.22127],[42.06096,44.22078]],[[42.05484,44.27352],[42.06059,44.27217]],[[42.05812,44.22127],[42.05753,44.21906],[42.05733,44.21815],[42.05707,44.21704],[42.05692,44.21631],[42.05526,44.20574]],[[42.05536,44.22586],[42.05953,44.22474],[42.0662,44.22309],[42.06791,44.22262],[42.07036,44.23024]],[[42.05547,44.23193],[42.05579,44.23341],[42.05672,44.23373],[42.05858,44.23432],[42.05944,44.23459],[42.06103,44.23512],[42.06341,44.23586]],[[42.06045,44.25354],[42.05657,44.25248]],[[42.05662,44.25237],[42.06051,44.25343]],[[42.13261,44.32422],[42.13212,44.31254],[42.11182,44.31377],[42.09435,44.3162],[42.0753,44.3169],[42.07414,44.31204],[42.0707,44.3121],[42.06739,44.31036],[42.06912,44.3019],[42.06597,44.29264],[42.06393,44.2798],[42.05692,44.2637]],[[42.05718,44.20673],[42.05695,44.20542]],[[42.0577,44.25922],[42.06061,44.25379]],[[42.05776,44.23562],[42.05815,44.2378]],[[42.05943,44.23142],[42.05914,44.23349],[42.05858,44.23432],[42.058,44.23517],[42.05776,44.23562]],[[42.06075,44.25383],[42.05785,44.25927]],[[42.05858,44.24862],[42.05814,44.2484]],[[42.05872,44.21234],[42.06041,44.21211],[42.06065,44.21309],[42.06124,44.21517],[42.06233,44.21904]],[[42.05952,44.21541],[42.06043,44.21528],[42.06124,44.21517],[42.06275,44.21499],[42.06402,44.2148]],[[42.06087,44.23128],[42.05953,44.22474]],[[42.06233,44.21904],[42.06058,44.21939]],[[42.0613,44.22204],[42.06648,44.22087]],[[42.06233,44.21904],[42.06548,44.21861],[42.06648,44.22087]],[[42.06648,44.22087],[42.06728,44.22278]],[[42.06667,44.23706],[42.06693,44.23674]],[[42.06736,44.23673],[42.06775,44.23645]],[[42.06775,44.23645],[42.0679,44.23688]],[[42.06775,44.23645],[42.06989,44.23029]],[[42.07282,44.25312],[42.07336,44.25241],[42.07351,44.25329]],[[42.07328,44.20077],[42.07569,44.20815]],[[42.07372,44.22935],[42.07085,44.22186],[42.07396,44.22094],[42.0734,44.21948],[42.07639,44.2186]],[[42.07373,44.20049],[42.08451,44.19185],[42.0883,44.19062],[42.08832,44.18257],[42.08917,44.18187],[42.15422,44.18174],[42.15744,44.18151],[42.18129,44.18376],[42.18706,44.18297],[42.19298,44.18417],[42.19507,44.18169],[42.19755,44.17265],[42.21252,44.16381],[42.26027,44.16364],[42.26005,44.16129],[42.26178,44.1579],[42.26236,44.14599],[42.25972,44.14439],[42.25923,44.14104],[42.26706,44.14007],[42.27001,44.13688],[42.28683,44.13772],[42.29035,44.1423],[42.30143,44.14179],[42.31259,44.14398],[42.32386,44.14409],[42.33527,44.14761],[42.34522,44.1537],[42.35395,44.15368]],[[42.07811,44.23285],[42.07784,44.23286]],[[42.08469,44.23397],[42.0872,44.23486],[42.09087,44.23202],[42.09565,44.23115],[42.09566,44.23464],[42.09723,44.23592],[42.12194,44.23626]],[[42.09702,43.45892],[42.09991,43.46052]],[[42.16368,43.42162],[42.15523,43.42552],[42.14966,43.43067],[42.13897,43.43576],[42.13758,43.43856],[42.13287,43.44235],[42.12025,43.44717],[42.09991,43.46052]],[[42.13223,43.98516],[42.1299,43.98474],[42.12575,43.9861],[42.12043,43.99375],[42.11647,43.99441]],[[42.13223,43.98516],[42.14028,43.98606],[42.13877,43.98761]],[[42.15076,43.98214],[42.14789,43.97938],[42.14341,43.98075],[42.13752,43.97906],[42.13084,43.98232],[42.1328,43.98455],[42.13223,43.98516]],[[42.13453,43.98555],[42.13797,43.98841]],[[42.14202,44.18173],[42.14158,44.16283],[42.14623,44.15642],[42.14488,44.15363],[42.14462,44.12563],[42.14834,44.12008],[42.14638,44.1169]],[[42.23502,44.02912],[42.23859,44.02903],[42.23183,44.02251],[42.23166,44.01095],[42.22915,44.00522],[42.21912,43.99884],[42.21839,43.99423],[42.21976,43.98456],[42.21031,43.97901],[42.20448,43.97802],[42.20045,43.97956],[42.19775,43.98512],[42.1956,43.98595],[42.19634,43.98003],[42.19829,43.97689],[42.19955,43.97128]],[[42.23233,44.16371],[42.23233,44.15749],[42.23103,44.15465]],[[42.24531,44.31356],[42.24804,44.30958],[42.24697,44.30664],[42.23899,44.29702],[42.22855,44.29071],[42.23247,44.28607],[42.23236,44.27467],[42.22709,44.27462],[42.22717,44.26968],[42.23209,44.26972],[42.23208,44.26381]],[[42.35558,44.06447],[42.35376,44.06963],[42.35249,44.06881],[42.34142,44.07022],[42.34107,44.07199],[42.33146,44.07011],[42.29713,44.05446],[42.29745,44.05026],[42.29436,44.04684],[42.29271,44.04126],[42.28616,44.03794],[42.27378,44.03971],[42.24563,44.0316],[42.23818,44.03199],[42.23502,44.02912]],[[42.41656,44.1187],[42.40578,44.11472],[42.40069,44.10871],[42.38409,44.10526],[42.38113,44.10181],[42.37721,44.08734],[42.36388,44.07799],[42.36058,44.07133],[42.35673,44.06533],[42.35558,44.06447],[42.35511,44.064],[42.35303,44.05913],[42.35194,44.05216],[42.35356,44.04663],[42.35147,44.04472],[42.3507,44.03647],[42.35182,44.03244],[42.34859,44.02482],[42.34817,44.01817],[42.34146,44.01014],[42.33938,44.005],[42.33602,44.00111],[42.33264,43.99829],[42.33089,43.99865],[42.32205,43.99008],[42.31944,43.9861],[42.31453,43.98321],[42.31419,43.98013],[42.31075,43.97703],[42.30582,43.96878],[42.30516,43.9641],[42.30226,43.9601],[42.30236,43.95849]],[[42.35282,44.2599],[42.35855,44.26002],[42.35972,44.26113]],[[42.49872,43.92171],[42.49782,43.91897],[42.48807,43.90906],[42.48121,43.89847],[42.47659,43.89664],[42.47132,43.88669],[42.46617,43.88215],[42.45718,43.86921]],[[42.47156,44.25486],[42.4695,44.25126],[42.46591,44.25035],[42.4652,44.24205],[42.46178,44.23067],[42.46242,44.21987]],[[42.49383,44.35336],[42.49644,44.35313],[42.50056,44.34679],[42.5183,44.33435],[42.50864,44.30728],[42.50956,44.30356],[42.51434,44.29891],[42.51443,44.29704],[42.50711,44.28214],[42.50543,44.28146],[42.49186,44.28284],[42.48527,44.27749],[42.47398,44.27354],[42.46913,44.26667],[42.47344,44.26009],[42.47114,44.25498]],[[42.50153,43.94212],[42.49805,43.93967],[42.49671,43.94113]],[[42.51481,43.9447],[42.49792,43.92396],[42.49872,43.92171]],[[42.49872,43.92171],[42.50097,43.92067],[42.516,43.9337]],[[42.5088,43.93678],[42.5146,43.93505],[42.51752,43.933],[42.52262,43.93301],[42.52682,43.93103],[42.5299,43.92893],[42.52861,43.92454]],[[42.61115,43.95277],[42.60969,43.94539],[42.60769,43.94401],[42.60743,43.94204],[42.61447,43.94182],[42.61628,43.94083],[42.62114,43.93582],[42.62301,43.9306],[42.62605,43.92773],[42.62422,43.92561],[42.61896,43.92335],[42.61846,43.92019],[42.61463,43.91844],[42.61125,43.91381],[42.59686,43.90123],[42.59578,43.89878],[42.59743,43.89483],[42.59249,43.89097],[42.58979,43.89053],[42.58566,43.88422]],[[42.6682,43.81601],[42.66772,43.81393],[42.66998,43.81332],[42.67091,43.8116],[42.66988,43.80807],[42.66805,43.80656],[42.66383,43.80586],[42.66353,43.80456],[42.66002,43.80256],[42.65835,43.79496],[42.65521,43.7915],[42.66101,43.79417],[42.66109,43.79201],[42.66555,43.79482],[42.66186,43.78705],[42.66087,43.78104],[42.66229,43.77911],[42.66156,43.77677],[42.66478,43.77387],[42.6659,43.76171],[42.6733,43.74776],[42.67683,43.74532],[42.67685,43.74059],[42.68068,43.73604],[42.6805,43.72999],[42.67945,43.73221],[42.67844,43.73014],[42.67958,43.72727],[42.68177,43.72764],[42.67852,43.72291],[42.68023,43.71962],[42.68075,43.71534],[42.67704,43.7116],[42.67863,43.70551],[42.67594,43.70437],[42.67727,43.70238],[42.67607,43.7015],[42.67611,43.70252],[42.67352,43.70023],[42.67467,43.69698]],[[42.05796,44.25935],[42.05776,44.25971],[42.0573,44.25954],[42.05756,44.25923],[42.05796,44.25935]],[[42.06115,44.25349],[42.0609,44.25382],[42.06079,44.25383],[42.06075,44.25383],[42.06067,44.25382],[42.06057,44.25377],[42.06045,44.25362],[42.06045,44.25354],[42.06048,44.25346],[42.06066,44.25334],[42.06115,44.25349]],[[42.06634,44.23677],[42.06719,44.23671],[42.0679,44.23688],[42.0681,44.23729],[42.06712,44.23746],[42.06634,44.23677]]]}},{"type":"Feature","properties":{"roadClass":"trunk"},"geometry":{"type":"MultiLineString","coordinates":[[[41.91444,44.39448],[41.91225,44.4043],[41.90237,44.42726],[41.89986,44.44894],[41.89716,44.45875],[41.90129,44.49015],[41.88983,44.50875],[41.88949,44.5529],[41.87784,44.56891]],[[41.91444,44.39448],[41.92039,44.3778],[41.92177,44.37428],[41.92893,44.36524],[41.92971,44.3645],[41.93037,44.36414]],[[41.93037,44.36414],[41.92186,44.37431],[41.91444,44.39448]],[[41.9346,44.36291],[41.93037,44.36414]],[[41.9346,44.36291],[41.95273,44.35703],[41.97123,44.33286],[41.98218,44.32343],[41.98846,44.31544],[41.99523,44.30903],[41.99702,44.30766]],[[41.99702,44.30766],[41.98855,44.31547],[41.98226,44.32347],[41.97133,44.33289],[41.95281,44.35707],[41.9346,44.36291]],[[42.02015,44.21833],[42.01585,44.21919],[42.01408,44.24105],[42.01867,44.26145],[42.01648,44.28044],[42.00926,44.29016],[42.00074,44.30447],[41.99702,44.30766]],[[42.03614,44.21502],[42.03251,44.21664],[42.03072,44.21717],[42.02187,44.21827],[42.02064,44.21834],[42.02015,44.21833]],[[42.02015,44.21833],[42.03068,44.21712],[42.03614,44.21502]],[[42.04421,44.21375],[42.03614,44.21502]]]}}],"provenance":{"sources":[{"id":"osm-north-caucasus-260916","url":"https://download.geofabrik.de/russia/north-caucasus-fed-district-260916.osm.pbf","snapshot":"2026-09-16T20:21:21Z","sha256":"6b57ddc7e26ed9a599b733fd201ead0c5669ff108d34a05bd9005bb2ceea91a6","md5":"1e96bf0e0cc7972e18ec11f3d33d563c","bytes":128531657,"license":"ODbL-1.0","attribution":"© OpenStreetMap contributors, Geofabrik","downloadDate":"2026-09-17"},{"id":"osm-south-260916","url":"https://download.geofabrik.de/russia/south-fed-district-260916.osm.pbf","snapshot":"2026-09-16T20:21:21Z","sha256":"3ccca698671dbc4d23d4a4fbc8f83bca9ea620c541d0f15c2d60ac03919f99d7","md5":"3ba975cd945a4f9f637abd451290e6d7","bytes":313497295,"license":"ODbL-1.0","attribution":"© OpenStreetMap contributors, Geofabrik","downloadDate":"2026-09-17"}],"attribution":"© OpenStreetMap contributors, Geofabrik; ODbL-1.0","geometryMethod":"Actual OSM road ways, merged by class and endpoint, display simplification 0.0007 degrees; not routing geometry","sourceWayCount":1414,"routingUse":false}}