{"type":"FeatureCollection","features":[{"type":"Feature","properties":{"roadClass":"primary"},"geometry":{"type":"MultiLineString","coordinates":[[[150.9656,60.11754],[150.95716,60.12019],[150.95091,60.12016],[150.94508,60.11825],[150.94237,60.11925],[150.94852,60.13555],[150.94751,60.14156],[150.94558,60.14537],[150.94735,60.15299],[150.94443,60.1609],[150.95058,60.17024],[150.95141,60.17728],[150.94923,60.18014],[150.94631,60.18894],[150.94194,60.1929],[150.9454,60.1929],[150.94334,60.19411],[150.94232,60.19782],[150.94296,60.20177],[150.94651,60.20384],[150.94502,60.21021],[150.94826,60.21362],[150.94811,60.21495],[150.94594,60.21581],[150.94025,60.21533],[150.93077,60.2175],[150.92864,60.2231],[150.93192,60.22565],[150.93192,60.23214],[150.92525,60.23522],[150.91854,60.23661],[150.91472,60.2418],[150.91169,60.25046],[150.90961,60.25232],[150.89982,60.25726],[150.88722,60.26098],[150.89246,60.26363],[150.89437,60.27072],[150.90068,60.2732],[150.90845,60.27346],[150.91817,60.27552],[150.92332,60.27878],[150.93106,60.2816],[150.93451,60.28512],[150.93684,60.29434],[150.94323,60.30372],[150.94002,60.31047],[150.93973,60.31682],[150.94622,60.32144],[150.94788,60.3298],[150.95243,60.33305],[150.95707,60.33934],[150.96091,60.34137],[150.96713,60.3472],[150.96803,60.34994],[150.97118,60.35154],[150.97735,60.36368],[150.97872,60.37219],[150.98035,60.37356],[150.98293,60.38049],[150.97726,60.3902],[150.97803,60.39278],[150.97738,60.39589],[150.97905,60.40075],[150.9762,60.40367],[150.97524,60.40772],[150.98125,60.42178],[150.98132,60.42784],[150.97623,60.43114],[150.97646,60.43359],[150.97069,60.43497],[150.97434,60.43808],[150.97114,60.4419],[150.96856,60.4425],[150.96867,60.44427],[150.96743,60.4455],[150.96128,60.44715],[150.95425,60.45096],[150.9442,60.46074],[150.93763,60.46505],[150.93566,60.4678],[150.92092,60.47464],[150.91406,60.48011],[150.90477,60.48218],[150.89962,60.48737],[150.8968,60.48868],[150.89435,60.49439],[150.89527,60.49898],[150.893,60.50327],[150.8847,60.50856],[150.88375,60.512],[150.87823,60.51884],[150.8744,60.52604],[150.87234,60.54291],[150.86619,60.54409],[150.86405,60.54589],[150.86226,60.55012],[150.85065,60.56533],[150.85095,60.57139],[150.84475,60.57759],[150.84144,60.58268],[150.82197,60.59082],[150.80997,60.59168],[150.78428,60.59829],[150.76366,60.59931],[150.76152,60.60021],[150.75745,60.60512],[150.74278,60.60843],[150.71902,60.61079],[150.70219,60.61032],[150.67985,60.6036],[150.66749,60.60126],[150.66631,60.6029],[150.66707,60.60981],[150.66634,60.61254],[150.67654,60.62357],[150.67787,60.62859],[150.6663,60.64293],[150.65178,60.6451],[150.64638,60.65086],[150.64355,60.65197],[150.61037,60.65083],[150.58915,60.64617],[150.58162,60.64345],[150.56578,60.64282],[150.55298,60.6402],[150.54697,60.64113],[150.52971,60.63966],[150.51995,60.63627],[150.50438,60.63612],[150.50907,60.63446],[150.50584,60.63325],[150.49399,60.63609],[150.47974,60.63254],[150.46922,60.63778],[150.43311,60.64387],[150.4008,60.65216],[150.3819,60.65437],[150.37105,60.65859],[150.35909,60.66831],[150.34172,60.67453],[150.3284,60.68179],[150.31306,60.68575],[150.3021,60.69111],[150.28769,60.69166],[150.27813,60.69327],[150.25844,60.68764],[150.23575,60.68287],[150.22021,60.68322],[150.18472,60.67939],[150.17462,60.67732],[150.16531,60.67367],[150.12889,60.67392],[150.12259,60.67521],[150.11321,60.68254],[150.10794,60.68442],[150.09399,60.68625],[150.08376,60.69072],[150.07488,60.69716],[150.072,60.70023],[150.07004,60.70474],[150.07081,60.7121],[150.06879,60.7178],[150.05244,60.72787],[150.052,60.72985],[150.04793,60.73255],[150.01604,60.7405],[150.00608,60.74601],[149.99119,60.75643],[149.98194,60.75699],[149.96387,60.76431],[149.95722,60.76475],[149.94965,60.77018],[149.94418,60.77209],[149.93139,60.77182],[149.9351,60.7737],[149.92546,60.77902],[149.91876,60.7792],[149.92628,60.78059],[149.92601,60.78371],[149.92469,60.78534],[149.91108,60.78905],[149.8832,60.79331],[149.8787,60.79472],[149.87432,60.79769],[149.86741,60.80662],[149.86641,60.81009],[149.86861,60.81741],[149.86164,60.82331],[149.85827,60.83327],[149.8589,60.83669],[149.86334,60.84054],[149.86483,60.84853],[149.8743,60.85514],[149.88463,60.85804],[149.89323,60.86373],[149.89476,60.86568],[149.89474,60.86846],[149.90063,60.87253],[149.90741,60.87939],[149.90883,60.8879],[149.90819,60.88982],[149.88894,60.90503],[149.87297,60.91335],[149.85166,60.91474],[149.84322,60.91877],[149.83979,60.92315],[149.83684,60.92447],[149.80975,60.92967],[149.7988,60.93027],[149.78435,60.93624],[149.75581,60.94158],[149.7487,60.9466],[149.73629,60.95175],[149.73501,60.9564],[149.72641,60.95807],[149.72019,60.96287],[149.71577,60.96423],[149.71144,60.97064],[149.70732,60.98519],[149.71312,60.99442],[149.71444,60.99997],[149.71292,61.00568],[149.70234,61.0211],[149.6983,61.0235],[149.68414,61.04552],[149.65094,61.06696],[149.65079,61.06951],[149.64682,61.07641],[149.63514,61.08297],[149.62913,61.08948],[149.62931,61.09676],[149.63082,61.10178],[149.62315,61.11271],[149.62941,61.11852],[149.62962,61.1201],[149.62691,61.12495],[149.62612,61.13016],[149.62096,61.13306],[149.62013,61.13914],[149.61503,61.14373],[149.59084,61.14866],[149.58067,61.14948],[149.57441,61.153],[149.56841,61.15485],[149.54927,61.15254],[149.54175,61.15387],[149.52861,61.15367],[149.50888,61.15622],[149.49396,61.15634],[149.45512,61.15214],[149.44544,61.15316],[149.43797,61.15586],[149.4261,61.15666],[149.41032,61.15554],[149.36375,61.14749],[149.35892,61.14782],[149.34538,61.15751],[149.33371,61.16337],[149.3017,61.17292],[149.27569,61.18254],[149.25006,61.18782],[149.2362,61.19571],[149.22239,61.19963],[149.21835,61.20205],[149.20626,61.21464],[149.18744,61.22082],[149.18517,61.22259],[149.17805,61.23558],[149.17527,61.23877],[149.17547,61.24013],[149.1792,61.24193],[149.17809,61.24367],[149.16365,61.24269],[149.15815,61.24336],[149.13626,61.25525],[149.11915,61.26142],[149.10622,61.26813],[149.07712,61.27541],[149.03573,61.28314],[149.02573,61.28377],[149.01171,61.27736],[148.98965,61.27121],[148.97883,61.26943],[148.97245,61.27001],[148.96419,61.27375],[148.96048,61.27741],[148.94724,61.28614],[148.94095,61.29695],[148.92835,61.30017],[148.91491,61.309],[148.89857,61.31376],[148.89236,61.3143],[148.86181,61.32126],[148.85293,61.32465],[148.83865,61.32704],[148.83019,61.32994],[148.81591,61.34113],[148.81003,61.34047],[148.80665,61.34139],[148.79828,61.35122],[148.78728,61.35772],[148.76097,61.36025],[148.74864,61.35966],[148.73105,61.36402],[148.72096,61.36805],[148.7013,61.36979],[148.66883,61.37787],[148.64362,61.3821],[148.61558,61.38984],[148.592,61.39465],[148.58105,61.39859],[148.56401,61.40677],[148.54129,61.42269],[148.5367,61.42484],[148.48787,61.44221],[148.47015,61.44641],[148.45273,61.45424],[148.44983,61.45666],[148.44939,61.46273],[148.43727,61.46761],[148.42592,61.46961],[148.39135,61.47964],[148.34279,61.48653],[148.32925,61.48777],[148.28429,61.48863],[148.26977,61.49047],[148.24507,61.48999],[148.18122,61.49769],[148.11491,61.51647],[148.08472,61.5262],[148.05714,61.5375],[148.0231,61.54622],[148.00223,61.55006],[147.99217,61.55561],[147.98128,61.56342],[147.97142,61.57443],[147.95528,61.58322],[147.95256,61.58613],[147.94383,61.59113],[147.94258,61.59241],[147.94161,61.59695],[147.93873,61.60016],[147.92291,61.608],[147.91056,61.61013],[147.90167,61.61648],[147.90036,61.6196],[147.88855,61.62934],[147.88456,61.6381],[147.8784,61.64096],[147.87537,61.65031],[147.86927,61.6505],[147.86508,61.65216],[147.86426,61.65686],[147.86212,61.65854],[147.86398,61.66164],[147.8595,61.66534],[147.86082,61.66806],[147.86093,61.68081],[147.85655,61.68644],[147.84298,61.69591],[147.82877,61.70361],[147.78816,61.71583],[147.78263,61.71884],[147.78222,61.72118],[147.78916,61.73218],[147.79537,61.73716],[147.80026,61.74509],[147.7995,61.75041],[147.78291,61.76388],[147.77549,61.76775],[147.77062,61.77166],[147.76348,61.78663],[147.75958,61.78984],[147.75897,61.79376],[147.75525,61.79591],[147.74964,61.79688],[147.74386,61.80034],[147.74482,61.80139],[147.7483,61.80163],[147.74714,61.8055],[147.7412,61.80565],[147.72133,61.8132],[147.70781,61.8147],[147.6717,61.82466],[147.64436,61.83529],[147.63448,61.83809],[147.59396,61.83908],[147.58202,61.84177],[147.55274,61.84359],[147.48753,61.85934],[147.47923,61.86515],[147.47943,61.8698],[147.4664,61.88073],[147.42188,61.9025],[147.42127,61.90364],[147.42237,61.90509],[147.39779,61.89813],[147.36607,61.91572],[147.36088,61.91749],[147.31493,61.91405],[147.29976,61.91636],[147.27788,61.91666],[147.26495,61.92097],[147.26486,61.92357],[147.27424,61.93133],[147.27943,61.93223],[147.28367,61.9347],[147.28429,61.94071],[147.28281,61.94258],[147.27653,61.94902],[147.26678,61.95331],[147.2583,61.95428],[147.25696,61.95781],[147.25184,61.95953],[147.24754,61.9693],[147.24709,61.97342],[147.23792,61.97433],[147.23141,61.98085],[147.21473,61.99138],[147.20678,62.00031],[147.19736,62.00186],[147.19454,62.00541],[147.19412,62.0069],[147.19526,62.0082],[147.21322,62.01414],[147.21431,62.0153],[147.20418,62.02829],[147.20137,62.064],[147.18335,62.07997],[147.18502,62.09818],[147.18144,62.106],[147.18597,62.12911],[147.20927,62.1682],[147.21757,62.17458],[147.23522,62.18409],[147.25212,62.18823],[147.2621,62.19313],[147.27669,62.19672],[147.28982,62.19815],[147.29653,62.20296],[147.28729,62.21199],[147.2819,62.22347],[147.284,62.22509],[147.29274,62.22789],[147.29615,62.23094],[147.30075,62.24733],[147.31473,62.26347],[147.31322,62.28946],[147.31176,62.29399],[147.31465,62.30917],[147.33713,62.31868],[147.33148,62.32775],[147.32968,62.3337],[147.3316,62.33507],[147.34178,62.33726],[147.34269,62.33875],[147.30771,62.37525],[147.28197,62.40881],[147.28355,62.40912],[147.29282,62.40298],[147.30275,62.40447],[147.31022,62.40908],[147.31047,62.41228],[147.31505,62.41945],[147.3119,62.42231],[147.31589,62.42325],[147.31356,62.43018],[147.30626,62.4325],[147.31133,62.43337],[147.31373,62.43534],[147.30827,62.43776],[147.31417,62.44024],[147.30935,62.44379],[147.31215,62.44579],[147.32104,62.44451],[147.31735,62.44732],[147.31713,62.45041],[147.31131,62.44879],[147.30339,62.44988],[147.30524,62.45357],[147.30514,62.45566],[147.31372,62.4589],[147.31485,62.46112],[147.32003,62.46196],[147.31623,62.46489],[147.31667,62.46566],[147.32984,62.46664],[147.32708,62.47105],[147.32275,62.47168],[147.32279,62.4742],[147.32142,62.47532],[147.33162,62.47869],[147.32785,62.48021],[147.33445,62.482],[147.33372,62.48786],[147.33526,62.49137],[147.32941,62.50485],[147.33593,62.51625],[147.35063,62.52901],[147.35108,62.54729],[147.35023,62.54952],[147.33307,62.55621],[147.3206,62.56249],[147.3199,62.5642],[147.32371,62.57019],[147.33283,62.57955],[147.36111,62.59396],[147.36417,62.5977],[147.36585,62.60294],[147.36595,62.6121],[147.36775,62.61655],[147.37192,62.62112],[147.37238,62.62497],[147.36988,62.62997],[147.36567,62.6344],[147.36383,62.64069],[147.35938,62.64751],[147.3592,62.65466],[147.36072,62.6548],[147.36177,62.65284],[147.36374,62.65244],[147.37066,62.65592],[147.3686,62.65225],[147.36892,62.65059],[147.36699,62.65036],[147.36751,62.64924],[147.36619,62.64815],[147.36977,62.64421],[147.37362,62.64509],[147.37842,62.64831],[147.38595,62.6513],[147.39095,62.65053],[147.38782,62.64676],[147.38828,62.64594],[147.40405,62.6459],[147.40308,62.64741],[147.39882,62.64843],[147.40149,62.65053],[147.40141,62.65266],[147.39822,62.65239],[147.39744,62.65372],[147.39302,62.65564],[147.40204,62.65695],[147.40583,62.65967],[147.40111,62.66235],[147.41177,62.66338],[147.42025,62.66699],[147.42375,62.67044],[147.4233,62.67179],[147.43047,62.67215],[147.43982,62.67624],[147.44384,62.68375],[147.45134,62.70368],[147.46636,62.71563],[147.46682,62.71689],[147.46504,62.71907],[147.46611,62.72069],[147.47548,62.73171],[147.48619,62.7396]],[[150.7992,59.56071],[150.79883,59.5606]],[[150.79883,59.5606],[150.79914,59.56045]],[[150.79914,59.56045],[150.79904,59.56055],[150.79883,59.5606]],[[150.79914,59.56045],[150.7992,59.56071]],[[150.81459,59.57335],[150.7992,59.56071]],[[150.81453,59.57367],[150.81459,59.57335]],[[150.81459,59.57335],[150.81521,59.57347]],[[152.31398,61.72126],[152.32698,61.72534],[152.34978,61.72241],[152.38156,61.72598],[152.41752,61.72493],[152.44083,61.72187],[152.45447,61.72252],[152.46001,61.72156],[152.4645,61.71697],[152.4757,61.71075],[152.48964,61.70976],[152.50153,61.71362],[152.51356,61.71389],[152.52287,61.71269],[152.53292,61.7173],[152.55318,61.7184],[152.55854,61.72206],[152.64407,61.72849],[152.74213,61.76478],[152.75405,61.76549],[152.76154,61.76864],[152.77926,61.77299],[152.79246,61.77375],[152.81744,61.78141],[152.83725,61.80232],[152.85265,61.81178],[152.88708,61.8532],[152.89151,61.85643],[152.93873,61.86995],[152.95739,61.87385],[152.97936,61.88419],[153.0225,61.89129],[153.03276,61.88992],[153.07365,61.87526],[153.09088,61.8754],[153.09896,61.87385],[153.10676,61.86857],[153.12238,61.86413],[153.13881,61.85509],[153.15232,61.84116],[153.15967,61.83148],[153.16467,61.82783],[153.1674,61.8236],[153.21664,61.8024],[153.22213,61.80099],[153.22846,61.80095],[153.24303,61.8034],[153.25602,61.81436],[153.25691,61.81838],[153.26296,61.81671],[153.275,61.81615],[153.30015,61.8174],[153.30438,61.81601],[153.31867,61.81906],[153.31131,61.82127],[153.31201,61.82171],[153.3187,61.82064],[153.33258,61.81617],[153.34665,61.81634],[153.37785,61.81417],[153.39407,61.80944],[153.4161,61.80874],[153.4443,61.805],[153.47117,61.79924],[153.48716,61.79918],[153.50196,61.79718],[153.50482,61.79826],[153.50503,61.8012],[153.49688,61.80726],[153.49707,61.80962],[153.50241,61.81101],[153.5157,61.81035],[153.5213,61.81368],[153.52967,61.8159],[153.53248,61.81914],[153.52654,61.82117],[153.52169,61.82152],[153.5213,61.82265],[153.54345,61.82687],[153.55208,61.83064],[153.57007,61.83394],[153.58855,61.84196],[153.63039,61.88329],[153.62698,61.89212],[153.62623,61.90086],[153.62899,61.90712],[153.6312,61.92352],[153.63296,61.92543],[153.65959,61.92709],[153.67133,61.93088],[153.69709,61.93687],[153.71033,61.9459],[153.7284,61.95197],[153.73865,61.95678],[153.74404,61.95794],[153.74455,61.96319],[153.75349,61.96458],[153.78069,61.9626],[153.78884,61.9649],[153.79798,61.97024],[153.81183,61.97524],[153.91467,61.99914],[154.06914,61.99473],[154.0841,61.98961],[154.13649,61.98327],[154.14452,61.97994],[154.16218,61.98006],[154.16441,61.97875],[154.16615,61.97467],[154.1703,61.97368],[154.17796,61.97551],[154.18503,61.97348],[154.19597,61.97435],[154.20602,61.97362],[154.21146,61.97863],[154.22908,61.98762],[154.23726,61.99014],[154.27749,62.03326],[154.28866,62.03918],[154.30946,62.04161],[154.35283,62.04951],[154.3799,62.06499],[154.40812,62.09072],[154.43475,62.09055],[154.45617,62.08822],[154.47796,62.09272],[154.48744,62.10009],[154.50019,62.10531],[154.51231,62.10767],[154.52307,62.10823],[154.52908,62.10698],[154.53131,62.10274],[154.53291,62.10192],[154.53858,62.1021],[154.54603,62.10718],[154.5798,62.11535],[154.58116,62.11609],[154.58272,62.11979],[154.59025,62.11917],[154.59555,62.12146],[154.60959,62.12194],[154.66681,62.11806],[154.71754,62.10551],[154.75106,62.08827],[154.75153,62.08489],[154.7599,62.0779],[154.76363,62.07739],[154.79498,62.07823],[154.81187,62.07694],[154.82861,62.08015],[154.84127,62.08096],[154.91308,62.10092],[154.92351,62.10945],[154.93508,62.11522],[154.95304,62.1184],[154.96875,62.11862],[155.00179,62.12237],[155.03099,62.12197],[155.05867,62.11802],[155.07492,62.11917],[155.09341,62.11867],[155.11015,62.1149],[155.12764,62.11325],[155.1418,62.11453],[155.16165,62.12399],[155.17169,62.13081],[155.17262,62.13333],[155.18455,62.14425],[155.18596,62.14926],[155.19319,62.15614],[155.19654,62.16358],[155.20464,62.16983],[155.21645,62.17131],[155.22598,62.17524],[155.23469,62.17661],[155.23839,62.17557],[155.24424,62.17138],[155.26393,62.16603],[155.27442,62.1642],[155.28328,62.16524],[155.33168,62.19316],[155.33842,62.20126],[155.35084,62.20571],[155.36666,62.20882],[155.37224,62.21249],[155.37847,62.21452],[155.38426,62.21867],[155.39262,62.22094],[155.39356,62.22317],[155.40002,62.22811],[155.41202,62.24117],[155.41215,62.24646],[155.41811,62.25411],[155.42828,62.26226],[155.45043,62.27267],[155.46206,62.28815],[155.50303,62.29542],[155.50371,62.29798],[155.50691,62.2993],[155.52298,62.30231],[155.55709,62.31154],[155.56616,62.31563],[155.59657,62.33294],[155.66903,62.42715],[155.72283,62.45756],[155.75258,62.4673],[155.7534,62.46863],[155.75247,62.47496],[155.74917,62.47663],[155.75596,62.49901],[155.77225,62.50499],[155.79063,62.50912],[155.79218,62.51047],[155.79356,62.51475],[155.80021,62.52163],[155.81093,62.52314],[155.8164,62.52646],[155.82085,62.53289],[155.82807,62.53555],[155.83746,62.54321],[155.83787,62.54486],[155.83611,62.5483],[155.84472,62.55649],[155.84641,62.56143],[155.85709,62.56703],[155.85913,62.57716],[155.8724,62.58514],[155.88607,62.58819],[155.88769,62.59206],[155.88601,62.59531],[155.88696,62.59676],[155.89921,62.60157],[155.90525,62.60533],[155.90539,62.60787],[155.89378,62.6205],[155.89825,62.63645],[155.89855,62.64376],[155.90136,62.65054],[155.91568,62.66322],[155.91043,62.66993],[155.90598,62.68303],[155.90393,62.68455],[155.90513,62.68614],[155.90998,62.68644],[155.90516,62.6919],[155.90704,62.6927],[155.91462,62.68974],[155.94573,62.68679],[155.97021,62.68611],[155.97598,62.68958],[155.98354,62.69699],[156.00347,62.72494],[156.0052,62.72979],[156.00409,62.73317],[156.00475,62.74327],[156.00934,62.74712],[156.01354,62.74881],[156.01869,62.75394],[156.02303,62.76087],[156.05118,62.7918],[156.07208,62.80768],[156.08727,62.82631],[156.09564,62.82997],[156.09819,62.83522],[156.10257,62.83658],[156.10445,62.83937],[156.10363,62.84354],[156.09834,62.84581],[156.09768,62.84791],[156.09549,62.84943],[156.09797,62.85511],[156.09741,62.86159],[156.09491,62.86507],[156.09474,62.8681],[156.09625,62.88502],[156.09797,62.88726],[156.09821,62.8897],[156.10287,62.89617],[156.11384,62.90636],[156.11798,62.91194],[156.11903,62.91518],[156.12186,62.91786],[156.12764,62.91949],[156.12804,62.92232],[156.13583,62.92445],[156.13779,62.926],[156.13718,62.92812],[156.1384,62.92966],[156.14006,62.92938],[156.14149,62.92691],[156.14708,62.92766],[156.15055,62.9302],[156.1542,62.93511],[156.15572,62.93853],[156.15383,62.95097],[156.15412,62.95621],[156.15051,62.96389],[156.1526,62.96842],[156.15657,62.97292],[156.15318,62.97574],[156.15222,62.97889],[156.15519,62.9811],[156.16594,62.98479],[156.16872,62.99264],[156.17603,63.00291],[156.18052,63.01468],[156.17661,63.02352],[156.17411,63.03871],[156.17616,63.04148],[156.17757,63.05066],[156.17375,63.06078],[156.17145,63.07852],[156.16791,63.08934],[156.18296,63.09253],[156.20479,63.10008],[156.24037,63.10121],[156.28084,63.09773],[156.29777,63.09779],[156.31733,63.10051],[156.32399,63.10384],[156.34427,63.10618],[156.35775,63.10651],[156.37642,63.10495],[156.38654,63.10537],[156.39596,63.10086],[156.41772,63.09922],[156.42588,63.10291],[156.45178,63.10606],[156.45936,63.10304],[156.47534,63.09973],[156.49147,63.10085],[156.49322,63.1001],[156.49167,63.09804],[156.49263,63.09729],[156.49954,63.09953],[156.50678,63.09951],[156.51178,63.09753],[156.53478,63.09911],[156.557,63.09668],[156.56766,63.09866],[156.58294,63.09581],[156.6017,63.09466],[156.64524,63.08949],[156.67206,63.08498]],[[155.00894,62.12234],[155.01163,62.12378],[155.01405,62.1233],[155.01419,62.12227]],[[156.67206,63.08498],[156.68647,63.08069],[156.69716,63.0795],[156.70737,63.0765],[156.70847,63.07504],[156.71848,63.07555],[156.72876,63.07148],[156.7338,63.07066],[156.73804,63.06799]],[[156.73804,63.06799],[156.73933,63.07026],[156.73733,63.07204],[156.71321,63.07965],[156.71001,63.07909],[156.70358,63.08157],[156.69877,63.08044],[156.69002,63.0825],[156.68615,63.08477],[156.67206,63.08498]],[[156.73804,63.06799],[156.76602,63.05057],[156.78117,63.04712],[156.78954,63.0465],[156.80234,63.04207],[156.83574,63.03498],[156.86648,63.03319],[156.88105,63.03397],[156.9079,63.03335],[156.92524,63.03158],[156.9363,63.02893],[156.96254,63.02603],[156.9691,63.02437],[156.98826,63.02311],[156.99058,63.02354],[156.99481,63.02745],[156.99894,63.02819],[157.01834,63.02877],[157.02287,63.02819],[157.03161,63.02452],[157.04958,63.02508],[157.07157,63.02334],[157.11932,63.02999],[157.1549,63.02477],[157.1557,63.02602],[157.15202,63.0296],[157.15277,63.031],[157.15163,63.0322],[157.15953,63.04086],[157.163,63.0487],[157.16243,63.05047],[157.16394,63.05382],[157.16303,63.05712],[157.16347,63.06207],[157.16516,63.0662],[157.16414,63.06841],[157.16471,63.07268],[157.16199,63.07551],[157.15363,63.07872],[157.15087,63.0819],[157.14912,63.08613],[157.13438,63.10821],[157.13049,63.11621],[157.12446,63.12366],[157.12339,63.13016],[157.1131,63.13565],[157.10941,63.13965],[157.10973,63.1413],[157.12513,63.14518],[157.13945,63.14634],[157.15804,63.15248],[157.17792,63.15533],[157.18875,63.1582],[157.21784,63.16075],[157.22871,63.16424],[157.23478,63.17329],[157.24132,63.17682],[157.26889,63.18027],[157.28539,63.18555],[157.30408,63.18933],[157.32007,63.19402],[157.36785,63.20259],[157.37454,63.20584],[157.37149,63.20915],[157.37846,63.22082],[157.3892,63.23691],[157.39815,63.245],[157.41932,63.25408],[157.42255,63.26018],[157.43304,63.26382],[157.43912,63.26758],[157.44525,63.26922],[157.45564,63.27507],[157.47562,63.28218],[157.50571,63.29655],[157.52935,63.30962],[157.55146,63.32446],[157.56046,63.33312],[157.56331,63.33856],[157.57055,63.3471],[157.58007,63.35297],[157.57605,63.3586],[157.56746,63.36564],[157.56446,63.37649],[157.55961,63.38556],[157.55927,63.39337],[157.55558,63.40078],[157.54944,63.41871],[157.5412,63.42437],[157.53978,63.42725],[157.54433,63.42927],[157.54613,63.43719],[157.54588,63.44397],[157.543,63.44794],[157.54575,63.452],[157.54257,63.45479],[157.54197,63.45768],[157.54798,63.46006],[157.54734,63.46727],[157.54523,63.47024],[157.54933,63.47866],[157.54995,63.48272],[157.55982,63.48651],[157.56068,63.48799],[157.55987,63.49185],[157.56107,63.49293],[157.56877,63.49562],[157.581,63.50476],[157.59407,63.51175],[157.61197,63.52712],[157.6263,63.5357],[157.63729,63.54628],[157.64244,63.54788],[157.65291,63.55587],[157.65735,63.55723],[157.66471,63.56516],[157.66939,63.57261],[157.67527,63.57658],[157.67745,63.57987],[157.67042,63.59037],[157.67213,63.59691],[157.67535,63.59829],[157.68857,63.61229],[157.69273,63.61496],[157.69977,63.61731],[157.70316,63.62162],[157.72207,63.63108],[157.72374,63.63375],[157.7235,63.63831],[157.72177,63.64279],[157.71194,63.65421],[157.69414,63.66266],[157.67218,63.67726],[157.66593,63.67949],[157.65394,63.68084],[157.6287,63.69101],[157.62036,63.6957],[157.61291,63.70295],[157.60042,63.712],[157.58841,63.71765],[157.57965,63.72642],[157.56184,63.73907],[157.5462,63.74494],[157.54375,63.74874],[157.54406,63.75257],[157.54229,63.75556],[157.54172,63.76064],[157.53802,63.76441],[157.53259,63.7677],[157.52086,63.77198],[157.48724,63.77885],[157.48127,63.78364],[157.48009,63.78544],[157.48084,63.78681],[157.46886,63.78979],[157.45263,63.79754],[157.4482,63.80181],[157.44238,63.81068],[157.42812,63.814],[157.41649,63.81945],[157.40735,63.83164],[157.41773,63.83933],[157.39632,63.85077],[157.39563,63.85226],[157.40373,63.85836],[157.40895,63.86015],[157.4093,63.86208],[157.41388,63.86407],[157.41684,63.86677],[157.41631,63.86929],[157.41076,63.87762],[157.40014,63.8874],[157.39305,63.89703],[157.39137,63.90323],[157.38842,63.90636],[157.38653,63.91357],[157.36674,63.92939],[157.36491,63.93243],[157.35973,63.93681],[157.36298,63.94124],[157.37367,63.94855],[157.37337,63.95886],[157.377,63.97137],[157.37492,63.97757],[157.37567,63.98041],[157.36247,63.98839],[157.35796,63.9928],[157.3594,63.99581],[157.359,63.99767],[157.35493,64.00198],[157.35714,64.00767],[157.35983,64.0092],[157.35756,64.01636],[157.35858,64.01978],[157.35436,64.02285],[157.35057,64.03239],[157.34417,64.04139],[157.32552,64.05385],[157.3079,64.0684],[157.30748,64.07659],[157.30892,64.08406],[157.30246,64.08842],[157.29304,64.09273],[157.29019,64.09572],[157.2792,64.09622],[157.26555,64.09883],[157.25672,64.09812],[157.23638,64.10481],[157.19436,64.11373],[157.18286,64.11506],[157.14215,64.13013],[157.13045,64.1385],[157.12656,64.1398],[157.12649,64.14702],[157.12836,64.15063],[157.13278,64.15495],[157.13325,64.16281],[157.13051,64.17113],[157.13447,64.17292],[157.13942,64.17989],[157.1426,64.1818],[157.14561,64.18599],[157.15017,64.18902],[157.15209,64.19257],[157.15726,64.19686],[157.15765,64.20147],[157.15503,64.20561],[157.15567,64.20746],[157.16228,64.21411],[157.16928,64.21549],[157.1761,64.21936],[157.18342,64.23054],[157.18273,64.23731],[157.18054,64.23865],[157.17874,64.24167],[157.17389,64.24499],[157.16491,64.24878],[157.14682,64.25473],[157.14507,64.25608],[157.14607,64.25914],[157.15083,64.26161],[157.16208,64.26432],[157.17958,64.27228],[157.19705,64.27746],[157.20794,64.28222],[157.2185,64.29021],[157.21779,64.2928],[157.22013,64.29367],[157.22551,64.29971],[157.23787,64.30635],[157.23886,64.31039],[157.24313,64.3137],[157.25332,64.31588],[157.26254,64.31982],[157.26813,64.3232],[157.27472,64.32963],[157.2928,64.33636],[157.30306,64.34229],[157.31317,64.35243],[157.3163,64.3586],[157.31272,64.36159],[157.30721,64.36198],[157.30577,64.36312],[157.30168,64.36823],[157.30363,64.37265],[157.30336,64.37588],[157.29813,64.37888],[157.29601,64.38222],[157.29126,64.38599],[157.29002,64.39119],[157.29065,64.40211],[157.2978,64.41169],[157.29641,64.41652],[157.29343,64.41936],[157.28957,64.43238],[157.28381,64.43767],[157.26121,64.45053],[157.25112,64.46187],[157.23698,64.48063],[157.22946,64.48561],[157.21451,64.49111],[157.21456,64.49506],[157.21213,64.49734],[157.20528,64.50891],[157.20298,64.51506],[157.19915,64.51921],[157.18918,64.52653],[157.17748,64.53881],[157.1657,64.54655],[157.1424,64.5727],[157.13543,64.58305],[157.12768,64.61197],[157.12041,64.62584],[157.12067,64.63545],[157.12409,64.64052],[157.12175,64.64727],[157.12307,64.64873],[157.12254,64.65137],[157.12652,64.66247],[157.12544,64.66929],[157.1267,64.67099],[157.15245,64.66521],[157.15849,64.66638],[157.1655,64.67041],[157.18008,64.66202],[157.18209,64.65966],[157.18669,64.65863],[157.19927,64.65856],[157.22319,64.66273],[157.23818,64.66013],[157.24539,64.65746],[157.26473,64.65802],[157.27101,64.65688],[157.28665,64.65688],[157.30352,64.65437],[157.3251,64.65321],[157.35596,64.65373],[157.38045,64.6476],[157.38863,64.64379],[157.41041,64.64038],[157.47297,64.6392],[157.48723,64.63723],[157.495,64.63825],[157.52862,64.63585],[157.54818,64.63798],[157.56437,64.63796],[157.57643,64.63647],[157.62411,64.63478],[157.66402,64.62939],[157.68479,64.62513],[157.73758,64.62252],[157.76776,64.62293],[157.7911,64.61963],[157.79633,64.61746],[157.7962,64.61337],[157.84659,64.60389],[157.8556,64.60063],[157.87311,64.6001],[157.89465,64.59718],[157.90551,64.59885],[157.95795,64.59685],[157.96791,64.59806],[157.98842,64.5969],[158.00769,64.5994],[158.04099,64.60828],[158.06683,64.61282],[158.06721,64.61521],[158.10287,64.62651],[158.1039,64.62809],[158.12382,64.64094],[158.13043,64.64102],[158.13862,64.64573],[158.15077,64.64871],[158.16577,64.6548],[158.18171,64.6564],[158.20531,64.64871],[158.22351,64.64926],[158.24698,64.65863],[158.25806,64.6655],[158.27411,64.66945],[158.32114,64.66462],[158.35861,64.6545],[158.3711,64.65509],[158.39045,64.65408],[158.43341,64.65637],[158.45397,64.66554],[158.45705,64.66839],[158.45908,64.67449],[158.46728,64.6829],[158.47212,64.68466],[158.48514,64.68559],[158.51096,64.69307],[158.52169,64.69421],[158.5225,64.69712],[158.52718,64.7001],[158.54439,64.70919],[158.55851,64.71519],[158.5673,64.7227],[158.56988,64.72772],[158.58297,64.73952],[158.59148,64.74955],[158.602,64.75706],[158.61553,64.76184],[158.62018,64.76514],[158.636,64.78319],[158.64653,64.78819],[158.6506,64.79279],[158.6568,64.79617],[158.67855,64.80442],[158.69699,64.81322],[158.71246,64.81842],[158.72292,64.82427],[158.72514,64.8276],[158.72173,64.83205],[158.7255,64.83498],[158.72146,64.84533],[158.71991,64.85775],[158.71626,64.86757],[158.71253,64.87326],[158.71305,64.87437],[158.70725,64.88388],[158.70026,64.89122],[158.70191,64.89462],[158.69628,64.90275],[158.6973,64.90667],[158.6796,64.91318],[158.67203,64.91811],[158.67077,64.92033],[158.66181,64.92275],[158.66141,64.92517],[158.65841,64.92845],[158.65805,64.93032],[158.64669,64.93713],[158.643,64.94535],[158.63931,64.94769],[158.63786,64.95088],[158.6402,64.96162],[158.66724,64.96847],[158.67427,64.97448],[158.69199,64.97685],[158.73833,64.97603],[158.75821,64.97381],[158.76983,64.97416],[158.79153,64.97228],[158.82102,64.96756],[158.87187,64.96442],[158.88596,64.96731],[158.88932,64.97002],[158.90349,64.97622],[158.91667,64.97713],[158.92945,64.97349],[158.93422,64.96755],[158.94096,64.96498],[158.94775,64.96405],[158.97219,64.95362],[158.98354,64.95161],[158.99017,64.94769],[159.02141,64.95037],[159.02914,64.94801],[159.03452,64.94863],[159.07238,64.96294],[159.08396,64.96375],[159.10864,64.95937],[159.16075,64.95355],[159.17763,64.94759],[159.1861,64.94911],[159.2128,64.94791],[159.24923,64.94016],[159.25608,64.93963],[159.27513,64.94117],[159.28755,64.93978],[159.30678,64.94393],[159.31731,64.94741],[159.33,64.94756],[159.33911,64.95277],[159.34254,64.95341],[159.35327,64.96802],[159.35489,64.98125],[159.35899,64.98844],[159.35972,64.99239],[159.36409,64.996],[159.36343,64.99861],[159.36789,65.00337],[159.37008,65.00892],[159.37501,65.01647],[159.37806,65.01932],[159.39025,65.02309],[159.40334,65.02482],[159.44153,65.02285],[159.48837,65.01814],[159.56086,65.00413],[159.56803,65.00169],[159.58148,64.99357],[159.61624,64.98081],[159.67336,64.96347],[159.69735,64.95263],[159.70984,64.94814],[159.72306,64.94063],[159.73576,64.93976],[159.76584,64.94018],[159.78413,64.94414],[159.80795,64.94532],[159.82314,64.94292],[159.85545,64.93353],[159.88077,64.92938],[159.91038,64.92774],[159.92091,64.92898],[159.92904,64.92828],[159.93124,64.93091],[159.92962,64.93328],[159.94326,64.94058],[159.94303,64.94723],[159.9463,64.95341],[159.95128,64.95879],[159.95094,64.9634],[159.95975,64.96584],[159.97519,64.96507],[159.97828,64.96616],[159.97952,64.967],[159.97768,64.97599],[159.99332,64.97862],[159.99473,64.9813],[159.99424,64.98323],[159.99662,64.98556],[160.0024,64.98571],[160.029,64.98243],[160.09593,64.98174],[160.09724,64.9833],[160.09327,64.98415],[160.09142,64.98602],[160.09558,64.99057],[160.09497,64.99168],[160.08662,64.99361],[160.08152,64.99839],[160.07676,64.99978],[160.07707,65.00211],[160.08925,65.0073],[160.09646,65.01346],[160.10294,65.01493],[160.10852,65.02013],[160.14637,65.04017],[160.1503,65.04416],[160.15976,65.04794],[160.20411,65.04959],[160.22373,65.05199],[160.22737,65.05752],[160.2463,65.07285],[160.2498,65.07761],[160.25012,65.08014],[160.24798,65.08247],[160.24882,65.08644],[160.2533,65.0889],[160.25737,65.09683],[160.258,65.11212],[160.25613,65.11424],[160.25611,65.1172],[160.26102,65.1213],[160.27922,65.12381],[160.34992,65.14056],[160.37125,65.14866],[160.38669,65.15611],[160.39448,65.15616],[160.40342,65.16098],[160.41069,65.16808],[160.43998,65.17687],[160.48363,65.17793],[160.48652,65.17938],[160.48551,65.18354],[160.48189,65.18702],[160.43571,65.21631],[160.40135,65.23553],[160.38757,65.24506],[160.38498,65.24844],[160.38512,65.25232],[160.38671,65.25363],[160.3967,65.25354],[160.40013,65.25535],[160.40824,65.25607],[160.4126,65.25197],[160.42108,65.25308],[160.4267,65.25156],[160.43425,65.25208],[160.44474,65.24973],[160.45532,65.25241],[160.45504,65.25462],[160.45303,65.25671],[160.45479,65.25858],[160.45333,65.26165],[160.4582,65.26204]]]}},{"type":"Feature","properties":{"roadClass":"secondary"},"geometry":{"type":"MultiLineString","coordinates":[[[149.35706,59.73282],[149.32591,59.72267],[149.29118,59.71027],[149.2735,59.70231],[149.19673,59.67598],[149.1231,59.64318],[149.11716,59.64201],[149.10688,59.64469],[149.10221,59.65027],[149.09811,59.65253],[149.09395,59.658],[149.08731,59.675],[149.08763,59.68264],[149.07957,59.69232],[149.07938,59.69637],[149.07614,59.70431],[149.08219,59.71486],[149.07962,59.72484],[149.06861,59.73713],[149.06577,59.73904],[149.02815,59.75276],[148.86787,59.78677],[148.82342,59.79525],[148.75436,59.77919],[148.71913,59.76727],[148.68434,59.7602],[148.65885,59.75648]],[[149.35706,59.73282],[149.36338,59.73435],[149.37512,59.73401],[149.39023,59.73667]],[[149.35706,59.73282],[149.35436,59.73528],[149.37454,59.73929],[149.38711,59.7449],[149.40677,59.74967],[149.41024,59.74956],[149.41323,59.74743],[149.42129,59.74471]],[[150.78483,59.62505],[150.78531,59.63156],[150.77779,59.64321],[150.77276,59.6487],[150.77181,59.65187],[150.77293,59.6547],[150.7697,59.66046],[150.76372,59.66595],[150.75793,59.66773],[150.73265,59.66991],[150.70529,59.67034],[150.6239,59.66825],[150.5937,59.67366],[150.56532,59.67085],[150.55625,59.6654],[150.54941,59.66499],[150.54296,59.66179],[150.52628,59.65933],[150.51824,59.6614],[150.50572,59.66124],[150.49483,59.66429],[150.48015,59.6655],[150.47737,59.66988],[150.4716,59.66784],[150.45635,59.66654],[150.45529,59.6671],[150.45618,59.66953],[150.45462,59.67265],[150.45617,59.67564],[150.45595,59.67802],[150.44382,59.67911],[150.43411,59.68188],[150.42983,59.68535],[150.41578,59.68922],[150.41456,59.69066],[150.41489,59.69241],[150.41101,59.69566],[150.39253,59.69861],[150.38781,59.7014],[150.38668,59.7008],[150.38643,59.69787],[150.38285,59.69605],[150.37675,59.69534],[150.37081,59.69613],[150.34216,59.6889],[150.30151,59.69158],[150.26602,59.69039],[150.20806,59.66975],[150.17847,59.66707],[150.13406,59.6809],[150.11064,59.68538],[150.03327,59.71083],[150.02358,59.71186],[149.95528,59.71272],[149.88314,59.72793],[149.86295,59.72735],[149.80845,59.73873],[149.70203,59.75145],[149.69122,59.75514],[149.62218,59.75782],[149.5813,59.76202],[149.51643,59.75991],[149.40487,59.74208],[149.39046,59.74027]],[[150.72344,59.91589],[150.72395,59.91577],[150.7242,59.91619]],[[150.7242,59.91619],[150.72397,59.91619],[150.72391,59.91619],[150.72367,59.91619],[150.72355,59.91616],[150.72344,59.91594]],[[150.72406,59.91612],[150.72391,59.91619]],[[150.7242,59.91619],[150.73135,59.91599]],[[150.73135,59.91599],[150.72963,59.91496]],[[150.73113,59.91493],[150.73313,59.91595]],[[150.73135,59.91599],[150.73313,59.91595]],[[150.73313,59.91595],[150.74598,59.91562]],[[150.74129,60.02673],[150.72802,60.03317],[150.73003,60.03587],[150.73165,60.04115],[150.73491,60.04285],[150.7425,60.04256],[150.76069,60.04907]],[[150.74676,59.91608],[150.74598,59.91562]],[[150.74598,59.91562],[150.74999,59.91542]],[[150.76069,60.04907],[150.76641,60.05097]],[[150.76069,60.04907],[150.76456,60.04862]],[[150.78607,59.62452],[150.78401,59.62399]],[[150.78483,59.62505],[150.78401,59.62399]],[[150.80202,59.57308],[150.79925,59.57554],[150.79744,59.58075],[150.7927,59.58553],[150.7906,59.59083],[150.78538,59.59557],[150.78462,59.60864],[150.78144,59.61724],[150.78401,59.62399]],[[150.78607,59.62452],[150.78483,59.62505]],[[150.78495,59.62585],[150.78529,59.62584]],[[151.29941,59.58034],[151.29267,59.5816],[151.2668,59.58289],[151.2555,59.58239],[151.23014,59.5737],[151.22562,59.57334],[151.20258,59.57876],[151.1863,59.58036],[151.16278,59.58499],[151.14446,59.58419],[151.12347,59.58904],[151.09365,59.6],[151.07006,59.60439],[151.06146,59.60245],[151.04765,59.60178],[151.03475,59.59978],[151.02514,59.60001],[151.01046,59.60426],[151.00928,59.60573],[151.01012,59.60912],[151.0086,59.61046],[150.99524,59.61357],[150.96207,59.62525],[150.94076,59.62803],[150.92391,59.6333],[150.90103,59.63701],[150.87371,59.63683],[150.84929,59.63963],[150.83017,59.63026],[150.79118,59.62462],[150.7893,59.62448],[150.78607,59.62452]],[[150.78809,59.56444],[150.78855,59.56474]],[[150.78813,59.5643],[150.78809,59.56444],[150.78809,59.56454],[150.78814,59.56468]],[[150.78813,59.5643],[150.78786,59.56463],[150.78814,59.56468]],[[150.81337,59.54945],[150.80502,59.54786],[150.80044,59.55447],[150.79406,59.55848],[150.79377,59.55873],[150.79286,59.55961],[150.79242,59.55995],[150.7909,59.56149],[150.79,59.56225],[150.78813,59.5643]],[[150.78814,59.56468],[150.78855,59.56474]],[[150.78869,59.5652],[150.78814,59.56468]],[[150.78855,59.56474],[150.78886,59.56478]],[[150.80202,59.57308],[150.78902,59.56733],[150.78869,59.5652]],[[150.78869,59.5652],[150.78876,59.56503]],[[150.78876,59.56503],[150.78886,59.56478]],[[150.78953,59.56481],[150.78876,59.56503]],[[150.78886,59.56478],[150.78953,59.56481]],[[150.78953,59.56481],[150.79226,59.56489],[150.79469,59.56468],[150.80172,59.56279]],[[150.79393,59.5586],[150.79811,59.56024]],[[150.79843,59.5604],[150.79811,59.56024]],[[150.79811,59.56024],[150.79874,59.56024]],[[150.79883,59.56024],[150.79914,59.5601]],[[150.79914,59.5601],[150.79914,59.5604]],[[150.79914,59.5601],[150.8106,59.5536],[150.81337,59.54945]],[[150.80202,59.57308],[150.81361,59.57371]],[[150.87679,59.5438],[150.84803,59.5462],[150.83252,59.55242],[150.81337,59.54945]],[[150.81361,59.57371],[150.81453,59.57367]],[[150.81448,59.57408],[150.81361,59.57371]],[[151.76531,62.24285],[151.7668,62.24609],[151.78926,62.25526],[151.80139,62.26238],[151.80973,62.26538],[151.8513,62.26691],[151.87959,62.27152],[151.91055,62.27877],[151.92254,62.28029],[151.94741,62.28983],[151.97168,62.30329],[151.97897,62.30496],[151.98011,62.30736],[151.98346,62.3085],[152.00943,62.31228],[152.05658,62.31368],[152.07085,62.3201],[152.07995,62.32952],[152.08205,62.34003],[152.08452,62.34316],[152.10129,62.34918],[152.12446,62.36161],[152.13436,62.36186],[152.14043,62.36571],[152.14516,62.37108],[152.1438,62.37518],[152.14501,62.37741],[152.14436,62.3792],[152.15084,62.37691],[152.14915,62.38222],[152.15291,62.38485],[152.15615,62.38521],[152.15686,62.38832],[152.16353,62.39484],[152.1725,62.39919],[152.17621,62.40873],[152.17384,62.42989],[152.18805,62.43722],[152.18498,62.43773],[152.16881,62.43466],[152.13794,62.43492],[152.1337,62.43716],[152.13369,62.44339],[152.1392,62.45109],[152.14737,62.45526],[152.15525,62.45563],[152.16024,62.45822],[152.15937,62.46651],[152.16042,62.4702],[152.15783,62.47361],[152.16019,62.47605],[152.17101,62.47766],[152.20291,62.47631],[152.22156,62.47092],[152.23663,62.46518],[152.2432,62.46086],[152.24596,62.46047],[152.2497,62.46129],[152.25353,62.46399],[152.26245,62.46423],[152.27786,62.46769],[152.29532,62.4761],[152.29676,62.48078],[152.28077,62.4954],[152.2752,62.50192],[152.27689,62.5059],[152.27877,62.53185],[152.29129,62.54358],[152.29445,62.5449],[152.33039,62.54671],[152.3554,62.54948],[152.35904,62.55335],[152.36607,62.57117],[152.36521,62.57457],[152.36154,62.57936],[152.35131,62.58255],[152.34356,62.58636],[152.33327,62.59592],[152.3264,62.59939],[152.32379,62.60279],[152.32306,62.60619],[152.33055,62.63315],[152.34488,62.64277],[152.3663,62.6504],[152.37843,62.65968],[152.3928,62.68379],[152.39868,62.68821],[152.40814,62.69235],[152.42205,62.70503],[152.43084,62.70963],[152.43378,62.71998],[152.45897,62.7361],[152.45934,62.74895],[152.45591,62.76665],[152.46394,62.77605],[152.46156,62.78587],[152.46273,62.79499],[152.44779,62.80984],[152.44536,62.81391],[152.44629,62.81917],[152.42301,62.84679],[152.40336,62.86315],[152.40307,62.87161],[152.40758,62.8767],[152.40775,62.87955],[152.41108,62.88326],[152.41377,62.89026],[152.41596,62.8975],[152.41724,62.90994],[152.40997,62.91827],[152.4064,62.92617]],[[152.39897,62.93105],[152.39146,62.93794],[152.3844,62.93959]],[[152.39897,62.93105],[152.4064,62.92617]],[[152.40674,62.92626],[152.39897,62.93105]],[[152.40674,62.92626],[152.4064,62.92617]],[[152.4064,62.92617],[152.40669,62.92612],[152.40674,62.92626]],[[155.75528,62.49824],[155.75875,62.50909],[155.77591,62.50967]],[[155.76597,62.51799],[155.76919,62.51749],[155.78383,62.51423],[155.78663,62.51359],[155.78675,62.51356],[155.78957,62.51288],[155.79062,62.51377],[155.79305,62.51338]],[[155.77676,62.50971],[155.77591,62.50967]],[[155.77591,62.50967],[155.77674,62.50952]],[[155.77679,62.50951],[155.7777,62.50921]],[[155.77714,62.50989],[155.77682,62.50972]],[[155.77712,62.50966],[155.77714,62.50989]],[[155.77714,62.50989],[155.78378,62.51113],[155.78663,62.51359]],[[155.7777,62.50921],[155.77714,62.50962]],[[155.7777,62.50921],[155.78367,62.50873],[155.78386,62.50772]],[[155.77669,62.50955],[155.77679,62.50951],[155.77696,62.5095],[155.77714,62.50962],[155.77682,62.50972],[155.77676,62.50971],[155.7767,62.50968],[155.77666,62.50965],[155.77669,62.50955]]]}},{"type":"Feature","properties":{"roadClass":"tertiary"},"geometry":{"type":"MultiLineString","coordinates":[[[147.17177,63.04232],[147.1483,63.03442],[147.14658,63.03021],[147.14207,63.02761],[147.11367,63.026],[147.10645,63.02464],[147.07687,63.0124]],[[149.62467,62.5272],[149.61403,62.52656]],[[149.62507,62.52733],[149.62467,62.5272]],[[149.62467,62.5272],[149.62517,62.52707]],[[149.63209,62.53418],[149.62507,62.52733]],[[149.62517,62.52707],[149.62507,62.52733]],[[149.62563,62.51965],[149.62562,62.52113],[149.62965,62.52499],[149.62517,62.52707]],[[149.62563,62.51965],[149.6253,62.51924]],[[149.62679,62.51919],[149.62563,62.51965]],[[150.41298,62.05645],[150.41221,62.05633]],[[150.41298,62.05645],[150.41599,62.05701]],[[150.75571,62.33798],[150.76017,62.31293],[150.7654,62.29643],[150.74105,62.28],[150.71892,62.25178],[150.70804,62.23319],[150.69476,62.2148],[150.61671,62.17287],[150.57334,62.14394],[150.50032,62.12224],[150.49927,62.12103],[150.50303,62.11383],[150.50478,62.10539],[150.5078,62.10214],[150.50671,62.09956],[150.50918,62.09678],[150.50344,62.08807],[150.49594,62.08208],[150.48366,62.07611],[150.47983,62.07279],[150.47331,62.07052],[150.47934,62.07149],[150.48128,62.06868],[150.46901,62.06665],[150.44643,62.06506],[150.43322,62.06109],[150.43355,62.0577],[150.43254,62.05698],[150.42502,62.05667],[150.41192,62.05399],[150.41298,62.05645]],[[150.77767,59.91167],[150.76631,59.90972],[150.75597,59.90481],[150.74028,59.90376],[150.69132,59.89209],[150.66611,59.88769],[150.66127,59.88435],[150.64395,59.87817],[150.63785,59.87346],[150.62881,59.87003],[150.62515,59.8671],[150.60362,59.86506],[150.58729,59.86479]],[[150.7358,60.0474],[150.73587,60.04806],[150.73601,60.04855],[150.73939,60.05334],[150.73955,60.05498],[150.7458,60.06116]],[[150.73586,60.04793],[150.74274,60.04718]],[[150.73726,60.05015],[150.74274,60.04718],[150.75024,60.04503]],[[150.74204,59.91976],[150.74073,59.91769]],[[150.74954,59.92389],[150.74999,59.91542]],[[150.7626,62.33751],[150.75778,62.34135]],[[150.81285,59.55948],[150.80065,59.55398],[150.80039,59.55376],[150.79867,59.55212],[150.79352,59.54708],[150.79374,59.5437],[150.7961,59.53936],[150.78528,59.54033],[150.77358,59.53764]],[[150.78711,59.56454],[150.78786,59.56463]],[[150.79393,59.5586],[150.78125,59.55669],[150.77561,59.56333],[150.78711,59.56454]],[[150.78711,59.56454],[150.78813,59.5643]],[[150.79044,59.56187],[150.79396,59.56205]],[[150.79396,59.56205],[150.79286,59.55961]],[[150.79396,59.56205],[150.79504,59.5646],[150.79965,59.5667]],[[150.79396,59.56205],[150.79811,59.56062]],[[150.79965,59.5667],[150.79441,59.56973]],[[150.80227,59.56787],[150.79702,59.57091]],[[150.79811,59.56062],[150.79843,59.56044]],[[150.79874,59.5606],[150.79811,59.56062]],[[150.79965,59.5667],[150.80227,59.56787]],[[150.80137,59.56573],[150.79965,59.5667]],[[150.80125,59.55429],[150.80031,59.55459]],[[150.80037,59.55374],[150.80117,59.55357]],[[150.80227,59.56787],[150.8053,59.56925],[150.81052,59.56714]],[[150.8088,59.56469],[150.80777,59.56528],[150.80755,59.56539],[150.80538,59.56609],[150.80227,59.56787]],[[150.80376,59.56447],[150.80352,59.56453]],[[150.80361,59.56436],[150.80619,59.56352]],[[150.80526,59.56414],[150.80415,59.56478]],[[150.81127,59.56689],[150.81078,59.56668],[150.80795,59.56538],[150.80777,59.56528],[150.80758,59.56518],[150.80526,59.56414]],[[150.80619,59.56352],[150.80526,59.56414]],[[150.80565,59.56329],[150.8065,59.56309]],[[150.80619,59.56352],[150.8088,59.56469]],[[150.8065,59.56309],[150.80619,59.56352]],[[150.81285,59.55948],[150.8065,59.56309]],[[150.8148,59.57462],[150.80816,59.57816],[150.80707,59.5804]],[[150.82088,59.57854],[150.80846,59.58206]],[[150.8088,59.56469],[150.81193,59.56609],[150.81205,59.56614],[150.81258,59.56632]],[[150.81002,59.56961],[150.81108,59.5697]],[[150.81052,59.56714],[150.81127,59.56689]],[[150.81182,59.56716],[150.81106,59.56705],[150.81052,59.56714]],[[150.81056,59.57007],[150.81062,59.56988],[150.81108,59.5697]],[[150.81089,59.5669],[150.81092,59.56674]],[[150.81108,59.5697],[150.81122,59.5706]],[[150.81108,59.5697],[150.81526,59.56825],[150.81466,59.56783]],[[150.81127,59.56689],[150.81182,59.56716]],[[150.81305,59.56773],[150.81182,59.56716]],[[150.81214,59.56617],[150.8127,59.56587]],[[150.81258,59.56632],[150.81421,59.567]],[[150.8127,59.56587],[150.81258,59.56632]],[[150.81865,59.56108],[150.8127,59.56587]],[[150.81865,59.56108],[150.81285,59.55948]],[[150.82308,59.55109],[150.82024,59.5551],[150.81285,59.55948]],[[150.81305,59.56773],[150.81331,59.56775],[150.81351,59.5677]],[[150.81346,59.56794],[150.81305,59.56773]],[[150.81415,59.56785],[150.81381,59.568],[150.81346,59.56794]],[[150.81346,59.56794],[150.81351,59.5677]],[[150.81351,59.5677],[150.81429,59.56725]],[[150.81487,59.56744],[150.81473,59.56751],[150.81415,59.56785]],[[150.81466,59.56783],[150.81415,59.56785]],[[150.81421,59.567],[150.81476,59.56719]],[[150.81429,59.56725],[150.81421,59.567]],[[150.81429,59.56725],[150.81476,59.56719]],[[150.81473,59.56751],[150.81466,59.56783]],[[150.8148,59.57462],[150.8147,59.57426]],[[150.81476,59.56719],[150.81487,59.56744]],[[150.81476,59.56719],[150.81571,59.56702]],[[150.81554,59.57436],[150.8148,59.57462]],[[150.81571,59.56702],[150.81487,59.56744]],[[150.82394,59.56251],[150.81571,59.56702]],[[150.82394,59.56251],[150.81865,59.56108]],[[150.84551,59.5588],[150.84161,59.55607],[150.83942,59.55511],[150.83252,59.55242],[150.81865,59.56108]],[[150.8396,59.55519],[150.82394,59.56251]],[[150.83082,59.58796],[150.83317,59.58617],[150.84011,59.57351],[150.8423,59.5668],[150.84712,59.5623],[150.84715,59.56048],[150.84568,59.55893]],[[150.84551,59.5588],[150.84603,59.55886]],[[150.84568,59.55893],[150.84551,59.5588]],[[150.84603,59.55886],[150.84568,59.55893]],[[150.91561,59.56716],[150.91167,59.56464],[150.90902,59.56493],[150.90025,59.56178],[150.87015,59.5558],[150.8663,59.5558],[150.86033,59.55845],[150.84603,59.55886]],[[150.85314,59.89314],[150.85307,59.89512],[150.85543,59.89681],[150.87042,59.89811],[150.87271,59.89937],[150.87077,59.90075]],[[150.86064,59.73355],[150.87296,59.72979],[150.87386,59.72848],[150.873,59.72668],[150.87706,59.72436],[150.88757,59.72235],[150.90001,59.7182],[150.91909,59.71843],[150.93026,59.71435]],[[150.90049,59.5277],[150.8936,59.53107],[150.89077,59.53445],[150.87679,59.5438]],[[150.8838,60.08723],[150.8808,60.08396],[150.88091,60.07927]],[[150.91155,59.70913],[150.91523,59.70663],[150.92465,59.70428]],[[150.93887,59.62856],[150.94404,59.62961],[150.95297,59.63379],[150.94859,59.63519],[150.94654,59.63921],[150.94922,59.64197],[150.97182,59.64413],[150.97826,59.64584]],[[151.0916,59.60051],[151.09385,59.60611],[151.09968,59.61054],[151.11104,59.61158],[151.12059,59.61425],[151.1373,59.62272],[151.16628,59.6273],[151.1797,59.63461],[151.18849,59.64263],[151.19177,59.65136],[151.1972,59.65566],[151.19739,59.66129],[151.19418,59.66686],[151.20376,59.67886],[151.20737,59.6811],[151.21805,59.68305],[151.22375,59.68893],[151.23086,59.69331],[151.24257,59.6956],[151.25383,59.69637],[151.28484,59.6916],[151.32363,59.70109],[151.34941,59.69801],[151.36032,59.69909],[151.3677,59.70107],[151.3844,59.71327],[151.39665,59.71691],[151.41691,59.73356],[151.47718,59.75547],[151.49174,59.75302]],[[151.24257,59.6956],[151.24613,59.69775],[151.25383,59.69637]],[[151.32008,59.66224],[151.31548,59.65724],[151.31898,59.64765],[151.31779,59.64131],[151.31407,59.63568],[151.31408,59.62714],[151.31076,59.61848],[151.31122,59.61469],[151.30756,59.60896],[151.3075,59.60597],[151.30475,59.60242],[151.30445,59.5962],[151.30402,59.59014],[151.30399,59.58992],[151.30384,59.58896],[151.29941,59.58034]],[[151.30356,59.59001],[151.30399,59.58992]],[[151.93107,61.19172],[151.94761,61.18814],[151.95625,61.18844],[151.96698,61.1916],[151.97351,61.19206],[151.98803,61.1865],[152.00663,61.18144],[152.01291,61.17753],[152.03151,61.17305],[152.04638,61.17254],[152.05167,61.17359],[152.05318,61.17579],[152.07134,61.17754],[152.09874,61.17745],[152.11799,61.16815],[152.11747,61.16567],[152.12068,61.16297],[152.12848,61.16035],[152.16513,61.1613],[152.17827,61.16361],[152.21389,61.15865],[152.23597,61.1517],[152.23726,61.14916],[152.23343,61.13602],[152.24997,61.12417],[152.25132,61.11882],[152.26122,61.11687],[152.271,61.11864],[152.27685,61.12212],[152.29141,61.12537],[152.30159,61.12614],[152.31211,61.12988],[152.31838,61.13025],[152.32536,61.13285],[152.33527,61.13092],[152.34138,61.13368],[152.35535,61.13615],[152.37464,61.13424],[152.38737,61.13171]],[[152.39247,62.93717],[152.3908,62.93674],[152.3898,62.93654],[152.38953,62.9365],[152.38925,62.93644],[152.38762,62.93608],[152.38734,62.936],[152.38681,62.93584],[152.38505,62.93542],[152.37704,62.93364]],[[152.37893,62.93006],[152.39172,62.93179]],[[152.38038,62.92755],[152.3941,62.92946]],[[152.41573,62.92071],[152.40379,62.91876],[152.39229,62.92049],[152.38671,62.92321],[152.3807,62.92714],[152.38038,62.92755],[152.37904,62.92985],[152.3765,62.93457],[152.37471,62.93597],[152.37875,62.94117],[152.38347,62.93976]],[[152.38347,62.93976],[152.3856,62.9376],[152.38633,62.93696],[152.38734,62.936],[152.38824,62.93517],[152.38922,62.93421],[152.38981,62.93369],[152.39172,62.93179]],[[152.38391,62.93938],[152.38347,62.93976]],[[152.38633,62.93696],[152.3881,62.93738],[152.39055,62.93791],[152.39127,62.93803]],[[152.38885,62.93753],[152.3898,62.93654],[152.39433,62.93225],[152.39669,62.93014]],[[152.39069,62.93832],[152.39055,62.93791]],[[152.39172,62.93179],[152.39227,62.93186],[152.39302,62.93201],[152.39366,62.93212],[152.39433,62.93225],[152.39547,62.93247],[152.40079,62.93365]],[[152.39172,62.93179],[152.3941,62.92946]],[[152.3941,62.92946],[152.39939,62.93084]],[[152.40659,62.92611],[152.40737,62.9258]],[[152.40737,62.9258],[152.40677,62.92624]],[[152.40737,62.9258],[152.4153,62.92068]],[[154.01883,61.16057],[154.02273,61.16335],[154.01883,61.16461],[154.01143,61.16312],[153.99199,61.16507],[153.96351,61.16975],[153.9527,61.17334],[153.93307,61.17673],[153.9229,61.18005],[153.92004,61.18262],[153.92019,61.1858],[153.92373,61.19004],[153.9261,61.19648],[153.93976,61.20545],[153.95409,61.21165],[153.95743,61.21586],[153.97195,61.21995],[153.97919,61.22421],[153.98021,61.22798],[153.97892,61.23074],[153.98198,61.23529],[153.98177,61.24172],[153.9837,61.24531],[153.98905,61.24684],[153.99396,61.25482],[154.00911,61.26154],[154.00979,61.26477],[154.00398,61.2671],[154.0028,61.26988],[153.99353,61.27341],[153.98645,61.2782],[153.96778,61.28225],[153.94548,61.28349],[153.92744,61.28118],[153.89786,61.28681],[153.89474,61.28881],[153.88677,61.2908],[153.88148,61.29549],[153.87383,61.29593],[153.87047,61.30388],[153.85963,61.30778],[153.85104,61.31358],[153.84782,61.31777],[153.83984,61.3221],[153.83754,61.32568],[153.82814,61.3342],[153.82268,61.34181],[153.82044,61.35058],[153.82243,61.35316],[153.82491,61.35322],[153.82542,61.35676],[153.81289,61.36597],[153.8157,61.38292],[153.81284,61.38855],[153.81493,61.39203],[153.81594,61.39995],[153.81476,61.40183],[153.81535,61.404],[153.81429,61.40771],[153.81711,61.40846],[153.82177,61.41956],[153.82672,61.42224],[153.82732,61.42599],[153.82895,61.42835],[153.82632,61.43311],[153.81978,61.43737],[153.81815,61.44457],[153.80799,61.45337],[153.80542,61.45742],[153.80291,61.45874],[153.8025,61.45993],[153.80414,61.46141],[153.80156,61.46552],[153.79966,61.46631],[153.80077,61.46748],[153.79883,61.46912],[153.79321,61.4709],[153.79265,61.47243],[153.77255,61.47627],[153.76506,61.48071],[153.76397,61.48351],[153.75221,61.48694],[153.75387,61.48942],[153.74924,61.49075],[153.73759,61.49161],[153.73574,61.49279],[153.73644,61.49381],[153.73522,61.49612],[153.732,61.49719],[153.73134,61.49897],[153.73807,61.50166],[153.74028,61.50324],[153.74134,61.50563],[153.74766,61.50679],[153.74936,61.51056],[153.75567,61.51423],[153.75715,61.51732],[153.76615,61.52037],[153.77815,61.52759],[153.77912,61.5328],[153.78766,61.53544],[153.79585,61.54608],[153.81327,61.55481],[153.82384,61.56551],[153.82492,61.56827],[153.83881,61.57291],[153.83889,61.57735],[153.83229,61.58157],[153.83196,61.58511],[153.83004,61.58762],[153.82643,61.5901],[153.79795,61.59015],[153.77154,61.58571],[153.76276,61.58618],[153.75286,61.59002],[153.74676,61.58907],[153.74437,61.58738],[153.7455,61.5864],[153.74491,61.58536],[153.73987,61.58285],[153.72569,61.57884],[153.72215,61.57605],[153.70906,61.57367],[153.70104,61.57351],[153.69639,61.57008],[153.6743,61.56117],[153.6711,61.55931],[153.66801,61.55517],[153.66455,61.55408],[153.64155,61.55483],[153.62011,61.55231],[153.61215,61.55433],[153.59098,61.55315],[153.58647,61.55527],[153.58588,61.55724],[153.57934,61.5647],[153.56861,61.57519],[153.5653,61.57537],[153.55544,61.58316],[153.52762,61.5924],[153.5166,61.60042],[153.51664,61.60226],[153.50754,61.60725],[153.49777,61.61096],[153.49141,61.61186],[153.49034,61.61335],[153.47647,61.61692],[153.46776,61.61709],[153.45077,61.61154],[153.43595,61.61142],[153.43835,61.61382],[153.43257,61.61752],[153.43407,61.62035],[153.44133,61.62747],[153.44103,61.63136],[153.44574,61.63663],[153.44519,61.63876],[153.4484,61.64038],[153.45236,61.64531],[153.45308,61.65214],[153.46145,61.65394],[153.46265,61.65623],[153.47948,61.66055],[153.49699,61.66668],[153.49853,61.6686],[153.50754,61.67275],[153.52025,61.67686],[153.5269,61.67697],[153.54887,61.68216],[153.55286,61.6847],[153.56393,61.68818],[153.5678,61.69105],[153.57607,61.69405],[153.57642,61.69585],[153.57934,61.69695],[153.58325,61.70393],[153.5802,61.70529],[153.58208,61.7065],[153.58265,61.71018],[153.59719,61.71756],[153.59981,61.72118],[153.61852,61.73012],[153.6223,61.73248],[153.62389,61.73539],[153.63582,61.73921],[153.64084,61.74276],[153.64848,61.74366],[153.65401,61.74677],[153.6556,61.74928],[153.66083,61.75116],[153.66384,61.75716],[153.66559,61.75841],[153.66522,61.76011],[153.65661,61.7621],[153.65406,61.76514],[153.65037,61.76683],[153.64243,61.76894],[153.63264,61.76935],[153.61877,61.77199],[153.6147,61.77353],[153.61238,61.77632],[153.58032,61.78376],[153.54801,61.78484],[153.53188,61.78221],[153.51578,61.78105],[153.51531,61.78275],[153.51274,61.78305],[153.50879,61.78548],[153.48767,61.78979],[153.46862,61.7953],[153.45948,61.79603],[153.45025,61.80141],[153.45055,61.80372]],[[155.75129,62.48408],[155.68081,62.4755],[155.63725,62.48438],[155.6179,62.4955],[155.56249,62.50959],[155.53986,62.51862],[155.50077,62.5401],[155.48451,62.55704],[155.48062,62.56578],[155.47593,62.57022],[155.46401,62.5752],[155.4596,62.57601],[155.38365,62.5732],[155.37347,62.5714]],[[155.76576,62.51779],[155.74873,62.51982]],[[155.77716,62.50995],[155.77462,62.51275],[155.76734,62.51603],[155.76704,62.51716],[155.76631,62.51756],[155.76576,62.51779],[155.76554,62.51788],[155.76524,62.518],[155.76493,62.51808]],[[155.79062,62.51377],[155.7729,62.51899],[155.77028,62.51723]],[[155.77686,62.51032],[155.77786,62.51026]],[[155.80021,62.52163],[155.80064,62.52237]],[[155.80064,62.52237],[155.80136,62.52517]],[[155.80064,62.52237],[155.80154,62.52217]],[[156.14138,63.13855],[156.14845,63.13682],[156.15192,63.13324],[156.15171,63.13148],[156.15367,63.12736],[156.16052,63.12213],[156.15633,63.11947],[156.14456,63.11652],[156.14311,63.11479],[156.14751,63.11305],[156.15203,63.10732],[156.1567,63.10557],[156.16395,63.10019],[156.165,63.0967],[156.16335,63.09269],[156.16759,63.08899]],[[159.24235,61.92909],[159.23498,61.93156],[159.23426,61.9341],[159.23919,61.93783],[159.23974,61.94153],[159.24904,61.94843],[159.25471,61.95589],[159.26547,61.9657],[159.27985,61.9735],[159.28439,61.97493],[159.29623,61.98446],[159.30198,61.98745],[159.30199,61.98904],[159.30491,61.99253],[159.30291,61.99544],[159.30355,62.00103],[159.30517,62.00433],[159.2999,62.01119],[159.2994,62.01751],[159.28981,62.02384],[159.28866,62.02884],[159.2939,62.03434],[159.29581,62.03889],[159.29528,62.04083],[159.29652,62.04507],[159.30048,62.04728],[159.3016,62.05046],[159.30373,62.05113],[159.30572,62.05344],[159.31109,62.05422],[159.32615,62.05998],[159.32849,62.06619],[159.32121,62.07229],[159.3111,62.07384],[159.30352,62.07752],[159.30277,62.07927],[159.29549,62.08192],[159.29284,62.0837],[159.29042,62.08773],[159.27335,62.09338],[159.26861,62.10035],[159.24668,62.11133],[159.24181,62.11735],[159.23208,62.11887],[159.22366,62.11813],[159.21114,62.1219],[159.19939,62.12128],[159.19887,62.12272],[159.20174,62.12538],[159.19425,62.13057],[159.19216,62.13555],[159.16884,62.14069],[159.16174,62.1434],[159.15582,62.14728],[159.1427,62.15118],[159.14135,62.15397],[159.13902,62.15546],[159.13225,62.15718],[159.12915,62.15998],[159.122,62.1635],[159.10228,62.17019],[159.10178,62.17281],[159.09507,62.17577],[159.09483,62.18052],[159.08742,62.18532],[159.08772,62.18683],[159.0854,62.1903],[159.08521,62.19282],[159.09736,62.20159],[159.10627,62.20456],[159.11161,62.21034],[159.1096,62.21576],[159.11278,62.21951],[159.12987,62.22725],[159.13743,62.23692],[159.14307,62.24157],[159.15579,62.24668],[159.16037,62.25007],[159.1642,62.25134],[159.16963,62.2558],[159.20185,62.266],[159.21294,62.27363],[159.21358,62.27597],[159.2121,62.27721],[159.2124,62.27852],[159.22473,62.28358],[159.22771,62.28683],[159.23595,62.29015],[159.24303,62.29738],[159.25584,62.30272],[159.30537,62.30749],[159.32174,62.30243],[159.33649,62.30076],[159.34597,62.29765],[159.36638,62.29577],[159.37273,62.29696],[159.38994,62.29133],[159.40352,62.28987],[159.42173,62.2914],[159.43323,62.28945],[159.45129,62.29074],[159.45558,62.29315],[159.46324,62.30114],[159.47335,62.30484],[159.47417,62.30698],[159.4785,62.31117],[159.48376,62.31159],[159.48305,62.316],[159.47143,62.32838],[159.4755,62.33977],[159.48311,62.35397],[159.48427,62.36001],[159.50268,62.37212],[159.50717,62.37851],[159.51639,62.38568],[159.53106,62.3897],[159.55023,62.38987],[159.56891,62.39319],[159.5858,62.39413],[159.59286,62.39616],[159.59677,62.39865],[159.60733,62.39971],[159.61127,62.40291],[159.62267,62.40542],[159.6402,62.40614],[159.65083,62.41062],[159.66907,62.41115],[159.67492,62.41566],[159.68628,62.41872],[159.69336,62.42311],[159.7149,62.4224],[159.72679,62.42444],[159.76141,62.4234],[159.75932,62.43019],[159.762,62.43458],[159.76005,62.43775],[159.75659,62.4406],[159.73163,62.45141],[159.72835,62.45539],[159.72394,62.45788],[159.7235,62.4617],[159.71617,62.47009],[159.71607,62.4761],[159.71836,62.4846],[159.71365,62.49211],[159.73889,62.50029],[159.75518,62.50025],[159.76035,62.50321],[159.76371,62.50695],[159.7657,62.51024],[159.76433,62.51269],[159.76503,62.51576],[159.77331,62.52013],[159.77664,62.52342],[159.78992,62.52559],[159.79627,62.52921],[159.79985,62.53365],[159.804,62.53667],[159.80406,62.53875],[159.80131,62.54342],[159.81245,62.55576],[159.81374,62.56079],[159.8164,62.56401],[159.81964,62.57145],[159.82665,62.57452],[159.82987,62.58003],[159.8288,62.58334],[159.82173,62.58656],[159.81848,62.5937],[159.82382,62.60342],[159.83041,62.60432],[159.83273,62.60605],[159.85366,62.61085],[159.85647,62.61385],[159.85589,62.61832],[159.86889,62.62418],[159.91285,62.63868],[159.93051,62.64214],[159.94109,62.64919],[159.96008,62.65518],[159.95996,62.65773],[159.95671,62.66204],[159.94922,62.66857],[159.95116,62.66931],[159.94401,62.67322],[159.94223,62.67778],[159.93889,62.68084],[159.92586,62.68466],[159.9156,62.6858],[159.89978,62.69393],[159.89684,62.69711],[159.87858,62.70547],[159.87762,62.70713],[159.87929,62.70936],[159.87944,62.7126],[159.87073,62.71489],[159.8574,62.72316],[159.85789,62.72718],[159.86003,62.72907],[159.85848,62.73701],[159.85197,62.73956],[159.85153,62.74218],[159.84573,62.74538],[159.84416,62.74775],[159.84537,62.74867],[159.84431,62.74951],[159.84494,62.74992],[159.86078,62.75826],[159.8681,62.76675],[159.86821,62.76891],[159.86185,62.7789],[159.86292,62.78508],[159.86218,62.79],[159.86349,62.79409],[159.86294,62.80094],[159.86404,62.80567],[159.87249,62.81022],[159.87424,62.81376],[159.87832,62.81719],[159.87963,62.82175],[159.87777,62.82365],[159.87617,62.82859],[159.87587,62.82986],[159.87793,62.8322],[159.87141,62.8499],[159.873,62.85616],[159.87496,62.85854],[159.87881,62.86026],[159.88224,62.86817],[159.89116,62.8711],[159.89837,62.8783],[159.90011,62.88131],[159.89828,62.88748],[159.90932,62.89832],[159.91238,62.90576],[159.91114,62.90985],[159.91125,62.92547],[159.91002,62.92735],[159.90967,62.93226],[159.91283,62.94141],[159.91319,62.94711],[159.91187,62.95004],[159.91353,62.95859],[159.91065,62.96199],[159.91045,62.9686],[159.90268,62.97323],[159.89238,62.97584],[159.87121,62.98786],[159.86849,62.99321],[159.86475,62.9972],[159.86488,63.00536],[159.85342,63.01385],[159.85363,63.02171],[159.85256,63.0242],[159.84565,63.02719],[159.84713,63.0331],[159.84542,63.03882],[159.8479,63.04425],[159.84406,63.0495],[159.84311,63.05464],[159.83713,63.06153],[159.8283,63.0679],[159.80599,63.07836],[159.78215,63.09295],[159.77713,63.09786],[159.76466,63.10391],[159.76165,63.10704],[159.75672,63.11965],[159.7527,63.12406],[159.75017,63.13082],[159.75209,63.13394],[159.75679,63.13699],[159.76443,63.14903],[159.76799,63.153],[159.77144,63.15494],[159.77309,63.16044],[159.77978,63.16733],[159.78018,63.17229],[159.77813,63.17576],[159.77846,63.17844],[159.7817,63.1812],[159.77956,63.18301],[159.78031,63.1847],[159.79196,63.18871],[159.79578,63.19153],[159.82434,63.20415],[159.83744,63.20484],[159.84338,63.2026],[159.84818,63.20239],[159.86129,63.20694],[159.86305,63.21344],[159.86481,63.21555],[159.87474,63.21808],[159.88139,63.22287],[159.88281,63.22522],[159.90012,63.2317],[159.90147,63.23435],[159.91099,63.23949],[159.91249,63.24273],[159.91555,63.24475],[159.93073,63.2515],[159.94612,63.25599],[159.95814,63.26289],[159.97207,63.26663],[159.98266,63.27359],[159.98483,63.27949],[159.98411,63.28311],[159.97143,63.30222],[159.96816,63.30552],[159.96418,63.31412],[159.96896,63.31783],[159.96495,63.32225],[159.9652,63.32557],[159.96222,63.32949],[159.96263,63.33296],[159.96088,63.3368],[159.96686,63.34321],[159.97275,63.34584],[159.97941,63.34711],[159.98827,63.35192],[160.03186,63.36506],[160.04206,63.36661],[160.05779,63.37221],[160.09277,63.37906],[160.10724,63.38419],[160.13855,63.3986],[160.16321,63.40495],[160.17047,63.40782],[160.17594,63.41181],[160.17732,63.41396],[160.17688,63.41662],[160.17825,63.42165],[160.18424,63.42843],[160.19294,63.43209],[160.20169,63.43242],[160.20933,63.43484],[160.21268,63.44213],[160.21929,63.44834],[160.23581,63.46827],[160.24315,63.47396],[160.24469,63.48427],[160.25032,63.4923],[160.25397,63.50681],[160.26019,63.52118],[160.25787,63.53079],[160.25834,63.53949],[160.24544,63.54461],[160.23713,63.54509],[160.23047,63.5468],[160.22967,63.54863],[160.22229,63.54796],[160.20828,63.54954],[160.20562,63.55304],[160.20652,63.5561],[160.20337,63.56274],[160.20304,63.56608],[160.19912,63.56829],[160.19274,63.56922],[160.1891,63.57164],[160.18944,63.57421],[160.19279,63.57697],[160.19212,63.57787],[160.18794,63.5799],[160.17946,63.58147],[160.17103,63.5853],[160.16442,63.58401],[160.16519,63.58718],[160.15838,63.59695],[160.15944,63.59856],[160.15874,63.60317],[160.16003,63.60751],[160.156,63.61183],[160.15564,63.61668],[160.15325,63.62414],[160.14671,63.6292],[160.14736,63.63322],[160.14287,63.64942],[160.13751,63.65374],[160.1307,63.65541],[160.12779,63.65761],[160.12961,63.66032],[160.12524,63.6637],[160.12456,63.66731],[160.11126,63.6751],[160.10916,63.68057],[160.08159,63.69026],[160.07008,63.69243],[160.04335,63.70002],[160.03422,63.70467],[160.02938,63.70547],[160.01235,63.71404],[160.0061,63.71542],[159.99751,63.71976],[159.99331,63.72449],[159.97744,63.73069],[159.96581,63.73981],[159.96677,63.74423],[159.96118,63.74856],[159.96346,63.75145],[159.96198,63.7531],[159.96169,63.75852],[159.96452,63.76373],[159.96374,63.76694],[159.96466,63.77502],[159.95638,63.77717],[159.94985,63.78097],[159.92835,63.77216],[159.9112,63.76994],[159.89935,63.76585],[159.8685,63.75822],[159.8551,63.75225],[159.84978,63.75173],[159.82471,63.74342],[159.8141,63.74242],[159.8008,63.73462],[159.78738,63.73485],[159.7622,63.73041],[159.73606,63.72214],[159.72793,63.72146],[159.72239,63.71832],[159.69112,63.7109],[159.67827,63.70394],[159.67301,63.70241],[159.66101,63.70157],[159.62647,63.6908],[159.58705,63.68149],[159.55229,63.67582],[159.511,63.66258],[159.49015,63.66064],[159.48244,63.65781],[159.47967,63.65465],[159.47566,63.65305],[159.46204,63.64927],[159.45017,63.64827],[159.44575,63.64543],[159.42673,63.63792],[159.4091,63.63336],[159.39728,63.62698],[159.37691,63.61875],[159.36996,63.61371],[159.36103,63.61104],[159.34257,63.6114],[159.34704,63.60792],[159.3402,63.60317],[159.33844,63.59964],[159.32979,63.58924],[159.32033,63.58188],[159.31941,63.58027],[159.3202,63.57724],[159.31956,63.57434],[159.31552,63.5718],[159.31404,63.56833],[159.31461,63.5672],[159.32106,63.56564],[159.32055,63.56326],[159.32268,63.559],[159.32199,63.55757],[159.32482,63.55269],[159.32536,63.54766],[159.30688,63.53286],[159.29263,63.52348],[159.28544,63.52014],[159.2795,63.5193],[159.25294,63.50803],[159.22674,63.49855],[159.21609,63.4929],[159.19722,63.47649],[159.19155,63.46902],[159.18605,63.46555],[159.18498,63.46382],[159.18408,63.45404],[159.1818,63.45205],[159.17479,63.45197],[159.16126,63.45493],[159.14548,63.45023],[159.14492,63.44788],[159.1424,63.44662],[159.12006,63.44236],[159.10753,63.44108],[159.09718,63.43765],[159.08545,63.43579],[159.07458,63.42779],[159.0663,63.42514],[159.06349,63.42267],[159.05892,63.42089],[159.0571,63.41938],[159.05757,63.41774],[159.05534,63.41684],[159.04946,63.41735],[159.01253,63.41239],[158.99111,63.41453],[158.98138,63.41354],[158.93232,63.41278],[158.91893,63.41393],[158.90711,63.421],[158.89639,63.42092],[158.89036,63.41907],[158.86951,63.41664],[158.86689,63.41527],[158.86439,63.41208],[158.85812,63.41026],[158.8345,63.40621],[158.81848,63.40543],[158.80428,63.4019],[158.78714,63.39529],[158.78707,63.39225],[158.7854,63.39025],[158.78691,63.38912],[158.78557,63.38842],[158.77342,63.38836],[158.76823,63.38702],[158.76403,63.37932],[158.75906,63.37716],[158.75793,63.3747],[158.75837,63.37294],[158.75726,63.37218],[158.75061,63.37308],[158.72155,63.37053],[158.70291,63.37314],[158.69922,63.37228],[158.69109,63.37336],[158.67508,63.37281],[158.66987,63.37164],[158.66585,63.36823],[158.66517,63.36619],[158.65701,63.36579],[158.65321,63.36356],[158.64074,63.36315],[158.6183,63.35961],[158.60302,63.35924],[158.60143,63.35861],[158.60166,63.35612],[158.59409,63.34615],[158.59297,63.34398],[158.59418,63.34109],[158.59004,63.3342],[158.58108,63.33365],[158.57488,63.33167],[158.56237,63.3324],[158.55074,63.32715],[158.51931,63.32035],[158.50611,63.31938],[158.49101,63.32299],[158.47837,63.32193],[158.46294,63.31801],[158.45517,63.31795],[158.44701,63.31234],[158.44723,63.30961],[158.44265,63.30813],[158.44008,63.30425],[158.42524,63.29971],[158.41027,63.2975],[158.4047,63.29364],[158.40086,63.28867],[158.39937,63.28464],[158.3965,63.28271],[158.38182,63.28433],[158.37371,63.28231],[158.34859,63.27958],[158.34397,63.27729],[158.31786,63.27155],[158.29737,63.2634],[158.27585,63.25738],[158.24211,63.25215],[158.20287,63.23983],[158.19422,63.24179],[158.18723,63.242],[158.1728,63.2501],[158.15414,63.25721],[158.1431,63.26515],[158.13467,63.26521],[158.11456,63.27164],[158.09163,63.28547],[158.08622,63.28676],[158.08414,63.28947],[158.08448,63.29185],[158.08349,63.29334],[158.07255,63.29884],[158.06638,63.30673],[158.03897,63.32438],[158.02708,63.32883],[157.99286,63.34683],[157.97595,63.35117],[157.96227,63.35607],[157.95855,63.3611],[157.95863,63.36419],[157.96096,63.36709],[157.96086,63.36861],[157.95698,63.37276],[157.94928,63.38615],[157.94427,63.38868],[157.91224,63.3964],[157.89466,63.40454],[157.86586,63.40742],[157.83445,63.41527],[157.8226,63.41524],[157.80464,63.41231],[157.79475,63.41269],[157.76194,63.42746],[157.75375,63.4324],[157.74905,63.43346],[157.73944,63.43395],[157.72149,63.4263],[157.70904,63.42228],[157.69072,63.41285],[157.67266,63.40627],[157.64718,63.39069],[157.636,63.38617],[157.63003,63.38046],[157.62063,63.37538],[157.62083,63.3714],[157.61862,63.36789],[157.62078,63.36569],[157.6216,63.36247],[157.61984,63.35798],[157.60184,63.35606],[157.58607,63.35647],[157.58007,63.35297]]]}},{"type":"Feature","properties":{"roadClass":"trunk"},"geometry":{"type":"MultiLineString","coordinates":[[[145.60516,63.82935],[145.60762,63.82554],[145.61018,63.82461],[145.64321,63.82515],[145.66849,63.82082],[145.67762,63.81738],[145.682,63.81439],[145.69738,63.8102],[145.71764,63.80118],[145.74132,63.78368],[145.7463,63.78221],[145.76516,63.78141],[145.78399,63.77738],[145.80064,63.78144],[145.88359,63.77641],[145.93335,63.77733],[145.97248,63.77332],[145.98857,63.7687],[145.99957,63.76837],[146.02083,63.76474],[146.03475,63.76365],[146.06623,63.7581],[146.07099,63.7569],[146.07758,63.752],[146.09931,63.74518],[146.12607,63.74201],[146.14613,63.7352],[146.17392,63.72925],[146.17911,63.72661],[146.19875,63.71187],[146.20684,63.71135],[146.21183,63.70825],[146.22033,63.70656],[146.23022,63.70202],[146.23821,63.70172],[146.2421,63.70038],[146.24897,63.68948],[146.24849,63.68624],[146.24952,63.68482],[146.25387,63.68186],[146.26743,63.68015],[146.27201,63.67836],[146.27711,63.66313],[146.28301,63.65872],[146.29602,63.65377],[146.30282,63.64609],[146.33305,63.63393],[146.34925,63.62177],[146.364,63.61347],[146.37849,63.60992],[146.4046,63.59998],[146.40888,63.5928],[146.40023,63.58684],[146.39775,63.58351],[146.4147,63.57018],[146.41378,63.5618],[146.41087,63.5542],[146.4118,63.55066],[146.4098,63.54484],[146.4285,63.527],[146.42616,63.51849],[146.43502,63.51219],[146.43778,63.5052],[146.44125,63.50269],[146.44786,63.50122],[146.45169,63.49837],[146.45125,63.48891],[146.45356,63.48553],[146.45177,63.47958],[146.4479,63.47781],[146.44726,63.47331],[146.44841,63.47096],[146.46293,63.46066],[146.46809,63.45405],[146.4733,63.45212],[146.47821,63.44695],[146.499,63.43279],[146.51431,63.43124],[146.52275,63.42407],[146.53116,63.42046],[146.53612,63.41673],[146.54253,63.41452],[146.54887,63.40946],[146.58882,63.40451],[146.59494,63.40092],[146.59886,63.39665],[146.61097,63.39268],[146.6138,63.38618],[146.62741,63.37569],[146.62928,63.36826],[146.63676,63.3625],[146.63791,63.35764],[146.64168,63.35275],[146.64798,63.34781],[146.64935,63.34401],[146.65986,63.33521],[146.67876,63.32303],[146.68034,63.31828],[146.67438,63.31106],[146.68343,63.29334],[146.68579,63.29142],[146.68612,63.29015],[146.68241,63.28462],[146.68291,63.28323],[146.71192,63.27528],[146.73426,63.26231],[146.74238,63.25898],[146.7655,63.25319],[146.7785,63.24675],[146.78411,63.24194],[146.79346,63.23659],[146.80468,63.22259],[146.81339,63.2094],[146.82035,63.20316],[146.84998,63.19364],[146.86781,63.19],[146.89609,63.17533],[146.91585,63.16196],[146.94212,63.13856],[146.94054,63.13406],[146.94351,63.12368],[146.95244,63.11655],[146.95448,63.11142],[146.96601,63.10404],[146.9682,63.10113],[146.98142,63.09319],[146.98576,63.08111],[146.99888,63.07662],[147.00991,63.07061],[147.0277,63.06971],[147.1092,63.02309],[147.13893,63.00058],[147.15984,62.99069],[147.17711,62.9789],[147.18033,62.97629],[147.19007,62.95938],[147.1977,62.95177],[147.21966,62.9241],[147.25374,62.89395],[147.25755,62.891],[147.28277,62.8779],[147.29189,62.87523],[147.31504,62.87328],[147.31824,62.87067],[147.32914,62.86658],[147.33325,62.86109],[147.34027,62.85657],[147.3438,62.83726],[147.34616,62.83218],[147.40289,62.79257],[147.41441,62.7817],[147.42824,62.77321],[147.44078,62.76152],[147.45585,62.75433],[147.46649,62.74739],[147.4819,62.74065],[147.50028,62.73626],[147.52705,62.72113],[147.53164,62.71377],[147.53714,62.70888],[147.56642,62.69397],[147.59958,62.68215],[147.65948,62.66969],[147.66845,62.66649],[147.67319,62.66302],[147.6872,62.65997],[147.69423,62.66084],[147.70791,62.65973],[147.71894,62.66116],[147.73978,62.66757],[147.76103,62.6704],[147.76531,62.67313],[147.77571,62.67553],[147.80288,62.68523],[147.84526,62.69795],[147.87055,62.70349],[147.89903,62.71284],[147.92734,62.71764],[147.98389,62.73763],[148.01739,62.74382],[148.04146,62.75071],[148.05765,62.75639],[148.06652,62.76267],[148.07744,62.76725],[148.09419,62.7706],[148.11022,62.78286],[148.1141,62.7842],[148.12393,62.78259],[148.14537,62.77555],[148.15204,62.77531],[148.15962,62.77938],[148.16736,62.78558],[148.16694,62.79117],[148.16968,62.79766],[148.16859,62.80239],[148.17092,62.80475],[148.17328,62.80988],[148.1729,62.81187],[148.1797,62.81543],[148.17637,62.81804],[148.17649,62.8205],[148.18087,62.82224],[148.18839,62.82172],[148.1998,62.82379],[148.21214,62.82399],[148.22318,62.83003],[148.23286,62.82952],[148.2461,62.83104],[148.32902,62.84643],[148.34748,62.84672],[148.36843,62.84964],[148.43651,62.85312],[148.45111,62.8512],[148.483,62.85117],[148.49076,62.8523],[148.4969,62.85471],[148.52222,62.85033],[148.53155,62.84483],[148.53624,62.84344],[148.54954,62.84139],[148.55737,62.84223],[148.56166,62.84135],[148.56893,62.83846],[148.57456,62.83476],[148.59711,62.82852],[148.61368,62.81964],[148.64119,62.81006],[148.65665,62.80081],[148.6668,62.80036],[148.67638,62.79832],[148.77835,62.79536],[148.7944,62.79287],[148.80178,62.79034],[148.81452,62.78088],[148.82928,62.77455],[148.83401,62.76753],[148.83396,62.76384],[148.8298,62.76136],[148.8268,62.75696],[148.82813,62.75421],[148.83259,62.75256],[148.83358,62.75019],[148.83778,62.7468],[148.83954,62.74163],[148.83817,62.73764],[148.8386,62.73353],[148.84053,62.73055],[148.83795,62.72598],[148.84577,62.71761],[148.84551,62.71609],[148.83658,62.71347],[148.8298,62.70863],[148.83358,62.70104],[148.83845,62.70018],[148.83877,62.69847],[148.84199,62.69741],[148.84386,62.69411],[148.85237,62.69045],[148.86016,62.68829],[148.86389,62.68892],[148.87351,62.68456],[148.87654,62.68605],[148.87905,62.68243],[148.89132,62.68124],[148.90458,62.67684],[148.9331,62.67695],[148.94604,62.67352],[148.96832,62.67231],[148.98054,62.66749],[148.99713,62.667],[149.00942,62.66514],[149.01987,62.65971],[149.03395,62.65517],[149.04208,62.64844],[149.04798,62.64752],[149.06292,62.64792],[149.07815,62.65029],[149.1001,62.64909],[149.10821,62.65083],[149.12954,62.65065],[149.13745,62.65334],[149.1469,62.65964],[149.16903,62.66942],[149.17503,62.66982],[149.20364,62.66273],[149.20525,62.66021],[149.20763,62.65895],[149.22636,62.65205],[149.23475,62.65168],[149.25175,62.6458],[149.26958,62.64396],[149.27835,62.64013],[149.29309,62.63969],[149.33984,62.63212],[149.34386,62.63021],[149.36392,62.62565],[149.36549,62.62488],[149.36565,62.62299],[149.3688,62.61988],[149.38412,62.61333],[149.39391,62.61079],[149.41633,62.60107],[149.42597,62.59987],[149.44618,62.60111],[149.46225,62.59829],[149.46721,62.596],[149.47353,62.59484],[149.49089,62.58689],[149.4987,62.58538],[149.50504,62.58202],[149.51056,62.57491],[149.52067,62.574],[149.52275,62.56868],[149.52473,62.56673],[149.53039,62.56365],[149.53537,62.5626],[149.54008,62.55758],[149.54685,62.55726],[149.55574,62.5528],[149.5572,62.55128],[149.55295,62.54681],[149.55471,62.54402],[149.56001,62.54307],[149.57408,62.54319],[149.58681,62.53773],[149.59863,62.53641],[149.61234,62.52908],[149.61821,62.51969],[149.62693,62.51916],[149.63293,62.51593],[149.64093,62.51617],[149.64536,62.51518],[149.65343,62.50961],[149.65507,62.50506],[149.65785,62.50377],[149.66921,62.50224],[149.67606,62.49799],[149.67583,62.4958],[149.67674,62.49506],[149.68337,62.49427],[149.69396,62.48996],[149.70602,62.48893],[149.71752,62.48609],[149.71988,62.48453],[149.72331,62.4794],[149.72588,62.47818],[149.73231,62.47677],[149.74287,62.47729],[149.76281,62.47539],[149.78749,62.46894],[149.79991,62.45923],[149.80259,62.44849],[149.80154,62.44454],[149.80733,62.44117],[149.81135,62.4369],[149.81019,62.43427],[149.81639,62.42462],[149.81552,62.42085],[149.81727,62.41594],[149.82022,62.41363],[149.83044,62.41075],[149.84113,62.40497],[149.84507,62.39909],[149.84839,62.39697],[149.87273,62.39004],[149.89457,62.38145],[149.90607,62.37319],[149.93468,62.36815],[149.94239,62.36453],[149.95069,62.36262],[149.96065,62.3624],[149.97631,62.35949],[149.98934,62.34912],[150.05824,62.33175],[150.07432,62.33117],[150.10544,62.32692],[150.12698,62.33005],[150.14704,62.32921],[150.18489,62.32512],[150.19861,62.32198],[150.22268,62.32485],[150.24565,62.32087],[150.30714,62.31659],[150.31449,62.31553],[150.31878,62.31349],[150.32919,62.3115],[150.33626,62.31169],[150.35034,62.30821],[150.37382,62.30751],[150.41825,62.30298],[150.43603,62.30315],[150.46282,62.29988],[150.4647,62.30025],[150.46709,62.30288],[150.47224,62.30019],[150.50767,62.30126],[150.52875,62.29417],[150.53682,62.29354],[150.55717,62.29509],[150.61449,62.30503],[150.61658,62.30605],[150.61635,62.30831],[150.61833,62.30926],[150.62742,62.30841],[150.64719,62.3113],[150.6619,62.32142],[150.66784,62.32365],[150.68793,62.32782],[150.69896,62.32701],[150.71047,62.3278],[150.72172,62.33236],[150.72094,62.33503],[150.72358,62.33889],[150.72577,62.33976],[150.76719,62.33723],[150.77366,62.33798],[150.79578,62.34849],[150.79776,62.35182],[150.79583,62.36263],[150.80234,62.3677],[150.81719,62.37561],[150.83167,62.37805],[150.87384,62.37229],[150.94628,62.36014],[150.95716,62.36018],[150.98416,62.36445],[151.02293,62.35896],[151.039,62.35886],[151.06717,62.35663],[151.1038,62.3471],[151.12731,62.33652],[151.17563,62.32488],[151.20181,62.32371],[151.21448,62.31993],[151.22035,62.31669],[151.25592,62.31025],[151.27768,62.30823],[151.28375,62.30986],[151.29172,62.30801],[151.30012,62.3089],[151.31741,62.30422],[151.33621,62.3031],[151.35318,62.29988],[151.35912,62.29609],[151.37122,62.29498],[151.402,62.28695],[151.40988,62.2837],[151.41309,62.2806],[151.42338,62.27974],[151.4283,62.27788],[151.44046,62.27636],[151.44334,62.27496],[151.44474,62.27265],[151.44959,62.2713],[151.4537,62.26846],[151.47366,62.2689],[151.47859,62.26608],[151.47998,62.26307],[151.48566,62.25952],[151.51094,62.25501],[151.53332,62.25228],[151.54739,62.25549],[151.56548,62.25513],[151.59413,62.26144],[151.62935,62.26403],[151.64501,62.26206],[151.66199,62.25767],[151.67177,62.25821],[151.68439,62.2611],[151.69647,62.25952],[151.71485,62.26028],[151.73376,62.25561],[151.75926,62.24329],[151.76598,62.24281]],[[150.81617,59.57409],[150.81517,59.57439]],[[150.81611,59.57458],[150.81517,59.57439]],[[150.81517,59.57439],[150.81449,59.57371],[150.81617,59.57409]],[[150.81611,59.57458],[150.82408,59.58117],[150.82528,59.58406],[150.83709,59.59308],[150.84966,59.59586],[150.8714,59.59793],[150.87534,59.6018],[150.88006,59.60367],[150.89293,59.60538],[150.90546,59.60379],[150.91077,59.60425],[150.91507,59.60586],[150.92024,59.6105],[150.91317,59.619],[150.91488,59.62293],[150.91895,59.62527],[150.92105,59.62804],[150.92153,59.63217],[150.9274,59.63696],[150.92169,59.65319],[150.92094,59.65913],[150.92485,59.6713],[150.92498,59.68198],[150.92316,59.70148],[150.93026,59.71435],[150.93447,59.72454],[150.94057,59.73295],[150.9421,59.73959],[150.9499,59.74425],[150.95523,59.74925],[150.95926,59.75496],[150.95911,59.75866],[150.95256,59.77091],[150.95472,59.77751],[150.95267,59.79293],[150.95017,59.79632],[150.93702,59.80558],[150.92939,59.81788],[150.91937,59.82601],[150.91155,59.83745],[150.88402,59.85721],[150.87871,59.87056],[150.85794,59.88246],[150.85609,59.89019],[150.85332,59.89305],[150.84571,59.89559],[150.82324,59.90612],[150.8028,59.91105],[150.79323,59.91186],[150.78031,59.91124],[150.74676,59.91608],[150.73038,59.92049],[150.72184,59.92476],[150.68973,59.93642],[150.68734,59.93878],[150.68092,59.95432],[150.67917,59.96219],[150.68314,59.98324],[150.68531,59.98756],[150.69145,59.99147],[150.71434,59.99854],[150.72895,60.00566],[150.7303,60.00764],[150.728,60.01566],[150.73026,60.01902],[150.7544,60.03644],[150.77007,60.05516],[150.78678,60.0635],[150.79591,60.0781],[150.80094,60.08161],[150.81432,60.08458],[150.83255,60.0869],[150.84905,60.08321],[150.88091,60.07927],[150.88926,60.07947],[150.91404,60.08301],[150.92147,60.08795],[150.93024,60.09104],[150.94069,60.10261],[150.94971,60.10878],[150.97271,60.12147],[151.00222,60.13475],[151.03564,60.14806],[151.05607,60.1583],[151.06676,60.16937],[151.07996,60.17565],[151.09489,60.18075],[151.10103,60.18756],[151.09949,60.19687],[151.10133,60.20549],[151.09473,60.21316],[151.09432,60.21685],[151.10598,60.2314],[151.12203,60.24374],[151.12588,60.24872],[151.13071,60.26727],[151.13386,60.27057],[151.13522,60.27408],[151.13516,60.28163],[151.13072,60.28763],[151.12992,60.29523],[151.13583,60.30865],[151.14609,60.31681],[151.16248,60.32343],[151.16883,60.32472],[151.19302,60.32085],[151.26208,60.32038],[151.30157,60.3258],[151.32261,60.33246],[151.34396,60.33722],[151.37781,60.33783],[151.38305,60.33961],[151.39869,60.34866],[151.40546,60.35585],[151.41095,60.36648],[151.4146,60.36997],[151.41919,60.37201],[151.47101,60.38642],[151.48696,60.38692],[151.49908,60.38574],[151.50799,60.38738],[151.51233,60.39012],[151.51373,60.39419],[151.51154,60.41014],[151.51714,60.41789],[151.51675,60.42117],[151.51321,60.42386],[151.48929,60.43507],[151.46771,60.4493],[151.46667,60.45283],[151.46965,60.45893],[151.46913,60.46219],[151.4609,60.47232],[151.43072,60.50056],[151.42773,60.50465],[151.42637,60.5105],[151.4282,60.52012],[151.43289,60.52392],[151.45434,60.53366],[151.46015,60.53842],[151.46318,60.54852],[151.46971,60.55613],[151.46845,60.57141],[151.47356,60.57609],[151.48152,60.57863],[151.49357,60.57853],[151.50439,60.58329],[151.52433,60.5878],[151.55304,60.58897],[151.5653,60.59477],[151.57143,60.60075],[151.58037,60.6021],[151.58019,60.60532],[151.59438,60.60731],[151.5985,60.61151],[151.60787,60.61784],[151.61369,60.62379],[151.6305,60.63348],[151.64755,60.64291],[151.66313,60.64778],[151.67883,60.6553],[151.70321,60.67838],[151.71071,60.69043],[151.72338,60.7036],[151.74782,60.72194],[151.75381,60.73636],[151.75788,60.74022],[151.76492,60.75008],[151.76082,60.75878],[151.75475,60.762],[151.7319,60.76448],[151.72085,60.76697],[151.71451,60.77068],[151.7141,60.77647],[151.7422,60.79716],[151.75067,60.80083],[151.76718,60.80419],[151.78567,60.81473],[151.78722,60.82149],[151.79436,60.8262],[151.80065,60.83545],[151.79863,60.84076],[151.78906,60.8416],[151.78516,60.85096],[151.78812,60.86104],[151.79393,60.86775],[151.79776,60.87039],[151.79801,60.87343],[151.79456,60.8781],[151.79404,60.88417],[151.78943,60.89462],[151.77136,60.91311],[151.77076,60.9157],[151.77417,60.9293],[151.77383,60.93185],[151.76473,60.94025],[151.74769,60.95038],[151.73424,60.96143],[151.73338,60.96403],[151.73503,60.97619],[151.72869,60.98384],[151.72924,60.98519],[151.7457,60.99584],[151.74755,60.99913],[151.74662,61.0056],[151.7406,61.00915],[151.73853,61.01292],[151.73893,61.01453],[151.74253,61.01693],[151.7541,61.01923],[151.76042,61.02238],[151.76114,61.02726],[151.75557,61.03302],[151.75508,61.0373],[151.76022,61.04445],[151.76003,61.05008],[151.76529,61.06263],[151.77886,61.06561],[151.7883,61.07062],[151.79125,61.07751],[151.78858,61.08077],[151.79018,61.08265],[151.80154,61.08983],[151.80962,61.09249],[151.81565,61.09593],[151.83453,61.11059],[151.86288,61.12782],[151.86353,61.12997],[151.86202,61.13359],[151.86211,61.13794],[151.86477,61.14858],[151.88056,61.16257],[151.88587,61.16879],[151.88744,61.1746],[151.88611,61.18095],[151.88683,61.18309],[151.91014,61.19024],[151.92164,61.19227],[151.93084,61.19165],[151.93266,61.19289],[151.92928,61.19511],[151.92873,61.19683],[151.93712,61.2024],[151.939,61.20827],[151.94305,61.21367],[151.94227,61.21739],[151.94461,61.22224],[151.94306,61.22887],[151.94383,61.23296],[151.94022,61.23524],[151.93341,61.24318],[151.93059,61.2509],[151.91965,61.25646],[151.9121,61.26421],[151.91008,61.27424],[151.93074,61.29168],[151.93458,61.29687],[151.9478,61.30678],[151.95106,61.308],[151.96173,61.30855],[151.96947,61.31276],[151.97468,61.31863],[151.97809,61.32527],[151.98161,61.33441],[151.98183,61.34297],[151.99418,61.36118],[152.02238,61.38015],[152.02931,61.38549],[152.03052,61.38915],[152.03804,61.39334],[152.08338,61.40764],[152.09345,61.40904],[152.11271,61.41381],[152.11721,61.41716],[152.1228,61.41809],[152.14117,61.42793],[152.14163,61.43175],[152.1432,61.43289],[152.14974,61.43674],[152.17257,61.44535],[152.18569,61.45417],[152.19557,61.46529],[152.2007,61.47388],[152.20773,61.47944],[152.21474,61.49423],[152.22031,61.50229],[152.21967,61.50627],[152.22205,61.51298],[152.22479,61.51658],[152.22474,61.52337],[152.2279,61.52847],[152.22863,61.54699],[152.23392,61.54998],[152.24864,61.55323],[152.25545,61.56305],[152.27019,61.59059],[152.27073,61.59795],[152.26726,61.61103],[152.26949,61.61743],[152.26945,61.63078],[152.26871,61.63382],[152.26554,61.63589],[152.26627,61.64009],[152.26337,61.6551],[152.25854,61.66156],[152.25728,61.67148],[152.26078,61.67396],[152.27112,61.67659],[152.27348,61.67947],[152.27412,61.68414],[152.28225,61.68976],[152.28235,61.69346],[152.28391,61.69516],[152.31398,61.7124],[152.31766,61.71552],[152.31684,61.71876],[152.30702,61.72636],[152.29601,61.72758],[152.27702,61.73591],[152.27496,61.73828],[152.27336,61.74292],[152.26939,61.74705],[152.26728,61.7519],[152.25937,61.75794],[152.25825,61.76503],[152.25422,61.77149],[152.25347,61.77998],[152.24672,61.78762],[152.24165,61.80168],[152.22764,61.81356],[152.22698,61.82378],[152.23325,61.82831],[152.23279,61.83062],[152.23005,61.83335],[152.22986,61.83717],[152.23371,61.84277],[152.23157,61.84709],[152.22569,61.85131],[152.21731,61.86311],[152.21594,61.87002],[152.21697,61.87847],[152.21583,61.88673],[152.20083,61.89872],[152.18556,61.91822],[152.17481,61.92429],[152.16929,61.93338],[152.15353,61.94067],[152.14557,61.95091],[152.13644,61.95662],[152.13401,61.96431],[152.12943,61.96856],[152.12034,61.97427],[152.09765,61.98255],[152.08283,61.99375],[152.07856,61.9956],[152.05153,62.00059],[152.02086,62.00423],[152.0034,62.00997],[151.99228,62.01625],[151.94698,62.02015],[151.93548,62.02521],[151.93014,62.02316],[151.91278,62.02286],[151.90821,62.02479],[151.9074,62.02737],[151.90406,62.03122],[151.89319,62.03595],[151.87204,62.03929],[151.86898,62.0414],[151.86813,62.04704],[151.86418,62.05097],[151.86239,62.05652],[151.8578,62.06374],[151.83709,62.07602],[151.82154,62.08101],[151.81276,62.08923],[151.80311,62.09594],[151.79495,62.10398],[151.77554,62.11517],[151.77239,62.12104],[151.763,62.13076],[151.75586,62.13388],[151.76004,62.13615],[151.76093,62.1381],[151.75245,62.14994],[151.75109,62.15383],[151.76733,62.17265],[151.77363,62.17765],[151.77714,62.18265],[151.78756,62.19182],[151.79625,62.20573],[151.78634,62.22489],[151.77926,62.23093],[151.77084,62.2411],[151.76598,62.24281]],[[150.81617,59.57409],[150.81611,59.57458]],[[151.76598,62.24281],[151.76585,62.24326]]]}}],"provenance":{"sources":[{"id":"osm-far-eastern-260916","url":"https://download.geofabrik.de/russia/far-eastern-fed-district-260916.osm.pbf","snapshot":"2026-09-16T20:21:21Z","sha256":"fd264d9cb2c1670512aeaa43ca562920df9b3e676e381a45f4141676843fd1f1","md5":"879d448abc7a6059dd1e48f978330f6e","bytes":387672435,"license":"ODbL-1.0","attribution":"© OpenStreetMap contributors, Geofabrik","downloadDate":"2026-09-17"}],"attribution":"© OpenStreetMap contributors, Geofabrik; ODbL-1.0","geometryMethod":"Actual OSM road ways, merged by class and endpoint, display simplification 0.0007 degrees; not routing geometry","sourceWayCount":1183,"routingUse":false}}