{"type":"FeatureCollection","features":[{"type":"Feature","properties":{"roadClass":"primary"},"geometry":{"type":"MultiLineString","coordinates":[[[53.04261,67.64261],[53.03336,67.63626],[53.01687,67.63747]],[[53.04261,67.64261],[53.04813,67.65082],[53.05296,67.65574],[53.05953,67.65965],[53.0675,67.6613],[53.07457,67.66431],[53.08938,67.66734],[53.10151,67.66793],[53.12398,67.66527]],[[53.04261,67.64261],[53.0651,67.63677],[53.07428,67.63731],[53.08496,67.63237]],[[53.08496,67.63237],[53.08676,67.63231],[53.08807,67.63306],[53.08682,67.63337],[53.08496,67.63237]],[[53.12398,67.66527],[53.12848,67.66958],[53.12446,67.67127],[53.12724,67.67531],[53.12945,67.67661],[53.12719,67.67826]],[[53.12398,67.66527],[53.12224,67.66302],[53.12606,67.65989],[53.15532,67.65018],[53.19212,67.64419],[53.23755,67.63017],[53.25496,67.62797],[53.27925,67.63102],[53.28435,67.62854],[53.28873,67.62886],[53.32173,67.6387],[53.36038,67.64717],[53.36987,67.65208],[53.37963,67.65157],[53.41004,67.65439],[53.44254,67.64811],[53.46693,67.64539],[53.50501,67.63682],[53.57143,67.62908],[53.5779,67.62745],[53.58514,67.62274],[53.61462,67.61676],[53.6526,67.6178],[53.70296,67.61324],[53.73999,67.61144],[53.75787,67.61389],[53.78504,67.6133],[53.81497,67.61428],[53.88722,67.62099],[53.93264,67.61757],[53.93724,67.61958],[53.94497,67.62813],[53.95145,67.63187],[53.961,67.64367],[53.96527,67.64548],[53.97133,67.64599],[54.00297,67.64399],[54.02403,67.64496],[54.06616,67.63353],[54.12243,67.62575],[54.13688,67.62146],[54.14725,67.61643],[54.1518,67.61534],[54.19602,67.61899],[54.21965,67.61561],[54.22779,67.61264],[54.27073,67.60797],[54.31294,67.61417],[54.36006,67.61008],[54.4564,67.61313],[54.48165,67.61256],[54.51522,67.61796],[54.5434,67.6145],[54.5599,67.60907],[54.57154,67.60325],[54.57592,67.60227],[54.59101,67.60196],[54.61493,67.60361],[54.63178,67.60266],[54.69448,67.60801],[54.71591,67.60274],[54.74504,67.58803],[54.74852,67.58528],[54.74989,67.57957],[54.75379,67.57299],[54.76495,67.56748],[54.78875,67.56576],[54.81094,67.56573],[54.83751,67.55881],[54.85724,67.55645],[54.89086,67.55658],[54.92009,67.56126],[54.94263,67.56755],[54.96767,67.56809],[54.97753,67.56725],[55.00809,67.55982],[55.0219,67.54869],[55.06813,67.52747],[55.09176,67.53038],[55.12362,67.53866],[55.15448,67.54131],[55.16948,67.54017],[55.19458,67.53313],[55.25631,67.5332],[55.32502,67.527],[55.42303,67.50448],[55.45243,67.49484],[55.46144,67.49092],[55.49804,67.46997],[55.54254,67.44965],[55.56749,67.44042],[55.58328,67.43174],[55.61452,67.42659],[55.6795,67.42588],[55.7043,67.42286],[55.75895,67.40968],[55.76377,67.40716],[55.77942,67.39533],[55.78844,67.39177],[55.83189,67.38164],[55.89635,67.36277],[55.90769,67.35658],[55.92191,67.33752],[55.95358,67.31136],[55.96101,67.29044],[55.96459,67.28737],[55.97219,67.28479],[56.1113,67.27077],[56.12151,67.268],[56.17885,67.24678],[56.18739,67.24484],[56.3527,67.23729],[56.36216,67.23608],[56.37351,67.23259],[56.41728,67.20803],[56.45726,67.20203],[56.48812,67.19362],[56.54023,67.19492],[56.60149,67.20422],[56.64386,67.20551],[56.64412,67.20222],[56.64627,67.20002],[56.68721,67.1841],[56.69078,67.18137],[56.69649,67.17241],[56.70035,67.16988],[56.70831,67.1675],[56.73396,67.16402],[56.74531,67.16118],[56.78377,67.14176],[56.80748,67.12829],[56.80991,67.12612],[56.81071,67.12374],[56.80775,67.11559],[56.80811,67.1136],[56.81849,67.10497],[56.80403,67.09193],[56.80567,67.0794],[56.81218,67.07549],[56.84401,67.06674],[56.86447,67.05887],[56.88662,67.04481],[56.92054,67.01032],[56.92103,67.00774],[56.91963,67.00524],[56.91198,67.0004]]]}},{"type":"Feature","properties":{"roadClass":"secondary"},"geometry":{"type":"MultiLineString","coordinates":[[[47.76202,66.7572],[47.775,66.7632],[47.77707,66.76568],[47.78635,66.76893],[47.78669,66.78004],[47.78961,66.78723],[47.78888,66.79039],[47.77089,66.80647],[47.76846,66.81231],[47.74246,66.82762],[47.72958,66.83852],[47.7201,66.84311],[47.71225,66.85111],[47.71191,66.85456],[47.71715,66.85797],[47.71483,66.85952],[47.69584,66.86317],[47.69172,66.8658],[47.67273,66.87006],[47.67041,66.87195],[47.66962,66.87564],[47.65893,66.87693],[47.62989,66.88466],[47.62151,66.88881],[47.61079,66.89164],[47.61236,66.89218],[47.61105,66.89305],[47.62296,66.90564],[47.62977,66.90654],[47.63937,66.9104],[47.64058,66.91298],[47.66002,66.91746],[47.65784,66.92193],[47.66002,66.92527],[47.66306,66.92717],[47.66452,66.93279],[47.67096,66.93498],[47.67655,66.93551],[47.68165,66.94155],[47.68396,66.9477],[47.69256,66.95874],[47.70905,66.97508],[47.72074,66.97985],[47.74445,66.99382],[47.76633,67.00968],[47.76596,67.01141],[47.76876,67.01163],[47.76499,67.01331],[47.75582,67.01426],[47.74974,67.01974],[47.758,67.02771],[47.75169,67.03947],[47.77536,67.09216],[47.77414,67.0976],[47.77026,67.09859],[47.77414,67.10015],[47.78046,67.10691],[47.77658,67.12435],[47.77882,67.12847],[47.77883,67.13087],[47.78111,67.13082],[47.78966,67.13418],[47.79534,67.1485],[47.81424,67.15851],[47.85892,67.19677],[47.86717,67.21847],[47.8761,67.2359],[47.86751,67.25943],[47.86682,67.26753],[47.82379,67.30245],[47.82562,67.30967],[47.83242,67.31445],[47.83959,67.32328],[47.84591,67.32844],[47.85557,67.33279],[47.86177,67.34377],[47.89996,67.3525],[47.89315,67.35271],[47.87942,67.35751],[47.87961,67.35868],[47.88398,67.36399],[47.89273,67.36773],[47.89419,67.36955],[47.89449,67.37446],[47.89565,67.37657],[47.90689,67.3804],[47.90792,67.38203],[47.91254,67.38372],[47.91089,67.38543],[47.9115,67.38606],[47.90509,67.38747],[47.89702,67.39236],[47.89719,67.39719],[47.90922,67.4065],[47.93139,67.41033],[47.95441,67.41046],[47.98064,67.414],[47.98581,67.41586],[47.99419,67.42375],[47.99753,67.42557],[48.00744,67.42785],[48.00938,67.42962],[48.0097,67.4368],[48.01147,67.43833],[48.01257,67.44252],[48.00917,67.45529],[48.01087,67.4606],[48.01075,67.46652],[48.02107,67.4762],[48.01974,67.47732],[48.01974,67.48016],[48.01633,67.48411],[48.00941,67.48625],[48.00744,67.48987],[48.00851,67.49425],[48.01184,67.49532],[48.01257,67.49723],[48.01749,67.49865],[48.02007,67.5012],[48.04234,67.51112],[48.07192,67.51892],[48.07698,67.52236],[48.09367,67.52452],[48.11348,67.5313],[48.11953,67.53123],[48.12592,67.52924],[48.14954,67.52816],[48.15422,67.52633],[48.17691,67.5229],[48.18569,67.5241],[48.20711,67.52232],[48.2237,67.52274],[48.23764,67.52496],[48.29433,67.53801],[48.3025,67.54108],[48.3135,67.54192],[48.34108,67.54313],[48.36587,67.54133],[48.38021,67.54144],[48.39394,67.53924],[48.41903,67.53817],[48.43744,67.54014],[48.44139,67.53868],[48.45312,67.53757],[48.49273,67.54878],[48.51455,67.55858],[48.54447,67.5627],[48.55632,67.56549],[48.57476,67.5665],[48.58712,67.57061],[48.58955,67.57287],[48.58928,67.57393],[48.59289,67.57483],[48.62989,67.57553],[48.65999,67.57327],[48.66085,67.57278],[48.65981,67.57113],[48.66415,67.57034],[48.69525,67.57014],[48.71105,67.57357],[48.71931,67.57988],[48.72442,67.58201],[48.74994,67.5884],[48.76257,67.59313],[48.81045,67.60202],[48.82503,67.60276],[48.83305,67.60424],[48.83821,67.60686],[48.85128,67.60748],[48.86173,67.6098],[48.91339,67.62862],[48.94623,67.63402],[48.96139,67.64084],[48.97269,67.64383],[48.98928,67.64609],[48.9976,67.65043],[49.03078,67.6566],[49.03685,67.65919],[49.04754,67.65415],[49.04815,67.65293],[49.04658,67.65171],[49.04514,67.648],[49.05058,67.64327],[49.09494,67.62688],[49.1354,67.58756],[49.14002,67.58468],[49.14038,67.5819],[49.11754,67.56883],[49.11256,67.56197],[49.11729,67.55417],[49.13601,67.54726],[49.14099,67.54359],[49.14972,67.52801],[49.15573,67.5222],[49.15184,67.51665],[49.15275,67.51449],[49.15075,67.51251],[49.15439,67.51093],[49.20799,67.50348],[49.21693,67.49428],[49.23446,67.48454],[49.24821,67.48125],[49.25267,67.47216],[49.2702,67.46689],[49.28636,67.45965],[49.2916,67.45029],[49.29145,67.44937],[49.28844,67.44838],[49.28869,67.44661],[49.33309,67.41752],[49.35594,67.40459],[49.37244,67.39276],[49.38052,67.38913],[49.38464,67.38477],[49.39324,67.37876],[49.40097,67.37677],[49.40829,67.36652],[49.4171,67.36317],[49.44493,67.36072],[49.46145,67.3576],[49.4685,67.35335],[49.46759,67.34733],[49.47749,67.33748],[49.48685,67.33504],[49.50529,67.33324],[49.52402,67.33499],[49.52808,67.33634],[49.53549,67.33369],[49.55664,67.3313],[49.56113,67.33032],[49.57,67.32409],[49.59779,67.31175],[49.61471,67.30718],[49.64035,67.30621],[49.68598,67.29677],[49.73902,67.29076],[49.75281,67.28696],[49.76022,67.27406],[49.768,67.2649],[49.7711,67.26319],[49.8098,67.25198],[49.81831,67.25097],[49.83459,67.24651],[49.85981,67.24183],[49.86886,67.23783],[49.87779,67.23565],[49.87943,67.23337],[49.89298,67.22697],[49.90944,67.22154],[49.93411,67.21137],[50.00036,67.18058],[50.00504,67.17758],[50.01323,67.16969],[50.0338,67.16236],[50.05665,67.14806],[50.0666,67.14579],[50.08041,67.13788],[50.12663,67.12105],[50.12909,67.11914],[50.14572,67.11461],[50.15145,67.11105],[50.15062,67.10922],[50.15203,67.10612],[50.18386,67.0997],[50.19474,67.1002],[50.20574,67.09775],[50.23441,67.08763],[50.28368,67.08654],[50.31001,67.08294],[50.33517,67.07651],[50.35109,67.0751],[50.38222,67.07588],[50.42914,67.07054],[50.43804,67.07095],[50.45828,67.06945],[50.49398,67.07414],[50.52077,67.07519],[50.57718,67.07323],[50.60597,67.07478],[50.66121,67.072],[50.71867,67.06174],[50.75272,67.06119],[50.80667,67.06407],[50.83066,67.06174],[50.87899,67.05951],[50.94277,67.05914],[50.9698,67.05522],[51.00561,67.04705],[51.02129,67.04742],[51.02597,67.04641],[51.03206,67.04294],[51.03967,67.04039],[51.04189,67.03728],[51.044,67.03692],[51.04552,67.03281],[51.0605,67.0255],[51.06787,67.02344],[51.08968,67.0214],[51.10493,67.02629],[51.13995,67.03098],[51.14661,67.03534],[51.18265,67.03998],[51.19769,67.03961],[51.20761,67.04082],[51.26372,67.05102],[51.29649,67.05313],[51.33331,67.05344],[51.34891,67.05523],[51.37092,67.05296],[51.39934,67.05318],[51.41407,67.05459],[51.42715,67.05396],[51.44494,67.0556],[51.45988,67.05415],[51.48309,67.06004],[51.49707,67.0613],[51.5099,67.06537],[51.51375,67.07076],[51.51764,67.07329],[51.52645,67.07479],[51.53501,67.07792],[51.5576,67.08207],[51.55855,67.08449],[51.57097,67.09204],[51.59517,67.09575],[51.60465,67.09914],[51.63477,67.10565],[51.64954,67.10621],[51.66038,67.11294],[51.67337,67.11629],[51.70717,67.12079],[51.7087,67.12159],[51.71284,67.12933],[51.71843,67.13202],[51.72381,67.13682],[51.72583,67.14142],[51.72294,67.14497],[51.72339,67.14629],[51.73014,67.14886],[51.73688,67.15408],[51.73862,67.15678],[51.73961,67.16293],[51.74267,67.16353],[51.74995,67.16801],[51.75401,67.17317],[51.75753,67.17499],[51.76659,67.1772],[51.78789,67.18733],[51.80545,67.19241],[51.81844,67.19908],[51.83353,67.20416],[51.9584,67.2265],[52.01275,67.23863],[52.01578,67.2403],[52.02228,67.24721],[52.02104,67.24976],[52.01518,67.25349],[52.01705,67.25421],[52.04107,67.25274],[52.04061,67.25451],[52.03483,67.25551],[52.03789,67.25906],[52.03638,67.26405],[52.04269,67.26753],[52.04393,67.27212],[52.05373,67.27973],[52.0551,67.28547],[52.04142,67.29724],[52.03251,67.30086],[52.04277,67.30777],[52.04824,67.31731],[52.05893,67.32081],[52.08569,67.32579],[52.10119,67.33111],[52.13747,67.3349],[52.18072,67.35175],[52.21876,67.36164],[52.22228,67.36368],[52.22467,67.3668],[52.22525,67.37323],[52.22737,67.37837],[52.22629,67.38437],[52.227,67.38755],[52.2334,67.39635],[52.23711,67.40418],[52.24548,67.41058],[52.26172,67.41631],[52.28181,67.41561],[52.31295,67.42379],[52.35569,67.43715],[52.39202,67.45031],[52.42693,67.45907],[52.46463,67.47067],[52.46728,67.47202],[52.47274,67.4784],[52.47595,67.48056],[52.47683,67.48259],[52.4836,67.4879],[52.49008,67.49152],[52.50075,67.49496],[52.51657,67.49939],[52.55467,67.5039],[52.5737,67.51943],[52.59336,67.53079],[52.59679,67.53423],[52.60039,67.54348],[52.60074,67.55233],[52.59627,67.5597],[52.59211,67.56204],[52.59059,67.5645],[52.59039,67.56633],[52.59214,67.56862],[52.61634,67.57476],[52.65224,67.58044],[52.66059,67.58494],[52.6755,67.58749],[52.68294,67.5876],[52.71192,67.58447],[52.7244,67.58488],[52.75932,67.59413],[52.80165,67.59939],[52.80553,67.60083],[52.8098,67.60647],[52.80356,67.61006],[52.77913,67.61726],[52.77342,67.62194],[52.77243,67.62426],[52.78234,67.62886],[52.80736,67.63349],[52.84251,67.63816],[52.91381,67.63933],[52.92402,67.63877],[52.934,67.63387],[52.96667,67.62742],[52.98665,67.62979],[53.01538,67.62651]],[[52.91771,67.6389],[52.89161,67.63748]],[[53.00735,67.63619],[52.99213,67.63362]],[[53.00718,67.64503],[52.99833,67.64362]],[[52.99833,67.64362],[52.9967,67.6451],[53.00541,67.64647],[53.00718,67.64503]],[[53.00555,67.63773],[52.99254,67.63567],[52.97456,67.63879],[52.97961,67.6406],[52.99833,67.64362]],[[52.99833,67.64362],[53.00555,67.63773]],[[53.00555,67.63773],[53.00735,67.63619]],[[53.00718,67.64503],[53.01506,67.63818]],[[53.01158,67.63686],[53.00735,67.63619]],[[53.01158,67.63686],[53.01197,67.63783],[53.01432,67.63777]],[[53.01158,67.63686],[53.01293,67.63453],[53.02426,67.63036],[53.02286,67.62637],[53.0153,67.6264]],[[53.01509,67.63813],[53.01432,67.63777]],[[53.01432,67.63777],[53.01512,67.63769]],[[53.01506,67.63818],[53.01509,67.63813]],[[53.01547,67.63786],[53.01506,67.63818]],[[53.01509,67.63813],[53.01512,67.63769]],[[53.01512,67.63769],[53.01523,67.63768]],[[53.01523,67.63768],[53.01547,67.63786]],[[53.01523,67.63768],[53.01687,67.63747],[53.01547,67.63786]],[[53.09794,67.66782],[53.09636,67.67053],[53.10018,67.67162],[53.11618,67.67305],[53.12446,67.67127]],[[53.36987,67.65208],[53.3751,67.65588],[53.38335,67.65899],[53.39028,67.66361],[53.40637,67.67092],[53.40861,67.67349],[53.4078,67.67732],[53.41824,67.68264],[53.44459,67.68791],[53.46693,67.69496],[53.48348,67.69628],[53.53124,67.7204],[53.5613,67.74482],[53.57106,67.75011],[53.5968,67.77049],[53.61887,67.78126],[53.62988,67.78205],[53.65671,67.79273],[53.66998,67.80211],[53.6724,67.80714],[53.68058,67.81629],[53.6801,67.81722],[53.6613,67.82279],[53.65697,67.82587],[53.62616,67.83286],[53.61973,67.83604],[53.61093,67.83726],[53.60153,67.83486]],[[56.75327,67.4247],[56.71525,67.4066],[56.67722,67.39276],[56.64775,67.37697],[56.61155,67.36511],[56.55801,67.34225],[56.53631,67.33518],[56.52945,67.3319],[56.54123,67.32224],[56.54355,67.31908],[56.55214,67.29873],[56.5603,67.28956],[56.57065,67.28171],[56.59066,67.27497],[56.59707,67.27142],[56.64053,67.22126],[56.6427,67.2172],[56.64386,67.20551]]]}},{"type":"Feature","properties":{"roadClass":"tertiary"},"geometry":{"type":"MultiLineString","coordinates":[[[53.00323,67.64254],[52.99713,67.64148],[52.99459,67.64107],[52.9932,67.64086],[52.98986,67.64035]],[[52.99217,67.64437],[52.99444,67.64474],[52.9967,67.6451]],[[53.0002,67.64041],[52.99606,67.63979],[52.99505,67.64068],[52.99459,67.64107],[52.99445,67.64119],[52.99346,67.64203],[52.9927,67.64245]],[[52.99444,67.64474],[52.99491,67.64306],[52.99631,67.64187],[52.99713,67.64148],[52.99867,67.6402]],[[53.00323,67.64254],[52.99979,67.6456]],[[53.00171,67.64073],[53.0002,67.64041]],[[53.0002,67.64041],[53.00051,67.6404],[53.00184,67.64062]],[[53.00031,67.63686],[53.00709,67.63012],[53.01977,67.63234]],[[53.00182,67.64065],[53.00461,67.64111]],[[53.00752,67.6416],[53.00701,67.64203],[53.00649,67.64249],[53.00601,67.64292],[53.00593,67.64298],[53.00586,67.64304],[53.00511,67.64371],[53.00477,67.64399],[53.00413,67.64456],[53.00242,67.64602]],[[53.00323,67.64254],[53.00534,67.64288],[53.00578,67.64296],[53.00593,67.64298],[53.0061,67.64301],[53.00894,67.64347]],[[53.00752,67.6416],[53.00505,67.64118]],[[53.00752,67.6416],[53.01048,67.64211]],[[53.01001,67.63661],[53.0085,67.63801],[53.01197,67.63783]],[[53.02345,67.63109],[53.01444,67.62871],[53.0119,67.63043]],[[53.02286,67.62637],[53.02437,67.62287],[53.04032,67.61724],[53.06259,67.61507],[53.09358,67.61084]],[[53.02372,67.631],[53.04701,67.6264]],[[53.05314,67.61595],[53.05475,67.6131],[53.05343,67.60931]],[[53.05638,67.6576],[53.06797,67.65562],[53.07609,67.65285]],[[53.06958,67.66212],[53.06624,67.66357],[53.0666,67.66531],[53.0645,67.6665]],[[53.0675,67.6613],[53.06772,67.66078]],[[53.06772,67.66078],[53.0739,67.66048]],[[53.06772,67.66078],[53.06806,67.65866],[53.07402,67.65869]],[[53.09212,67.66688],[53.08113,67.66417],[53.07721,67.66121],[53.06988,67.66224]],[[53.07432,67.66136],[53.07388,67.66041]],[[53.09138,67.66751],[53.09212,67.66688],[53.09233,67.66677]],[[53.09794,67.66782],[53.09823,67.66751],[53.10361,67.66326]],[[53.09875,67.66711],[53.10073,67.66714],[53.10514,67.66362]],[[53.09957,67.65996],[53.11766,67.66378],[53.12219,67.66321]],[[53.10999,67.66509],[53.11515,67.66449]],[[53.11167,67.67247],[53.11373,67.6752],[53.13088,67.67902],[53.13507,67.67873]],[[53.11395,67.67024],[53.12132,67.67166]],[[53.11716,67.66617],[53.11515,67.66449]],[[53.11515,67.66449],[53.11533,67.66448],[53.11702,67.6642],[53.11898,67.66386]],[[53.11702,67.6642],[53.11714,67.6637]],[[53.12945,67.67661],[53.13214,67.675]],[[53.23366,67.63161],[53.2405,67.63333]],[[54.60931,67.2611],[54.61131,67.26108],[54.61874,67.25386],[54.62858,67.24879],[54.63032,67.24577],[54.65879,67.23491],[54.67232,67.2281],[54.67257,67.22731]],[[54.66586,67.23135],[54.66672,67.22833],[54.67204,67.22638]],[[54.67204,67.22638],[54.68814,67.22982],[54.70033,67.23545],[54.70419,67.23908],[54.70904,67.24142],[54.72793,67.24817],[54.73307,67.24853],[54.7874,67.2496],[54.80558,67.24351],[54.81322,67.24211],[54.83543,67.24726],[54.83703,67.24896],[54.8417,67.25045],[54.8541,67.25099],[55.10448,67.25255],[55.1282,67.25181],[55.13958,67.25306],[55.19648,67.25322],[55.23338,67.24962],[55.25546,67.25188],[55.29713,67.25259],[55.3268,67.24915],[55.33108,67.24758],[55.3515,67.25269],[55.38511,67.25367],[55.43858,67.247],[55.45137,67.24653],[55.47491,67.2419],[55.49433,67.24117],[55.55381,67.2332],[55.62379,67.22612]],[[54.67204,67.22638],[54.67634,67.22619],[54.68173,67.2235],[54.71052,67.20422],[54.71147,67.20207],[54.71108,67.19924],[54.71228,67.19789],[54.71228,67.19311],[54.71125,67.19176],[54.71515,67.16921],[54.72828,67.16323],[54.78974,67.11058],[54.79816,67.10144],[54.80215,67.09533],[54.80286,67.09212],[54.80474,67.09034],[54.80703,67.08552],[54.80694,67.08313],[54.80861,67.08163],[54.81458,67.06869],[54.82738,67.04752],[54.82815,67.03808],[54.83421,67.03402],[54.83675,67.02939],[54.82907,66.99582]],[[54.89708,67.55752],[54.90121,67.56006],[54.8972,67.56428],[54.89831,67.56677],[54.9071,67.57285],[54.91336,67.57395],[54.91377,67.57586],[54.92052,67.57968],[54.93116,67.58457],[54.93953,67.58653],[54.95442,67.59258],[54.96296,67.59802],[54.98319,67.60277],[55.03059,67.59969],[55.08233,67.59345],[55.11865,67.59349],[55.12909,67.59105],[55.13136,67.58831],[55.13705,67.58966],[55.14658,67.58888],[55.1527,67.58984],[55.15673,67.59674],[55.17341,67.60512],[55.18022,67.60782],[55.19176,67.60993],[55.20336,67.61355],[55.20468,67.61608],[55.21103,67.6189],[55.26758,67.62578],[55.27241,67.63028],[55.28898,67.63593],[55.3078,67.64753],[55.3163,67.64906],[55.32065,67.65223],[55.33319,67.65545],[55.333,67.66069],[55.3315,67.66227],[55.33996,67.66485],[55.34203,67.66663],[55.34345,67.66947],[55.34878,67.67351],[55.35093,67.67764],[55.35552,67.68231],[55.3552,67.6837],[55.3574,67.68745],[55.37382,67.69556],[55.39001,67.70129],[55.39445,67.7045],[55.3941,67.70723],[55.38702,67.70925],[55.39056,67.71642],[55.39791,67.72268],[55.41531,67.72981],[55.43939,67.73294],[55.48464,67.73255],[55.49893,67.73392],[55.50694,67.73615],[55.52001,67.74696],[55.53398,67.7468],[55.55528,67.75396],[55.59051,67.76007],[55.60559,67.76484],[55.61054,67.76859],[55.62578,67.77566],[55.64116,67.77819],[55.65197,67.77825],[55.67041,67.78042],[55.67945,67.78456],[55.69877,67.78393],[55.6992,67.78326],[55.69777,67.78228],[55.69887,67.7821],[55.7082,67.78487],[55.7191,67.78517],[55.73697,67.78187],[55.75334,67.78304],[55.77235,67.78673],[55.80851,67.78685]],[[55.62379,67.22612],[55.62532,67.22747],[55.67504,67.23452],[55.68879,67.23779],[55.70347,67.23483],[55.73814,67.23353],[55.77795,67.23723],[55.8142,67.2433],[55.8161,67.24475],[55.81876,67.26114],[55.82164,67.2653],[55.85257,67.27339],[55.88486,67.28982],[55.89347,67.297],[55.90029,67.3046],[55.90796,67.30835],[55.92241,67.31167],[55.94924,67.31496]],[[55.62379,67.22612],[55.65527,67.22156],[55.65462,67.2198],[55.68097,67.18625],[55.67943,67.16253],[55.7003,67.16246],[55.69963,67.16344]],[[55.80851,67.78685],[55.82574,67.78821],[55.88561,67.78813],[55.9005,67.78619],[55.91983,67.77668],[55.92593,67.77475],[55.95975,67.7658],[56.0079,67.75719],[56.04613,67.74473],[56.07063,67.73485],[56.07516,67.73153],[56.08955,67.72702],[56.10102,67.72176],[56.10469,67.72152],[56.1278,67.71211],[56.1293,67.71133],[56.12914,67.71034],[56.11922,67.69742],[56.09868,67.67364],[56.09059,67.66767],[56.08969,67.66499],[56.09988,67.65997],[56.11078,67.65223],[56.11047,67.65007],[56.10485,67.64907],[56.10489,67.6478],[56.10946,67.64557],[56.12548,67.64565],[56.15458,67.64986],[56.20026,67.64997],[56.21034,67.64588],[56.24149,67.64177],[56.24464,67.64024],[56.24618,67.63853],[56.24669,67.6355],[56.24903,67.6342],[56.26418,67.63417],[56.27738,67.62966],[56.28017,67.62997],[56.27806,67.63143],[56.28109,67.63195],[56.34709,67.63244],[56.36496,67.63131],[56.37932,67.62909],[56.38578,67.63014],[56.40343,67.63006],[56.41612,67.628],[56.4283,67.62938],[56.45073,67.62134],[56.48938,67.61217],[56.49624,67.6024],[56.50366,67.59663],[56.5163,67.58918],[56.52899,67.58564],[56.53669,67.58024],[56.55179,67.57404],[56.55619,67.56942],[56.55777,67.56537],[56.5687,67.55985],[56.57403,67.55582],[56.58038,67.55335],[56.58034,67.55187],[56.57528,67.54685],[56.56172,67.53793],[56.53229,67.53365],[56.53029,67.52856],[56.53059,67.52586],[56.54277,67.51909],[56.56002,67.51734],[56.57449,67.5136],[56.58865,67.50585],[56.58933,67.50339],[56.58788,67.49909],[56.59352,67.49514],[56.59413,67.49328],[56.59262,67.49014],[56.59293,67.48658],[56.60066,67.48038],[56.60241,67.47404],[56.61079,67.46891],[56.61465,67.46352],[56.62798,67.46103],[56.63677,67.45671],[56.64176,67.45753],[56.64542,67.45672],[56.66336,67.44656],[56.67959,67.44547],[56.6815,67.44489],[56.68203,67.44329],[56.69269,67.44147],[56.70883,67.43502],[56.71442,67.43009],[56.72945,67.42762],[56.74876,67.42618],[56.75327,67.4247],[56.76508,67.44566],[56.79512,67.46021],[56.8231,67.47053],[56.85211,67.47908],[56.87708,67.48494],[56.90457,67.49474],[56.94376,67.50655],[56.98601,67.52608],[56.99009,67.5296],[57.01098,67.5361],[57.04429,67.55259],[57.06227,67.55677],[57.10701,67.57452],[57.1398,67.58381],[57.17225,67.59038],[57.1992,67.59721],[57.21307,67.59767],[57.21516,67.5988],[57.2145,67.6012],[57.21585,67.60253],[57.22643,67.60567],[57.23989,67.60721],[57.26067,67.6068],[57.26597,67.60774],[57.27565,67.61148],[57.29138,67.62319],[57.29486,67.62473],[57.34381,67.63544],[57.37506,67.6437],[57.38945,67.64534],[57.43254,67.65391],[57.44394,67.65499],[57.44937,67.65268],[57.45858,67.65182],[57.49756,67.65368],[57.53021,67.65003],[57.53742,67.64782],[57.55134,67.6492],[57.55719,67.65207],[57.56707,67.65298],[57.59469,67.66031],[57.60718,67.66188],[57.61721,67.66647],[57.62407,67.67109],[57.63475,67.67343],[57.64306,67.67706],[57.64977,67.677],[57.68506,67.68621],[57.74476,67.69212],[57.78285,67.69709],[57.78897,67.69886],[57.79977,67.70437],[57.82225,67.70997],[57.83252,67.71399],[57.83742,67.71728],[57.83888,67.71983],[57.85522,67.72389],[57.86078,67.7263],[57.86704,67.73071],[57.86821,67.73396],[57.87465,67.73975],[57.87891,67.74177],[57.88834,67.74981],[57.8955,67.75332],[57.89763,67.75551],[57.90317,67.75778],[57.91413,67.75951],[57.9144,67.765],[57.91574,67.76646],[57.92605,67.77157],[57.92796,67.77475],[57.9347,67.77869],[57.93687,67.78125],[57.9402,67.78238],[57.9406,67.78333],[57.93855,67.78548],[57.95906,67.78695],[57.97267,67.7891],[57.97639,67.79053],[57.97824,67.79293],[57.98603,67.79476],[57.98802,67.79808],[57.99098,67.7993],[57.99328,67.8019],[58.00728,67.80256],[58.00843,67.80582],[58.00711,67.81091],[58.00647,67.82826],[58.00742,67.82997],[58.00585,67.84743],[58.01026,67.8499],[58.01499,67.85458],[58.01775,67.86118],[58.01642,67.86438],[58.01769,67.86612],[58.01704,67.87066],[58.03259,67.87584],[58.04749,67.88242],[58.05259,67.88822],[58.05465,67.8947],[58.05919,67.90151]],[[55.80851,67.78685],[55.80015,67.7919],[55.79842,67.79557],[55.7916,67.80033],[55.79027,67.80395],[55.78265,67.81192],[55.77874,67.81416],[55.77794,67.81787],[55.77258,67.81956],[55.75171,67.83199],[55.75009,67.83388],[55.73962,67.83774],[55.73916,67.83956],[55.73516,67.84297],[55.72726,67.84642],[55.72027,67.85438],[55.70315,67.86351],[55.68201,67.87109],[55.66435,67.87274],[55.66631,67.87684],[55.67172,67.88102],[55.67151,67.88275],[55.66253,67.88319],[55.64998,67.87988],[55.64667,67.88133],[55.64145,67.88745],[55.63488,67.89054],[55.62666,67.89102],[55.61713,67.8944],[55.59051,67.89953],[55.56906,67.90704],[55.55803,67.90851],[55.5516,67.91136],[55.55099,67.91352],[55.54131,67.91416],[55.53309,67.91939],[55.5218,67.92008],[55.51163,67.91882],[55.49873,67.92146],[55.49761,67.92388],[55.49088,67.93078],[55.49393,67.93673],[55.48415,67.93817],[55.48094,67.94062],[55.4792,67.94417],[55.48333,67.94645],[55.48297,67.94928],[55.47729,67.95235],[55.46577,67.95351],[55.4641,67.95418],[55.46354,67.95596],[55.47414,67.96183],[55.47391,67.96547],[55.48645,67.97083],[55.48619,67.97404],[55.48458,67.97671],[55.48566,67.97949],[55.48957,67.98558],[55.49705,67.9926],[55.4983,67.99546],[55.4938,67.99804],[55.49223,68.01011],[55.48908,68.01468],[55.4896,68.01836],[55.48583,68.01939],[55.48441,68.02215],[55.47103,68.02746],[55.44836,68.03966],[55.44297,68.04148],[55.43593,68.04768],[55.42921,68.05126],[55.40463,68.05891],[55.37341,68.0749],[55.35981,68.07887],[55.35564,68.07921],[55.35574,68.07753],[55.35374,68.07724],[55.34576,68.07868],[55.34608,68.08064],[55.3482,68.08218],[55.35859,68.08623],[55.36179,68.08966],[55.36021,68.0943],[55.35541,68.09964],[55.35084,68.10276],[55.34369,68.10556],[55.33146,68.11359],[55.3262,68.1175],[55.3221,68.12241],[55.3235,68.12894],[55.3315,68.14255],[55.33179,68.14736],[55.32785,68.15307],[55.33002,68.16116],[55.33002,68.1659],[55.35687,68.16927],[55.37955,68.16549],[55.38377,68.16893],[55.37773,68.16997],[55.3792,68.17135],[55.38839,68.17216],[55.40257,68.1754],[55.40704,68.17533],[55.41274,68.17734],[55.43091,68.18023],[55.44417,68.18427],[55.45793,68.18524],[55.46491,68.19013],[55.55252,68.20315],[55.64117,68.21313],[55.6778,68.22161],[55.72531,68.22594],[55.73604,68.22803],[55.76573,68.22982],[55.79153,68.23336],[55.85149,68.23463],[55.86078,68.2369],[55.87735,68.23818],[55.91404,68.23987],[55.95933,68.2436],[55.96913,68.24307],[55.97254,68.24436],[55.97596,68.2477],[55.98019,68.24887],[55.99641,68.25006],[56.01157,68.24974],[56.01582,68.25043],[56.01406,68.25213],[56.01472,68.25295],[56.04347,68.25552],[56.05802,68.25228],[56.08751,68.25917],[56.16529,68.26238],[56.24587,68.27528],[56.33251,68.2816],[56.3511,68.285],[56.37944,68.28634],[56.40554,68.28996],[56.4275,68.29093],[56.47303,68.29868],[56.4978,68.30649],[56.5474,68.31697],[56.56155,68.31603],[56.57546,68.31971],[56.597,68.31985],[56.62982,68.3259],[56.64648,68.32579],[56.69232,68.33009],[56.69932,68.32956],[56.70916,68.33251],[56.74709,68.33635],[56.88193,68.33571],[56.89931,68.33915],[56.94374,68.34176],[56.95269,68.34043],[56.95805,68.33632],[56.96191,68.33523],[56.9903,68.3363],[56.99347,68.33736],[56.99487,68.34201],[56.98901,68.34721],[56.99137,68.34961],[57.01519,68.35492],[57.07434,68.37395],[57.1163,68.38315],[57.12681,68.38325],[57.14025,68.3861],[57.14584,68.38912],[57.1702,68.39009],[57.1861,68.39605],[57.1965,68.39815],[57.23741,68.40085],[57.26654,68.40902],[57.28923,68.41239],[57.28833,68.41397],[57.30191,68.41668],[57.3224,68.42823],[57.32927,68.42946],[57.34234,68.43511],[57.35085,68.4369],[57.36054,68.43785],[57.3703,68.4373],[57.39677,68.44009],[57.40301,68.44267],[57.41816,68.44331],[57.44453,68.45119],[57.46701,68.46249],[57.48391,68.46688],[57.50008,68.47273],[57.51886,68.47719],[57.54056,68.48049],[57.58432,68.50047]],[[56.49004,67.18876],[56.49238,67.19179],[56.499,67.1938]],[[56.6679,67.16992],[56.67505,67.1715],[56.68304,67.17052],[56.69649,67.17241]],[[56.69313,67.17192],[56.68838,67.1698],[56.68426,67.16496]],[[56.68652,67.18452],[56.73305,67.18854],[56.77062,67.19974],[56.77029,67.21156],[56.76185,67.21432]],[[56.69206,67.1715],[56.69173,67.17172]],[[57.98213,68.6186],[57.95634,68.62302],[57.94485,68.62868],[57.94296,68.63488],[57.92593,68.64098],[57.91588,68.65024],[57.89847,68.66017],[57.90555,68.66387],[57.90571,68.67179],[57.90075,68.6732]],[[58.07127,68.56634],[58.04321,68.58409],[58.02534,68.59526],[58.01453,68.60209],[58.01118,68.61089],[58.01157,68.6184],[57.98213,68.6186],[57.98208,68.61743]],[[57.99386,68.61852],[57.99409,68.62376],[57.98901,68.62469],[57.97861,68.62971],[57.97803,68.63254],[57.9803,68.63418],[57.99141,68.63688],[58.01018,68.64369],[58.04417,68.65885],[58.04535,68.65906],[58.04785,68.65926],[58.04844,68.65936],[58.04915,68.65947],[58.05263,68.66068],[58.06548,68.6669],[58.06743,68.66845],[58.06748,68.66848],[58.06839,68.66911],[58.07028,68.67016],[58.07193,68.67115],[58.07258,68.67155],[58.07475,68.67308],[58.07815,68.67438],[58.08498,68.67945],[58.0859,68.68093],[58.0864,68.68231],[58.08659,68.68259],[58.08699,68.68323],[58.08994,68.6861],[58.09048,68.68709],[58.09122,68.68789],[58.09127,68.68795],[58.09499,68.69165],[58.09991,68.6946],[58.09732,68.69854],[58.10227,68.70047],[58.10182,68.70251],[58.10477,68.70591],[58.11166,68.71186],[58.11241,68.71272],[58.11285,68.71365],[58.11295,68.71387],[58.11345,68.71455],[58.11801,68.71897],[58.12082,68.72043],[58.11999,68.7234],[58.12579,68.72748],[58.12708,68.72932],[58.12678,68.73108],[58.12833,68.73156],[58.13006,68.73152],[58.13083,68.7315],[58.13877,68.7332],[58.14576,68.73729],[58.16207,68.74133],[58.16287,68.74159],[58.16325,68.74179],[58.16435,68.74235],[58.16862,68.74703],[58.16718,68.74809],[58.16757,68.74904],[58.17729,68.75565],[58.17485,68.75985],[58.18284,68.76372],[58.18562,68.76476],[58.18673,68.76511],[58.19046,68.76628],[58.1909,68.76649],[58.19167,68.76701],[58.19202,68.76874],[58.19305,68.77011],[58.20847,68.77474],[58.20941,68.77545],[58.21298,68.7766],[58.21506,68.77828],[58.2138,68.78248],[58.20428,68.78495],[58.19987,68.78477],[58.19466,68.78276],[58.18855,68.78387],[58.17476,68.78785],[58.17237,68.79126],[58.16671,68.79368],[58.15162,68.79633],[58.14179,68.80102],[58.14032,68.80446],[58.13463,68.80566],[58.12848,68.81386],[58.1241,68.81578],[58.11639,68.81652],[58.10875,68.81902],[58.08445,68.8292]],[[58.43728,68.3684],[58.44841,68.3729],[58.44472,68.37969],[58.43543,68.38412],[58.43605,68.38586],[58.43964,68.38794],[58.43743,68.39436],[58.44304,68.39879],[58.44276,68.40072],[58.43216,68.40676],[58.41166,68.41381],[58.40982,68.41532],[58.40862,68.41871],[58.40725,68.42769],[58.4025,68.43058],[58.40139,68.43239],[58.40424,68.43632],[58.40145,68.43741],[58.38952,68.4383],[58.38591,68.4402],[58.38154,68.44526],[58.38117,68.44784],[58.38279,68.45074],[58.39441,68.46021],[58.406,68.46044],[58.41474,68.46195],[58.40669,68.468],[58.40658,68.47247],[58.40563,68.47307],[58.36804,68.4876],[58.35744,68.48991],[58.35572,68.49462],[58.34572,68.50354],[58.32105,68.51581],[58.30841,68.51933],[58.29519,68.5208],[58.27689,68.51862],[58.24653,68.51882],[58.24056,68.52076],[58.22548,68.52212],[58.20761,68.52615],[58.20662,68.52705],[58.20924,68.52995],[58.20786,68.53047],[58.19904,68.53099],[58.18578,68.52983],[58.17097,68.5308],[58.15954,68.54174],[58.16121,68.54304],[58.16606,68.54384],[58.16831,68.54655],[58.17685,68.55041],[58.17569,68.55313],[58.18301,68.55739],[58.22299,68.56118],[58.24541,68.5706],[58.24222,68.57535],[58.23743,68.57689],[58.23619,68.57936],[58.21857,68.58366],[58.20303,68.58488],[58.18887,68.58746],[58.18151,68.58986],[58.16473,68.5899],[58.14484,68.59222],[58.11829,68.59963],[58.11654,68.60154],[58.11811,68.60421],[58.11681,68.60474],[58.06439,68.59703],[58.03049,68.59479],[58.02534,68.59526]],[[58.03648,68.65542],[58.04809,68.65921],[58.04844,68.65936],[58.0503,68.66013],[58.0524,68.66108],[58.0547,68.66241]],[[58.07631,68.56723],[58.07127,68.56634],[58.0674,68.56552],[58.05561,68.56467],[58.05384,68.56241],[58.05814,68.56144],[58.05911,68.56247]],[[58.05919,67.90151],[58.0659,67.90839],[58.08355,67.91514],[58.08972,67.91982],[58.1046,67.92493],[58.11149,67.93156],[58.11169,67.93637],[58.12361,67.94377],[58.12775,67.94954],[58.12392,67.95281],[58.10864,67.95783],[58.10563,67.96112],[58.10534,67.96379],[58.10123,67.96781],[58.09364,67.97111],[58.08907,67.97462],[58.08721,67.97891],[58.08759,67.98298],[58.07889,67.99082],[58.06244,67.99885],[58.05437,68.0078],[58.04787,68.01048],[58.04898,68.01615],[58.04651,68.02248],[58.03933,68.02735],[58.04148,68.03406],[58.0408,68.04054],[58.04298,68.04473],[58.04084,68.04905],[58.0403,68.05385],[58.03664,68.06123],[58.03851,68.06615],[58.03785,68.07401],[58.07006,68.08238],[58.07704,68.08587],[58.08225,68.09088],[58.08722,68.09341],[58.09549,68.09288],[58.11733,68.09451],[58.13179,68.09751],[58.15338,68.09701],[58.16978,68.09923],[58.17788,68.10549],[58.19047,68.1072],[58.20137,68.11136],[58.20918,68.1122],[58.24744,68.12272],[58.25099,68.12545],[58.25011,68.12968],[58.26859,68.13527],[58.27007,68.13915],[58.2734,68.14139],[58.2785,68.15096],[58.29606,68.15865],[58.29596,68.16117],[58.29292,68.16391],[58.29795,68.16977],[58.29933,68.17341],[58.29858,68.17626],[58.30042,68.17793],[58.30786,68.18137],[58.32628,68.18265],[58.33344,68.18535],[58.33469,68.18992],[58.34298,68.19501],[58.36084,68.19978],[58.3739,68.20201],[58.37457,68.20445],[58.37648,68.20595],[58.37613,68.20695],[58.36203,68.20931],[58.34899,68.21316],[58.35002,68.22212],[58.3377,68.23013],[58.33822,68.24223],[58.33911,68.24405],[58.33253,68.25366],[58.33377,68.26013],[58.33528,68.26163],[58.3343,68.26381],[58.33565,68.26623],[58.33438,68.2703],[58.33802,68.27643],[58.33708,68.27796],[58.34194,68.28904],[58.33897,68.29242],[58.3393,68.29347],[58.34123,68.29503],[58.34768,68.29603],[58.34946,68.29933],[58.35503,68.305],[58.36254,68.30742],[58.3632,68.30806],[58.36457,68.30903],[58.36587,68.30982],[58.37587,68.32041],[58.38633,68.32297],[58.40931,68.32142],[58.42315,68.32559],[58.42357,68.32754],[58.42763,68.33056],[58.42712,68.33207],[58.42986,68.33515],[58.43126,68.34203],[58.43887,68.34956],[58.442,68.35486],[58.43694,68.3569],[58.43496,68.35928],[58.43985,68.3625],[58.43665,68.36629],[58.43624,68.36775],[58.43728,68.3684]],[[58.05919,67.90151],[58.08638,67.89916],[58.1056,67.89409],[58.12329,67.89273],[58.13116,67.89018],[58.13839,67.88565],[58.15316,67.88334],[58.16879,67.88558],[58.18628,67.88567],[58.20749,67.87715],[58.21872,67.87535],[58.23788,67.86782],[58.24766,67.86611],[58.24851,67.86569],[58.24835,67.86346],[58.25261,67.86061],[58.32708,67.8384],[58.32916,67.83605],[58.32448,67.83255],[58.32512,67.83205],[58.33645,67.8325],[58.34669,67.8297],[58.38302,67.82622],[58.41205,67.82141]],[[58.05953,68.66454],[58.06493,68.66756],[58.06748,68.66848],[58.06815,68.66872],[58.06946,68.66921],[58.07021,68.66963],[58.07193,68.67115],[58.07351,68.67254],[58.07817,68.6756],[58.08375,68.68],[58.08609,68.68213],[58.08659,68.68259],[58.08735,68.6833],[58.09003,68.68579],[58.09043,68.68626],[58.09122,68.68789],[58.09141,68.68828],[58.09355,68.69028]],[[58.09991,68.6946],[58.09495,68.69606],[58.094,68.69889],[58.09087,68.7014],[58.10053,68.70383],[58.10546,68.70656]],[[58.11166,68.71186],[58.11289,68.71297],[58.11291,68.71352],[58.11285,68.71365],[58.11227,68.71496],[58.11166,68.71652],[58.11179,68.71717],[58.1149,68.71909],[58.11817,68.71952],[58.11982,68.71994],[58.12082,68.72043],[58.12149,68.72076],[58.12904,68.72839],[58.1299,68.73092],[58.13006,68.73152],[58.13018,68.732],[58.13049,68.73314],[58.13121,68.73373],[58.14061,68.73664],[58.15823,68.74045],[58.16193,68.74139],[58.16325,68.74179],[58.16482,68.74226],[58.17374,68.74476],[58.18589,68.7473],[58.18855,68.74971],[58.18608,68.75171],[58.18642,68.75584],[58.19299,68.7597],[58.19262,68.76106],[58.18673,68.76511],[58.18732,68.76565],[58.18917,68.76674],[58.19202,68.76874],[58.19303,68.76932],[58.20651,68.77378],[58.20829,68.77446],[58.20931,68.77537]],[[58.21298,68.7766],[58.21893,68.77874],[58.215,68.78263],[58.21111,68.78323]],[[58.3632,68.30806],[58.33432,68.31305],[58.32677,68.31255]],[[58.42285,68.29347],[58.41529,68.29344],[58.41235,68.29157],[58.35071,68.29233],[58.3465,68.2958]],[[58.36411,68.30867],[58.37403,68.30435],[58.37913,68.30444],[58.37969,68.30554]],[[58.36555,67.80945],[58.41205,67.82141]],[[58.36889,68.2921],[58.36858,68.29107]],[[58.38633,68.32297],[58.40056,68.32417],[58.37542,68.33544],[58.37486,68.33668],[58.37877,68.34204],[58.39016,68.34919],[58.40694,68.35007],[58.40654,68.35176],[58.42053,68.35884],[58.42166,68.3606],[58.43055,68.36633],[58.43728,68.3684]],[[58.41205,67.82141],[58.41874,67.82344],[58.41819,67.82748],[58.44258,67.82829],[58.45191,67.82958],[58.53168,67.84939],[58.56112,67.85074],[58.5721,67.85283],[58.58229,67.85275],[58.59717,67.8554],[58.60014,67.86009],[58.62069,67.86466],[58.6885,67.85554],[58.71498,67.85822],[58.73804,67.85647],[58.75716,67.85755],[58.81557,67.85357],[58.82669,67.8545],[58.83921,67.85317],[58.91549,67.84003],[58.91609,67.83918],[58.91987,67.8391],[58.92011,67.83524],[58.92844,67.83499],[58.92842,67.83251],[58.92509,67.83233],[58.92631,67.82018],[58.91872,67.82007],[58.89666,67.8155],[58.89896,67.81439]],[[58.91987,67.8391],[58.92028,67.8433],[58.91386,67.84347],[58.89245,67.85605],[58.88457,67.86246],[58.8893,67.891],[58.88958,67.9209],[58.88837,67.94822],[58.88912,67.94937],[58.90639,67.95666],[58.92382,67.95994],[58.92592,67.96139],[58.92728,67.96624],[58.92963,67.96735],[58.95965,67.97614],[58.9766,67.97961],[58.97586,67.98175],[58.97721,67.98241],[58.99697,67.98257],[59.00041,67.98358],[59.00965,67.98923],[59.02517,67.99326],[59.10452,67.99206],[59.13441,67.99509]],[[61.42977,68.75656],[61.42424,68.75227],[61.42959,68.74631],[61.43557,68.74181],[61.4582,68.72635],[61.46394,68.72381],[61.46173,68.71976],[61.46249,68.71628],[61.46911,68.71196],[61.47907,68.7101],[61.48632,68.70729],[61.48556,68.70248],[61.48903,68.69955],[61.49351,68.69836],[61.51513,68.68012],[61.51866,68.67522],[61.51828,68.67325],[61.51563,68.67045],[61.51544,68.66621],[61.51759,68.66263],[61.51992,68.66052],[61.52698,68.65777],[61.53372,68.65171],[61.53183,68.6485],[61.53757,68.6428],[61.54375,68.63964],[61.55112,68.62953],[61.54986,68.62691],[61.55692,68.6217],[61.55894,68.6177],[61.56171,68.6154],[61.57262,68.61007],[61.57955,68.60823],[61.62324,68.60565],[61.63647,68.60165],[61.64631,68.60158],[61.65873,68.59666],[61.66484,68.59286],[61.67014,68.58789],[61.68716,68.58304],[61.698,68.58168],[61.69926,68.58011],[61.69617,68.57864],[61.69478,68.57574],[61.6917,68.57454],[61.68905,68.56685],[61.68457,68.56111],[61.66705,68.54957],[61.66137,68.54703],[61.64606,68.53587],[61.64467,68.53388],[61.62027,68.52936],[61.60483,68.51969],[61.59355,68.50808],[61.56474,68.49778],[61.55995,68.49879],[61.55213,68.49678],[61.54526,68.49267],[61.5394,68.48567],[61.54053,68.48333],[61.55308,68.47582],[61.5764,68.46915],[61.62292,68.45971],[61.66919,68.45587],[61.67902,68.45349],[61.69239,68.44527],[61.69838,68.44406],[61.75372,68.45117],[61.76797,68.4568],[61.76715,68.45913],[61.76123,68.46552],[61.76299,68.46932],[61.76835,68.47094],[61.78858,68.47061],[61.80592,68.47218],[61.81815,68.48093],[61.82357,68.48354],[61.83195,68.4853],[61.84683,68.48504],[61.88054,68.47287],[61.89387,68.47069],[61.90051,68.47099],[61.90532,68.47257],[61.91321,68.478],[61.91954,68.4851],[61.93202,68.48984],[61.94237,68.4911],[61.97063,68.48742],[61.99238,68.4834],[61.99652,68.48211],[62.00312,68.47751],[62.00241,68.47442],[61.99775,68.46848],[61.99794,68.46323],[62.00071,68.46124],[62.01448,68.46027],[62.03941,68.46081],[62.04676,68.4591],[62.04824,68.458],[62.0483,68.45588],[62.04471,68.45207],[62.04269,68.44517],[62.04392,68.44316],[62.05218,68.4385],[62.05823,68.43679],[62.068,68.4363],[62.09007,68.44322],[62.09372,68.44334],[62.10084,68.44126],[62.10271,68.4393],[62.10258,68.43357],[62.10427,68.43167],[62.12888,68.42219],[62.12839,68.41796],[62.11693,68.40834],[62.11555,68.40391],[62.11925,68.39887],[62.12906,68.39483],[62.14622,68.39178],[62.17216,68.39019],[62.18192,68.38835],[62.18705,68.3795],[62.19195,68.3782],[62.21914,68.37612],[62.23786,68.37226],[62.24134,68.36964],[62.24713,68.36189],[62.25476,68.36049],[62.29251,68.36335],[62.31975,68.36013],[62.34257,68.36328],[62.36557,68.36414],[62.37069,68.36412],[62.37457,68.36342],[62.401,68.35567],[62.40658,68.35187],[62.41255,68.34331],[62.42142,68.33776],[62.43822,68.33278],[62.47822,68.32618],[62.50482,68.31782],[62.51012,68.31514],[62.51402,68.30682],[62.53079,68.29981],[62.52978,68.29689],[62.52266,68.29316],[62.51724,68.28801],[62.51213,68.28586],[62.5139,68.28467],[62.54119,68.28255],[62.5671,68.2844],[62.57385,68.28311],[62.57523,68.28181],[62.57334,68.27835],[62.56937,68.27609],[62.54504,68.27196],[62.53577,68.26925],[62.53476,68.26734],[62.53552,68.26531],[62.56395,68.25531],[62.56597,68.25324],[62.56344,68.24814],[62.5637,68.24644],[62.56742,68.24055],[62.56943,68.23291],[62.58797,68.22299],[62.59597,68.21319],[62.59698,68.21118],[62.5949,68.20699],[62.58179,68.20166],[62.57965,68.19796],[62.58532,68.19503],[62.58998,68.19402],[62.60511,68.19337],[62.61154,68.18936],[62.6111,68.188],[62.60902,68.18718],[62.59629,68.18402],[62.5932,68.1818],[62.5937,68.18095],[62.62138,68.17774],[62.63997,68.17123],[62.64111,68.16963],[62.6406,68.16736],[62.63701,68.16204],[62.63877,68.15836],[62.63937,68.14938],[62.63723,68.14511],[62.63449,68.14362],[62.62614,68.13528],[62.62961,68.13297],[62.64052,68.13051],[62.6472,68.12497],[62.65804,68.1218],[62.65937,68.11848],[62.65628,68.11404],[62.65899,68.1101],[62.65659,68.10546],[62.65722,68.10415],[62.67386,68.10048],[62.683,68.09658],[62.68893,68.09147],[62.68918,68.08439],[62.69057,68.08225],[62.69668,68.08009],[62.70759,68.07865],[62.71925,68.0707],[62.72467,68.06455],[62.74062,68.05817],[62.74239,68.0565],[62.74384,68.05242],[62.7461,68.05101],[62.76596,68.05289],[62.80372,68.04787],[62.81576,68.0445],[62.81948,68.04229],[62.81778,68.04042],[62.81084,68.03856],[62.79288,68.04233],[62.78613,68.04106],[62.78569,68.03903],[62.79294,68.03182],[62.79402,68.02732],[62.78964,68.0233],[62.77832,68.01853],[62.77685,68.01815],[62.77463,68.01813],[62.77111,68.0181],[62.76689,68.01855],[62.76607,68.01834],[62.76827,68.01723],[62.76695,68.01449],[62.77079,68.00729],[62.76701,68.00429],[62.76796,68.00099],[62.76562,67.99796],[62.76613,67.99435],[62.76985,67.99119],[62.77798,67.98953],[62.77615,67.98693],[62.78019,67.98178],[62.79147,67.97767],[62.79796,67.9736],[62.80162,67.96965],[62.80137,67.96672],[62.80685,67.96185],[62.80742,67.95939],[62.81341,67.95702],[62.8233,67.94986],[62.82564,67.94683],[62.83282,67.94441],[62.84921,67.93568],[62.85489,67.93485],[62.8615,67.93155],[62.87298,67.92959],[62.88051,67.92614],[62.88874,67.9266],[62.90191,67.92438],[62.90481,67.92225],[62.90752,67.9176],[62.91357,67.91504],[62.91887,67.91094],[62.92265,67.90622],[62.93551,67.89553],[62.95568,67.8867],[62.95877,67.88449],[62.96003,67.8811],[62.96886,67.87512],[62.97087,67.87168],[62.97314,67.87037],[62.97371,67.86809],[62.98285,67.86035],[62.98329,67.85039],[62.98607,67.84621],[62.99426,67.84345],[62.99357,67.84098],[62.99546,67.83753],[62.99432,67.83517],[63.00473,67.8288],[63.00737,67.82578],[63.015,67.82238],[63.03089,67.82062],[63.03902,67.81819],[63.05812,67.81002],[63.08251,67.80321],[63.08938,67.80033],[63.10464,67.79643],[63.11731,67.79492],[63.12237,67.79245],[63.12494,67.78851],[63.14738,67.78151],[63.17291,67.78046],[63.22176,67.77178],[63.23632,67.7698],[63.25297,67.76928],[63.29989,67.7581],[63.30688,67.75737],[63.32056,67.75305],[63.32895,67.75251],[63.34484,67.75434],[63.36567,67.7541],[63.371,67.75304],[63.37279,67.74939],[63.38271,67.74453],[63.38435,67.74267],[63.3823,67.73989],[63.38729,67.73539],[63.39212,67.73477],[63.39515,67.73231],[63.40127,67.73192],[63.40375,67.72816],[63.40668,67.72627],[63.4144,67.72426],[63.42734,67.72363],[63.43117,67.72116],[63.44655,67.71773],[63.44566,67.71486],[63.44865,67.71271],[63.46038,67.70916],[63.46096,67.70741],[63.45897,67.70663],[63.45708,67.70288],[63.46382,67.69971],[63.464,67.69832],[63.46737,67.69569],[63.47173,67.69436],[63.47165,67.69202],[63.47277,67.69129],[63.49501,67.6861],[63.50248,67.68237],[63.51159,67.68032],[63.51496,67.67633],[63.52306,67.67236],[63.53651,67.67103],[63.55436,67.67138],[63.57707,67.67006],[63.60282,67.66592],[63.64095,67.65758],[63.65572,67.65728],[63.66629,67.65494],[63.68886,67.65222],[63.68865,67.64951],[63.69106,67.64606],[63.71459,67.63398],[63.72293,67.62531],[63.73072,67.6218],[63.74223,67.61413],[63.74798,67.61188],[63.75228,67.61189],[63.75228,67.60962],[63.75425,67.6076],[63.76384,67.60364],[63.78086,67.59249],[63.78015,67.58896],[63.7705,67.58567]],[[62.37069,68.36412],[62.3947,68.35371],[62.40114,68.34835],[62.40646,68.33791],[62.41213,68.33403],[62.4326,68.32872],[62.45869,68.32496],[62.46384,68.32323],[62.46582,68.32035],[62.47526,68.3183],[62.4786,68.31272],[62.48328,68.31077],[62.498,68.30836],[62.50169,68.30685],[62.50405,68.30429],[62.50543,68.2897],[62.50388,68.28248],[62.51384,68.2766],[62.52139,68.27056],[62.52225,68.26738],[62.52148,68.26421],[62.51504,68.25737],[62.51478,68.25473],[62.5207,68.2478],[62.52414,68.2456],[62.52294,68.23883],[62.5256,68.23374],[62.52534,68.23211],[62.52233,68.23116],[62.51392,68.2303],[62.51195,68.22358],[62.51401,68.22008],[62.51418,68.21575],[62.51929,68.21141],[62.53397,68.2071],[62.53577,68.20579],[62.5365,68.20351],[62.53547,68.2015],[62.53697,68.20042],[62.5462,68.19833],[62.54379,68.19417],[62.54379,68.19076],[62.53993,68.18357],[62.54002,68.18113],[62.5513,68.17231],[62.55229,68.16825],[62.57036,68.1612],[62.57388,68.15235],[62.5716,68.14833],[62.57177,68.14504],[62.56692,68.13863],[62.5683,68.13225],[62.5805,68.1252],[62.59893,68.11961],[62.59923,68.11781],[62.6179,68.11414],[62.62178,68.11198],[62.62178,68.10951],[62.599,68.09899],[62.5995,68.09746],[62.60812,68.09612],[62.61299,68.09658],[62.61422,68.09771],[62.61158,68.09841],[62.61402,68.10088],[62.61748,68.102],[62.62295,68.1017],[62.62765,68.09469],[62.63203,68.09088],[62.65329,68.08914],[62.65439,68.0827],[62.65668,68.08065],[62.66803,68.07549],[62.66825,68.07276],[62.67758,68.06932],[62.67988,68.06525],[62.68591,68.06462],[62.69616,68.06683],[62.70573,68.06562],[62.70788,68.06343],[62.70799,68.06052],[62.71538,68.05797],[62.72291,68.0523],[62.72929,68.04952],[62.73712,68.0412],[62.74046,68.03902],[62.75107,68.03448],[62.75973,68.0323],[62.76381,68.02825],[62.76976,68.02479],[62.7738,68.02067],[62.77517,68.01878],[62.77463,68.01813]]]}}],"provenance":{"sources":[{"id":"osm-northwestern-260916","url":"https://download.geofabrik.de/russia/northwestern-fed-district-260916.osm.pbf","snapshot":"2026-09-16T20:21:21Z","sha256":"6cc4da024338c2755a30f6db428fcd477cef2ff6d3d94cbf2b08220ffc8ab506","md5":"5f10b5777ba259e37c7461f7618c638d","bytes":653225188,"license":"ODbL-1.0","attribution":"© OpenStreetMap contributors, Geofabrik","downloadDate":"2026-09-17"}],"attribution":"© OpenStreetMap contributors, Geofabrik; ODbL-1.0","geometryMethod":"Actual OSM road ways, merged by class and endpoint, display simplification 0.0007 degrees; not routing geometry","sourceWayCount":356,"routingUse":false}}