{"type":"FeatureCollection","features":[{"type":"Feature","properties":{"roadClass":"primary"},"geometry":{"type":"MultiLineString","coordinates":[[[45.98503,56.59159],[45.974,56.5964],[45.95996,56.60522],[45.93501,56.6144],[45.90687,56.63151],[45.88925,56.63936],[45.88684,56.64171],[45.88621,56.64606]],[[45.98503,56.59159],[45.9856,56.5914],[45.98584,56.59179]],[[45.98584,56.59179],[45.98549,56.59157],[45.98503,56.59159]],[[46.51035,56.38067],[46.50081,56.38181],[46.49283,56.38599],[46.48566,56.38501],[46.46844,56.3921],[46.45869,56.39745],[46.44633,56.40067],[46.43788,56.4016],[46.42333,56.40125],[46.40104,56.40418],[46.38368,56.40447],[46.38013,56.40538],[46.36396,56.42261],[46.35369,56.42703],[46.34285,56.43366],[46.32916,56.4383],[46.28403,56.46163],[46.27574,56.47016],[46.27353,56.47872],[46.27226,56.48002],[46.25485,56.48154],[46.25061,56.48305],[46.23096,56.52154],[46.22817,56.52466],[46.14841,56.56191],[46.089,56.60911],[46.06102,56.61872],[46.03418,56.61961],[46.02489,56.6186],[46.01,56.61094],[45.98584,56.59179]],[[46.51068,56.38095],[46.51035,56.38067]],[[46.51131,56.38062],[46.51035,56.38067]],[[47.59729,56.62181],[47.55185,56.60932],[47.54697,56.6057],[47.43391,56.57362],[47.3782,56.57365],[47.34832,56.57868],[47.34488,56.57793],[47.33716,56.57239],[47.33297,56.57093],[47.31148,56.57046],[47.2262,56.58231],[47.20771,56.58097],[47.15133,56.56378],[47.1376,56.55804],[47.05195,56.52874],[47.04191,56.51691],[47.03529,56.51339],[47.03359,56.51023],[47.02323,56.50161],[47.01478,56.49116],[47.01205,56.48595],[46.99987,56.48062],[46.99597,56.47786],[46.99605,56.4742],[46.99167,56.46621],[46.97366,56.45553],[46.94555,56.44154],[46.93522,56.43998],[46.84106,56.41669],[46.78371,56.4107],[46.73993,56.40845],[46.73562,56.41029],[46.72651,56.41801],[46.70661,56.42852],[46.70503,56.43118],[46.70477,56.44085],[46.70328,56.44448],[46.65837,56.48106],[46.63273,56.4849],[46.60989,56.48528],[46.60333,56.4844],[46.5873,56.47859],[46.57062,56.4779],[46.56736,56.4763],[46.56244,56.469],[46.56628,56.45599],[46.5674,56.44619],[46.56591,56.44331],[46.56215,56.44109],[46.51744,56.42958],[46.51359,56.42708],[46.5019,56.41548],[46.50107,56.413],[46.50133,56.39166],[46.51068,56.38095]],[[46.51068,56.38095],[46.51131,56.38062]],[[46.51131,56.38062],[46.52279,56.37944],[46.5297,56.37663],[46.53148,56.37481],[46.531,56.36859],[46.53248,56.36606],[46.54286,56.36077],[46.5458,56.3637],[46.54668,56.36076]],[[46.56063,56.34565],[46.57432,56.34496],[46.5821,56.34329],[46.5745,56.33477],[46.57003,56.33223],[46.56438,56.32447],[46.55057,56.31599],[46.53965,56.31399],[46.53843,56.30538],[46.53351,56.29879],[46.53162,56.29438],[46.53189,56.29061],[46.53869,56.27824],[46.55179,56.27024],[46.56207,56.25749],[46.56136,56.2426],[46.55781,56.23748],[46.5567,56.22415],[46.55481,56.2158],[46.56004,56.2088],[46.5623,56.20362],[46.55545,56.19571],[46.5544,56.19091],[46.55604,56.1876],[46.55978,56.18503],[46.58864,56.17285],[46.59834,56.17273],[46.60837,56.16964],[46.63731,56.16622],[46.64804,56.15953],[46.66676,56.15704],[46.69478,56.14485],[46.70538,56.14397],[46.71078,56.14212],[46.72164,56.13597],[46.73623,56.12962]],[[47.59729,56.62181],[47.59774,56.62182],[47.598,56.62174]],[[47.59781,56.62195],[47.59729,56.62181]],[[47.59838,56.62211],[47.59781,56.62195]],[[47.598,56.62174],[47.59781,56.62195]],[[47.59816,56.62157],[47.598,56.62174]],[[47.59816,56.62157],[47.59838,56.62211]],[[47.85129,56.56346],[47.71182,56.56413],[47.69962,56.56508],[47.68551,56.56787],[47.67383,56.57117],[47.66454,56.5752],[47.61821,56.6028],[47.60868,56.61023],[47.59816,56.62157]],[[47.83176,56.64026],[47.74793,56.63708],[47.73329,56.63923],[47.65936,56.63868],[47.59838,56.62211]],[[47.79196,56.18767],[47.79574,56.18868]],[[47.79574,56.18868],[47.79351,56.18984]],[[48.28248,56.16811],[48.18111,56.16429],[48.17537,56.16289],[48.16244,56.15545],[48.15413,56.15264],[48.12569,56.14658],[48.1066,56.14706],[48.09972,56.14776],[48.06641,56.15811],[48.01603,56.16635],[47.97972,56.17511],[47.8941,56.18052],[47.85817,56.18172],[47.83548,56.1873],[47.79574,56.18868]],[[47.84496,56.64158],[47.83169,56.64108]],[[47.83169,56.64108],[47.83085,56.64955],[47.8409,56.6534],[47.85085,56.6516],[47.87403,56.65422],[47.89488,56.65018]],[[47.83176,56.64026],[47.83169,56.64108]],[[47.84507,56.64076],[47.83176,56.64026]],[[47.83176,56.64026],[47.8328,56.63851],[47.85189,56.62465]],[[47.84998,56.64191],[47.84496,56.64158]],[[47.84498,56.64143],[47.84496,56.64158]],[[47.84498,56.64143],[47.84561,56.64146],[47.84708,56.64152],[47.84718,56.64152],[47.84772,56.64155],[47.84949,56.64161],[47.85012,56.6418]],[[47.84507,56.64076],[47.84498,56.64143]],[[47.86112,56.63891],[47.85688,56.64111],[47.84507,56.64076]],[[47.84706,56.64166],[47.84708,56.64152]],[[47.85628,56.64438],[47.84998,56.64191]],[[47.84998,56.64191],[47.85012,56.6418]],[[47.85012,56.6418],[47.85167,56.64238],[47.85207,56.64254],[47.85241,56.64267],[47.8526,56.64274],[47.85348,56.64309],[47.85602,56.64404],[47.85651,56.64414]],[[47.85589,56.56349],[47.85129,56.56346]],[[47.86094,56.56736],[47.85878,56.56557],[47.85129,56.56346]],[[47.85129,56.56346],[47.85397,56.56311],[47.85594,56.5613]],[[47.85189,56.62465],[47.85367,56.62321]],[[47.85402,56.62337],[47.85189,56.62465]],[[47.85193,56.64265],[47.85207,56.64254]],[[47.85246,56.64285],[47.8526,56.64274]],[[47.85402,56.62337],[47.85367,56.62321]],[[47.85367,56.62321],[47.85405,56.62278]],[[47.85468,56.62294],[47.85464,56.62324],[47.85436,56.62337],[47.85419,56.62338],[47.85402,56.62337]],[[47.85405,56.62278],[47.85467,56.62255]],[[47.85405,56.62278],[47.8542,56.62277],[47.85435,56.62278],[47.85468,56.62294]],[[47.85467,56.62255],[47.85468,56.62294]],[[47.87826,56.61014],[47.86536,56.61485],[47.85467,56.62255]],[[47.85572,56.56078],[47.8574,56.56333]],[[47.85691,56.56349],[47.85589,56.56349]],[[47.85678,56.56275],[47.85488,56.56267],[47.85589,56.56349]],[[47.8569,56.64471],[47.85628,56.64438]],[[47.85628,56.64438],[47.85651,56.64414]],[[47.85651,56.64414],[47.85744,56.64444]],[[47.85846,56.64501],[47.8569,56.64471]],[[47.85744,56.64444],[47.8569,56.64471]],[[47.8574,56.56333],[47.85815,56.56428]],[[47.85819,56.56349],[47.85927,56.56276],[47.85783,56.56241],[47.8574,56.56333]],[[47.85744,56.64444],[47.85846,56.64501]],[[47.86021,56.56661],[47.85757,56.56383]],[[47.85815,56.56428],[47.86001,56.56416],[47.85839,56.56349]],[[47.85815,56.56428],[47.86021,56.56661]],[[47.87415,56.645],[47.86551,56.64638],[47.85846,56.64501]],[[47.86094,56.56736],[47.86021,56.56661]],[[47.86111,56.56752],[47.86094,56.56736]],[[47.88006,56.60922],[47.88071,56.60554],[47.88716,56.59654],[47.88748,56.59441],[47.86111,56.56752]],[[47.86456,56.56348],[47.86001,56.56521],[47.86111,56.56752]],[[47.86747,56.63796],[47.86427,56.64023],[47.86112,56.63891]],[[47.86112,56.63891],[47.86421,56.63661],[47.86747,56.63796]],[[47.86747,56.63796],[47.86968,56.6389]],[[47.86968,56.6389],[47.86996,56.63896]],[[47.87024,56.63925],[47.86968,56.6389]],[[47.86996,56.63896],[47.87048,56.639]],[[47.86996,56.63896],[47.8708,56.63884]],[[47.87118,56.64048],[47.87024,56.63925]],[[47.87024,56.63925],[47.87048,56.639]],[[47.87048,56.639],[47.8708,56.63884]],[[47.87048,56.639],[47.87079,56.63899],[47.87109,56.63905]],[[47.8708,56.63884],[47.87105,56.63871]],[[47.87105,56.63871],[47.87109,56.63905]],[[47.87876,56.63312],[47.87105,56.63871]],[[47.87109,56.63905],[47.87175,56.64037]],[[47.87183,56.64082],[47.87118,56.64048]],[[47.87175,56.64037],[47.87118,56.64048]],[[47.87175,56.64037],[47.87183,56.64082]],[[47.87183,56.64082],[47.87453,56.64484]],[[47.87415,56.645],[47.87453,56.64484]],[[47.87459,56.64494],[47.87415,56.645]],[[47.87453,56.64484],[47.87459,56.64494]],[[47.87453,56.64484],[47.87967,56.64377]],[[47.88953,56.6419],[47.87459,56.64494]],[[47.87931,56.6102],[47.87826,56.61014]],[[47.87826,56.61014],[47.87919,56.60983]],[[47.87876,56.63312],[47.87948,56.63268],[47.88295,56.63194]],[[47.88299,56.63202],[47.87876,56.63312]],[[47.87931,56.6102],[47.87919,56.60983]],[[47.87919,56.60983],[47.87938,56.60977]],[[47.87939,56.61023],[47.87931,56.6102]],[[47.87938,56.60977],[47.88006,56.60922]],[[47.87938,56.60977],[47.87953,56.60976],[47.87977,56.6098],[47.87995,56.60999]],[[47.87993,56.61009],[47.87965,56.61023],[47.87953,56.61023],[47.87939,56.61023]],[[47.87981,56.61077],[47.87939,56.61023]],[[47.87974,56.64387],[47.87967,56.64377]],[[47.87967,56.64377],[47.88448,56.64276],[47.88614,56.64243],[47.88946,56.64179]],[[47.88529,56.61834],[47.87981,56.61077]],[[47.87993,56.61009],[47.87981,56.61077]],[[47.87995,56.60999],[47.87993,56.61009]],[[47.88006,56.60922],[47.87995,56.60999]],[[47.88299,56.63202],[47.88295,56.63194]],[[47.88295,56.63194],[47.8889,56.63074]],[[47.88946,56.64179],[47.88299,56.63202]],[[47.88895,56.63081],[47.88299,56.63202]],[[47.88533,56.64274],[47.88524,56.64261]],[[47.88529,56.61834],[47.88559,56.61877]],[[47.88559,56.61877],[47.88549,56.61869],[47.88529,56.61834]],[[47.88729,56.62107],[47.88559,56.61877]],[[47.88711,56.62203],[47.88703,56.62159]],[[47.88703,56.62159],[47.88729,56.62107]],[[47.88703,56.62159],[47.88738,56.62152],[47.88772,56.62163]],[[47.88784,56.62179],[47.88758,56.622],[47.8874,56.62204],[47.88711,56.62203]],[[47.88863,56.62279],[47.88711,56.62203]],[[47.88729,56.62107],[47.88772,56.62163]],[[47.88772,56.62163],[47.88784,56.62179]],[[47.88784,56.62179],[47.88863,56.62279]],[[47.89597,56.62917],[47.89318,56.62496],[47.88863,56.62279]],[[47.88895,56.63081],[47.8889,56.63074]],[[47.8889,56.63074],[47.88963,56.63059]],[[47.88969,56.63067],[47.88895,56.63081]],[[47.88953,56.6419],[47.88946,56.64179]],[[47.88946,56.64179],[47.89618,56.6404]],[[47.88953,56.6419],[47.89488,56.65018]],[[47.89626,56.64052],[47.88953,56.6419]],[[47.88969,56.63067],[47.88963,56.63059]],[[47.88963,56.63059],[47.89364,56.62972]],[[47.8937,56.62979],[47.88969,56.63067]],[[47.8937,56.62979],[47.89364,56.62972]],[[47.89364,56.62972],[47.89597,56.62917]],[[47.89603,56.62926],[47.8937,56.62979]],[[47.91766,56.71581],[47.91509,56.71289],[47.90664,56.68658],[47.90099,56.67375],[47.90311,56.66496],[47.90249,56.66138],[47.89897,56.65203],[47.89638,56.65253],[47.89488,56.65018]],[[47.89488,56.65018],[47.90263,56.64861],[47.9133,56.64339],[47.91675,56.64354]],[[47.89603,56.62926],[47.89597,56.62917]],[[47.89597,56.62917],[47.90363,56.62754]],[[47.90362,56.628],[47.89603,56.62926]],[[47.89626,56.64052],[47.89618,56.6404]],[[47.89618,56.6404],[47.8984,56.63997]],[[47.89846,56.64006],[47.89626,56.64052]],[[47.8984,56.63997],[47.89846,56.64006]],[[47.8984,56.63997],[47.90078,56.63948]],[[47.90085,56.63959],[47.89846,56.64006]],[[47.90085,56.63959],[47.90078,56.63948]],[[47.90078,56.63948],[47.90284,56.63908]],[[47.90287,56.6392],[47.90085,56.63959]],[[47.90287,56.6392],[47.90284,56.63908]],[[47.90284,56.63908],[47.91288,56.63709]],[[47.91296,56.63721],[47.90287,56.6392]],[[47.9038,56.62804],[47.90362,56.628]],[[47.90362,56.628],[47.90363,56.62754]],[[47.90363,56.62754],[47.90383,56.6275]],[[47.90439,56.62778],[47.9042,56.62799],[47.90408,56.62803],[47.90394,56.62805],[47.9038,56.62804]],[[47.90481,56.62843],[47.9038,56.62804]],[[47.90383,56.6275],[47.90438,56.62772]],[[47.90383,56.6275],[47.90504,56.62732]],[[47.90438,56.62772],[47.90439,56.62778]],[[47.90504,56.62732],[47.90438,56.62772]],[[47.90439,56.62778],[47.90481,56.62843]],[[47.91288,56.63709],[47.90974,56.63254],[47.90481,56.62843]],[[47.93182,56.62403],[47.91872,56.62638],[47.90504,56.62732]],[[47.91296,56.63721],[47.91288,56.63709]],[[47.91288,56.63709],[47.92106,56.63554]],[[47.91675,56.64354],[47.91296,56.63721]],[[47.92114,56.63567],[47.91296,56.63721]],[[47.91675,56.64354],[47.91998,56.64323],[47.92395,56.64407]],[[47.91766,56.71581],[47.91875,56.7162]],[[47.91821,56.71634],[47.91766,56.71581]],[[47.92114,56.63567],[47.92106,56.63554]],[[47.92106,56.63554],[47.92132,56.6355]],[[47.9214,56.63562],[47.92114,56.63567]],[[47.92132,56.6355],[47.9214,56.63562]],[[47.92132,56.6355],[47.93102,56.63369],[47.93111,56.63381]],[[47.93111,56.63381],[47.9214,56.63562]],[[47.9252,56.6441],[47.92395,56.64407]],[[47.92395,56.64407],[47.92466,56.64385]],[[47.9252,56.6441],[47.92466,56.64385]],[[47.92466,56.64385],[47.92592,56.6436]],[[47.92569,56.64404],[47.92554,56.64409],[47.92538,56.6441],[47.9252,56.6441]],[[47.92592,56.6436],[47.92569,56.64404]],[[47.92687,56.64395],[47.92569,56.64404]],[[47.92592,56.6436],[47.92687,56.64395]],[[47.92687,56.64395],[47.93092,56.64442]],[[47.9323,56.64463],[47.93092,56.64442]],[[47.93092,56.64442],[47.93124,56.6444],[47.93357,56.64442],[47.93459,56.64445],[47.93742,56.64495],[47.93734,56.64586]],[[47.93111,56.63381],[47.93369,56.63765],[47.95015,56.63138],[47.95555,56.62103]],[[47.93182,56.62403],[47.9334,56.62371]],[[47.93343,56.62394],[47.93182,56.62403]],[[47.93627,56.64605],[47.9323,56.64463]],[[47.9323,56.64463],[47.93302,56.64442]],[[47.93343,56.62394],[47.9334,56.62371]],[[47.9334,56.62371],[47.93403,56.62357]],[[47.93433,56.62375],[47.93396,56.62395],[47.93343,56.62394]],[[47.93403,56.62357],[47.93509,56.62335]],[[47.93403,56.62357],[47.93412,56.62357],[47.93427,56.62361],[47.93433,56.62375]],[[47.93509,56.62335],[47.93433,56.62375]],[[47.93509,56.62335],[47.95555,56.62103]],[[47.93734,56.64586],[47.93675,56.64604],[47.93649,56.64606],[47.93627,56.64605]],[[47.93742,56.64655],[47.93627,56.64605]],[[47.93734,56.64586],[47.93742,56.64655]],[[48.01278,56.67526],[47.98929,56.66536],[47.95782,56.65509],[47.93742,56.64655]],[[47.95555,56.62103],[47.95832,56.61553],[47.96948,56.60606],[47.97456,56.59443],[47.97285,56.58417]],[[47.97012,56.58232],[47.97239,56.58218]],[[47.97206,56.58295],[47.97239,56.58218]],[[47.97285,56.58417],[47.97234,56.58363]],[[47.97239,56.58218],[47.97242,56.58197]],[[47.97242,56.58197],[47.97302,56.58283]],[[47.97242,56.58197],[47.97092,56.57087],[47.98054,56.56143],[47.98015,56.55984],[47.98642,56.55391],[47.98112,56.54521],[47.98186,56.54146]],[[47.9731,56.58361],[47.97285,56.58417]],[[47.98186,56.54146],[47.98046,56.5415]],[[47.98186,56.54146],[47.9816,56.54122]],[[47.98291,56.54085],[47.98186,56.54146]],[[48.01278,56.67526],[48.02319,56.67953],[48.04209,56.68703],[48.04649,56.68874],[48.04952,56.69003],[48.05398,56.69258]],[[48.05398,56.69258],[48.01278,56.67526]],[[48.01735,56.68067],[48.01861,56.67962],[48.02059,56.67901],[48.02063,56.67867]],[[48.02371,56.67992],[48.02091,56.68052],[48.01848,56.68047]],[[48.02149,56.67904],[48.01857,56.67982],[48.01938,56.68012]],[[48.02059,56.67988],[48.02261,56.67949]],[[48.02117,56.67869],[48.02399,56.67811],[48.02646,56.67809]],[[48.02404,56.67879],[48.02459,56.67833],[48.02207,56.67906]],[[48.02319,56.67953],[48.02626,56.67882],[48.02545,56.67852]],[[48.02758,56.67781],[48.0262,56.67902],[48.02424,56.67963],[48.02431,56.67997]],[[48.05398,56.69258],[48.09373,56.71534],[48.10388,56.7197]],[[48.10388,56.7197],[48.10585,56.72031]],[[48.23997,56.74635],[48.23902,56.74648],[48.23829,56.7467],[48.23758,56.7468],[48.23112,56.74728],[48.23011,56.74717],[48.19606,56.74302],[48.19403,56.74275],[48.19129,56.7421],[48.17318,56.73754],[48.11782,56.72359],[48.10608,56.7206],[48.10388,56.7197]],[[48.10573,56.72045],[48.10585,56.72031]],[[48.10585,56.72031],[48.10824,56.72094],[48.11347,56.72225],[48.11798,56.72341],[48.12147,56.72427],[48.12872,56.7261],[48.14691,56.73069],[48.1588,56.73371],[48.16802,56.736],[48.1762,56.73808],[48.17895,56.7388],[48.19146,56.74189],[48.19695,56.74285],[48.20233,56.74353],[48.21786,56.74542],[48.22571,56.74627],[48.23997,56.74635]],[[48.11782,56.72359],[48.11798,56.72341]],[[48.12855,56.7263],[48.12872,56.7261]],[[48.17606,56.73826],[48.1762,56.73808]],[[48.19129,56.7421],[48.19146,56.74189]],[[48.20225,56.74376],[48.20233,56.74353]],[[48.21786,56.74542],[48.21777,56.74566]],[[48.23809,56.74648],[48.23829,56.7467]],[[48.23997,56.74635],[48.26129,56.74429],[48.32734,56.74804],[48.35992,56.74438],[48.39157,56.73889],[48.40005,56.73854],[48.41068,56.73984],[48.45658,56.75008],[48.47096,56.75213],[48.4842,56.75258]],[[48.28334,56.16816],[48.28248,56.16811]],[[48.28252,56.16886],[48.28248,56.16811]],[[48.28248,56.16811],[48.28399,56.16762]],[[48.36449,55.91157],[48.36634,55.91235]],[[48.3657,55.9129],[48.36449,55.91157]],[[48.36449,55.91157],[48.35633,55.90192],[48.35663,55.89156],[48.35969,55.88638],[48.35974,55.87652],[48.36729,55.87136],[48.37177,55.8663],[48.37185,55.85977],[48.37003,55.8586]],[[48.36872,55.85673],[48.36969,55.85707]],[[48.37008,55.85839],[48.3699,55.85846],[48.36977,55.85846]],[[48.37003,55.8586],[48.36852,55.85775],[48.36821,55.8573],[48.36872,55.85673],[48.37017,55.85659]],[[48.37008,55.85839],[48.37003,55.8586]],[[48.37017,55.85659],[48.37008,55.85839]],[[48.37017,55.85659],[48.38458,55.8538],[48.38845,55.85188],[48.38797,55.84852],[48.40522,55.84543]],[[48.49118,56.75277],[48.4842,56.75258]],[[48.4842,56.75258],[48.48848,56.75256],[48.4912,56.75261],[48.4929,56.75267],[48.49571,56.75276],[48.49705,56.75281],[48.50358,56.75325]],[[48.50358,56.75325],[48.49118,56.75277]],[[48.49118,56.75277],[48.4912,56.75261]],[[48.49569,56.7529],[48.49571,56.75276]],[[48.64551,56.77499],[48.52389,56.7556],[48.50358,56.75325]],[[48.64551,56.77499],[48.65139,56.77797]],[[48.65139,56.77797],[48.65052,56.77759],[48.64551,56.77499]],[[48.65139,56.77797],[48.68193,56.79383],[48.69604,56.80863],[48.70296,56.81256],[48.72098,56.81868],[48.72729,56.81979],[48.76378,56.81939],[48.78498,56.82552],[48.80939,56.83079],[48.87946,56.85571],[48.89496,56.86325]],[[48.89551,56.86348],[48.92988,56.87518],[49.0407,56.90202],[49.07996,56.90635],[49.11109,56.91486],[49.13171,56.92355],[49.1356,56.92525],[49.1362,56.92555],[49.13678,56.92587],[49.13721,56.92612]],[[48.90801,57.23564],[48.96985,57.22815],[49.03833,57.22662],[49.05249,57.22954],[49.06252,57.22882],[49.07471,57.23487],[49.08259,57.23614],[49.09062,57.2317],[49.09607,57.21973],[49.10593,57.21557],[49.11391,57.20827],[49.11932,57.17731],[49.13355,57.15255],[49.13193,57.14638],[49.12696,57.14576],[49.12111,57.14067],[49.10296,57.10627],[49.10672,57.08207],[49.10724,57.06974],[49.10274,57.05695],[49.10371,57.04846],[49.08443,57.03565],[49.08929,57.02924],[49.1,57.02153],[49.10778,57.00914],[49.1232,57.00074],[49.13703,56.96208],[49.14247,56.95713],[49.14889,56.94879],[49.15039,56.94506],[49.13587,56.9428],[49.11953,56.93733],[49.11941,56.93312],[49.12034,56.93169],[49.12151,56.93112],[49.13455,56.927],[49.13623,56.92646],[49.13721,56.92612]],[[49.13659,56.92634],[49.13678,56.92587]],[[49.13721,56.92612],[49.14737,56.92482],[49.16631,56.92517],[49.17602,56.92091],[49.20207,56.91487],[49.20769,56.9093],[49.21345,56.896],[49.21556,56.89428],[49.22785,56.89082],[49.23746,56.88989],[49.2473,56.88465],[49.27107,56.87644],[49.29041,56.87201],[49.35213,56.85333],[49.39613,56.85081],[49.4146,56.854],[49.42993,56.85262],[49.43178,56.85293],[49.43244,56.85303],[49.46924,56.85875],[49.47087,56.85908],[49.50304,56.87403],[49.53536,56.88689],[49.54151,56.89069],[49.55381,56.90123],[49.5881,56.91486],[49.59553,56.92161],[49.59244,56.9226],[49.59218,56.92454],[49.59656,56.93135],[49.61449,56.94316],[49.61578,56.9469],[49.61096,56.96264],[49.62557,56.98818],[49.6331,56.99429],[49.63563,57.00008],[49.64529,57.0031],[49.64362,57.00757],[49.67495,57.02515],[49.68534,57.03246],[49.69251,57.03578],[49.69211,57.03882],[49.68881,57.0435],[49.69146,57.0476],[49.69428,57.05618],[49.71576,57.07171]],[[49.42993,56.85262],[49.44609,56.85309],[49.45404,56.85124],[49.46466,56.84569],[49.48519,56.84425],[49.49171,56.84093],[49.51122,56.83436],[49.51713,56.82996],[49.5264,56.82565],[49.57861,56.81061],[49.59979,56.7825],[49.60322,56.78127],[49.64073,56.77678],[49.6461,56.77365],[49.65933,56.77022],[49.66719,56.75844],[49.67779,56.75003],[49.6851,56.74718],[49.69943,56.73854],[49.71476,56.73418],[49.72624,56.72345],[49.74717,56.71768],[49.75061,56.71439],[49.77939,56.69711],[49.808,56.68118],[49.8428,56.66367],[49.84579,56.66092],[49.88278,56.6502],[49.89361,56.64971],[49.93191,56.63408],[49.93972,56.62784],[49.9565,56.6219],[49.97735,56.61118],[49.98023,56.60798],[49.98351,56.60008],[49.99266,56.59641],[49.99535,56.59196],[50.00778,56.58793],[50.03821,56.57281],[50.04752,56.56949],[50.05239,56.57316],[50.06318,56.57104],[50.07287,56.56181],[50.07265,56.5603],[50.07762,56.55919],[50.08684,56.55939],[50.10593,56.56335],[50.10875,56.56077],[50.11444,56.56029],[50.13703,56.56252],[50.15299,56.56227],[50.15857,56.56074],[50.17091,56.55329],[50.20228,56.54518],[50.23513,56.54308],[50.26035,56.53387],[50.28259,56.53189],[50.29321,56.52892]],[[49.43178,56.85293],[49.43183,56.85269]]]}},{"type":"Feature","properties":{"roadClass":"secondary"},"geometry":{"type":"MultiLineString","coordinates":[[[45.98503,56.59159],[45.98548,56.59113]],[[45.9856,56.5914],[45.98573,56.58822],[45.9913,56.58078],[46.00566,56.56827],[46.01298,56.56619],[46.01545,56.56181],[46.02087,56.54214],[46.02111,56.53438],[46.01767,56.52408],[46.01753,56.51756],[46.01793,56.51113],[46.02124,56.50459],[46.17827,56.39429],[46.18222,56.39021],[46.18519,56.38195],[46.18202,56.36731],[46.18964,56.34186],[46.20588,56.32966],[46.21686,56.31601],[46.2566,56.28971],[46.27009,56.29067],[46.282,56.30139],[46.28831,56.30505],[46.29428,56.30632],[46.29308,56.29859],[46.29513,56.29671],[46.29292,56.29126]],[[46.53965,56.31399],[46.54183,56.32527],[46.53808,56.32677],[46.54655,56.3321]],[[46.54655,56.3321],[46.54706,56.33235]],[[46.54672,56.33251],[46.54655,56.3321]],[[46.5476,56.33264],[46.54672,56.33251]],[[46.54672,56.33251],[46.54706,56.33235]],[[46.54706,56.33235],[46.5476,56.33264]],[[46.54805,56.33301],[46.54751,56.33284]],[[46.5476,56.33264],[46.54805,56.33301]],[[46.54805,56.33301],[46.55764,56.33835],[46.56931,56.33847],[46.57444,56.34336],[46.58026,56.34137]],[[46.57074,56.98347],[46.5723,56.97878],[46.57208,56.97544],[46.57319,56.97405],[46.60173,56.95302],[46.62036,56.95437],[46.65261,56.93773],[46.66324,56.94157],[46.68235,56.94214],[46.68884,56.94024],[46.76574,56.88349],[46.78784,56.85838],[46.81363,56.84605],[46.82706,56.84384],[46.8305,56.84226],[46.8328,56.83962],[46.82918,56.82154],[46.84479,56.80739],[46.84616,56.80025],[46.85691,56.7944],[46.86692,56.78501]],[[46.86692,56.78501],[46.87599,56.79072],[46.88048,56.79198],[46.89353,56.79868],[46.90093,56.79993],[46.90726,56.80334],[46.91747,56.80463],[46.92375,56.80714],[46.93156,56.81438],[46.93797,56.81657],[46.94919,56.82517],[46.95454,56.82691],[46.95851,56.8318],[46.97036,56.83873],[46.98394,56.84287],[47.00266,56.85224],[47.01342,56.85566],[47.027,56.86399],[47.03678,56.86607],[47.03828,56.86818],[47.04933,56.87447],[47.05491,56.87915],[47.05687,56.88366],[47.0735,56.89557],[47.08056,56.90549],[47.07726,56.91022],[47.08218,56.91696],[47.08131,56.91988],[47.09339,56.92559],[47.10813,56.94003],[47.10832,56.94127],[47.10301,56.94319]],[[46.86692,56.78501],[46.86413,56.78287],[46.87264,56.77839],[46.91637,56.74369],[46.93147,56.7359],[46.97034,56.7095],[46.98277,56.69549],[46.99345,56.69104],[47.00546,56.66657],[47.00527,56.66459],[46.99919,56.65815],[46.99867,56.65592],[47.00958,56.64819],[47.00854,56.63256],[47.00997,56.62993],[47.03276,56.61372],[47.04517,56.60915],[47.05184,56.60499],[47.06341,56.60187],[47.08134,56.59048],[47.11327,56.5849],[47.13313,56.57474],[47.14501,56.56656],[47.14971,56.56608],[47.1532,56.56436]],[[47.8409,56.6534],[47.79973,56.66656],[47.7893,56.67177],[47.76003,56.70954],[47.74755,56.72228],[47.70451,56.75223],[47.69094,56.76047],[47.67473,56.7662],[47.64034,56.78353],[47.63634,56.784],[47.63002,56.78866],[47.59156,56.80301],[47.54819,56.82468],[47.54156,56.83042],[47.52734,56.84785],[47.49185,56.8579],[47.44257,56.89014],[47.39476,56.90578]],[[47.8026,56.63915],[47.80459,56.62931],[47.80814,56.62841]],[[47.80814,56.62841],[47.80837,56.62844]],[[47.80831,56.62853],[47.80814,56.62841]],[[47.80882,56.62862],[47.80831,56.62853]],[[47.80831,56.62853],[47.80837,56.62844]],[[47.80837,56.62844],[47.80883,56.6285]],[[47.80883,56.6285],[47.80882,56.62862]],[[47.80938,56.62858],[47.80882,56.62862]],[[47.80883,56.6285],[47.80938,56.62858]],[[47.80938,56.62858],[47.80965,56.62859],[47.80992,56.62856],[47.81172,56.62828],[47.81929,56.62701],[47.82681,56.62563],[47.83783,56.62559],[47.86421,56.63661],[47.87422,56.62911]],[[47.85643,56.62345],[47.85436,56.62337]],[[47.85436,56.65194],[47.85491,56.65194]],[[47.85473,56.62307],[47.85643,56.62345]],[[47.85722,56.64495],[47.85486,56.65211]],[[47.87326,56.6279],[47.86796,56.62565],[47.8658,56.62732],[47.85643,56.62345]],[[47.85673,56.64408],[47.85701,56.64394]],[[47.85722,56.64495],[47.8569,56.64471]],[[47.85701,56.64394],[47.85713,56.6441]],[[47.85701,56.64394],[47.8578,56.64095]],[[47.85734,56.64457],[47.85722,56.64495]],[[47.85762,56.64484],[47.85722,56.64495]],[[47.87079,56.64056],[47.86623,56.64149],[47.86427,56.64023]],[[47.87079,56.64056],[47.87093,56.6403]],[[47.87118,56.64048],[47.87079,56.64056]],[[47.87326,56.6279],[47.87492,56.62832]],[[47.87438,56.62858],[47.87326,56.6279]],[[47.87422,56.62911],[47.87442,56.62869]],[[47.87492,56.62887],[47.87422,56.62911]],[[47.87442,56.62869],[47.87438,56.62858]],[[47.87438,56.62858],[47.87492,56.62832]],[[47.87492,56.62887],[47.87442,56.62869]],[[47.87459,56.64494],[47.87504,56.65407]],[[47.87492,56.62832],[47.87531,56.62844]],[[47.87513,56.62884],[47.87492,56.62887]],[[47.87531,56.62844],[47.87513,56.62884]],[[47.87755,56.62846],[47.87513,56.62884]],[[47.87531,56.62844],[47.87615,56.62855],[47.8775,56.62837]],[[47.8775,56.62837],[47.87797,56.62823]],[[47.8775,56.62837],[47.87758,56.62837],[47.87775,56.62838]],[[47.87775,56.62838],[47.87755,56.62846]],[[47.87801,56.62849],[47.87779,56.62846],[47.87768,56.62846],[47.87755,56.62846]],[[47.87801,56.62849],[47.87775,56.62838]],[[47.87775,56.62838],[47.87797,56.62823]],[[47.87797,56.62823],[47.87801,56.62849]],[[47.87797,56.62823],[47.88447,56.6235]],[[47.88295,56.63194],[47.8817,56.63009],[47.87801,56.62849]],[[47.87985,56.94059],[47.88064,56.9404]],[[47.88049,56.94083],[47.88064,56.9404]],[[47.88064,56.9404],[47.88482,56.92703],[47.88857,56.91993],[47.88954,56.91912],[47.89612,56.91517],[47.90026,56.90934],[47.89929,56.90549],[47.90166,56.89988]],[[47.88447,56.6235],[47.88096,56.62225]],[[47.88096,56.62225],[47.88118,56.62208]],[[47.88118,56.62208],[47.88114,56.62215],[47.88096,56.62225]],[[47.88118,56.62208],[47.88458,56.62342]],[[47.88447,56.6235],[47.88458,56.62342]],[[47.88458,56.62342],[47.8863,56.62208]],[[47.8863,56.62208],[47.88686,56.6217]],[[47.88704,56.622],[47.8863,56.62208]],[[47.88723,56.62145],[47.91351,56.61375]],[[47.89618,56.6404],[47.88969,56.63067]],[[47.89397,56.91651],[47.90497,56.92005],[47.90933,56.92505],[47.91552,56.92842],[47.94724,56.9336],[48.04635,56.9339],[48.05056,56.93353],[48.06189,56.92983],[48.07433,56.92913],[48.10403,56.93133],[48.1226,56.93438],[48.16896,56.93951],[48.17587,56.94307],[48.19771,56.96627],[48.22306,56.97772],[48.24822,56.98234],[48.31625,57.00337],[48.33647,57.00367],[48.3618,57.0073],[48.36673,57.0099],[48.38238,57.02312],[48.3856,57.03346],[48.38865,57.0383],[48.39575,57.04128],[48.43667,57.04222],[48.44127,57.04163],[48.46038,57.03379],[48.50516,57.02072],[48.51874,57.01064],[48.52786,57.0087],[48.56167,56.9976],[48.56996,56.99697],[48.58754,56.99315],[48.63894,56.99244],[48.65968,56.99468],[48.67715,56.99177],[48.69474,56.99728],[48.72119,56.98907],[48.74447,56.98544],[48.76302,56.98817],[48.77446,56.99416],[48.78317,57.00147],[48.79039,57.00332],[48.79693,57.00338],[48.81681,57.00054],[48.83227,56.99712],[48.86176,56.99887],[48.8747,56.9975],[48.88411,56.99444],[48.89993,56.99553],[48.99581,56.95363],[49.01316,56.94801],[49.06434,56.94309],[49.07699,56.9396],[49.103,56.93737],[49.10761,56.93511],[49.11941,56.93312]],[[47.90284,56.63908],[47.89603,56.62926]],[[47.89924,56.65197],[47.9032,56.65117],[47.89626,56.64052]],[[47.90166,56.89988],[47.90119,56.8995]],[[47.90166,56.89988],[47.90182,56.89947]],[[47.92766,56.62878],[47.92169,56.6204],[47.91594,56.61615],[47.91351,56.61375]],[[47.91351,56.61375],[47.92189,56.62034],[47.92319,56.62192],[47.92428,56.62354],[47.9255,56.62523],[47.92561,56.62539],[47.92591,56.62583],[47.92635,56.62647],[47.92685,56.6272],[47.92696,56.62736],[47.9271,56.62757],[47.92769,56.62842]],[[47.91784,56.63082],[47.91491,56.62655]],[[47.91527,56.62655],[47.91813,56.63076]],[[47.91559,56.64104],[47.92376,56.6395]],[[47.92106,56.63554],[47.91784,56.63082]],[[47.91784,56.63082],[47.91813,56.63076]],[[47.91813,56.63076],[47.92132,56.6355]],[[47.92376,56.6395],[47.92114,56.63567]],[[47.9214,56.63562],[47.924,56.63945]],[[47.92542,56.64338],[47.92609,56.64289],[47.92376,56.6395]],[[47.92376,56.6395],[47.924,56.63945]],[[47.924,56.63945],[47.92634,56.64288],[47.92585,56.64353]],[[47.924,56.63945],[47.93369,56.63765]],[[47.92673,56.62741],[47.92696,56.62736]],[[47.92769,56.62842],[47.92745,56.62847]],[[47.93102,56.63369],[47.92766,56.62878]],[[47.92766,56.62878],[47.92789,56.62872]],[[47.92769,56.62842],[47.92789,56.62872]],[[47.92789,56.62872],[47.93122,56.63379]],[[47.93122,56.63379],[47.93111,56.63381]],[[47.93122,56.63379],[47.93118,56.63393]],[[47.94358,56.63546],[47.9427,56.63503],[47.9399,56.63289],[47.93597,56.62801],[47.9336,56.62398]],[[47.93423,56.62386],[47.93424,56.6242],[47.93479,56.62502],[47.93515,56.62557],[47.93535,56.6259],[47.93608,56.62773],[47.93758,56.6294]],[[47.93494,56.62562],[47.93515,56.62557]],[[47.93758,56.6294],[47.93733,56.62946]],[[47.93742,56.64495],[47.93891,56.64522]],[[47.93758,56.6294],[47.94358,56.63546]],[[47.93891,56.64522],[47.93777,56.64554]],[[47.93891,56.64522],[47.95384,56.6483]],[[47.93981,56.63229],[47.93954,56.63235]],[[47.95388,56.6408],[47.94358,56.63546]],[[47.97242,56.65834],[47.96638,56.65611],[47.95384,56.6483]],[[47.95384,56.6483],[47.95388,56.6408]],[[47.97242,56.65834],[47.98031,56.65006],[47.98096,56.64797],[47.98162,56.64653],[47.9828,56.64414],[47.98099,56.64387],[47.98181,56.64231],[47.9715,56.64029],[47.95388,56.6408]],[[47.97128,56.65917],[47.97242,56.65834]],[[48.51542,56.75453],[48.51549,56.75417],[48.5156,56.75365],[48.5172,56.74515],[48.51718,56.74485],[48.50362,56.71904],[48.5107,56.70555],[48.51036,56.70011],[48.51191,56.6953],[48.48987,56.68041],[48.47317,56.66],[48.46666,56.64992],[48.46368,56.64008],[48.46523,56.63524],[48.46411,56.6304],[48.45956,56.62605],[48.45093,56.59738],[48.43391,56.58902],[48.43029,56.58536],[48.43136,56.54621],[48.39023,56.54537],[48.31936,56.54942],[48.31677,56.5506],[48.30287,56.56344],[48.29673,56.56577],[48.20373,56.57176],[48.16113,56.57052],[48.12137,56.57199],[48.08664,56.56972],[48.06822,56.56623],[48.03236,56.5665],[47.98169,56.56894],[47.97409,56.56766]],[[48.04188,56.63738],[48.03341,56.63904],[48.00238,56.65105],[47.99535,56.64725],[47.98162,56.64653]],[[48.00967,55.99259],[48.01037,55.99933],[48.00723,56.01058],[48.00745,56.01372],[48.01485,56.03392],[48.03234,56.05726],[48.0334,56.06814],[48.03718,56.07877],[48.03838,56.0908],[48.05337,56.10303],[48.05568,56.10914],[48.07928,56.14038],[48.09308,56.14965]],[[48.01033,55.99214],[48.00963,55.99216],[48.00967,55.99259]],[[48.01033,55.99214],[48.00967,55.99259]],[[48.36733,55.96715],[48.35855,55.96851],[48.34798,55.96755],[48.33502,55.96501],[48.32081,55.95842],[48.31285,55.95954],[48.29633,55.96638],[48.2911,55.96735],[48.25357,55.96746],[48.23402,55.96862],[48.19958,55.96457],[48.11741,55.97939],[48.09804,55.9785],[48.07041,55.98624],[48.02463,55.98562],[48.0158,55.99131],[48.01033,55.99214]],[[48.02505,55.98579],[48.02433,55.98585]],[[48.0425,56.63768],[48.04188,56.63738]],[[48.04256,56.63731],[48.04188,56.63738]],[[48.09308,56.14965],[48.09463,56.14972],[48.09464,56.15065],[48.09288,56.1504],[48.09308,56.14965]],[[48.09308,56.14965],[48.09378,56.15011],[48.09464,56.15065],[48.09498,56.15087],[48.10924,56.15984],[48.14321,56.18469],[48.16588,56.19096],[48.17668,56.19212],[48.23642,56.2145]],[[48.23187,56.24059],[48.2326,56.24106]],[[48.23244,56.24112],[48.23191,56.24128]],[[48.23244,56.24112],[48.23194,56.24194]],[[48.23244,56.24112],[48.2326,56.24106]],[[48.2326,56.24106],[48.24706,56.23575],[48.25387,56.23441],[48.26285,56.22469],[48.30947,56.22995],[48.36634,56.23122],[48.42303,56.24148],[48.45619,56.25199],[48.49121,56.26929],[48.52744,56.29243],[48.53708,56.30262],[48.54062,56.30461],[48.58367,56.30961],[48.63232,56.31342],[48.645,56.31714],[48.66255,56.31708],[48.67578,56.32362],[48.70808,56.33121],[48.72366,56.3399],[48.74944,56.34415],[48.75155,56.34608],[48.75152,56.35733],[48.75265,56.36044],[48.78018,56.39434],[48.79064,56.40089],[48.8134,56.41004],[48.83479,56.41365],[48.84705,56.41833],[48.85914,56.41784],[48.86858,56.41973],[48.90251,56.4309],[48.92495,56.43199],[48.94601,56.42917],[48.97148,56.42889],[48.98998,56.42375],[49.00201,56.42216],[49.01437,56.42354],[49.04066,56.41592],[49.06102,56.41203],[49.07207,56.41141],[49.10561,56.41804],[49.12327,56.42328],[49.14912,56.42655],[49.15751,56.42501],[49.21319,56.40116],[49.23186,56.39938],[49.2436,56.39944],[49.27102,56.39313],[49.2934,56.39285],[49.32378,56.40102],[49.396,56.41716],[49.4163,56.4191],[49.42801,56.42941],[49.4502,56.43991],[49.4932,56.45541],[49.50019,56.45704],[49.50775,56.465],[49.50963,56.46994],[49.51196,56.47235],[49.5094,56.47932],[49.5034,56.48868],[49.49676,56.49487],[49.49559,56.49792],[49.49991,56.50334],[49.49995,56.51093],[49.50277,56.51628],[49.50593,56.51902],[49.51884,56.52375],[49.54948,56.52288],[49.55496,56.52461],[49.55426,56.52648],[49.5561,56.53042],[49.55582,56.53237],[49.55216,56.537],[49.54289,56.54514],[49.51487,56.55893],[49.50612,56.56523],[49.50108,56.56713],[49.49787,56.5713],[49.49689,56.57443],[49.494,56.57723],[49.49799,56.58132],[49.49792,56.58451],[49.49496,56.58858],[49.48952,56.59314],[49.47846,56.59759],[49.47339,56.60088],[49.46564,56.6161],[49.46646,56.62442],[49.46063,56.63144],[49.45064,56.6375],[49.44927,56.64087],[49.44772,56.66165],[49.44514,56.66468],[49.44409,56.66836],[49.42816,56.68083],[49.42453,56.6915],[49.41016,56.69686],[49.41495,56.70041],[49.41448,56.70311],[49.41609,56.70941],[49.41496,56.71339],[49.40442,56.71854],[49.40623,56.72681],[49.3939,56.75581],[49.39289,56.77195],[49.38968,56.78151],[49.3649,56.81847],[49.36377,56.8207],[49.35248,56.85327]],[[48.23582,56.21427],[48.2368,56.21416]],[[48.23642,56.2145],[48.23685,56.21466]],[[48.23685,56.21486],[48.23642,56.2145]],[[48.35921,55.87678],[48.35253,55.88001],[48.33219,55.8677],[48.33452,55.86196],[48.34247,55.86056],[48.34547,55.86468],[48.3503,55.86765],[48.38339,55.85963],[48.38131,55.85513]],[[48.35921,55.87678],[48.35974,55.87652]],[[48.35974,55.87692],[48.35953,55.87679],[48.35942,55.87677],[48.35921,55.87678]],[[48.35944,55.88712],[48.38683,55.88092]],[[48.36733,55.96715],[48.36768,55.96661]],[[48.3679,55.96706],[48.36733,55.96715]],[[48.36809,55.9674],[48.36776,55.9672],[48.36752,55.96715],[48.36733,55.96715]],[[48.36797,55.96717],[48.36899,55.9678]],[[48.36834,55.9679],[48.36899,55.9678]],[[48.36899,55.9678],[48.36867,55.96857]],[[48.36899,55.9678],[48.37633,55.96615],[48.39047,55.9651],[48.40637,55.96607],[48.41425,55.96879],[48.4624,55.95969],[48.48678,55.96318],[48.51954,55.96558],[48.59412,55.96736],[48.60221,55.96896],[48.62266,55.97864],[48.62804,55.98661],[48.63669,55.99266],[48.63801,55.99466],[48.63894,56.00786],[48.63665,56.01206],[48.63725,56.02019],[48.62911,56.0266],[48.6241,56.03291],[48.62304,56.03567],[48.62391,56.03895],[48.62797,56.04262],[48.64793,56.05171],[48.66106,56.06183],[48.67795,56.0679],[48.68508,56.07203],[48.68844,56.07678],[48.69021,56.08949],[48.69364,56.09284],[48.69069,56.09718],[48.70212,56.10479],[48.71066,56.11215],[48.72737,56.12248],[48.77772,56.14025],[48.79106,56.15048],[48.81973,56.15267],[48.8321,56.1571],[48.85233,56.16037],[48.86634,56.16693],[48.84299,56.17919],[48.81726,56.18335],[48.80878,56.1836],[48.80247,56.19286],[48.80144,56.21379],[48.79339,56.22073],[48.80271,56.22529],[48.80007,56.23089],[48.79973,56.23493],[48.8069,56.27364],[48.80608,56.28452],[48.80783,56.29045],[48.79811,56.29715],[48.80011,56.31109],[48.79924,56.31298],[48.7681,56.33654],[48.76526,56.3428],[48.75161,56.34663]],[[48.36916,55.8691],[48.36986,55.87063],[48.37266,55.87189],[48.38457,55.87566],[48.38758,55.87991]],[[48.38683,55.88092],[48.38735,55.88065]],[[48.38748,55.88082],[48.38683,55.88092]],[[48.38748,55.88082],[48.38735,55.88065]],[[48.38735,55.88065],[48.38744,55.88053]],[[48.38744,55.88053],[48.38758,55.87991]],[[48.38744,55.88053],[48.38774,55.88047],[48.38802,55.88057]],[[48.38802,55.88057],[48.38793,55.88082],[48.3877,55.88086],[48.38748,55.88082]],[[48.38758,55.87991],[48.38802,55.88057]],[[48.51397,56.75437],[48.51549,56.75417],[48.51672,56.75468]],[[48.69426,56.99713],[48.69506,56.99699]],[[48.71404,56.81708],[48.71292,56.81602]],[[48.71404,56.81708],[48.75681,56.85999],[48.75166,56.89004],[48.75519,56.91541],[48.75822,56.92789],[48.75388,56.93559],[48.7481,56.96056],[48.74766,56.96932],[48.74695,56.97324],[48.746,56.97802],[48.74573,56.97923],[48.74458,56.98488],[48.74447,56.98544]],[[48.71465,56.8166],[48.71404,56.81708]],[[48.74371,56.98556],[48.74458,56.98488],[48.74506,56.98552]],[[48.80372,56.82952],[48.80512,56.82928]],[[48.80455,56.8297],[48.81509,56.8219],[48.81685,56.82066],[48.82016,56.81914],[48.87346,56.80821],[48.91384,56.79625],[48.93384,56.78595],[48.94189,56.77625],[48.94831,56.77157],[48.98408,56.78534],[49.05298,56.78798],[49.07343,56.7823],[49.12289,56.76182],[49.16506,56.75608],[49.28078,56.72739],[49.3326,56.7337],[49.36293,56.73905],[49.37543,56.74281],[49.39813,56.74583]],[[48.80504,56.82934],[48.80545,56.82988]],[[49.35278,56.85297],[49.35299,56.85322]],[[49.35938,56.83341],[49.36999,56.83416],[49.37324,56.83539]]]}},{"type":"Feature","properties":{"roadClass":"tertiary"},"geometry":{"type":"MultiLineString","coordinates":[[[46.06186,56.61859],[46.06203,56.62402],[46.05255,56.62916],[46.04205,56.64118],[46.03681,56.64169],[46.04064,56.67084],[46.01362,56.68657],[46.01149,56.69078],[46.00195,56.69581],[45.99157,56.70457],[45.98704,56.70678],[45.98201,56.71678],[45.96833,56.71882],[45.95246,56.71653],[45.94588,56.71414],[45.94177,56.71545],[45.92689,56.71599]],[[45.97735,56.75329],[45.97714,56.74871],[45.97071,56.74119],[45.97255,56.73646],[45.96469,56.72299],[45.96486,56.71838]],[[46.14528,56.17694],[46.14324,56.17516],[46.13259,56.17303],[46.13021,56.16745],[46.13066,56.16337],[46.13247,56.16079],[46.13185,56.15987],[46.10804,56.14876],[46.09295,56.14576],[46.07582,56.13987],[46.06669,56.14083],[46.05454,56.13832]],[[46.33547,56.22892],[46.31914,56.22262],[46.31223,56.22149],[46.2662,56.22558],[46.26329,56.22432],[46.24873,56.21117],[46.24141,56.20776],[46.2385,56.20645],[46.23819,56.20629],[46.23779,56.20611],[46.23111,56.20392],[46.21324,56.20088],[46.15577,56.19773],[46.1445,56.19019],[46.14126,56.18608],[46.14138,56.18443],[46.14408,56.18163],[46.14528,56.17694]],[[46.14528,56.17694],[46.16908,56.17066],[46.19231,56.17187],[46.24763,56.18614]],[[46.21892,56.51257],[46.23592,56.51197]],[[46.2686,56.15747],[46.26575,56.14965],[46.25914,56.14683],[46.25341,56.14279],[46.24416,56.13148],[46.24244,56.12685],[46.24822,56.12291],[46.24898,56.11971],[46.24771,56.11553],[46.24248,56.10791],[46.24007,56.10061],[46.23644,56.09754],[46.2188,56.08986],[46.22768,56.07606],[46.22713,56.06864],[46.23497,56.06172],[46.23768,56.05455]],[[46.23819,56.20629],[46.23529,56.20878],[46.23783,56.219],[46.24768,56.22735],[46.24666,56.23141],[46.2388,56.23441]],[[46.26168,56.15945],[46.2686,56.15747]],[[46.35347,56.23123],[46.35102,56.22051],[46.35107,56.21615],[46.35953,56.20454],[46.35898,56.20218],[46.33361,56.19176],[46.32027,56.18794],[46.31649,56.18649],[46.30394,56.17878],[46.30092,56.17428],[46.28964,56.16398],[46.27071,56.15938],[46.2686,56.15747]],[[46.52296,56.20139],[46.52087,56.20059],[46.51956,56.19768],[46.5061,56.19461],[46.49475,56.18637],[46.48391,56.181],[46.46906,56.17503],[46.4631,56.17385],[46.45812,56.1711],[46.45791,56.16836],[46.45021,56.16432],[46.44874,56.1606],[46.44462,56.1589],[46.43117,56.14738],[46.41877,56.14773],[46.4009,56.14553],[46.38803,56.14046],[46.37199,56.13771],[46.36836,56.13836],[46.3631,56.14126],[46.35779,56.14513],[46.35414,56.1497],[46.34819,56.17654],[46.34173,56.17982],[46.32987,56.18049],[46.32872,56.18162],[46.32849,56.18527],[46.32387,56.18893]],[[46.33547,56.22892],[46.35347,56.23123]],[[46.35363,56.23127],[46.35293,56.23367],[46.3449,56.23267],[46.33547,56.22892]],[[46.35293,56.23367],[46.35112,56.24575],[46.34553,56.25853],[46.34888,56.26193],[46.35934,56.2649]],[[46.35347,56.23123],[46.35363,56.23127]],[[46.47697,56.21799],[46.44045,56.22823],[46.40812,56.23083],[46.39574,56.2292],[46.37524,56.22965],[46.35887,56.23197],[46.35363,56.23127]],[[46.47068,56.28566],[46.47061,56.29621],[46.46636,56.29664],[46.46561,56.2946],[46.45779,56.29506]],[[46.4702,56.29645],[46.47129,56.30163],[46.48244,56.30615],[46.49027,56.30755],[46.48979,56.30856]],[[46.47697,56.21799],[46.47926,56.21996],[46.47993,56.22515],[46.47454,56.23412],[46.47726,56.25225],[46.47021,56.25991],[46.47384,56.27464],[46.47003,56.27974],[46.47068,56.28566]],[[46.53161,56.29398],[46.52779,56.29374],[46.51995,56.29061],[46.51192,56.29017],[46.50459,56.29125],[46.49331,56.2877],[46.48776,56.28763],[46.47876,56.28529],[46.47068,56.28566]],[[46.52296,56.20139],[46.50529,56.2144],[46.49602,56.21609],[46.48727,56.21592],[46.47697,56.21799]],[[46.55455,56.21499],[46.55373,56.21138],[46.55168,56.20984],[46.53728,56.2043],[46.52296,56.20139]],[[46.53274,56.28897],[46.52525,56.28815]],[[46.52631,56.37882],[46.52579,56.37855]],[[46.52659,56.37828],[46.52631,56.37882],[46.52432,56.38365],[46.5242,56.38461],[46.52797,56.38968],[46.53206,56.39294]],[[46.5361,56.33287],[46.53122,56.32906]],[[46.5361,56.33287],[46.54361,56.33682]],[[46.5361,56.33287],[46.54377,56.33034]],[[46.54054,56.31945],[46.54469,56.31985]],[[46.54183,56.32527],[46.54647,56.32947],[46.54749,56.33214]],[[46.54361,56.33682],[46.54702,56.33839],[46.55305,56.33597]],[[46.54695,56.33311],[46.54335,56.33537],[46.54361,56.33682]],[[46.54469,56.31985],[46.54534,56.31986]],[[46.54496,56.32002],[46.54469,56.31985]],[[46.55141,56.32227],[46.54822,56.32327],[46.54496,56.32002]],[[46.54496,56.32002],[46.54534,56.31986]],[[46.54534,56.31986],[46.54798,56.31909],[46.55141,56.32227]],[[46.54695,56.33311],[46.54697,56.33278]],[[46.54741,56.33286],[46.54695,56.33311]],[[46.54712,56.33235],[46.54749,56.33214]],[[46.54749,56.33214],[46.54758,56.3326]],[[46.54971,56.2717],[46.57976,56.27501],[46.59114,56.27815],[46.59951,56.28259],[46.61934,56.28736]],[[46.55141,56.32227],[46.55715,56.32052]],[[46.55508,56.21502],[46.55455,56.21499]],[[46.55481,56.2158],[46.55455,56.21499]],[[46.55754,56.2338],[46.58269,56.22893],[46.61395,56.23493],[46.65826,56.23525],[46.65667,56.23357]],[[46.5579,56.25089],[46.58163,56.25313],[46.60762,56.26129]],[[46.58211,56.33879],[46.56483,56.34476]],[[46.58211,56.33879],[46.58724,56.33127],[46.58985,56.33166],[46.58525,56.339],[46.58328,56.33966],[46.58211,56.33879]],[[46.60397,56.17145],[46.60678,56.17516],[46.6297,56.18344],[46.64412,56.19132],[46.6595,56.19391],[46.66351,56.19554],[46.66531,56.20334],[46.67882,56.21345]],[[46.60866,56.23403],[46.60731,56.23635]],[[46.68646,56.10775],[46.68192,56.10913],[46.6569,56.10336],[46.64268,56.10183]],[[46.66507,56.11199],[46.66631,56.11344],[46.66705,56.12623],[46.66099,56.12853],[46.65485,56.13451],[46.65989,56.15793],[46.68087,56.16276],[46.69795,56.16516],[46.71277,56.16784],[46.73001,56.16931],[46.75235,56.17656],[46.76982,56.17034],[46.77487,56.17435],[46.77898,56.18792],[46.78428,56.19077]],[[46.68947,56.16402],[46.68883,56.17139],[46.6911,56.19393],[46.69248,56.19634],[46.69812,56.1988],[46.71813,56.20318],[46.73114,56.2084]],[[46.77635,56.39754],[46.78388,56.40634],[46.78371,56.4107]],[[46.8328,56.83962],[46.83643,56.8428],[46.83576,56.84611],[46.84047,56.84815],[46.84535,56.85539],[46.85041,56.8563],[46.8539,56.86102],[46.86082,56.86555],[46.87104,56.86865],[46.87452,56.87276],[46.87324,56.87866],[46.87634,56.88749],[46.87362,56.89252],[46.87337,56.89598],[46.87014,56.89833],[46.87576,56.90527],[46.87608,56.91103],[46.88271,56.91969],[46.88594,56.92189]],[[46.85625,56.77821],[46.86413,56.78287]],[[46.88395,56.76935],[46.84895,56.77045],[46.84873,56.77274],[46.85377,56.77506],[46.85411,56.77693],[46.85625,56.77821]],[[46.85625,56.77821],[46.85944,56.77657]],[[46.86722,56.78129],[46.85944,56.77657]],[[46.85944,56.77657],[46.86371,56.77437],[46.8715,56.77915]],[[46.86771,56.42289],[46.87198,56.41337],[46.862,56.39967],[46.86229,56.39104],[46.86355,56.38905]],[[46.9501,56.44379],[46.96055,56.44326],[46.98145,56.43478],[46.99236,56.43254],[47.00335,56.4283],[47.0093,56.42815],[47.01982,56.43152],[47.03416,56.42878],[47.03891,56.4289],[47.05351,56.42545],[47.05906,56.42201],[47.06388,56.41502],[47.07239,56.41045],[47.07397,56.40645],[47.07348,56.40156],[47.06405,56.39937],[47.06163,56.39366],[47.06243,56.38481],[47.06125,56.38108],[47.06238,56.37562],[47.05923,56.37138],[47.06234,56.3633],[47.07069,56.3597],[47.07341,56.35745],[47.07346,56.35487],[47.07118,56.35027],[47.07283,56.34669],[47.06911,56.34179],[47.06793,56.3374],[47.06184,56.33146],[47.05738,56.32369],[47.05134,56.3208],[47.0418,56.31829],[47.04271,56.31494],[47.03696,56.3145]],[[47.06511,56.8227],[46.95522,56.82804]],[[47.28991,56.8039],[47.29668,56.81482],[47.32741,56.82522],[47.3349,56.83021],[47.37507,56.83078],[47.38712,56.83204],[47.39245,56.83491],[47.4064,56.85018],[47.40926,56.85208],[47.44619,56.86446],[47.47279,56.86994]],[[47.42674,56.18142],[47.43016,56.18119],[47.43652,56.17807],[47.4442,56.17778],[47.45792,56.17318],[47.46883,56.1732]],[[47.46947,56.17374],[47.46883,56.1732]],[[47.46883,56.1732],[47.46921,56.17257]],[[47.46883,56.1732],[47.46934,56.17318]],[[47.53158,56.84293],[47.54722,56.84975],[47.54999,56.85305],[47.57005,56.8692],[47.57318,56.87678],[47.58386,56.8841],[47.58754,56.8859],[47.59844,56.88144],[47.59959,56.88203],[47.60675,56.8898],[47.60881,56.89349],[47.63005,56.90634],[47.63657,56.91137],[47.6372,56.91442]],[[47.54819,56.82468],[47.55521,56.82888],[47.56432,56.8309]],[[47.63813,56.78368],[47.64066,56.7812]],[[47.64447,56.78146],[47.65197,56.78481],[47.65478,56.78353]],[[47.86393,56.91668],[47.85016,56.91796],[47.85027,56.91494],[47.8469,56.91205],[47.82295,56.90121],[47.81246,56.89838],[47.80312,56.89389],[47.77696,56.88602],[47.7701,56.88596],[47.73537,56.87738],[47.73143,56.87745],[47.71867,56.89637],[47.69387,56.90461],[47.69134,56.90842],[47.68255,56.91466],[47.67534,56.91644],[47.66832,56.91524],[47.66234,56.91909],[47.65272,56.91482]],[[47.67891,56.18239],[47.67937,56.18231]],[[47.67922,56.1825],[47.67937,56.18231]],[[47.67937,56.18231],[47.67953,56.18262]],[[47.67937,56.18231],[47.68147,56.1803],[47.71675,56.16686],[47.74356,56.16385]],[[47.72043,56.70797],[47.7154,56.70282],[47.70151,56.69794],[47.69519,56.69759],[47.68848,56.69212],[47.68343,56.68622],[47.68275,56.68496],[47.68356,56.6833],[47.67538,56.67931],[47.67381,56.67439],[47.66597,56.67658],[47.65713,56.67535],[47.68109,56.64493],[47.6841,56.63886]],[[47.69138,56.73311],[47.69366,56.73303],[47.69431,56.73153],[47.69571,56.72028],[47.70367,56.71137],[47.71202,56.71188],[47.7142,56.70902],[47.71844,56.70902],[47.72043,56.70797]],[[47.72043,56.70797],[47.75544,56.71436]],[[47.78692,56.63857],[47.78356,56.6427],[47.74739,56.65608],[47.73137,56.66628],[47.72488,56.67694],[47.72637,56.6772],[47.73014,56.68382]],[[47.731,56.98138],[47.75595,56.98006],[47.78985,56.97113],[47.80875,56.97418]],[[47.73475,56.63918],[47.73248,56.63523],[47.7425,56.63361],[47.76071,56.63355]],[[47.75195,56.71789],[47.76073,56.71828],[47.76411,56.71674],[47.76634,56.71721]],[[47.76071,56.63355],[47.761,56.63686]],[[47.76766,56.61593],[47.77126,56.61932],[47.76041,56.62653],[47.76071,56.63355]],[[47.761,56.63686],[47.76168,56.6372]],[[47.76119,56.63749],[47.761,56.63686]],[[47.76119,56.63749],[47.76118,56.63758]],[[47.76168,56.6372],[47.76119,56.63749]],[[47.81606,56.62178],[47.77532,56.62939],[47.77057,56.633],[47.76168,56.6372]],[[47.77178,56.81906],[47.77357,56.81761],[47.77427,56.81317],[47.7721,56.81215],[47.77411,56.80752],[47.78503,56.80867],[47.80733,56.78824],[47.80484,56.78511],[47.80779,56.78213],[47.80695,56.75293],[47.80949,56.74597],[47.81935,56.73799],[47.85472,56.7339],[47.88691,56.7273],[47.90459,56.7235],[47.92375,56.72155]],[[47.78813,56.18729],[47.79088,56.18454]],[[47.79088,56.18454],[47.79191,56.18759]],[[47.79088,56.18454],[47.79115,56.18104],[47.79444,56.17591],[47.79912,56.1713],[47.80947,56.1566],[47.81986,56.15024],[47.81957,56.14699]],[[47.80486,56.63266],[47.79445,56.63201],[47.7949,56.63445],[47.78964,56.63502],[47.79265,56.63879]],[[47.80214,56.97705],[47.80372,56.97554],[47.82042,56.97111],[47.83299,56.96866],[47.84303,56.96939],[47.86863,56.96205]],[[47.80473,56.63279],[47.80381,56.63263]],[[47.80542,56.63293],[47.80473,56.63279]],[[47.80486,56.63266],[47.80473,56.63279]],[[47.80486,56.63266],[47.80542,56.63293]],[[47.82782,56.63486],[47.80542,56.63293]],[[47.81606,56.62178],[47.81658,56.62153],[47.81818,56.62125],[47.82046,56.62085],[47.82073,56.62083]],[[47.82073,56.62083],[47.82044,56.62095],[47.81961,56.6211],[47.81837,56.62132],[47.81743,56.62149],[47.81706,56.62155],[47.81651,56.62165],[47.81606,56.62178]],[[47.81832,56.62123],[47.81837,56.62132]],[[47.81852,56.13643],[47.81746,56.14246],[47.81795,56.14431],[47.81957,56.14699]],[[47.81923,56.14632],[47.81968,56.14635]],[[47.81957,56.14699],[47.82078,56.145],[47.8308,56.13988],[47.83281,56.13604],[47.84394,56.13782],[47.84913,56.13639],[47.85498,56.13683],[47.858,56.13535],[47.85811,56.13748],[47.86306,56.14155],[47.87182,56.14228],[47.8903,56.1482],[47.89475,56.15067],[47.90235,56.16],[47.90199,56.16645],[47.89524,56.17549],[47.8941,56.18052]],[[47.82052,56.58727],[47.81781,56.58877],[47.82966,56.59689],[47.8408,56.61151],[47.83493,56.6148]],[[47.85312,56.62285],[47.83805,56.61647],[47.83351,56.6141],[47.82073,56.62083]],[[47.8342,56.63747],[47.82782,56.63486]],[[47.82782,56.63486],[47.8325,56.63136],[47.84568,56.63688]],[[47.83497,56.64446],[47.83129,56.64432]],[[47.83365,56.43455],[47.83386,56.43591]],[[47.84334,56.43432],[47.83378,56.43537]],[[47.83497,56.64446],[47.8446,56.64483]],[[47.83799,56.65094],[47.83503,56.64651],[47.83497,56.64446]],[[47.83497,56.64446],[47.83543,56.64123]],[[47.83826,56.6513],[47.83692,56.65222]],[[47.83799,56.65094],[47.83826,56.6513]],[[47.83826,56.6513],[47.83813,56.65123],[47.83799,56.65094]],[[47.84508,56.64738],[47.8446,56.64483]],[[47.8446,56.64483],[47.84496,56.64158]],[[47.84507,56.64076],[47.84568,56.63688]],[[47.84828,56.65202],[47.84508,56.64738]],[[47.84508,56.64738],[47.85698,56.64561]],[[47.84568,56.63688],[47.85267,56.63178]],[[47.8487,56.65696],[47.85318,56.6574]],[[47.85318,56.6574],[47.84996,56.66695]],[[47.86442,56.57091],[47.85231,56.57895],[47.85048,56.57871]],[[47.85312,56.62285],[47.85357,56.62285],[47.85393,56.6228]],[[47.85362,56.62313],[47.85312,56.62285]],[[47.85486,56.65211],[47.85318,56.6574]],[[47.864,56.64985],[47.8558,56.6492]],[[47.85606,56.71186],[47.86518,56.71494],[47.87783,56.7215],[47.88778,56.72458],[47.89018,56.72657]],[[47.86314,56.65307],[47.864,56.64985]],[[47.86487,56.91657],[47.86459,56.91707],[47.86393,56.91668]],[[47.86393,56.91668],[47.86436,56.91609],[47.86487,56.91657]],[[47.86393,56.91668],[47.86487,56.91657]],[[47.8749,56.65068],[47.864,56.64985]],[[47.864,56.64985],[47.8649,56.64636]],[[47.86487,56.91657],[47.8932,56.91485],[47.8944,56.91227],[47.89721,56.91269]],[[47.86605,56.64123],[47.87087,56.6402]],[[47.87955,56.62917],[47.87938,56.62929],[47.87864,56.62983],[47.87711,56.63095],[47.87613,56.63166],[47.87277,56.6341],[47.87271,56.63414],[47.87128,56.63519],[47.86747,56.63796]],[[47.88401,56.61659],[47.87765,56.61845],[47.86796,56.62565]],[[47.87172,56.64],[47.87203,56.64006],[47.87701,56.63905],[47.87716,56.63902],[47.87733,56.63898],[47.88116,56.63819],[47.88201,56.63801],[47.88215,56.63798],[47.88228,56.63796],[47.88639,56.63711]],[[47.88656,56.63738],[47.88231,56.63823],[47.8773,56.63925],[47.87175,56.64037]],[[47.8727,56.63023],[47.87553,56.63141],[47.87613,56.63166],[47.87625,56.63171],[47.87877,56.63276]],[[47.87357,56.63688],[47.87664,56.63822],[47.87712,56.63895],[47.87716,56.63902],[47.87724,56.63914],[47.8773,56.63925],[47.87735,56.63933],[47.87823,56.64069],[47.87893,56.64173]],[[47.88777,56.64653],[47.88514,56.64705],[47.88451,56.64717],[47.88406,56.64726],[47.88377,56.64732],[47.88342,56.64739],[47.88313,56.64744],[47.88228,56.64761],[47.88219,56.64763],[47.88207,56.64765],[47.88074,56.64791],[47.87992,56.64807],[47.87957,56.64814],[47.87483,56.64907]],[[47.87877,56.63276],[47.87968,56.63271]],[[47.88524,56.64261],[47.88405,56.64082],[47.88397,56.64071],[47.88389,56.6406],[47.8835,56.64001],[47.88283,56.639],[47.88237,56.63831],[47.88231,56.63823],[47.88224,56.63812],[47.88215,56.63798],[47.87907,56.63336],[47.87876,56.63312],[47.87877,56.63276]],[[47.87967,56.64377],[47.87893,56.64173]],[[47.89491,56.63849],[47.89255,56.63898],[47.88819,56.63985],[47.88563,56.64037],[47.88411,56.64068],[47.88397,56.64071],[47.88105,56.6413],[47.87893,56.64173]],[[47.88504,56.65211],[47.88414,56.65059],[47.88219,56.64763],[47.88065,56.64522],[47.87974,56.64387]],[[47.88109,56.64591],[47.88656,56.6448],[47.88664,56.64478],[47.88677,56.64476],[47.89086,56.64393],[47.89576,56.64294],[47.89871,56.64229],[47.89984,56.64206],[47.90064,56.6419],[47.90214,56.6416],[47.90272,56.64148],[47.90411,56.6412]],[[47.8817,56.63009],[47.88767,56.62887]],[[47.88551,56.62563],[47.88304,56.62458]],[[47.88699,56.62446],[47.88447,56.6235]],[[47.88458,56.62342],[47.8871,56.62437]],[[47.88483,56.63474],[47.89545,56.63246],[47.89563,56.63242],[47.8968,56.63216],[47.89799,56.6319]],[[47.88777,56.64653],[47.88699,56.64533],[47.88664,56.64478],[47.88629,56.64423],[47.88591,56.64364],[47.88538,56.64281],[47.88533,56.64274]],[[47.88767,56.62887],[47.88551,56.62563]],[[47.88551,56.62563],[47.88699,56.62446]],[[47.88634,56.64681],[47.88922,56.65129]],[[47.88665,56.69079],[47.90487,56.68433]],[[47.88907,56.62524],[47.88699,56.62446]],[[47.88699,56.62446],[47.8871,56.62437]],[[47.8871,56.62437],[47.88913,56.62516]],[[47.8871,56.62437],[47.88886,56.62298]],[[47.8889,56.63074],[47.88767,56.62887]],[[47.88767,56.62887],[47.89039,56.62834]],[[47.9034,56.64344],[47.88777,56.64653]],[[47.88938,56.62532],[47.88907,56.62524]],[[47.88907,56.62524],[47.89039,56.62834]],[[47.88913,56.62516],[47.88907,56.62524]],[[47.88913,56.62516],[47.88938,56.62532]],[[47.89229,56.62797],[47.88938,56.62532]],[[47.89039,56.62834],[47.89145,56.63022]],[[47.89039,56.62834],[47.89229,56.62797]],[[47.89364,56.62972],[47.89229,56.62797]],[[47.89229,56.62797],[47.89475,56.62744]],[[47.89302,56.63565],[47.89735,56.63475]],[[47.89757,56.63505],[47.89322,56.63594]],[[47.89735,56.63475],[47.89651,56.63361],[47.89618,56.63317],[47.89566,56.63246],[47.89563,56.63242],[47.89556,56.63232],[47.89502,56.63159],[47.89437,56.63071],[47.89431,56.63062],[47.89381,56.62995],[47.89378,56.6299],[47.8937,56.62979]],[[47.89431,56.63062],[47.89663,56.63007]],[[47.8967,56.63016],[47.89437,56.63071]],[[47.89944,56.63761],[47.89495,56.63855]],[[47.89757,56.63505],[47.89735,56.63475]],[[47.89735,56.63475],[47.90162,56.63394]],[[47.89903,56.63705],[47.89757,56.63505]],[[47.89987,56.63456],[47.89757,56.63505]],[[47.89802,56.64958],[47.89897,56.65203]],[[47.89944,56.63761],[47.89903,56.63705]],[[47.89903,56.63705],[47.90133,56.63659]],[[47.90078,56.63948],[47.89944,56.63761]],[[47.8998,56.63432],[47.89974,56.63438]],[[47.9034,56.64344],[47.90214,56.6416],[47.90085,56.63959]],[[47.90411,56.6412],[47.90287,56.6392]],[[47.91531,56.65172],[47.90478,56.64536],[47.9034,56.64344]],[[47.90537,56.64303],[47.9034,56.64344]],[[47.90411,56.6412],[47.90537,56.64303],[47.90632,56.64412],[47.9095,56.64522]],[[47.90487,56.68433],[47.90554,56.68409],[47.90596,56.68391]],[[47.90596,56.68502],[47.90547,56.68438],[47.90522,56.68431],[47.90487,56.68433]],[[47.90506,56.68426],[47.90526,56.68348]],[[47.9051,56.68312],[47.90621,56.68381]],[[47.90596,56.68391],[47.90579,56.68463]],[[47.90596,56.68391],[47.90621,56.68381]],[[47.90621,56.68381],[47.9178,56.67793]],[[47.90974,56.63254],[47.91784,56.63082]],[[47.91418,56.86824],[47.93821,56.87494],[47.9428,56.87814],[47.9536,56.87877]],[[47.91813,56.63076],[47.92766,56.62878]],[[47.92791,56.72547],[47.93252,56.72424],[47.95168,56.72789],[47.95819,56.73052],[47.96045,56.73348],[47.98832,56.74606]],[[47.93102,56.63369],[47.93392,56.63314]],[[47.934,56.63328],[47.93122,56.63379]],[[47.93392,56.63314],[47.934,56.63328]],[[47.93392,56.63314],[47.93422,56.63309],[47.93502,56.63294],[47.9351,56.63307],[47.934,56.63328]],[[47.93431,56.63322],[47.93422,56.63309]],[[47.93812,56.79968],[47.9549,56.79807],[47.97307,56.79426],[47.97794,56.79438],[47.99838,56.80057],[48.00582,56.80109],[48.01608,56.80574],[48.05485,56.81273],[48.08738,56.8201],[48.10845,56.83161],[48.12221,56.84113],[48.13784,56.84472],[48.14104,56.84985]],[[47.94433,56.61706],[47.94781,56.62986],[47.9502,56.6316],[47.95269,56.63102],[47.97858,56.63437],[47.97773,56.63609],[47.97849,56.63739],[47.97503,56.64121]],[[47.97823,56.65318],[47.97221,56.65113],[47.96578,56.65047],[47.96496,56.64916],[47.95868,56.65082]],[[47.99371,56.66541],[47.97242,56.65834]],[[47.97391,56.65702],[47.98789,56.66157],[47.99195,56.66295],[47.99507,56.66399],[48.00192,56.6663],[48.00448,56.6674]],[[47.9828,56.64414],[47.985,56.64457],[47.99072,56.63789],[47.99063,56.63432],[48.00444,56.63257],[48.01722,56.62823]],[[47.99236,56.66656],[47.99371,56.66541]],[[48.01842,56.67755],[48.01204,56.67207],[47.99371,56.66541]],[[47.99371,56.66541],[47.99483,56.66432],[47.99498,56.66413],[47.99507,56.66399],[47.9952,56.66379],[47.99534,56.66361],[48.00035,56.65923],[48.00281,56.65919],[48.00947,56.65531]],[[47.99452,56.69887],[47.99391,56.69892]],[[47.99429,56.69854],[47.99452,56.69887]],[[47.99452,56.69887],[47.99626,56.69936],[47.99871,56.69518],[48.00445,56.69652],[48.00514,56.69761]],[[48.0096,55.99183],[48.01033,55.99214]],[[48.0096,55.99183],[48.00963,55.99216]],[[48.01324,55.98191],[48.00955,55.98849],[48.0096,55.99183]],[[48.0121,56.6827],[48.01121,56.68268]],[[48.01142,56.68246],[48.01187,56.68244]],[[48.01187,56.68244],[48.0121,56.6827]],[[48.01187,56.68244],[48.01193,56.68231]],[[48.0121,56.6827],[48.01309,56.6832],[48.02252,56.68183],[48.0305,56.68748]],[[48.01246,56.68223],[48.0121,56.6827]],[[48.01262,55.98052],[48.01365,55.98067]],[[48.01339,55.98089],[48.01262,55.98052]],[[48.01262,55.98052],[48.00746,55.97963],[48.0233,55.96379],[48.02579,55.96235],[48.03098,55.96179],[48.0356,55.96317],[48.03674,55.96493]],[[48.01324,55.98191],[48.0134,55.98091]],[[48.01382,55.98099],[48.01324,55.98191]],[[48.0134,55.98091],[48.01339,55.98089]],[[48.01339,55.98089],[48.01365,55.98067]],[[48.01382,55.98099],[48.0134,55.98091]],[[48.01365,55.98067],[48.01369,55.98067]],[[48.01369,55.98067],[48.01396,55.98079]],[[48.01369,55.98067],[48.01426,55.9803]],[[48.01384,55.98098],[48.01382,55.98099]],[[48.0146,55.98116],[48.01384,55.98098]],[[48.01397,55.98081],[48.01384,55.98098]],[[48.01396,55.98079],[48.01397,55.98081]],[[48.01426,55.9803],[48.01396,55.98079]],[[48.01397,55.98081],[48.0146,55.98116]],[[48.01426,55.9803],[48.01723,55.9755],[48.02701,55.96618],[48.03674,55.96493]],[[48.03674,55.96493],[48.04006,55.96902],[48.03975,55.97061],[48.03206,55.97649],[48.02463,55.98562],[48.0146,55.98116]],[[48.0305,56.68748],[48.04006,56.69171],[48.05905,56.69774]],[[48.03547,56.70015],[48.02534,56.69007],[48.02715,56.6881],[48.0305,56.68748]],[[48.0321,56.6286],[48.043,56.62878]],[[48.03503,56.67366],[48.03385,56.67428]],[[48.03472,56.67373],[48.03503,56.67366]],[[48.03503,56.67366],[48.04677,56.66952],[48.06742,56.675]],[[48.03598,56.67274],[48.03651,56.67305]],[[48.04062,56.49844],[48.03962,56.49816]],[[48.04051,56.49754],[48.04062,56.49844]],[[48.04606,56.51429],[48.04302,56.51272],[48.04062,56.49844]],[[48.04345,56.62884],[48.043,56.62878]],[[48.043,56.62878],[48.04373,56.6288],[48.04382,56.62884],[48.04391,56.62895]],[[48.04342,56.62877],[48.04387,56.62857]],[[48.04393,56.62877],[48.04382,56.62884],[48.04345,56.62884]],[[48.04379,56.6291],[48.04345,56.62884]],[[48.05905,56.69774],[48.09304,56.7172],[48.09607,56.7181],[48.10182,56.71949],[48.10346,56.71991],[48.10608,56.7206]],[[48.05905,56.69774],[48.0708,56.69151],[48.10248,56.68584]],[[48.06742,56.675],[48.06671,56.68308],[48.07039,56.69168]],[[48.06742,56.675],[48.08101,56.67238],[48.09157,56.66783],[48.0991,56.66724],[48.11508,56.66859],[48.12152,56.66367],[48.133,56.66756],[48.13614,56.66989],[48.14588,56.67265],[48.14165,56.67901],[48.13865,56.68009],[48.1403,56.68247],[48.15396,56.68982],[48.15912,56.68851],[48.17866,56.69247]],[[48.07825,56.13905],[48.08703,56.13433],[48.09502,56.12771],[48.12601,56.12302],[48.12805,56.12203],[48.12857,56.12035]],[[48.23584,56.89882],[48.21914,56.89001],[48.20909,56.88817],[48.19101,56.88722],[48.17003,56.88995],[48.15862,56.89009],[48.12035,56.90413],[48.10884,56.91236],[48.09725,56.91746],[48.09519,56.9199],[48.09372,56.93056]],[[48.09632,56.83602],[48.09826,56.83396],[48.10821,56.83149]],[[48.10346,56.71991],[48.09651,56.72474]],[[48.10036,56.71845],[48.09965,56.71896]],[[48.10182,56.71949],[48.10221,56.71917]],[[48.11347,56.72225],[48.12083,56.71298],[48.1187,56.71201]],[[48.11733,56.16566],[48.11453,56.16724]],[[48.17864,56.7393],[48.17838,56.73884]],[[48.17864,56.7393],[48.18023,56.74697],[48.17814,56.75056],[48.18155,56.7562],[48.18199,56.75972],[48.19989,56.78594],[48.20583,56.78675],[48.19729,56.79166],[48.21113,56.80195],[48.2239,56.80871],[48.23175,56.8144],[48.24234,56.815],[48.25015,56.81578],[48.25409,56.81611],[48.26875,56.81642],[48.28056,56.81976],[48.29344,56.82019]],[[48.17964,56.73916],[48.17864,56.7393]],[[48.19531,56.7426],[48.20784,56.72656],[48.21771,56.7193],[48.24802,56.71043],[48.26326,56.70862],[48.28445,56.70063]],[[48.2189,55.97495],[48.22028,55.9725],[48.21825,55.96354],[48.21511,55.95722],[48.20778,55.95008],[48.20853,55.94719]],[[48.20924,56.75858],[48.2138,56.74518]],[[48.20937,56.69834],[48.20348,56.69829],[48.1995,56.69928],[48.19912,56.70079],[48.20726,56.70644],[48.20137,56.71048],[48.20558,56.71679],[48.21309,56.7225]],[[48.23502,56.31993],[48.23562,56.32033]],[[48.23562,56.32033],[48.23503,56.32033]],[[48.23562,56.32033],[48.23503,56.32066]],[[48.35525,56.32514],[48.34747,56.32459],[48.34011,56.32781],[48.31595,56.32119],[48.27605,56.32189],[48.26786,56.32038],[48.25766,56.31659],[48.25082,56.31764],[48.24857,56.32016],[48.23562,56.32033]],[[48.25247,56.21849],[48.25128,56.22323],[48.26285,56.22469]],[[48.26439,56.65501],[48.25859,56.65768],[48.2765,56.66885],[48.27581,56.69019],[48.28445,56.70063],[48.31246,56.71987],[48.32668,56.7261],[48.34474,56.74546]],[[48.27693,56.17362],[48.28472,56.17667],[48.28926,56.18268],[48.29168,56.18797],[48.3116,56.18266],[48.32507,56.17653],[48.33313,56.16874],[48.36299,56.17668]],[[48.29344,56.82019],[48.29002,56.82517],[48.27497,56.8322],[48.24764,56.82722],[48.25015,56.81578],[48.25057,56.81398],[48.27502,56.78605],[48.27554,56.77605],[48.28284,56.75756],[48.28882,56.74665],[48.28429,56.74565]],[[48.28517,55.89015],[48.29307,55.88572],[48.31058,55.88713],[48.32126,55.88518],[48.32312,55.88121],[48.34662,55.86895]],[[48.28733,56.16539],[48.28629,56.16564]],[[48.28669,56.16526],[48.28733,56.16539]],[[48.28712,56.16485],[48.28733,56.16539]],[[48.28733,56.16539],[48.29044,56.16596],[48.31094,56.16498],[48.3101,56.16333]],[[48.29344,56.82019],[48.2991,56.82108],[48.31488,56.82634],[48.32806,56.82624]],[[48.29824,56.56585],[48.29754,56.56561]],[[48.29824,56.56585],[48.29989,56.57345]],[[48.29827,56.56543],[48.29824,56.56585]],[[48.30769,56.14863],[48.30744,56.14924],[48.30642,56.14921]],[[48.3101,56.16333],[48.31314,56.15969],[48.32257,56.15248],[48.31584,56.14987],[48.31006,56.14973],[48.30863,56.14957],[48.30744,56.14924],[48.30676,56.14905]],[[48.31029,56.165],[48.3101,56.16333]],[[48.32097,56.00537],[48.34034,56.01782],[48.34325,56.01791]],[[48.33002,55.9187],[48.34802,55.90709],[48.35701,55.90312]],[[48.33347,56.74811],[48.3318,56.74772]],[[48.33671,55.86622],[48.33295,55.86565]],[[48.39768,56.83367],[48.3843,56.82097],[48.35432,56.81026],[48.35406,56.80852],[48.3587,56.79531],[48.35951,56.76872],[48.33759,56.75247],[48.33347,56.74811]],[[48.33347,56.74811],[48.33389,56.7475]],[[48.33549,56.04755],[48.33254,56.04418],[48.33682,56.04134],[48.33658,56.0369],[48.3418,56.02928],[48.34174,56.02451],[48.34381,56.02295],[48.34325,56.01791]],[[48.33671,55.86622],[48.33719,55.86624],[48.33762,55.8662]],[[48.33735,55.86653],[48.33671,55.86622]],[[48.33774,55.86618],[48.3382,55.86601]],[[48.33856,55.86656],[48.33815,55.86659]],[[48.3382,55.86632],[48.33856,55.86656]],[[48.3382,55.86632],[48.33789,55.86669],[48.33756,55.86667],[48.3374,55.86659],[48.33735,55.86653],[48.33733,55.86648],[48.3382,55.86632]],[[48.3382,55.86601],[48.3382,55.86632]],[[48.34405,55.86268],[48.3394,55.86368],[48.3382,55.86601]],[[48.33856,55.86656],[48.34401,55.86741],[48.34662,55.86895]],[[48.34325,56.01791],[48.34772,56.01662],[48.35294,56.01313],[48.3531,56.011],[48.35917,56.00955],[48.36361,56.0105],[48.3726,56.0096],[48.37909,56.01068]],[[48.34426,56.74621],[48.34474,56.74546]],[[48.34474,56.74546],[48.34614,56.74596]],[[48.34662,55.86895],[48.3503,55.86765]],[[48.39768,56.83367],[48.34461,56.85287],[48.34085,56.8536],[48.32807,56.84757],[48.32703,56.84182],[48.32925,56.83577],[48.32797,56.82543],[48.34643,56.81721],[48.35416,56.80969]],[[48.50128,56.27519],[48.49617,56.27833],[48.49571,56.28042],[48.49753,56.28289],[48.49717,56.28387],[48.49023,56.28484],[48.47357,56.29074],[48.46371,56.29877],[48.38141,56.29974],[48.37859,56.30143],[48.37849,56.30677],[48.37457,56.30967],[48.37457,56.31959],[48.36532,56.32128],[48.36009,56.32446],[48.3564,56.32532]],[[48.39435,57.02138],[48.38889,57.02411],[48.38254,57.02347]],[[48.38322,57.02388],[48.38266,57.02403]],[[48.94444,56.42936],[48.91728,56.44598],[48.90529,56.44731],[48.84944,56.469],[48.81345,56.48167],[48.81897,56.48897],[48.8189,56.49485],[48.8178,56.5433],[48.81726,56.5451],[48.80315,56.55545],[48.79429,56.56727],[48.77332,56.57376],[48.7664,56.57867],[48.76521,56.58135],[48.76593,56.59699],[48.75891,56.60447],[48.75726,56.61196],[48.75541,56.61404],[48.75116,56.61634],[48.70654,56.63117],[48.69645,56.6449],[48.68779,56.65991],[48.64974,56.69227],[48.64472,56.69394],[48.52506,56.70588],[48.51594,56.70314],[48.51325,56.7034],[48.50299,56.70384],[48.49583,56.70786],[48.49132,56.70881],[48.46751,56.70812],[48.45073,56.71226],[48.42776,56.71788],[48.41387,56.72774],[48.40584,56.7304],[48.39303,56.73872]],[[48.39435,57.02138],[48.40543,57.02857],[48.39983,57.03994],[48.40067,57.04141]],[[48.39435,57.02138],[48.41588,56.9933],[48.41984,56.95695],[48.41952,56.94293],[48.40551,56.9332],[48.40333,56.93063],[48.40434,56.90526],[48.3994,56.90005],[48.39871,56.89375],[48.39421,56.88481],[48.3975,56.87402],[48.41037,56.86514],[48.41869,56.85464],[48.39768,56.83367]],[[48.44867,56.74843],[48.43296,56.74772],[48.41892,56.74516],[48.41149,56.74202],[48.39732,56.73853]],[[48.51544,56.75491],[48.51783,56.76682],[48.52183,56.77502],[48.5293,56.78157],[48.52945,56.78886],[48.53193,56.79428],[48.54124,56.80674],[48.54218,56.81351],[48.5503,56.82257],[48.55571,56.83323],[48.55528,56.83612],[48.54878,56.84373],[48.54661,56.84954],[48.53639,56.85994],[48.53757,56.8644],[48.52155,56.87455],[48.50306,56.90099],[48.50397,56.90191],[48.50135,56.90255],[48.49964,56.90233],[48.49347,56.89718],[48.48309,56.89981],[48.45271,56.8901],[48.41526,56.88856],[48.40663,56.89194],[48.4037,56.88986],[48.39871,56.89375]],[[48.414,55.96881],[48.4134,55.96905]],[[48.41357,55.96878],[48.41321,55.96934],[48.41308,55.96964],[48.41303,55.97125],[48.42232,55.97979],[48.42661,55.98651],[48.45087,55.98575],[48.46035,55.98195],[48.48851,55.98173]],[[48.43206,56.70258],[48.45073,56.71226]],[[48.47656,56.75333],[48.47633,56.75561],[48.47612,56.75761],[48.47588,56.7604],[48.47562,56.76275],[48.47536,56.76561],[48.47527,56.76669],[48.47519,56.76735],[48.47519,56.76767],[48.47799,56.7729],[48.46357,56.77285],[48.46012,56.77159],[48.45755,56.76821],[48.45712,56.76577],[48.4529,56.76368],[48.44776,56.75877],[48.43566,56.75313],[48.43246,56.74765]],[[48.45071,56.59714],[48.46153,56.60235]],[[48.45125,56.59821],[48.45202,56.5978]],[[48.46079,56.75069],[48.4581,56.75123],[48.45618,56.75]],[[48.45861,56.75524],[48.46001,56.76521],[48.4572,56.76586]],[[48.45795,56.75029],[48.4581,56.75123],[48.45861,56.75524]],[[48.45861,56.75524],[48.45979,56.75523],[48.46087,56.75526],[48.46864,56.75551]],[[48.46001,56.76521],[48.46109,56.76528],[48.46568,56.76538],[48.46766,56.76543],[48.46955,56.76547],[48.47342,56.76557],[48.47536,56.76561],[48.47712,56.76565],[48.48341,56.76577]],[[48.4696,56.75198],[48.46846,56.75182]],[[48.46865,56.75543],[48.47633,56.75561],[48.47811,56.75564],[48.48397,56.75581]],[[48.48534,56.76303],[48.48451,56.76301],[48.47891,56.76285],[48.4774,56.7628],[48.47562,56.76275],[48.47181,56.76264],[48.47004,56.76258],[48.46825,56.76254],[48.46808,56.76251],[48.468,56.76231],[48.46816,56.76095],[48.46845,56.75784],[48.46856,56.75663],[48.46865,56.75543],[48.46898,56.7519]],[[48.4842,56.75258],[48.48397,56.75581],[48.48365,56.75927]],[[48.50309,55.96421],[48.5077,55.95491],[48.51002,55.95372]],[[48.51046,56.7035],[48.51071,56.70337]],[[48.51071,56.7033],[48.51102,56.70348]],[[48.51544,56.75491],[48.51397,56.75437]],[[48.51542,56.75453],[48.51544,56.75491]],[[48.51672,56.75468],[48.51544,56.75491]],[[48.54321,56.73586],[48.52987,56.74114],[48.51647,56.74336]],[[48.59062,56.73402],[48.56762,56.72081],[48.5628,56.71669],[48.53963,56.71103],[48.52556,56.70583]],[[48.56785,55.96645],[48.5675,55.95644],[48.56482,55.95152],[48.56192,55.95012]],[[48.61736,57.01298],[48.61015,57.00975],[48.61124,57.00491],[48.61059,56.99277]],[[48.61835,56.80709],[48.62154,56.80384],[48.62776,56.77238]],[[48.62266,55.97864],[48.63749,55.97906],[48.64883,55.98304],[48.65922,55.98356],[48.66035,55.98641]],[[48.62776,56.77238],[48.62708,56.7717]],[[48.62884,56.77196],[48.62776,56.77238]],[[48.63822,56.00192],[48.65413,56.00143],[48.66212,55.9994],[48.67706,56.00054],[48.68511,56.00424]],[[48.64155,57.12048],[48.64564,57.11606],[48.646,57.10502],[48.65123,57.09878],[48.65124,57.08837],[48.68533,57.05465],[48.69626,57.04777],[48.69629,57.04392],[48.69061,57.02726],[48.70858,57.01752]],[[48.6521,56.77834],[48.65314,56.77823]],[[48.65292,56.77876],[48.66018,56.77174],[48.66885,56.76664],[48.6744,56.76554],[48.67567,56.7547],[48.6722,56.74829]],[[48.69723,56.10121],[48.68802,56.1051],[48.67209,56.10834],[48.66423,56.11214]],[[48.74555,56.84845],[48.7267,56.85614],[48.71291,56.8672],[48.71257,56.86947],[48.71425,56.87171],[48.71379,56.87693],[48.69915,56.87637],[48.67798,56.87729]],[[48.68209,56.99305],[48.68034,56.98999],[48.67402,56.98664],[48.65912,56.96823],[48.66772,56.9601],[48.6676,56.94522],[48.67673,56.93395],[48.6721,56.9255],[48.67696,56.92155],[48.70489,56.9172],[48.71342,56.91948],[48.7192,56.91714],[48.75557,56.91711]],[[48.69506,56.99699],[48.69426,56.99713]],[[48.71498,56.335],[48.70548,56.34148],[48.70224,56.34705]],[[48.70491,56.99403],[48.71266,56.99638],[48.71962,56.996],[48.72107,56.99898],[48.74039,56.99868]],[[48.73899,57.0183],[48.73001,57.01509],[48.72397,57.01855],[48.71871,57.01964],[48.71251,57.01948],[48.70858,57.01752]],[[48.70858,57.01752],[48.69629,57.01061],[48.69408,56.99883],[48.69474,56.99728],[48.72797,57.00526],[48.73152,57.00695]],[[48.70858,57.01752],[48.72343,57.00945],[48.73659,57.00607]],[[48.70952,56.84437],[48.70789,56.8546],[48.71087,56.85526],[48.71123,56.85815],[48.72024,56.86126]],[[48.71779,56.81765],[48.71892,56.81767]],[[48.71844,56.81788],[48.71892,56.81767]],[[48.71892,56.81767],[48.719,56.81807]],[[48.71892,56.81767],[48.73027,56.81425],[48.73212,56.81149],[48.73861,56.80762],[48.74855,56.79783],[48.75543,56.80077],[48.76321,56.81887]],[[48.72318,56.37406],[48.72652,56.36606],[48.73959,56.35743],[48.75155,56.35412]],[[48.73135,56.4221],[48.73597,56.42195],[48.73608,56.41728],[48.75692,56.4191],[48.78428,56.41531],[48.78636,56.41401],[48.7939,56.40247]],[[48.7386,57.00049],[48.73769,57.00149],[48.73376,57.00155],[48.73495,57.00608]],[[48.73659,57.00607],[48.73933,57.00615],[48.76812,57.00471],[48.78159,57.00119]],[[48.73659,57.00607],[48.73657,57.01303],[48.73902,57.01736]],[[48.73899,57.0183],[48.73714,57.02707],[48.739,57.03351],[48.73738,57.03529]],[[48.74094,57.00602],[48.74054,57.00114],[48.7386,57.00049]],[[48.74447,56.98544],[48.74439,56.98585],[48.74428,56.98636],[48.74426,56.98648],[48.74237,56.99564],[48.74223,56.99638],[48.74209,56.99676],[48.74172,56.99736],[48.7386,57.00049]],[[48.73899,57.0183],[48.74126,57.01859]],[[48.73902,57.01736],[48.73899,57.0183]],[[48.73902,57.01736],[48.74126,57.01859]],[[48.74126,57.01859],[48.75644,57.02462],[48.77941,57.03665],[48.80458,57.05852],[48.80448,57.0688],[48.81897,57.07746],[48.82909,57.07898],[48.83549,57.08121],[48.84671,57.09017]],[[48.74506,56.98552],[48.74439,56.98585],[48.74371,56.98556]],[[48.79293,56.96302],[48.78963,56.9655],[48.78638,56.96561],[48.76244,56.95415],[48.75036,56.95075]],[[48.75463,56.9118],[48.76337,56.91289],[48.76473,56.91322],[48.77295,56.91552],[48.78481,56.9189],[48.78532,56.91899],[48.78999,56.91801],[48.79166,56.915]],[[48.76254,56.81924],[48.76321,56.81887]],[[48.76321,56.81887],[48.76329,56.81909]],[[48.76329,56.81909],[48.76378,56.81939]],[[48.76329,56.81909],[48.76338,56.81934]],[[48.7637,56.16106],[48.76549,56.157],[48.77257,56.14748],[48.77201,56.14343],[48.77772,56.14025]],[[48.84645,56.35655],[48.83443,56.36176],[48.81258,56.36344],[48.81061,56.36228],[48.80763,56.3546],[48.80419,56.35194],[48.76526,56.3428]],[[48.77295,56.91552],[48.77147,56.91853],[48.77537,56.92131]],[[48.81825,56.52303],[48.77732,56.52193]],[[48.78159,57.00119],[48.78317,57.00147]],[[48.78159,57.00119],[48.78217,57.00084]],[[48.78287,56.82535],[48.78262,56.82487]],[[48.78398,56.82527],[48.78293,56.8253]],[[48.79116,56.85593],[48.78031,56.84977],[48.77629,56.84405],[48.76943,56.84035],[48.7743,56.83307],[48.77297,56.83116],[48.77606,56.83013],[48.77946,56.82804],[48.78169,56.82638],[48.78287,56.82535],[48.78293,56.8253],[48.78327,56.82505]],[[48.81923,56.79062],[48.82202,56.79213],[48.84508,56.81395]],[[48.83755,56.81996],[48.83702,56.81964],[48.83282,56.81684],[48.8324,56.81656]],[[48.83322,56.81639],[48.83282,56.81684]],[[48.85164,56.41821],[48.85674,56.41135],[48.8744,56.40536],[48.8995,56.40392],[48.91418,56.39841]],[[48.88552,56.42537],[48.8645,56.4394],[48.85575,56.43954]],[[48.86634,56.16693],[48.87267,56.16405],[48.91395,56.16417],[48.91559,56.16639],[48.92908,56.17225],[48.95736,56.17914],[48.96292,56.17928]],[[48.88136,56.80569],[48.88597,56.80593],[48.90997,56.81188],[48.91423,56.81109]],[[48.88268,56.80562],[48.88254,56.80536]],[[48.91423,56.81109],[48.91764,56.81173]],[[48.91423,56.81109],[48.91381,56.80884],[48.92232,56.80101],[48.93029,56.79706]],[[48.91764,56.81173],[48.9201,56.81203],[48.91989,56.81466]],[[48.91989,56.81466],[48.91775,56.81446],[48.91764,56.81173]],[[48.91966,56.81416],[48.9194,56.81457]],[[48.91989,56.81466],[48.92176,56.81769],[48.92897,56.82563],[48.94877,56.85676],[48.94761,56.85936],[48.9293,56.86997],[48.92748,56.8772],[48.92789,56.88358]],[[48.93047,56.78769],[48.93029,56.79706],[48.93315,56.80511],[48.93226,56.80733],[48.93607,56.8131],[48.93634,56.81596],[48.93129,56.82],[48.92526,56.82151]],[[48.94831,56.77157],[48.95189,56.76608],[48.95684,56.7627],[48.96677,56.74872],[48.96873,56.74419],[48.96802,56.74019],[48.95702,56.73111],[48.94348,56.72227],[48.93194,56.71205],[48.93224,56.70674],[48.92919,56.70678]],[[48.94554,56.85127],[48.95087,56.85],[48.95913,56.8418],[48.96531,56.83901]],[[48.96963,56.42902],[48.97264,56.42927]],[[48.97233,56.42875],[48.97264,56.42927]],[[48.97264,56.42927],[48.99315,56.43134],[48.99805,56.43016]],[[48.98829,56.42418],[48.99868,56.42917]],[[49.10288,57.05558],[49.02587,57.05711],[49.01169,57.06082],[48.99865,57.06241],[48.98943,57.06204]],[[48.99805,56.43016],[49.00188,56.43679],[49.01943,56.45409],[49.02358,56.46234],[49.04594,56.46872],[49.05186,56.47393],[49.05966,56.47808],[49.06121,56.48098],[49.05993,56.48457],[49.06169,56.48785],[49.06212,56.49417],[49.0598,56.50058],[49.06075,56.50918],[49.06482,56.52128],[49.06678,56.52355],[49.06852,56.52557],[49.0692,56.52623],[49.07894,56.53058],[49.08992,56.53858],[49.09812,56.54223]],[[48.99805,56.43016],[49.00159,56.42709],[49.01256,56.4241]],[[49.00794,56.78622],[49.00701,56.78187],[49.00867,56.77831]],[[49.01248,56.42359],[49.01256,56.4241]],[[49.01256,56.4241],[49.01437,56.42354]],[[49.02829,56.78707],[49.02801,56.78966],[49.03152,56.80267],[49.04137,56.80545],[49.08065,56.82268],[49.08233,56.82559],[49.08195,56.82684],[49.07198,56.83108]],[[49.03352,57.18031],[49.0383,57.18031],[49.04559,57.18251],[49.05526,57.19922],[49.0639,57.20651],[49.10234,57.21693]],[[49.0792,56.52031],[49.06678,56.52355],[49.05222,56.52451]],[[49.11974,56.68742],[49.10106,56.68068],[49.09442,56.67531],[49.09064,56.67257],[49.08425,56.6689],[49.08353,56.66673],[49.07691,56.65936],[49.06933,56.65671],[49.06453,56.65892],[49.05572,56.65789]],[[49.10305,56.88032],[49.11228,56.88623],[49.09981,56.89874],[49.09392,56.91001],[49.08191,56.92123],[49.07995,56.92159]],[[49.08259,57.23614],[49.1123,57.24294],[49.11679,57.24642],[49.12985,57.24851],[49.13851,57.25334],[49.15391,57.25744],[49.16174,57.26451],[49.1631,57.26744],[49.16933,57.2702],[49.16851,57.27245],[49.16032,57.2794],[49.15495,57.29134],[49.1416,57.30225],[49.14028,57.30536]],[[49.13623,56.7883],[49.13255,56.78509],[49.09581,56.76705],[49.09125,56.76591],[49.0894,56.76346]],[[49.09824,56.67846],[49.08952,56.68411],[49.09561,56.68724],[49.0967,56.68655]],[[49.09812,56.54223],[49.10459,56.54386],[49.10998,56.5406],[49.12073,56.54431],[49.1293,56.54538],[49.14011,56.54244],[49.15972,56.54164],[49.17509,56.54282],[49.1907,56.54531],[49.19807,56.54769],[49.20656,56.54666],[49.21294,56.54367],[49.22065,56.54375],[49.25806,56.5492],[49.25834,56.55188]],[[49.09812,56.54223],[49.10295,56.54739],[49.10475,56.55364],[49.11222,56.55795],[49.12769,56.57354]],[[49.10063,56.54289],[49.09988,56.54324]],[[49.10104,57.15285],[49.13149,57.15669]],[[49.10854,56.88347],[49.11042,56.88251],[49.11251,56.88009],[49.11483,56.87746],[49.11503,56.87723],[49.11529,56.87697],[49.117,56.87484],[49.11802,56.87412]],[[49.10964,56.8753],[49.11142,56.87531],[49.1123,56.87578],[49.11483,56.87746],[49.1169,56.8788],[49.1178,56.87942],[49.12049,56.88015]],[[49.11941,56.93312],[49.15099,56.93607]],[[49.12012,56.9763],[49.12355,56.97584],[49.1243,56.97372],[49.13338,56.97229]],[[49.16676,57.12223],[49.1527,57.12396],[49.14696,57.1309],[49.1316,57.1425],[49.12338,57.1427]],[[49.16643,56.75574],[49.1676,56.76768],[49.16922,56.77188],[49.16788,56.7757],[49.17001,56.79263],[49.16942,56.8043],[49.17862,56.80884],[49.17831,56.80979],[49.15481,56.83357],[49.1476,56.84416],[49.14616,56.85279],[49.13232,56.85916]],[[49.13721,56.92612],[49.14497,56.93384],[49.15164,56.93492]],[[49.14346,56.89661],[49.1478,56.897],[49.14966,56.89572]],[[49.14715,56.93427],[49.14639,56.93548]],[[49.1474,56.62737],[49.15091,56.63136],[49.17183,56.64496],[49.17942,56.64758],[49.17155,56.65416],[49.16396,56.65857],[49.14411,56.66787],[49.13159,56.67107],[49.12743,56.67314],[49.12546,56.67713],[49.1198,56.68222],[49.11974,56.68742],[49.11281,56.70053],[49.11571,56.70471],[49.12111,56.70948],[49.12079,56.71776],[49.13796,56.73265],[49.14864,56.73711],[49.16458,56.74978],[49.16821,56.75057],[49.16634,56.75576]],[[49.15039,56.94506],[49.14974,56.93866],[49.15152,56.93506],[49.15332,56.93335],[49.1595,56.9324]],[[49.1595,56.9324],[49.15994,56.93255]],[[49.1595,56.9324],[49.16006,56.93219]],[[49.15994,56.93255],[49.16167,56.93517],[49.1671,56.93733],[49.1811,56.94019],[49.19202,56.94097],[49.22401,56.93589],[49.23131,56.93278],[49.27419,56.93258],[49.28851,56.92968],[49.35029,56.9315],[49.35551,56.93276],[49.39263,56.95292]],[[49.15994,56.93255],[49.16006,56.93219]],[[49.16006,56.93219],[49.16633,56.92554]],[[49.16398,56.90158],[49.14966,56.89572],[49.15887,56.8903],[49.20171,56.89219],[49.21499,56.89456]],[[49.16633,56.92554],[49.16597,56.92519]],[[49.16633,56.92554],[49.16672,56.92502]],[[49.28703,56.72809],[49.2889,56.72427],[49.29409,56.71825],[49.29441,56.71059],[49.29254,56.70231],[49.28857,56.6969],[49.27856,56.69215],[49.2712,56.68541],[49.27864,56.68333]],[[49.28586,56.91291],[49.2898,56.91648],[49.28851,56.92968]],[[49.28638,56.69583],[49.30117,56.6922],[49.29849,56.68817],[49.30001,56.68538],[49.30182,56.68475],[49.33282,56.68781],[49.37852,56.6871],[49.38136,56.68805]],[[49.30504,56.37071],[49.29107,56.39283]],[[49.34404,56.71806],[49.33899,56.72124],[49.31204,56.73124]],[[49.31222,56.86533],[49.31307,56.87232]],[[49.34273,56.39095],[49.32143,56.39585],[49.31462,56.39851]],[[49.36465,56.76125],[49.36695,56.76056],[49.39338,56.76273]],[[49.39263,56.95292],[49.38559,56.96121],[49.38415,56.96457],[49.38025,56.96793]],[[49.39141,56.69653],[49.38731,56.6916],[49.38136,56.68805]],[[49.38136,56.68805],[49.38239,56.68548],[49.38384,56.6848],[49.39506,56.68261],[49.3997,56.6835],[49.40317,56.68949],[49.41016,56.69686],[49.4013,56.70024]],[[49.3857,56.70907],[49.40222,56.70815]],[[49.38777,56.70295],[49.38823,56.70521],[49.40178,56.70474]],[[49.40398,56.71728],[49.3838,56.70854],[49.38363,56.70495],[49.38777,56.70295]],[[49.38777,56.70295],[49.392,56.70103],[49.38884,56.69731],[49.39141,56.69653]],[[49.4013,56.70024],[49.39549,56.6961],[49.39181,56.69702],[49.39141,56.69653]],[[49.39263,56.95292],[49.42001,56.96503],[49.47676,56.9808],[49.50958,56.9865]],[[49.39813,56.74583],[49.42988,56.75243],[49.44414,56.75915],[49.46719,56.76087],[49.46958,56.76122],[49.49206,56.76465],[49.49015,56.77443],[49.48894,56.77535],[49.49316,56.77597],[49.49166,56.77935],[49.49429,56.78387],[49.49517,56.7905],[49.49732,56.79438],[49.52663,56.7967],[49.5325,56.8006],[49.5379,56.80076],[49.53667,56.80489],[49.5387,56.80698],[49.54038,56.82154]],[[49.40178,56.70474],[49.4013,56.70024]],[[49.40398,56.71728],[49.40381,56.71666],[49.40356,56.71592],[49.40312,56.71477],[49.40304,56.71439],[49.40178,56.70474]],[[49.40178,56.70474],[49.41028,56.70432],[49.41474,56.70488]],[[49.40975,56.85362],[49.40944,56.85536],[49.41135,56.85798],[49.39664,56.87261],[49.39237,56.87509],[49.38904,56.87938],[49.3901,56.8814],[49.3932,56.88188],[49.38786,56.89842],[49.38673,56.90904],[49.38932,56.91218],[49.40198,56.90723]],[[49.40246,56.70983],[49.41582,56.70937],[49.43421,56.71234],[49.46373,56.72121],[49.47689,56.72051],[49.4814,56.72398],[49.50696,56.72383],[49.50805,56.7283],[49.54621,56.74005]],[[49.40383,56.71674],[49.40352,56.71683]],[[49.40442,56.71854],[49.40398,56.71728]],[[49.41865,56.85336],[49.41488,56.84923],[49.41035,56.83982],[49.41291,56.83448],[49.41317,56.83149]],[[49.49807,56.57097],[49.47505,56.56155],[49.46151,56.55388]],[[49.46626,56.76665],[49.46958,56.76122]],[[49.50579,56.87512],[49.49581,56.88102]],[[49.51395,56.87826],[49.50369,56.88519]],[[49.50775,56.465],[49.52107,56.46311],[49.54574,56.46406]],[[49.59841,57.0027],[49.60645,56.9946],[49.62197,56.98763],[49.6212,56.98583],[49.62357,56.98462]],[[49.61036,56.78039],[49.61983,56.78824],[49.62328,56.78913],[49.62856,56.79056],[49.64217,56.79353],[49.65231,56.79396]],[[49.61719,56.79857],[49.62067,56.79229],[49.62117,56.79159],[49.62271,56.78982],[49.62328,56.78913],[49.62419,56.78805],[49.62595,56.78593],[49.64073,56.77678],[49.64795,56.7803],[49.64974,56.78385],[49.65275,56.78637],[49.65344,56.78871],[49.65231,56.79396]],[[49.64306,57.00231],[49.63633,57.01049],[49.63844,57.01686],[49.6361,57.02335],[49.6301,57.02967],[49.62635,57.03884],[49.62262,57.04283]],[[49.65231,56.79396],[49.7038,56.79939],[49.70734,56.80285],[49.71326,56.80089],[49.72012,56.80548],[49.73968,56.8022],[49.75101,56.80167],[49.78048,56.80748],[49.79647,56.80821],[49.80888,56.81017],[49.81926,56.81562],[49.83648,56.82238],[49.84408,56.82471],[49.85696,56.82597],[49.88576,56.83588],[49.89406,56.83937],[49.89989,56.84541],[49.90314,56.84474],[49.90274,56.84322]],[[49.80231,56.6468],[49.81805,56.64984],[49.84549,56.6611]],[[49.82939,56.52035],[49.8429,56.52445],[49.86535,56.52284],[49.88037,56.53042],[49.89272,56.53243],[49.8966,56.5367],[49.89942,56.53794],[49.9163,56.54018],[49.93794,56.53989],[49.94343,56.53787],[49.94624,56.53834]],[[49.93972,56.62784],[49.94319,56.61567],[49.94223,56.6122],[49.93995,56.60944],[49.90287,56.58073],[49.89378,56.57101],[49.88307,56.56558],[49.87573,56.55697],[49.86947,56.55194],[49.85588,56.54846],[49.82675,56.5253],[49.82939,56.52035]],[[49.82939,56.52035],[49.83165,56.51671]],[[49.92272,56.79531],[49.91962,56.7957],[49.90597,56.8141],[49.89888,56.82744],[49.88698,56.83635]],[[49.91268,56.43177],[49.92355,56.43731],[49.93601,56.47238],[49.93792,56.47341],[49.94108,56.47312]],[[50.01417,56.70624],[49.97452,56.69044],[49.95479,56.68169],[49.95056,56.67858],[49.94977,56.67661],[49.95362,56.66888],[49.94674,56.66206],[49.9464,56.6589],[49.94235,56.65197],[49.93471,56.64263],[49.93191,56.63408]],[[49.94004,56.62772],[49.93987,56.62759]],[[49.98383,56.66426],[49.98582,56.6645],[49.98201,56.6689],[49.96462,56.67539],[49.9517,56.67289]],[[50.04752,56.56949],[50.05061,56.5684],[50.05544,56.56661],[50.06046,56.56482],[50.03545,56.54539],[50.00547,56.53404],[50.00725,56.52813],[50.00469,56.52711],[49.99706,56.51623],[49.99711,56.50701],[49.9885,56.48872],[49.98057,56.47424],[49.96775,56.45878],[49.96917,56.45641],[49.97863,56.453],[49.9762,56.44732],[49.9728,56.44599]],[[49.98801,56.48776],[49.99906,56.4867]],[[50.00789,56.7103],[50.00853,56.70878],[50.01417,56.70624]],[[50.01771,56.71174],[50.02162,56.70999],[50.01417,56.70624]],[[50.03824,56.54705],[50.04343,56.54281],[50.05181,56.53837],[50.08771,56.52307],[50.12015,56.49651]],[[50.05544,56.56661],[50.05974,56.56925],[50.06608,56.56822]],[[48.35533,56.32547],[48.35525,56.32514],[48.35568,56.32494],[48.3564,56.32532],[48.35533,56.32547]]]}},{"type":"Feature","properties":{"roadClass":"trunk"},"geometry":{"type":"MultiLineString","coordinates":[[[47.46892,56.17078],[47.46816,56.16584],[47.46687,56.1538]],[[47.46689,56.15204],[47.46861,56.16581],[47.46892,56.17078]],[[47.46861,56.16578],[47.46816,56.16578]],[[47.65098,56.17617],[47.59737,56.17779],[47.48707,56.18379],[47.47902,56.18264],[47.47366,56.18008],[47.47048,56.17648],[47.46892,56.17078]],[[47.67917,56.18258],[47.66493,56.17743],[47.65098,56.17617]],[[47.65098,56.17617],[47.65265,56.17613],[47.65591,56.17618],[47.65841,56.17633],[47.66513,56.17741],[47.67922,56.1825]],[[47.70048,56.19034],[47.67917,56.18258]],[[47.67917,56.18258],[47.67922,56.1825]],[[47.67922,56.1825],[47.70048,56.19034]],[[47.71238,56.19451],[47.70048,56.19034]],[[47.71238,56.19451],[47.72264,56.19554],[47.76305,56.19007],[47.76924,56.18955],[47.78406,56.18897],[47.78684,56.18802]],[[47.78739,56.1895],[47.76367,56.19006],[47.72394,56.19546],[47.7217,56.19565],[47.71238,56.19451]],[[47.78739,56.1895],[47.7864,56.18893],[47.78684,56.18802]],[[47.78684,56.18802],[47.79106,56.18711],[47.79352,56.18986]],[[47.79128,56.19067],[47.78739,56.1895]],[[47.79352,56.18986],[47.79292,56.19068],[47.79128,56.19067]],[[47.79553,56.19286],[47.79128,56.19067]],[[47.79352,56.18986],[47.79553,56.19286]],[[47.79553,56.19286],[47.80616,56.21619],[47.80884,56.22504],[47.80934,56.23643],[47.80652,56.25675],[47.80693,56.26457],[47.83717,56.4565],[47.85375,56.55402],[47.85572,56.56078]],[[47.85572,56.56078],[47.86392,56.56348]],[[47.86392,56.56348],[47.86208,56.5635],[47.85839,56.56349],[47.85799,56.56349],[47.85698,56.56349],[47.85691,56.56349],[47.85584,56.56394],[47.85627,56.56462],[47.85763,56.56407],[47.85757,56.56383],[47.85678,56.56275],[47.85656,56.56243],[47.85572,56.56078]],[[47.86392,56.56348],[47.87467,56.56334],[47.87763,56.56349],[47.91027,56.56827]],[[47.87972,56.94054],[47.88049,56.94083],[47.88028,56.94139]],[[47.88028,56.94139],[47.87972,56.94054]],[[47.90089,56.89951],[47.87555,56.9012],[47.86811,56.90518],[47.8646,56.90979],[47.86444,56.91662],[47.87242,56.93606],[47.87469,56.93841],[47.87972,56.94054]],[[47.91431,57.03457],[47.90179,57.02516],[47.87407,57.00027],[47.87013,56.99413],[47.86986,56.9898],[47.87235,56.98245],[47.86562,56.97534],[47.86478,56.97126],[47.8675,56.96711],[47.87019,56.95593],[47.8777,56.94954],[47.87954,56.9466],[47.88028,56.94139]],[[47.90089,56.89951],[47.90201,56.89906]],[[47.90201,56.89906],[47.90182,56.89947],[47.90089,56.89951]],[[47.90201,56.89906],[47.90659,56.88858],[47.90674,56.87412],[47.91641,56.86594],[47.91802,56.85213],[47.92714,56.83533],[47.93575,56.82715],[47.9411,56.81586],[47.93795,56.80057],[47.94577,56.7714],[47.94017,56.73758],[47.91889,56.71697]],[[47.91027,56.56827],[47.91449,56.56829],[47.91694,56.56597]],[[47.91027,56.56827],[47.91297,56.56866]],[[47.91297,56.56866],[47.9152,56.56895],[47.92096,56.5698],[47.92388,56.57023],[47.92744,56.57081]],[[47.91824,56.56952],[47.91297,56.56866]],[[47.91694,56.56597],[47.91672,56.56855],[47.92096,56.5698]],[[47.91694,56.56597],[47.91564,56.56833],[47.91552,56.56871],[47.91551,56.56892],[47.91554,56.56914],[47.91855,56.57069]],[[47.91694,56.56597],[47.92117,56.55992],[47.93582,56.54676],[47.94154,56.54361],[47.95107,56.54193],[47.97827,56.5419],[47.98553,56.53986],[47.98975,56.53742]],[[47.92744,56.57081],[47.91824,56.56952]],[[47.91855,56.57069],[47.91949,56.57011],[47.91824,56.56952]],[[47.92554,56.57056],[47.92296,56.57032],[47.9196,56.57067],[47.91921,56.5707],[47.91855,56.57069]],[[47.91889,56.71697],[47.91821,56.71634],[47.91925,56.71608]],[[47.91925,56.71608],[47.91889,56.71697]],[[47.91925,56.71608],[47.94311,56.71073],[47.97727,56.70633],[47.99342,56.69931],[47.99535,56.6968],[47.99544,56.69139],[47.99651,56.68947],[48.00755,56.68403]],[[47.92744,56.57081],[47.93404,56.57208],[47.95275,56.57884],[47.97012,56.58232]],[[47.97012,56.58232],[47.97288,56.58279]],[[47.97187,56.58315],[47.97012,56.58232]],[[47.97327,56.58354],[47.97187,56.58315]],[[47.97187,56.58315],[47.97288,56.58279]],[[47.97288,56.58279],[47.97331,56.58294]],[[47.97331,56.58294],[47.97327,56.58354]],[[47.97496,56.58349],[47.97327,56.58354]],[[47.97331,56.58294],[47.97496,56.58349]],[[47.97496,56.58349],[47.98392,56.58574],[48.04187,56.61089],[48.04436,56.61294],[48.04568,56.61589],[48.04392,56.62843]],[[47.98975,56.53742],[47.99409,56.53467],[48.00088,56.53102],[48.00194,56.53003],[48.00572,56.52625],[48.0067,56.52532],[48.00981,56.52263],[48.02213,56.51014],[48.03268,56.50254],[48.03449,56.50129],[48.03655,56.50008],[48.04037,56.49749],[48.05376,56.48787],[48.06525,56.48008],[48.10027,56.45097],[48.10597,56.44655],[48.11397,56.43855],[48.12122,56.43393],[48.13649,56.42529],[48.14262,56.4185],[48.14907,56.41319],[48.1503,56.41231],[48.15364,56.41003],[48.15948,56.40573],[48.16322,56.40301],[48.16381,56.40261],[48.16683,56.40105]],[[48.16683,56.40105],[48.16481,56.40267],[48.15969,56.40581],[48.14969,56.41347],[48.14381,56.41765],[48.13661,56.42535],[48.12185,56.43425],[48.11414,56.43861],[48.10909,56.44387],[48.10065,56.45156],[48.06482,56.48068],[48.05274,56.48929],[48.03823,56.49913],[48.03671,56.50023],[48.0351,56.50156],[48.0337,56.50257],[48.02143,56.5109],[48.00636,56.52641],[48.00132,56.53143],[47.99964,56.53255],[47.99548,56.53461],[47.99134,56.53653],[47.98975,56.53742]],[[47.99548,56.53461],[47.99494,56.53429]],[[48.00572,56.52625],[48.00636,56.52641]],[[48.00755,56.68403],[48.01142,56.68246],[48.02927,56.67697]],[[48.02927,56.67697],[48.00755,56.68403]],[[48.04376,56.62956],[48.03774,56.6701],[48.0353,56.67331],[48.02927,56.67697]],[[48.0351,56.50156],[48.03449,56.50129]],[[48.04376,56.62956],[48.04392,56.62843]],[[48.04392,56.62843],[48.04391,56.62895],[48.04376,56.62956]],[[48.05207,56.48911],[48.05274,56.48929]],[[48.09948,56.45172],[48.10016,56.45189]],[[48.1017,56.45057],[48.10106,56.45039]],[[48.12032,56.43452],[48.12085,56.43479]],[[48.15094,56.41246],[48.1503,56.41231]],[[48.16322,56.40301],[48.16383,56.40324]],[[48.36756,55.91497],[48.37393,55.92217],[48.375,55.92538],[48.36513,55.96109],[48.38195,55.99517],[48.38253,55.99831],[48.37906,56.00922],[48.38216,56.03065],[48.37101,56.05952],[48.34496,56.09741],[48.34378,56.10294],[48.3457,56.11597],[48.34169,56.12319],[48.31833,56.14287],[48.29828,56.15378],[48.27603,56.17433],[48.26596,56.18052],[48.24196,56.19006],[48.23699,56.1944],[48.2353,56.19938],[48.23683,56.21601],[48.23174,56.23778],[48.23451,56.30252],[48.23475,56.33429],[48.20561,56.37788],[48.1988,56.38118],[48.18602,56.39063],[48.16683,56.40105]],[[48.36711,55.91296],[48.36653,55.91319],[48.36586,55.91306]],[[48.36756,55.91497],[48.36586,55.91306]],[[48.36586,55.91306],[48.36648,55.91235]],[[48.36648,55.91235],[48.36714,55.91291]],[[48.36648,55.91235],[48.36886,55.91149]],[[48.36711,55.91296],[48.36756,55.91497]],[[48.36714,55.91291],[48.36711,55.91296]],[[48.36886,55.91149],[48.36836,55.91187],[48.36779,55.9123],[48.36752,55.91252],[48.36714,55.91291]],[[48.37621,55.90676],[48.37554,55.90784],[48.36901,55.91176],[48.36836,55.91187],[48.36812,55.9119]],[[48.36886,55.91149],[48.37328,55.90863],[48.39501,55.89475],[48.40001,55.89244]]]}}],"provenance":{"sources":[{"id":"osm-volga-260916","url":"https://download.geofabrik.de/russia/volga-fed-district-260916.osm.pbf","snapshot":"2026-09-16T20:21:21Z","sha256":"b743d60f0bc6df6745ab002675bc74bb1b0b0a04b37b15f331a53fa704fad7db","md5":"8e41694055a08e29f9f9e553571956f5","bytes":773336406,"license":"ODbL-1.0","attribution":"© OpenStreetMap contributors, Geofabrik","downloadDate":"2026-09-17"}],"attribution":"© OpenStreetMap contributors, Geofabrik; ODbL-1.0","geometryMethod":"Actual OSM road ways, merged by class and endpoint, display simplification 0.0007 degrees; not routing geometry","sourceWayCount":3151,"routingUse":false}}