{"type":"FeatureCollection","features":[{"type":"Feature","properties":{"roadClass":"primary"},"geometry":{"type":"MultiLineString","coordinates":[[[89.79029,55.26761],[89.79906,55.24674],[89.79845,55.24325],[89.79332,55.23625],[89.79243,55.17532],[89.79937,55.14548],[89.8033,55.14197],[89.81385,55.13798],[89.81922,55.12829],[89.81904,55.12695],[89.81429,55.1231],[89.81075,55.11524],[89.81054,55.11208],[89.81323,55.10085],[89.81035,55.08694],[89.8054,55.08184],[89.805,55.07905],[89.80877,55.07575],[89.82587,55.06839],[89.82829,55.06614],[89.84237,55.04314],[89.84179,55.03964],[89.83898,55.0356],[89.8432,55.02733],[89.8455,55.02657],[89.85808,55.02768],[89.86989,55.01693],[89.88353,55.00946],[89.89461,54.99672],[89.89892,54.98963],[89.89965,54.98411],[89.89824,54.97768],[89.89096,54.96961],[89.88587,54.96068],[89.88103,54.95724],[89.86427,54.93614],[89.8535,54.92613],[89.85498,54.91379],[89.86829,54.89874],[89.84945,54.89029],[89.84692,54.88752],[89.86402,54.87911],[89.88446,54.87094],[89.89398,54.86555],[89.89494,54.85438],[89.89054,54.84749],[89.8921,54.83922],[89.89603,54.82323],[89.9079,54.80007],[89.90721,54.75141],[89.89346,54.73246],[89.88376,54.72657],[89.87032,54.72327],[89.86348,54.71402],[89.85932,54.71026],[89.8294,54.69306],[89.82358,54.689],[89.82219,54.68585],[89.84893,54.65627],[89.85906,54.63893],[89.88615,54.61948],[89.89056,54.60421],[89.90065,54.58447],[89.89794,54.5831],[89.93138,54.51838],[89.93205,54.51156],[89.93303,54.51032],[89.93484,54.50917],[89.94224,54.51146],[89.96491,54.51102],[90.00242,54.50398],[90.02491,54.51019],[90.04851,54.51488],[90.05658,54.51523],[90.08343,54.5132],[90.10027,54.50946],[90.11716,54.50105],[90.13381,54.49115],[90.15603,54.48156],[90.17077,54.47867],[90.19502,54.47883],[90.21753,54.47697],[90.24718,54.46799],[90.26858,54.45942],[90.33177,54.45945],[90.34819,54.45669],[90.35707,54.45641],[90.40047,54.46345],[90.40506,54.45979],[90.41027,54.4463],[90.42593,54.42747],[90.43344,54.42444],[90.47224,54.41623],[90.48373,54.40867],[90.49597,54.39657],[90.51466,54.38852],[90.55105,54.3681],[90.57002,54.35498],[90.59503,54.34113],[90.6012,54.33134],[90.60795,54.31747],[90.60901,54.31076],[90.61886,54.30805],[90.6325,54.2994],[90.62825,54.28436],[90.62896,54.27322],[90.64644,54.26794],[90.65083,54.2656],[90.65235,54.26417],[90.65277,54.26016],[90.65596,54.25866],[90.67911,54.25719],[90.73437,54.25652],[90.76475,54.24727],[90.77415,54.24551],[90.78842,54.23989],[90.81019,54.23582],[90.82842,54.24331],[90.8389,54.24334],[90.8497,54.23941],[90.85892,54.23398],[90.86623,54.22339],[90.87152,54.22275],[90.88454,54.22529],[90.96164,54.25775],[91.01757,54.27311],[91.04075,54.27509],[91.05173,54.27784],[91.07051,54.27537],[91.09998,54.27693]],[[89.9236,51.70289],[89.9211,51.70225],[89.92122,51.69945],[89.92407,51.69627],[89.91921,51.69514],[89.91489,51.69615],[89.90559,51.70213],[89.90237,51.70213],[89.89933,51.69896],[89.8958,51.69921],[89.88581,51.70201],[89.88771,51.70789],[89.88585,51.70971],[89.88074,51.71169],[89.88389,51.71434],[89.88328,51.71525],[89.87494,51.71217],[89.86869,51.71174],[89.84982,51.71765],[89.83752,51.7286],[89.8336,51.73484],[89.83486,51.74313],[89.83406,51.74817],[89.83622,51.75314],[89.83528,51.75608],[89.82471,51.76385],[89.81809,51.77633],[89.81035,51.78361],[89.80489,51.7917],[89.80074,51.79427],[89.79507,51.80134],[89.79614,51.80494],[89.79466,51.80687],[89.79434,51.81202],[89.79913,51.81979],[89.798,51.82633],[89.79986,51.83056],[89.79123,51.83958],[89.78981,51.8429],[89.79722,51.85103],[89.80018,51.85914],[89.80098,51.86505],[89.799,51.87008],[89.7987,51.87461],[89.80798,51.88679],[89.808,51.8936],[89.81706,51.90232],[89.81608,51.90644],[89.81924,51.90923],[89.82013,51.91279],[89.82313,51.9158],[89.82444,51.92229],[89.82827,51.92515],[89.82759,51.9338],[89.82176,51.94066],[89.81547,51.94447],[89.81346,51.94843],[89.80998,51.9515],[89.80917,51.95785],[89.8005,51.96897],[89.79163,51.97411],[89.77761,51.98752],[89.76764,51.99277],[89.76575,51.99566],[89.76607,51.99719],[89.77315,52.00091],[89.76674,52.00516],[89.76721,52.0099],[89.76979,52.01543],[89.7713,52.02258],[89.78191,52.03351],[89.78134,52.03744],[89.77614,52.04562],[89.77569,52.04952],[89.77675,52.05391],[89.77376,52.06183],[89.75887,52.06714],[89.75914,52.07004],[89.75605,52.07285],[89.75655,52.07722],[89.75491,52.08295],[89.75839,52.09205],[89.75768,52.10169],[89.75913,52.1027],[89.76956,52.1015],[89.77356,52.103],[89.77374,52.1048],[89.76708,52.11407],[89.76723,52.11616],[89.77664,52.11768],[89.77704,52.12065],[89.78098,52.12228],[89.78613,52.12894],[89.79073,52.13101],[89.79159,52.13748],[89.81998,52.13808],[89.8177,52.15536],[89.8261,52.15459],[89.8374,52.14947],[89.84646,52.14859],[89.849,52.15091],[89.84875,52.15724],[89.85305,52.15705],[89.85996,52.1587],[89.86234,52.16032],[89.86403,52.16596],[89.86136,52.17683],[89.86712,52.18306],[89.86554,52.1841],[89.86008,52.18414],[89.85788,52.1864],[89.85981,52.18788],[89.86921,52.19037],[89.87614,52.19534],[89.86918,52.19789],[89.86428,52.20306],[89.85509,52.20809],[89.85249,52.21142],[89.85326,52.21631],[89.86168,52.22605],[89.8618,52.22935],[89.85875,52.23746],[89.85461,52.2438],[89.84939,52.24863],[89.84718,52.25578],[89.84218,52.26348],[89.84581,52.26655],[89.84558,52.26933],[89.84206,52.27418],[89.83694,52.27853],[89.82322,52.28533],[89.81804,52.28935],[89.81811,52.29202],[89.82167,52.29505],[89.83008,52.29743],[89.82851,52.3026],[89.82568,52.30479],[89.82599,52.31012],[89.83741,52.32454],[89.83869,52.32899],[89.84122,52.32977],[89.85032,52.3292],[89.85848,52.33078],[89.86323,52.33026],[89.8884,52.33769],[89.89082,52.34295],[89.89638,52.34784],[89.91146,52.3515],[89.9176,52.35511],[89.93018,52.35991],[89.93519,52.36075],[89.93743,52.36006],[89.93627,52.36092],[89.93602,52.36372],[89.94041,52.36754],[89.95347,52.36984],[89.96869,52.3744],[90.00309,52.38784],[90.00837,52.3885],[90.02101,52.39313],[90.02367,52.39604],[90.02447,52.40308],[90.03063,52.40516],[90.03344,52.40766],[90.03296,52.41457],[90.03563,52.42291],[90.03822,52.42537],[90.03972,52.43003],[90.04427,52.43554],[90.0435,52.44122],[90.04493,52.4449],[90.04408,52.45119],[90.04884,52.46104],[90.06464,52.47639],[90.08579,52.48829],[90.08902,52.49227],[90.09367,52.49378],[90.09464,52.49677],[90.0968,52.49854],[90.09127,52.49753],[90.09318,52.49844],[90.09237,52.50015],[90.08066,52.50656],[90.07797,52.50913],[90.08237,52.50983],[90.07818,52.51536],[90.0823,52.51561],[90.07873,52.51786],[90.08562,52.52497],[90.08287,52.52534],[90.07782,52.52317],[90.07378,52.52329],[90.07751,52.5242],[90.08031,52.52771],[90.07578,52.53243],[90.07465,52.53689],[90.08101,52.54665],[90.07784,52.55496],[90.07834,52.57176],[90.06838,52.58869],[90.07218,52.62063],[90.07036,52.62413],[90.05485,52.63296],[90.05621,52.63471],[90.06001,52.63625],[90.05498,52.64042],[90.05056,52.6469],[90.05055,52.65291],[90.04641,52.65846],[90.04611,52.66289],[90.0485,52.66988],[90.04683,52.67733],[90.04373,52.67972],[90.02994,52.68503],[90.02567,52.68188],[90.02568,52.68404],[90.0213,52.68533],[90.01872,52.68775],[90.01926,52.69106],[90.01048,52.68572],[90.00657,52.68493],[90.00819,52.6889],[90.0055,52.69246],[89.99197,52.69498],[89.98779,52.69399],[89.98876,52.69609],[89.98341,52.70008],[89.97651,52.7143],[89.96329,52.72073],[89.92876,52.727],[89.92584,52.7284],[89.8949,52.76282],[89.89554,52.76532],[89.90085,52.76801],[89.90317,52.78319],[89.91411,52.78903],[89.9162,52.79214],[89.91665,52.79702],[89.91933,52.79973],[89.91699,52.80742],[89.90594,52.81081],[89.90478,52.81676],[89.91627,52.82169],[89.9324,52.83177],[89.93366,52.83331],[89.93301,52.83785],[89.93585,52.84682],[89.94343,52.85423],[89.95146,52.85755],[89.96684,52.87424],[89.97859,52.88266],[90.00899,52.89338],[90.01762,52.90691],[90.03206,52.92286],[90.03747,52.92585],[90.05062,52.92619],[90.05431,52.92755],[90.0578,52.9362],[90.05739,52.93853],[90.0594,52.94045],[90.06266,52.9416],[90.09001,52.94175],[90.11656,52.93969],[90.17119,52.9502],[90.17524,52.94984],[90.18563,52.94489],[90.19014,52.94435],[90.21585,52.95775],[90.23587,52.96202],[90.28599,52.99836],[90.28778,52.99842],[90.30311,53.00939],[90.41125,53.04434],[90.50116,53.1062],[90.50258,53.11706]],[[89.93612,52.3618],[89.93018,52.35991]],[[90.07122,52.62315],[90.07168,52.62325]],[[90.50237,53.11751],[90.50258,53.11706]],[[90.50277,53.11856],[90.50256,53.11817]],[[90.50256,53.11817],[90.5022,53.11761],[90.50237,53.11751],[90.50265,53.11746],[90.50292,53.11748],[90.50327,53.11772],[90.50256,53.11817]],[[90.50258,53.11706],[90.50292,53.11748]],[[91.37498,53.6819],[91.35712,53.67486],[91.34955,53.67343],[91.24079,53.63266],[91.18511,53.59495],[91.15415,53.55759],[91.15233,53.54739],[91.15098,53.54573],[91.11845,53.52114],[91.08763,53.50666],[91.07976,53.50461],[91.05676,53.49157],[90.92436,53.41609],[90.91289,53.40658],[90.90689,53.40298],[90.87431,53.38734],[90.86013,53.37402],[90.83996,53.37016],[90.82846,53.36577],[90.81904,53.36205],[90.79748,53.34961],[90.79308,53.34607],[90.78699,53.33675],[90.78457,53.31284],[90.77337,53.30317],[90.77135,53.29715],[90.77014,53.28226],[90.76902,53.28038],[90.65239,53.21232],[90.64799,53.20777],[90.62984,53.19549],[90.61458,53.18746],[90.60728,53.18556],[90.57332,53.16855],[90.56215,53.15981],[90.5537,53.15879],[90.53176,53.14797],[90.50708,53.13998],[90.50277,53.11856]],[[90.50304,53.11811],[90.50277,53.11856]],[[90.96406,54.35742],[90.96497,54.35708]],[[91.09998,54.27693],[91.10076,54.27698]],[[91.09998,54.27693],[91.10112,54.27673]],[[91.32303,53.83285],[91.29517,53.82362]],[[91.29517,53.82362],[91.28663,53.82083],[91.29532,53.82349]],[[91.29532,53.82349],[91.29517,53.82362]],[[91.29532,53.82349],[91.32303,53.83285]],[[91.36231,53.7802],[91.30832,53.78139],[91.30602,53.78345],[91.30129,53.80361],[91.29767,53.80896],[91.29788,53.82051],[91.29532,53.82349]],[[91.32699,53.83416],[91.32303,53.83285]],[[91.32699,53.83416],[91.32776,53.83425],[91.33077,53.83527],[91.33505,53.83646],[91.33576,53.8367],[91.33609,53.83681],[91.33739,53.83742],[91.33761,53.83755],[91.33828,53.83796],[91.33872,53.83825],[91.33987,53.83886],[91.34046,53.83927]],[[91.34095,53.83992],[91.3361,53.837],[91.32699,53.83416]],[[91.34245,53.84104],[91.33538,53.84186]],[[91.33564,53.83683],[91.33576,53.8367]],[[91.33743,53.83767],[91.33761,53.83755]],[[91.34046,53.83927],[91.34264,53.8394]],[[91.34046,53.83927],[91.34139,53.83974]],[[91.34126,53.84017],[91.34095,53.83992]],[[91.34095,53.83992],[91.34139,53.83974]],[[91.34222,53.8408],[91.34126,53.84017]],[[91.34168,53.84],[91.34126,53.84017]],[[91.34139,53.83974],[91.34168,53.84]],[[91.34139,53.83974],[91.34207,53.83962],[91.34264,53.8394],[91.34355,53.83902],[91.34426,53.83874],[91.34484,53.83849],[91.34635,53.83732]],[[91.34168,53.84],[91.3426,53.84061]],[[91.34245,53.84104],[91.34222,53.8408]],[[91.34222,53.8408],[91.3426,53.84061]],[[91.34297,53.84086],[91.34278,53.84103],[91.34267,53.84105],[91.34245,53.84104]],[[91.3435,53.84143],[91.34245,53.84104]],[[91.3426,53.84061],[91.34297,53.84086]],[[91.34297,53.84086],[91.3435,53.84143]],[[91.3435,53.84143],[91.37269,53.8499],[91.37727,53.84948],[91.37539,53.84255],[91.38769,53.84178],[91.39079,53.8349],[91.39419,53.83309],[91.39185,53.83122],[91.39221,53.82755],[91.39619,53.81848],[91.39571,53.79873],[91.39468,53.78407],[91.39001,53.77665],[91.39177,53.77234]],[[91.35917,53.70915],[91.35961,53.70883]],[[91.39786,53.71632],[91.36256,53.71284]],[[91.37498,53.6819],[91.37764,53.68236],[91.38388,53.68178],[91.38644,53.68076]],[[91.37498,53.6819],[91.38069,53.6842]],[[91.38792,53.68705],[91.37756,53.68827]],[[91.38069,53.6842],[91.3825,53.68491]],[[91.38069,53.6842],[91.3778,53.68474],[91.38082,53.68518]],[[91.38223,53.68395],[91.38247,53.68277],[91.3806,53.6824],[91.37963,53.68331],[91.38069,53.6842]],[[91.38126,53.68506],[91.38073,53.68622],[91.38236,53.68686],[91.3837,53.68589],[91.3825,53.68491]],[[91.3825,53.68491],[91.38465,53.68524],[91.38559,53.6843],[91.38412,53.68349],[91.38238,53.68408]],[[91.3825,53.68491],[91.38792,53.68705]],[[91.38609,53.68123],[91.38651,53.68555],[91.38792,53.68705]],[[91.38792,53.68705],[91.43032,53.70381],[91.4267,53.71472]],[[91.39786,53.71632],[91.39858,53.71634],[91.39913,53.71622]],[[91.3993,53.71649],[91.39786,53.71632]],[[91.3993,53.71649],[91.39913,53.71622]],[[91.39913,53.71622],[91.39923,53.71619]],[[91.39923,53.71619],[91.40203,53.71347],[91.40327,53.71305],[91.42613,53.71526]],[[91.39923,53.71619],[91.39933,53.71619],[91.39953,53.7162],[91.39987,53.71637]],[[91.39961,53.71653],[91.3993,53.71649]],[[91.40075,53.71663],[91.39961,53.71653]],[[91.39987,53.71637],[91.39961,53.71653]],[[91.39987,53.71637],[91.40009,53.71648]],[[91.40016,53.716],[91.39987,53.71637]],[[91.40009,53.71648],[91.40075,53.71663]],[[91.40016,53.716],[91.40009,53.71648]],[[91.42597,53.71556],[91.40368,53.71315],[91.40016,53.716]],[[91.40075,53.71663],[91.40298,53.71684],[91.40142,53.72265]],[[91.40835,53.72512],[91.40642,53.72308],[91.40142,53.72265]],[[91.40142,53.72265],[91.40154,53.72569],[91.4037,53.72958]],[[91.4037,53.72958],[91.40424,53.73028]],[[91.40409,53.73098],[91.4037,53.72958]],[[91.40424,53.73028],[91.40634,53.73126]],[[91.40424,53.73028],[91.40909,53.73155]],[[91.40643,53.73137],[91.40572,53.73135],[91.40502,53.73154]],[[91.40643,53.73137],[91.40511,53.73227]],[[91.40909,53.73155],[91.40643,53.73137]],[[91.40831,53.72528],[91.40835,53.72512]],[[91.40835,53.72512],[91.40854,53.72524]],[[91.40895,53.72547],[91.40863,53.72552]],[[91.40875,53.72538],[91.40895,53.72547]],[[91.40895,53.72547],[91.42251,53.72562],[91.42276,53.72565],[91.4229,53.72566],[91.42318,53.72568],[91.42352,53.7257],[91.42739,53.72608],[91.44216,53.72755]],[[91.40909,53.73155],[91.41312,53.73188]],[[91.49513,53.71685],[91.49608,53.72301],[91.48757,53.72831],[91.48042,53.73715],[91.47634,53.7398],[91.47122,53.74087],[91.46105,53.74698],[91.45737,53.74766],[91.45362,53.74776],[91.44242,53.74804],[91.41763,53.74865],[91.41191,53.74794]],[[91.41204,53.7472],[91.43908,53.73543]],[[91.43931,53.73557],[91.41257,53.74754]],[[91.4138,53.73201],[91.41312,53.73188]],[[91.41312,53.73188],[91.41396,53.73176]],[[91.41448,53.73209],[91.4138,53.73201]],[[91.4138,53.73201],[91.41396,53.73176]],[[91.41396,53.73176],[91.41403,53.73174]],[[91.41403,53.73174],[91.42278,53.72589],[91.42286,53.72575],[91.4229,53.72566],[91.42301,53.72541],[91.42521,53.71762],[91.42597,53.71556]],[[91.41403,53.73174],[91.41425,53.73173],[91.41435,53.73175],[91.41451,53.73185]],[[91.41453,53.73188],[91.41448,53.73209]],[[91.41581,53.73209],[91.41484,53.73206],[91.41448,53.73209]],[[91.41451,53.73185],[91.41453,53.73188]],[[91.42641,53.71561],[91.42573,53.71669],[91.42327,53.72544],[91.42318,53.72568],[91.42311,53.72585],[91.41451,53.73185]],[[91.41453,53.73188],[91.41581,53.73209]],[[91.41581,53.73209],[91.43742,53.73431]],[[91.41962,53.74424],[91.41945,53.7441]],[[91.42641,53.71561],[91.42597,53.71556]],[[91.42597,53.71556],[91.42613,53.71526]],[[91.42613,53.71526],[91.4267,53.71472]],[[91.42613,53.71526],[91.42629,53.71525],[91.42636,53.71527],[91.42655,53.71537]],[[91.42655,53.71537],[91.42641,53.71561]],[[91.4276,53.7156],[91.42641,53.71561]],[[91.42655,53.71537],[91.42716,53.7155]],[[91.4267,53.71472],[91.42655,53.71537]],[[91.4267,53.71472],[91.42716,53.7155]],[[91.42716,53.7155],[91.4276,53.7156]],[[91.4276,53.7156],[91.44513,53.71736]],[[91.43997,53.73502],[91.43934,53.73495],[91.43742,53.73431]],[[91.43742,53.73431],[91.43835,53.73448],[91.43944,53.73487],[91.43997,53.73502]],[[91.43908,53.73543],[91.43934,53.73495]],[[91.43908,53.73543],[91.43997,53.73502]],[[91.43997,53.73502],[91.43931,53.73557]],[[91.44051,53.73504],[91.43931,53.73557]],[[91.43944,53.73487],[91.44007,53.73478]],[[91.44051,53.73504],[91.43997,53.73502]],[[91.44007,53.73478],[91.43997,53.73502]],[[91.44007,53.73478],[91.44051,53.73504]],[[91.44216,53.72755],[91.44007,53.73478]],[[91.44051,53.73504],[91.45768,53.73661]],[[91.44216,53.72755],[91.4599,53.72924]],[[91.44513,53.71736],[91.44216,53.72755]],[[91.44513,53.71736],[91.46309,53.71902]],[[91.45362,53.74776],[91.45477,53.74773]],[[91.45768,53.73661],[91.45416,53.74775]],[[91.46309,53.71902],[91.45768,53.73661]],[[91.46309,53.71902],[91.47622,53.71933],[91.48126,53.71545]],[[91.48126,53.71545],[91.48244,53.71254]],[[91.48126,53.71545],[91.48342,53.71246],[91.48511,53.7112],[91.48942,53.70821],[91.49111,53.70699],[91.49239,53.70622],[91.49547,53.70511],[91.50121,53.70179],[91.50386,53.70075],[91.50432,53.70053],[91.51035,53.69568],[91.51147,53.69488],[91.51255,53.69435],[91.51672,53.69297],[91.52637,53.68667],[91.53401,53.67109],[91.53604,53.66283],[91.53676,53.66091]],[[91.48252,53.71373],[91.48126,53.71545]],[[91.48244,53.71254],[91.48319,53.71267]],[[91.48244,53.71254],[91.48478,53.71079],[91.48494,53.71084],[91.48555,53.71118],[91.48607,53.71149],[91.48625,53.7116],[91.48642,53.7117],[91.48922,53.71371]],[[91.49754,53.70398],[91.49523,53.70529],[91.49182,53.70664],[91.49119,53.70706],[91.48951,53.70826],[91.4852,53.71126],[91.48405,53.71208],[91.48374,53.7123],[91.48252,53.71373]],[[91.48897,53.7136],[91.486,53.71259],[91.48252,53.71373]],[[91.48405,53.71208],[91.48607,53.71149],[91.48422,53.71306]],[[91.48922,53.71371],[91.49436,53.7156],[91.49491,53.71603],[91.49513,53.71685]],[[91.49513,53.71685],[91.48922,53.71371]],[[91.49824,53.70356],[91.49754,53.70398]],[[91.49827,53.70404],[91.49789,53.70394],[91.49754,53.70398]],[[91.49824,53.70356],[91.49827,53.70404]],[[91.53676,53.66091],[91.53452,53.66997],[91.52822,53.68424],[91.52705,53.68606],[91.52508,53.68786],[91.52395,53.68864],[91.51677,53.69307],[91.51141,53.69497],[91.50478,53.70032],[91.49824,53.70356]],[[91.53007,53.71016],[91.52548,53.70651],[91.50614,53.70698],[91.49827,53.70404]],[[91.50323,53.70099],[91.5028,53.70066]],[[91.53676,53.66091],[91.53734,53.65951]],[[91.53734,53.65951],[91.53738,53.65879]],[[91.53805,53.65887],[91.53734,53.65951]],[[91.5375,53.65845],[91.53829,53.65779]],[[91.53829,53.65779],[91.53818,53.65856]],[[91.54717,53.64935],[91.54055,53.65328],[91.53829,53.65779]],[[91.40859,53.72525],[91.40863,53.72552],[91.40823,53.72543],[91.40831,53.72528],[91.40859,53.72525]],[[91.53796,53.65842],[91.53805,53.65887],[91.53733,53.65873],[91.5375,53.65845],[91.53796,53.65842]]]}},{"type":"Feature","properties":{"roadClass":"secondary"},"geometry":{"type":"MultiLineString","coordinates":[[[90.50169,53.11786],[90.47827,53.11989],[90.45658,53.12523],[90.45451,53.12453],[90.43257,53.12874],[90.4171,53.13028],[90.40849,53.12804],[90.39679,53.12899],[90.38637,53.1349],[90.33771,53.14128],[90.31221,53.14897],[90.29733,53.15182],[90.27992,53.14874],[90.27554,53.14906],[90.27414,53.15018],[90.24255,53.15156],[90.2194,53.15497],[90.211,53.15383],[90.19504,53.15542],[90.16031,53.16829],[90.15615,53.17113],[90.14677,53.17482],[90.12601,53.18141],[90.11707,53.1885],[90.04432,53.21283],[90.03584,53.21759],[90.0364,53.2196],[90.04221,53.22456],[90.04175,53.2261],[90.03688,53.22784],[90.02497,53.23515],[90.01063,53.24653],[89.99894,53.25366],[89.99502,53.25751],[89.97364,53.26812],[89.966,53.27428],[89.95346,53.281],[89.95001,53.28586],[89.94947,53.28973],[89.94664,53.29222],[89.93709,53.29807],[89.9224,53.30323],[89.91916,53.30564],[89.91582,53.31109],[89.90588,53.31605],[89.90516,53.31903],[89.89307,53.33237],[89.89296,53.33453],[89.88934,53.33924],[89.89288,53.34393],[89.89,53.35402],[89.88022,53.36396],[89.87946,53.36722],[89.86994,53.37465],[89.85121,53.38021],[89.84226,53.38065],[89.83157,53.37943],[89.82718,53.38255],[89.81927,53.38441],[89.80964,53.38378],[89.80541,53.38112],[89.79803,53.38134],[89.78925,53.38331],[89.78319,53.38311],[89.77896,53.3845],[89.76424,53.3819],[89.75604,53.38332],[89.75339,53.38002],[89.73206,53.3777],[89.72598,53.37534],[89.72385,53.37301],[89.71178,53.36843],[89.70483,53.36697],[89.70261,53.36219],[89.68916,53.35219],[89.68512,53.3504],[89.66719,53.34883],[89.64915,53.34889],[89.64211,53.35254],[89.63165,53.35286],[89.625,53.35624],[89.62474,53.35465],[89.61222,53.35534],[89.59019,53.34748],[89.57374,53.34728],[89.57204,53.34481],[89.57427,53.34216],[89.57464,53.33918],[89.57323,53.33339],[89.57154,53.33109],[89.57349,53.32564],[89.57239,53.31867],[89.57923,53.31503],[89.58042,53.31244],[89.57389,53.30023],[89.57568,53.29203],[89.57207,53.28994]],[[89.81037,55.00135],[89.83631,55.00253],[89.84844,55.00886],[89.85034,55.01278],[89.84437,55.02522]],[[89.8432,55.02733],[89.84437,55.02522]],[[89.84437,55.02522],[89.8455,55.02657]],[[89.89185,52.76509],[89.89756,52.76632]],[[89.90556,52.81038],[89.90472,52.80716],[89.90106,52.80579],[89.89781,52.80299],[89.89242,52.80116],[89.89346,52.79947]],[[89.90635,52.81058],[89.90556,52.81038]],[[89.90556,52.81038],[89.90578,52.81122]],[[89.93484,54.50917],[89.95445,54.49734],[89.95765,54.49283],[89.96154,54.49261],[89.96151,54.49207],[89.96148,54.49149],[89.96145,54.49086],[89.96134,54.48864],[89.96078,54.48219],[89.95992,54.47905],[89.95271,54.47174],[89.93496,54.46433],[89.92873,54.44561],[89.92917,54.44254],[89.93273,54.43705],[89.92751,54.42796],[89.93247,54.4196],[89.93491,54.40648],[89.94091,54.40268],[89.94726,54.39318],[89.94485,54.38697],[89.94465,54.38081],[89.95179,54.3744],[89.9418,54.36474],[89.94285,54.35519],[89.94651,54.35157],[89.93715,54.34888],[89.93343,54.34629],[89.93218,54.33725]],[[89.96095,54.4926],[89.96151,54.49207]],[[90.00179,54.5037],[89.97935,54.49783],[89.96703,54.49166],[89.96148,54.49149]],[[90.00174,54.50401],[90.00179,54.5037]],[[90.00304,54.50402],[90.00179,54.5037]],[[90.06166,54.51518],[90.06042,54.515]],[[90.06166,54.51518],[90.06146,54.51492]],[[90.06166,54.51518],[90.0803,54.51886],[90.09773,54.52824],[90.10586,54.53892],[90.12789,54.57594],[90.13036,54.58759],[90.19432,54.63107],[90.21918,54.65281],[90.24476,54.6697],[90.31305,54.69652],[90.3515,54.71882],[90.35256,54.72065],[90.3516,54.73359],[90.34239,54.74762],[90.34048,54.75563],[90.34167,54.7606],[90.35863,54.80029],[90.3622,54.80361],[90.36762,54.80597],[90.38843,54.81187],[90.39805,54.81809],[90.41975,54.85091],[90.42436,54.86756],[90.42698,54.87042],[90.47762,54.89377],[90.50114,54.90986],[90.51024,54.91424],[90.53148,54.92832],[90.57475,54.94891],[90.59756,54.95357],[90.63231,54.95095],[90.69068,54.95039],[90.70929,54.95335],[90.73975,54.96293],[90.75518,54.96429],[90.76626,54.96701],[90.77696,54.96695],[90.85164,54.97803]],[[90.30038,53.99329],[90.29301,53.99433],[90.28414,54.00225],[90.27463,54.0007],[90.26322,54.00579],[90.2589,54.00188]],[[90.30469,53.96572],[90.30865,53.97178],[90.30567,53.97267],[90.30558,53.97472],[90.30854,53.97756],[90.2974,53.981],[90.29509,53.98351],[90.29731,53.98956],[90.30052,53.99303],[90.30038,53.99329],[90.28939,54.00753],[90.28073,54.01659],[90.27873,54.02434],[90.27503,54.02957],[90.26879,54.03332],[90.26669,54.03636],[90.26608,54.03995],[90.27071,54.04552],[90.27215,54.04992],[90.27425,54.05204],[90.29518,54.05965],[90.30101,54.06627],[90.30307,54.07303],[90.30549,54.07551],[90.30919,54.07686],[90.32627,54.07828],[90.33575,54.08246],[90.33709,54.08486],[90.3323,54.08825]],[[90.30469,53.96572],[90.29703,53.94378],[90.24683,53.9136],[90.24603,53.9124],[90.24702,53.90796],[90.23738,53.8877],[90.23493,53.88572],[90.22808,53.88364],[90.2261,53.88053],[90.22421,53.86993],[90.22424,53.86179],[90.22946,53.85026],[90.23756,53.84121],[90.24444,53.83774],[90.25163,53.83594],[90.2542,53.83328],[90.256,53.81947],[90.25313,53.80839],[90.25763,53.79823],[90.25802,53.79339],[90.26324,53.78904],[90.26915,53.7871],[90.27669,53.78249],[90.28302,53.78057],[90.28901,53.77635],[90.2939,53.77452],[90.29804,53.76757],[90.30491,53.76013],[90.31793,53.74962],[90.33022,53.73132],[90.35285,53.71889],[90.36986,53.69752],[90.42933,53.68391],[90.46602,53.66723],[90.48857,53.65116],[90.50124,53.65266],[90.52043,53.6586],[90.53403,53.65214],[90.57032,53.6458],[90.573,53.64814],[90.58004,53.64812],[90.64735,53.63983],[90.69527,53.64023],[90.70651,53.63563],[90.7313,53.63153],[90.75647,53.62394],[90.78969,53.61969],[90.80572,53.61596],[90.82792,53.60746],[90.85795,53.59061],[90.8868,53.58258],[90.96873,53.58025],[91.07164,53.58183],[91.08053,53.58282],[91.10146,53.58779],[91.12358,53.59585],[91.14565,53.60226],[91.19198,53.62937],[91.19955,53.62956],[91.28551,53.66922],[91.28838,53.67158],[91.30379,53.67804],[91.31034,53.68219],[91.31836,53.68353],[91.32317,53.68789],[91.33107,53.69263],[91.33728,53.69466],[91.35121,53.7057],[91.35846,53.70904]],[[90.30469,53.96572],[90.31588,53.96282],[90.32074,53.96325],[90.33727,53.9795],[90.35982,53.98439],[90.37684,53.99387],[90.38985,53.99637],[90.40044,53.9957],[90.40722,53.99655],[90.41763,54.00071],[90.4394,54.00362],[90.47796,54.01556],[90.49502,54.01831],[90.50602,54.01884],[90.52957,54.01594],[90.54408,54.01564],[90.57415,54.02031],[90.5889,54.02061],[90.60793,54.01662],[90.61221,54.01463],[90.61533,54.01169],[90.61679,54.00835],[90.62292,53.97609],[90.62955,53.9701],[90.62995,53.96458],[90.64736,53.95344],[90.65682,53.94006],[90.66319,53.93714],[90.69681,53.93369],[90.7227,53.9368],[90.77768,53.94948],[90.83377,53.97456],[90.84673,53.97785],[90.88318,53.98207],[90.90175,53.98224],[90.94617,53.98611],[90.97576,53.98493],[90.97945,53.98408],[90.98784,53.97842],[91.00858,53.96757],[91.03802,53.95757],[91.06959,53.94466],[91.07442,53.94371],[91.0922,53.93562],[91.12182,53.93475],[91.13031,53.93015],[91.15757,53.93281],[91.17307,53.91802],[91.1839,53.90983],[91.19709,53.90229],[91.212,53.89867],[91.23624,53.89641],[91.25464,53.89948]],[[91.41301,53.61089],[91.39214,53.58891],[91.37265,53.5828],[91.34953,53.58104],[91.32368,53.56162],[91.31996,53.55711],[91.31889,53.55104],[91.32262,53.53966],[91.31567,53.52165],[91.31678,53.51753],[91.31557,53.51085],[91.31895,53.50541],[91.31691,53.49817],[91.33936,53.46572],[91.35519,53.45237],[91.35891,53.4363],[91.37979,53.42564],[91.39133,53.40884],[91.39293,53.40402],[91.39465,53.38902],[91.39497,53.38295],[91.39385,53.3794],[91.38344,53.37408],[91.36763,53.36879],[91.34298,53.33381],[91.24326,53.27652],[91.15544,53.19534],[91.11034,53.17398],[91.09598,53.16884],[91.05701,53.14316],[91.0411,53.12847],[91.0256,53.11992],[91.01046,53.10423],[90.97941,53.07754],[90.96957,53.06754],[90.95807,53.05986],[90.94937,53.05937],[90.94731,53.05216],[90.95091,53.0476],[90.95056,53.04659],[90.88099,53.02454],[90.86055,53.01227],[90.81642,52.99619],[90.80723,52.99109],[90.79746,52.98872],[90.78089,52.98191],[90.76611,52.97954],[90.73792,52.9727],[90.73106,52.96833],[90.72381,52.95036],[90.71953,52.94782],[90.66559,52.94636],[90.66068,52.94741],[90.64914,52.95257],[90.62103,52.94512],[90.61412,52.94496],[90.60528,52.9471],[90.57463,52.94011],[90.56786,52.94013],[90.5603,52.94219],[90.54799,52.94218],[90.53495,52.94097],[90.52215,52.93828],[90.49568,52.94366],[90.49404,52.94855],[90.47983,52.9698],[90.4621,52.97607],[90.45477,52.98484],[90.44216,52.99705],[90.44301,52.99899],[90.46839,53.01771],[90.47141,53.03123],[90.46929,53.03483],[90.4543,53.04081],[90.44861,53.04202],[90.41889,53.04044],[90.41733,53.04052],[90.40855,53.04124],[90.40519,53.0413],[90.40021,53.04055]],[[90.41733,53.04052],[90.41338,53.04262],[90.41372,53.04596]],[[90.56293,53.16026],[90.53384,53.13121],[90.53624,53.12838],[90.52485,53.12253],[90.51902,53.1184],[90.50116,53.1062]],[[90.50214,53.11796],[90.50169,53.11786]],[[90.50169,53.11786],[90.5021,53.11776]],[[90.50327,53.11772],[90.50366,53.11778]],[[90.50366,53.11778],[90.50328,53.11787]],[[90.5165,53.11671],[90.50366,53.11778]],[[90.96476,54.35746],[90.91838,54.35268],[90.90776,54.34934],[90.86078,54.32951],[90.79849,54.3249],[90.72874,54.32141],[90.713,54.31736],[90.67263,54.30412],[90.66285,54.303],[90.64449,54.30309],[90.63246,54.30681],[90.61516,54.30901]],[[91.23264,53.81611],[91.18438,53.81682],[91.1726,53.81589],[91.1607,53.81327],[91.14061,53.80756],[91.13936,53.80557],[91.13864,53.79871],[91.1309,53.79127],[91.12515,53.78909]],[[91.26596,53.81619],[91.25742,53.81512],[91.25416,53.81695],[91.23264,53.81611]],[[91.23264,53.81611],[91.23246,53.81994],[91.25482,53.82528],[91.27282,53.82565],[91.28884,53.82816]],[[91.25464,53.89948],[91.25566,53.89967]],[[91.25464,53.89948],[91.25531,53.8987]],[[91.27669,53.83342],[91.26428,53.83336],[91.25932,53.83086],[91.25563,53.82545]],[[91.26596,53.81619],[91.26714,53.81635],[91.2757,53.81849],[91.27658,53.81874],[91.27758,53.81907],[91.27786,53.81916],[91.2785,53.81933],[91.28156,53.81976]],[[91.28156,53.81976],[91.27842,53.81942],[91.26596,53.81619]],[[91.27669,53.83342],[91.28153,53.83637],[91.29892,53.84252],[91.30004,53.84271],[91.30897,53.84393],[91.3099,53.84404],[91.32411,53.84442]],[[91.27669,53.83342],[91.27925,53.83336]],[[91.27749,53.81916],[91.27758,53.81907]],[[91.27925,53.83336],[91.27797,53.83412]],[[91.28884,53.82816],[91.27925,53.83336]],[[91.29793,53.81977],[91.28727,53.81978],[91.28663,53.82083],[91.28156,53.81976]],[[91.29517,53.82362],[91.28884,53.82816]],[[91.31587,53.81796],[91.29854,53.83535]],[[91.31914,53.83296],[91.31786,53.83452],[91.3102,53.84263],[91.30897,53.84393],[91.30792,53.84508],[91.30197,53.8513],[91.30181,53.85163],[91.30274,53.85179]],[[91.31325,53.82952],[91.32292,53.82066]],[[91.32292,53.82066],[91.31587,53.81796]],[[91.33942,53.80347],[91.32649,53.80814],[91.31587,53.81796]],[[91.33859,53.83019],[91.33203,53.8383],[91.32815,53.83732],[91.32754,53.83564],[91.31914,53.83296]],[[91.32582,53.82601],[91.31914,53.83296]],[[91.32582,53.82601],[91.31972,53.8236]],[[91.32,53.82335],[91.32608,53.82575]],[[91.32292,53.82066],[91.32504,53.82133],[91.33136,53.82025]],[[91.32372,53.66341],[91.32346,53.66366]],[[91.32372,53.66341],[91.32463,53.66265],[91.32632,53.6618],[91.3293,53.66119],[91.35193,53.66059]],[[91.35193,53.66059],[91.32909,53.66132],[91.32372,53.66341]],[[91.33859,53.83019],[91.33553,53.82918],[91.33527,53.8291],[91.33265,53.82825],[91.32797,53.82674],[91.32582,53.82601]],[[91.32608,53.82575],[91.32582,53.82601]],[[91.33817,53.82253],[91.33643,53.8243],[91.33297,53.82789],[91.33288,53.82799],[91.33265,53.82825],[91.33252,53.82839],[91.33067,53.83033],[91.32603,53.83515]],[[91.32608,53.82575],[91.33288,53.82799],[91.33885,53.8299]],[[91.33136,53.82025],[91.32608,53.82575]],[[91.33136,53.82025],[91.33804,53.82248],[91.33817,53.82253],[91.33972,53.82304],[91.34007,53.82315],[91.34151,53.82367],[91.34379,53.82441]],[[91.33885,53.8299],[91.33942,53.8301],[91.34208,53.83094],[91.34399,53.83157],[91.34493,53.83189],[91.34542,53.83205],[91.34624,53.83234],[91.34694,53.83258],[91.34721,53.83267],[91.34893,53.83326],[91.34867,53.83353],[91.33859,53.83019]],[[91.33885,53.8299],[91.33859,53.83019]],[[91.34379,53.82441],[91.33885,53.8299]],[[91.33942,53.80347],[91.35259,53.81645]],[[91.35224,53.79861],[91.33942,53.80347]],[[91.34208,53.83094],[91.3418,53.83125]],[[91.35259,53.81645],[91.34986,53.81754],[91.34379,53.82441]],[[91.34668,53.83286],[91.34694,53.83258]],[[91.35365,53.66057],[91.35193,53.66059]],[[91.35259,53.81645],[91.35962,53.82298]],[[91.35365,53.66057],[91.35744,53.66045],[91.36003,53.66085],[91.39376,53.67113],[91.40315,53.67213],[91.40658,53.67397],[91.41152,53.67764],[91.41166,53.6781]],[[91.41166,53.6781],[91.40268,53.67217],[91.39405,53.67132],[91.36001,53.66098],[91.35751,53.66057],[91.35626,53.66054],[91.35365,53.66057]],[[91.35459,53.79545],[91.39568,53.79805]],[[91.35781,53.82521],[91.36002,53.82514],[91.35796,53.82715],[91.355,53.8261],[91.35888,53.82255]],[[91.35846,53.70904],[91.35964,53.70909]],[[91.35943,53.70976],[91.35846,53.70904]],[[91.36495,53.73818],[91.36489,53.73822]],[[91.37838,53.85208],[91.38605,53.85979],[91.38298,53.86127],[91.38347,53.86324]],[[91.38105,53.84912],[91.37727,53.84948],[91.37838,53.85208]],[[91.38105,53.84912],[91.37838,53.85208]],[[91.3879,53.84162],[91.38448,53.84728],[91.38105,53.84912]],[[91.3899,53.83872],[91.38939,53.83883]],[[91.3899,53.83872],[91.38955,53.83847]],[[91.3899,53.83872],[91.40031,53.84065],[91.40391,53.84019],[91.39419,53.83309]],[[91.4056,53.75049],[91.39975,53.75256],[91.39479,53.75926],[91.39215,53.77119]],[[91.40486,53.67317],[91.40471,53.67322]],[[91.4098,53.10468],[91.40974,53.10444]],[[91.40974,53.10444],[91.41479,53.09488]],[[91.40974,53.10444],[91.40988,53.10444],[91.40995,53.10445]],[[91.41665,53.11014],[91.4098,53.10468]],[[91.41005,53.10457],[91.4098,53.10468]],[[91.40995,53.10445],[91.41006,53.10448]],[[91.40995,53.10445],[91.41005,53.10457]],[[91.41006,53.10448],[91.41005,53.10457]],[[91.41006,53.10448],[91.41687,53.11002]],[[91.41511,53.09495],[91.41006,53.10448]],[[91.41166,53.6781],[91.41379,53.68197],[91.46039,53.70084],[91.46972,53.70823],[91.47272,53.70888],[91.47728,53.70782],[91.48457,53.7105]],[[91.45495,53.6449],[91.44028,53.63829],[91.42966,53.62791],[91.4119,53.61775],[91.41301,53.61089]],[[91.41773,53.11081],[91.43741,53.12673],[91.54105,53.22925],[91.5512,53.27231],[91.53395,53.29051],[91.53644,53.29942],[91.53509,53.30437],[91.54395,53.34278],[91.54394,53.3554],[91.54514,53.36185],[91.55132,53.36878],[91.55789,53.37213],[91.56431,53.38744],[91.56378,53.39545],[91.55966,53.4028],[91.5586,53.40991],[91.55943,53.4172],[91.56237,53.42038],[91.56661,53.42848],[91.55436,53.45701],[91.54617,53.46661],[91.54016,53.47023],[91.53058,53.47918],[91.5017,53.49331],[91.48214,53.50605],[91.45287,53.53668],[91.42893,53.5563],[91.41301,53.61089]],[[91.41459,53.09432],[91.41502,53.09474]],[[91.41479,53.09484],[91.41459,53.09432]],[[91.41459,53.09432],[91.41254,53.0912],[91.41302,53.08595],[91.41795,53.08438],[91.42368,53.0751],[91.4329,53.06962],[91.43122,53.06498],[91.43176,53.06274],[91.43778,53.05017],[91.44092,53.04724],[91.44089,53.0421],[91.44297,53.03724],[91.4552,53.02547],[91.45973,53.01866],[91.4654,53.01439],[91.46927,53.00738],[91.48834,52.99104],[91.49376,52.98067],[91.49273,52.97068],[91.49802,52.96933]],[[91.41479,53.09488],[91.41479,53.09484]],[[91.41479,53.09484],[91.41502,53.09474]],[[91.41511,53.09495],[91.41479,53.09488]],[[91.41502,53.09474],[91.41511,53.09495]],[[91.41773,53.11081],[91.41688,53.11031]],[[91.41712,53.1102],[91.41773,53.11081]],[[91.43011,53.7037],[91.43062,53.70367]],[[91.43062,53.70367],[91.43049,53.70402]],[[91.43651,53.69159],[91.43062,53.70367]],[[91.45495,53.6449],[91.46349,53.64646]],[[91.46349,53.64646],[91.45838,53.64566],[91.45495,53.6449]],[[91.46974,53.64945],[91.46807,53.64783],[91.46704,53.64726],[91.46349,53.64646]],[[91.47397,53.65407],[91.46607,53.652],[91.46388,53.65238]],[[91.4662,53.64693],[91.4758,53.64778]],[[91.46974,53.64945],[91.46673,53.64946],[91.46891,53.65054]],[[91.46907,53.65069],[91.46837,53.65162],[91.46955,53.65236],[91.47103,53.65198],[91.47099,53.65077]],[[91.47099,53.65077],[91.46974,53.64945]],[[91.47099,53.65077],[91.47397,53.65086],[91.47182,53.64979]],[[91.47397,53.65407],[91.47099,53.65077]],[[91.47397,53.65407],[91.47906,53.65899],[91.51177,53.67507],[91.50613,53.6914],[91.50881,53.69599]],[[91.47628,53.64763],[91.47358,53.65252],[91.47397,53.65407]],[[91.48433,53.71092],[91.48457,53.7105]],[[91.48457,53.7105],[91.48494,53.71084]],[[91.49084,53.70719],[91.49093,53.70681]],[[91.5046,53.69881],[91.49557,53.7047],[91.4904,53.70649],[91.49093,53.70681],[91.49119,53.70706]],[[91.5046,53.69881],[91.50606,53.6993]],[[91.50881,53.69599],[91.5046,53.69881]],[[91.50881,53.69599],[91.50978,53.69617]],[[91.53955,53.65551],[91.5394,53.66029],[91.53452,53.66997]],[[91.53888,53.65874],[91.53805,53.65887]],[[91.53818,53.65856],[91.53888,53.65874]],[[91.53888,53.65874],[91.53942,53.65923]],[[91.53888,53.65874],[91.53942,53.65837]],[[91.41708,53.11024],[91.4168,53.1103],[91.41665,53.11014],[91.41694,53.11002],[91.41708,53.11024]]]}},{"type":"Feature","properties":{"roadClass":"tertiary"},"geometry":{"type":"MultiLineString","coordinates":[[[88.47915,55.02929],[88.47437,55.03721],[88.47408,55.04307],[88.47558,55.0474],[88.47945,55.05138],[88.48849,55.05593],[88.49149,55.05976],[88.49485,55.06118],[88.5023,55.0614],[88.51908,55.06476],[88.54528,55.07252],[88.54807,55.07527],[88.54844,55.07929],[88.55137,55.08465],[88.55904,55.09413],[88.5595,55.09764],[88.55807,55.10272],[88.559,55.10663],[88.56709,55.11006],[88.56595,55.1118],[88.56872,55.11549],[88.57312,55.11675],[88.59133,55.11657],[88.59571,55.11785],[88.59759,55.11998],[88.59841,55.12547],[88.60366,55.13363],[88.61097,55.13636],[88.61688,55.14072],[88.63521,55.14119],[88.64704,55.14634],[88.64831,55.14759],[88.6481,55.15255],[88.65187,55.15663],[88.65163,55.16063],[88.65512,55.16487],[88.66592,55.16764],[88.66939,55.16999],[88.66932,55.17189],[88.66434,55.17696],[88.64936,55.18393],[88.64312,55.18992],[88.64227,55.19245],[88.64707,55.20288],[88.64726,55.20903],[88.65002,55.21291],[88.65763,55.21897],[88.66119,55.2256],[88.66254,55.23601],[88.66618,55.24205],[88.66425,55.2499],[88.67262,55.25993],[88.67535,55.26918]],[[88.52647,55.34191],[88.52673,55.34047],[88.50965,55.32975],[88.50796,55.33011],[88.50375,55.32814],[88.4867,55.32707]],[[88.58186,55.39228],[88.58003,55.39035],[88.58048,55.38875],[88.57891,55.38789]],[[88.58186,55.39228],[88.58799,55.39839],[88.60272,55.4038],[88.60785,55.41137],[88.60691,55.41261]],[[88.67535,55.26918],[88.67308,55.26998],[88.66862,55.2756],[88.66291,55.27994],[88.65646,55.28907],[88.65719,55.29291],[88.65501,55.30317],[88.64822,55.31119],[88.64259,55.3164],[88.63373,55.31893],[88.62322,55.32557],[88.61847,55.33125],[88.59865,55.34481],[88.59258,55.35376],[88.58917,55.35652],[88.58784,55.35913],[88.58929,55.3635],[88.58846,55.37206],[88.59307,55.37338],[88.58792,55.38924],[88.58186,55.39228]],[[88.87019,55.37152],[88.86381,55.36926],[88.85883,55.3638],[88.85674,55.35585],[88.85298,55.35088],[88.8507,55.34399],[88.84344,55.337],[88.835,55.33097],[88.82556,55.32744],[88.82112,55.32463],[88.80459,55.31945],[88.80048,55.31423],[88.80101,55.30563],[88.7811,55.2958],[88.77439,55.29371],[88.76928,55.29363],[88.76855,55.29273],[88.77094,55.28943],[88.7661,55.2842],[88.76339,55.28321],[88.75406,55.28359],[88.7514,55.28268],[88.72993,55.28544],[88.71916,55.28318],[88.70467,55.2763],[88.68837,55.2719],[88.67587,55.27049],[88.67535,55.26918]],[[89.83867,55.00358],[89.83098,54.99792],[89.81991,54.99876],[89.80231,55.00314],[89.76613,55.00517],[89.7253,54.99864],[89.67206,54.98849],[89.62279,54.97212],[89.5847,54.96642],[89.57519,54.96707],[89.56209,54.97008],[89.55168,54.98272],[89.52938,54.99043],[89.50888,54.99167],[89.47726,54.99585],[89.45835,54.99613],[89.43929,55.00079],[89.41551,55.00216],[89.39933,55.00017],[89.39032,54.99547],[89.37818,54.99332],[89.3347,54.97723],[89.30289,54.95232],[89.29591,54.93827],[89.29053,54.93232],[89.27945,54.92382],[89.27187,54.91187],[89.27173,54.90646],[89.27713,54.8968],[89.27786,54.89069],[89.27645,54.88247],[89.27704,54.87338],[89.27497,54.86836],[89.27285,54.86699],[89.26299,54.86471],[89.21819,54.86246],[89.20932,54.85947],[89.19691,54.85944],[89.18622,54.85669],[89.16659,54.84681],[89.15855,54.84482],[89.15543,54.84174],[89.13976,54.83773],[89.12692,54.83159],[89.1227,54.82757],[89.11164,54.81121],[89.10104,54.80122],[89.08419,54.79417],[89.07374,54.787],[89.06045,54.78265],[89.04666,54.78349],[89.02463,54.7816],[89.01547,54.77437],[88.99542,54.76765],[88.98662,54.7722],[88.97083,54.77437],[88.94068,54.78097],[88.9392,54.78293],[88.93025,54.78707],[88.91097,54.78694],[88.89089,54.7732],[88.88796,54.76992],[88.88564,54.76133],[88.88092,54.75566],[88.88001,54.75297],[88.88303,54.74823],[88.87998,54.73179],[88.87107,54.72034],[88.87131,54.71237],[88.86986,54.71092],[88.85908,54.70735],[88.85172,54.70669],[88.84438,54.69968],[88.83715,54.69818],[88.82138,54.68668],[88.7946,54.67764],[88.79289,54.67546],[88.78,54.66897],[88.77506,54.66416],[88.76587,54.66176],[88.75364,54.65605],[88.75228,54.6536],[88.75367,54.65205],[88.75306,54.65096],[88.73941,54.64859],[88.71493,54.65176],[88.69936,54.65201],[88.69753,54.65302]],[[89.13123,53.40984],[89.13178,53.41124],[89.13763,53.41513],[89.13936,53.41829],[89.13794,53.41892],[89.12829,53.41122],[89.13251,53.40913],[89.13322,53.40764],[89.1341,53.40125],[89.13297,53.39906],[89.1361,53.39405],[89.13091,53.39097],[89.12973,53.3857],[89.12625,53.38099],[89.12653,53.37839],[89.12453,53.37565],[89.12633,53.3733],[89.12147,53.36718],[89.11825,53.36508],[89.12079,53.36303],[89.12133,53.36045],[89.12616,53.35396],[89.13204,53.34871],[89.13395,53.34412],[89.14373,53.33781],[89.15066,53.32855],[89.1612,53.32227],[89.16009,53.31725],[89.1625,53.3133],[89.16297,53.30975],[89.16534,53.30785],[89.16409,53.30391],[89.17636,53.30611],[89.18986,53.31065],[89.19957,53.31803],[89.21311,53.32415],[89.21865,53.32525],[89.23999,53.31698],[89.25266,53.30787],[89.25884,53.30825],[89.26187,53.31164],[89.26945,53.31582],[89.27459,53.31699],[89.27852,53.3165],[89.2933,53.30401],[89.29625,53.30331],[89.30201,53.30589],[89.30643,53.31307],[89.31951,53.31693],[89.32833,53.31563],[89.34602,53.31816],[89.35426,53.31752],[89.36711,53.3145],[89.37725,53.31416],[89.38729,53.3152],[89.38842,53.31754],[89.39036,53.31863],[89.42535,53.31564],[89.44246,53.30628],[89.44866,53.29967],[89.44861,53.29467],[89.45026,53.29147],[89.44907,53.28124],[89.45144,53.27985],[89.46079,53.28066],[89.47741,53.27748],[89.48268,53.27894],[89.49057,53.28343],[89.49485,53.27978],[89.49588,53.28283],[89.50618,53.28809],[89.51311,53.2906],[89.51624,53.29061],[89.51682,53.29245],[89.52165,53.29522],[89.52701,53.29555],[89.53452,53.29948],[89.55521,53.29841],[89.56218,53.29361],[89.56697,53.29345],[89.56673,53.29176],[89.56901,53.29023],[89.57025,53.28941],[89.57064,53.28916],[89.57139,53.28862]],[[89.21597,54.60683],[89.22511,54.62116],[89.25309,54.65503],[89.26541,54.6665],[89.27706,54.68606],[89.28607,54.69161],[89.28726,54.69411]],[[89.75981,54.51981],[89.75646,54.52049],[89.75289,54.52124],[89.74611,54.52261],[89.73623,54.5253],[89.71671,54.52916],[89.69181,54.53708],[89.67171,54.53913],[89.65977,54.54891],[89.62276,54.55692],[89.61322,54.55407],[89.59553,54.55631],[89.57348,54.55003],[89.56227,54.54927],[89.54847,54.54668],[89.52022,54.54043],[89.50232,54.53524],[89.49062,54.52933],[89.48435,54.51385],[89.4698,54.50757],[89.46398,54.50624],[89.46345,54.50482],[89.46563,54.50098],[89.46461,54.49769],[89.45422,54.48536],[89.45268,54.47502],[89.45645,54.46662],[89.44558,54.45795],[89.44825,54.45318],[89.44829,54.45055],[89.46612,54.43931],[89.46753,54.43698],[89.46655,54.43422],[89.46284,54.43151],[89.4501,54.42906],[89.44223,54.42531],[89.43792,54.42158],[89.43485,54.41692],[89.42973,54.41355],[89.42839,54.41049],[89.43659,54.40448],[89.45667,54.40346],[89.46347,54.40182],[89.46369,54.40028],[89.45454,54.39515],[89.45321,54.38975],[89.4537,54.38378],[89.45081,54.38116],[89.44506,54.38098],[89.43935,54.38239],[89.4256,54.38222],[89.41511,54.38022],[89.4055,54.37543],[89.38735,54.37408],[89.37307,54.36846],[89.36251,54.35793],[89.34973,54.3529],[89.34539,54.34646],[89.33897,54.34116],[89.33737,54.33185],[89.32596,54.33548],[89.32311,54.33484],[89.31625,54.33804],[89.30625,54.34587],[89.29571,54.34853],[89.28919,54.34686],[89.26861,54.33468],[89.26211,54.33451],[89.25892,54.33093],[89.25693,54.3308],[89.2552,54.33233],[89.253,54.33156],[89.24662,54.32575]],[[89.28726,54.69411],[89.28913,54.69934],[89.28715,54.70576],[89.29146,54.71749],[89.30031,54.73483],[89.30611,54.74368],[89.31058,54.74767],[89.32201,54.76458],[89.3374,54.7707],[89.36627,54.77318],[89.38994,54.77819],[89.38592,54.78539],[89.38628,54.78642],[89.44436,54.81774],[89.4446,54.81878],[89.44188,54.82147],[89.44017,54.82795],[89.43189,54.83191],[89.43247,54.83558],[89.43116,54.84196],[89.43308,54.8449],[89.4478,54.84902],[89.4535,54.85205],[89.4983,54.86856],[89.50903,54.87531],[89.5264,54.88911],[89.5335,54.89617],[89.5549,54.90796]],[[89.28726,54.69411],[89.29335,54.6933],[89.30007,54.68896],[89.31103,54.68476],[89.32343,54.68288],[89.34046,54.68509],[89.38188,54.69542],[89.38876,54.69556],[89.40112,54.69308],[89.40301,54.68789],[89.41266,54.68969],[89.42669,54.68677],[89.42743,54.68874],[89.42999,54.68853],[89.58179,54.66035],[89.64769,54.64056],[89.68061,54.62082],[89.69733,54.60878],[89.71111,54.60698],[89.73112,54.5919],[89.73525,54.55364],[89.74153,54.54604],[89.75514,54.52275],[89.75981,54.51981]],[[89.8245,52.75064],[89.82192,52.75196],[89.80985,52.74829],[89.79922,52.74891],[89.76385,52.7453],[89.76203,52.746],[89.76229,52.74753],[89.76037,52.74855],[89.73844,52.75062],[89.72436,52.75474],[89.71466,52.75469],[89.70448,52.75301],[89.68838,52.75557],[89.67818,52.75525],[89.66276,52.75814],[89.66027,52.75962],[89.65531,52.76605],[89.64686,52.76553],[89.63288,52.77411],[89.61659,52.77912],[89.61438,52.78069],[89.61109,52.78596],[89.60525,52.78869],[89.59305,52.78645],[89.58679,52.78698],[89.56912,52.79144],[89.56016,52.78903],[89.55211,52.7896],[89.54204,52.7963],[89.53603,52.79818],[89.52289,52.80078],[89.51888,52.80289],[89.50791,52.80471],[89.48726,52.80557],[89.47851,52.81084],[89.453,52.81426],[89.44869,52.81357],[89.44795,52.8113],[89.44623,52.81035],[89.44127,52.80984],[89.44039,52.81088]],[[89.44565,54.45771],[89.44522,54.45839],[89.44619,54.47087],[89.45281,54.47451]],[[89.8245,52.75064],[89.82177,52.75053],[89.81054,52.7456],[89.80778,52.74267],[89.79589,52.73738],[89.78233,52.73443],[89.76613,52.71974],[89.76401,52.71059],[89.73197,52.68568],[89.71579,52.68195],[89.69525,52.68062],[89.68738,52.68147],[89.67816,52.67958],[89.65735,52.67242],[89.64679,52.67134],[89.63804,52.66863],[89.6329,52.66581],[89.61772,52.66285],[89.61487,52.66461],[89.61706,52.66813],[89.61684,52.66993],[89.60579,52.67829],[89.60005,52.68077],[89.59367,52.6902],[89.58636,52.69216],[89.56982,52.68845],[89.55997,52.68916],[89.5513,52.68681],[89.54359,52.68111],[89.52708,52.67818],[89.51617,52.67995],[89.46363,52.65874],[89.45521,52.65902],[89.45874,52.65093],[89.45535,52.64238]],[[89.92869,54.44538],[89.91425,54.44288],[89.91538,54.4367],[89.91238,54.43257],[89.91262,54.4287],[89.89951,54.41322],[89.89031,54.41016],[89.88655,54.40651],[89.88695,54.40401],[89.88415,54.40211],[89.87709,54.3997],[89.86233,54.39196],[89.8331,54.38816],[89.83147,54.38707],[89.82824,54.38013],[89.82519,54.37653],[89.80334,54.36653],[89.79237,54.36896],[89.78259,54.36814],[89.75894,54.36196],[89.75471,54.35787],[89.74049,54.35224],[89.74084,54.34831],[89.73925,54.34484],[89.73345,54.33834],[89.72687,54.33394],[89.7203,54.32557],[89.72071,54.32252],[89.71642,54.31478],[89.71288,54.31221],[89.70374,54.30606],[89.69713,54.3039],[89.68795,54.29609],[89.67979,54.29175],[89.67158,54.28948],[89.65961,54.28857],[89.6332,54.26497],[89.62539,54.2601],[89.61419,54.24952],[89.5931,54.24022],[89.57943,54.23956],[89.5756,54.23829],[89.57314,54.23454],[89.57567,54.23165],[89.58187,54.22836],[89.58286,54.22438],[89.578,54.21984],[89.5711,54.2169],[89.56858,54.21445],[89.56805,54.2123],[89.55711,54.21035],[89.55222,54.20738],[89.53827,54.20373],[89.5161,54.20195],[89.51289,54.20072],[89.51263,54.19815],[89.5225,54.18661],[89.52895,54.17455],[89.52591,54.16577],[89.52752,54.16202],[89.52393,54.15827],[89.51682,54.15688],[89.50687,54.15049],[89.49522,54.15053],[89.48229,54.14492],[89.47839,54.14092]],[[89.5266,53.45471],[89.52428,53.45399],[89.52512,53.45197],[89.52713,53.45126],[89.52343,53.44697],[89.52464,53.44493],[89.5231,53.43752],[89.51593,53.42827],[89.51824,53.42309],[89.51817,53.4214],[89.51621,53.41908],[89.51908,53.40953],[89.51653,53.40725],[89.51616,53.39609],[89.51228,53.3853],[89.5164,53.38052],[89.53855,53.36721],[89.54749,53.36012],[89.55438,53.35248],[89.55838,53.3502],[89.56922,53.34685],[89.57204,53.34481]],[[89.5549,54.90796],[89.55021,54.91146],[89.54461,54.91838],[89.5421,54.92584],[89.54045,54.93661],[89.54911,54.94565],[89.58174,54.96647]],[[89.5549,54.90796],[89.56186,54.90325]],[[89.55987,53.2604],[89.56909,53.27045],[89.56996,53.2807],[89.5685,53.28672],[89.56989,53.2888],[89.5703,53.28913],[89.5712,53.2896],[89.57207,53.28994],[89.56831,53.29069]],[[89.726,52.7709],[89.73158,52.76892],[89.74149,52.76744],[89.75589,52.75862],[89.75687,52.75555],[89.7634,52.75394],[89.78461,52.76076],[89.81391,52.77402],[89.81919,52.77747],[89.83284,52.77656],[89.83933,52.78064],[89.84849,52.7825],[89.86443,52.78992]],[[89.75646,54.52049],[89.75625,54.52156]],[[89.75981,54.51981],[89.77959,54.51468],[89.81268,54.50331],[89.86095,54.51066],[89.89372,54.5118],[89.90907,54.50785],[89.91834,54.50914],[89.93024,54.50805],[89.93484,54.50917]],[[89.7704,54.7855],[89.76985,54.77959],[89.76383,54.77257],[89.76707,54.76627],[89.7666,54.76293],[89.7569,54.74981],[89.75544,54.74459],[89.75238,54.74328],[89.7446,54.73065],[89.73537,54.71163],[89.73755,54.70806],[89.75061,54.69986],[89.75632,54.69845],[89.76761,54.69858]],[[89.7704,54.7855],[89.77784,54.79094],[89.78082,54.79666],[89.78043,54.80439],[89.77683,54.81005]],[[89.84945,54.89029],[89.83697,54.88466],[89.82545,54.87738],[89.81869,54.87439],[89.80243,54.87019],[89.79144,54.86539],[89.79811,54.85772],[89.80205,54.84368],[89.79189,54.83634],[89.79142,54.83555],[89.78123,54.81774],[89.77683,54.81005],[89.77679,54.80997],[89.77563,54.80787],[89.7704,54.7855]],[[90.04093,52.92606],[90.031,52.9361],[90.02778,52.94126],[90.02818,52.94792],[90.02034,52.95601],[90.00752,52.95677],[89.9997,52.96087],[89.99763,52.96343],[89.98214,52.96413],[89.95232,52.97071],[89.93891,52.97225],[89.9228,52.97065],[89.89791,52.97054],[89.8859,52.96748],[89.87316,52.96253],[89.87247,52.96087],[89.87227,52.96075],[89.86674,52.95801],[89.86423,52.95777],[89.86381,52.9595],[89.85257,52.96063],[89.84179,52.96433],[89.81772,52.96116],[89.81193,52.96162],[89.80624,52.96419],[89.80222,52.96434],[89.79387,52.9629],[89.79031,52.96087],[89.78376,52.96034],[89.78117,52.96062],[89.77703,52.96354]],[[89.78233,52.73443],[89.78454,52.73809],[89.78811,52.74062],[89.80428,52.74804]],[[89.81392,54.63127],[89.80881,54.63476]],[[89.80883,54.63493],[89.82282,54.63862],[89.84395,54.64048],[89.85732,54.63771],[89.8598,54.63831]],[[89.81251,55.00122],[89.81228,55.00084]],[[89.88058,52.77922],[89.8793,52.77527],[89.8676,52.76265],[89.85349,52.75532],[89.84742,52.75056],[89.83986,52.74852],[89.83181,52.74826],[89.8245,52.75064]],[[89.8325,54.99859],[89.82879,54.99164],[89.82883,54.98812],[89.83084,54.98599]],[[89.83596,55.00161],[89.83303,55.00258]],[[89.84572,54.88853],[89.84699,54.88816]],[[89.93662,52.8475],[89.91471,52.84787],[89.9054,52.84491],[89.89642,52.84988],[89.88767,52.85304],[89.87892,52.85829],[89.88187,52.86716],[89.88024,52.86955],[89.87196,52.87219],[89.85723,52.87373],[89.8542,52.8755]],[[89.89242,52.80116],[89.87497,52.79572],[89.86443,52.78992]],[[89.86443,52.78992],[89.8602,52.79467],[89.86044,52.79797],[89.87274,52.80211],[89.88014,52.80725],[89.8805,52.80737],[89.88084,52.80747],[89.88167,52.80762],[89.88285,52.80766],[89.90199,52.8069]],[[89.8892,53.33977],[89.88266,53.33743],[89.88308,53.33499],[89.88124,53.33414],[89.8831,53.32797],[89.87343,53.3262],[89.86523,53.32216]],[[89.9248,52.98592],[89.90433,52.98799],[89.89802,52.98757],[89.87709,52.97868],[89.87363,52.97824],[89.87034,52.97608],[89.86962,52.97279]],[[89.95454,53.11512],[89.94579,53.11004],[89.94502,53.10578],[89.94608,53.10346],[89.94242,53.09911],[89.8999,53.07938],[89.89177,53.07424],[89.89217,53.06816],[89.89541,53.06278],[89.89517,53.06079],[89.87974,53.05455],[89.87576,53.04868],[89.87164,53.0305],[89.85629,53.01225],[89.84233,53.00567],[89.83827,53.00663],[89.82798,53.00649],[89.83207,52.99809],[89.83032,52.99443],[89.83221,52.99175],[89.84281,52.98799],[89.84427,52.98456],[89.8495,52.97822],[89.85428,52.97487],[89.85989,52.97333],[89.86962,52.97279]],[[89.87132,52.96029],[89.86885,52.96166],[89.87458,52.96607],[89.87304,52.9686],[89.8699,52.97036],[89.86962,52.97279]],[[90.11381,55.06876],[90.07933,55.06283],[90.05702,55.06375],[90.03762,55.0609],[90.02238,55.05426],[90.01429,55.0474],[89.97524,55.03683],[89.95051,55.03146],[89.93104,55.03436],[89.9198,55.03269],[89.89639,55.02678],[89.8847,55.02529],[89.86989,55.01693]],[[89.88085,54.72571],[89.87568,54.72802]],[[89.87983,52.77626],[89.88286,52.77594]],[[89.88058,52.77922],[89.88266,52.78455],[89.891,52.78964],[89.89082,52.79352],[89.8935,52.79938]],[[89.88058,52.77922],[89.88675,52.77038],[89.89543,52.76144]],[[89.88881,52.80005],[89.88268,52.80546],[89.88066,52.80742]],[[89.90139,52.80598],[89.88703,52.80164]],[[89.9171,52.79754],[89.91272,52.7981],[89.91034,52.79546],[89.90613,52.79451],[89.90287,52.79438],[89.89582,52.79315],[89.89501,52.79307],[89.89093,52.79364]],[[89.89346,52.79947],[89.8935,52.79938]],[[89.8935,52.79938],[89.89798,52.79356]],[[89.90655,52.78528],[89.90263,52.78738],[89.89965,52.79381]],[[89.90054,54.58423],[89.90144,54.58422]],[[89.90055,54.5847],[89.90144,54.58422]],[[89.90144,54.58422],[89.90746,54.58181],[89.91026,54.57882]],[[89.90522,52.80867],[89.90199,52.8069]],[[89.90199,52.8069],[89.90247,52.80636]],[[89.91179,52.7877],[89.91039,52.78709]],[[89.95454,53.11512],[89.94815,53.11893],[89.941,53.12075],[89.92262,53.13148],[89.92077,53.13531],[89.91422,53.13612]],[[89.93218,54.33725],[89.92095,54.3392],[89.91873,54.33754],[89.91336,54.32556],[89.91528,54.3181]],[[89.93192,54.43536],[89.93244,54.43567],[89.94142,54.4397],[89.95114,54.44426]],[[89.93258,54.43573],[89.93224,54.43585]],[[89.96464,54.34256],[89.93275,54.34204]],[[89.93327,52.83577],[89.95839,52.82727],[89.96254,52.82925]],[[89.94264,54.43862],[89.94142,54.4397],[89.93701,54.44145]],[[89.95442,54.47323],[89.96217,54.47168],[89.96423,54.47975],[89.96609,54.48149],[89.96862,54.48086],[89.97253,54.48516]],[[89.95454,53.11512],[89.95861,53.11695],[89.99506,53.1256],[90.04516,53.1363],[90.07488,53.13958],[90.08236,53.14518],[90.0884,53.14788],[90.0966,53.14634],[90.10327,53.14668],[90.13953,53.15977],[90.15953,53.16464],[90.16611,53.16401],[90.16798,53.16553]],[[89.95698,54.48242],[89.95765,54.49283]],[[89.96314,54.48827],[89.96132,54.48833]],[[89.97522,54.49592],[89.97722,54.4888],[89.97318,54.48497],[89.96861,54.48636],[89.96302,54.48673],[89.96307,54.48763],[89.96314,54.48827],[89.96323,54.4895],[89.96335,54.49147]],[[89.97669,54.49038],[89.97205,54.49003],[89.96848,54.49241]],[[89.97083,53.27035],[89.96893,53.26526],[89.97262,53.26147],[89.98546,53.25548],[89.98977,53.25568],[89.99295,53.25712],[89.99648,53.25649]],[[89.9709,53.26921],[89.97175,53.26955]],[[89.98667,54.49975],[89.98272,54.50823]],[[90.03923,52.92785],[90.04767,52.9338]],[[90.32091,52.70289],[90.31156,52.70358],[90.29676,52.69446],[90.26695,52.68188],[90.25758,52.676],[90.23241,52.66539],[90.21171,52.65974],[90.20057,52.65433],[90.19402,52.6537],[90.14904,52.6409],[90.09169,52.63635],[90.08219,52.62926],[90.0774,52.62732],[90.07908,52.62496],[90.07168,52.62325]],[[90.24111,55.0129],[90.22985,55.02485],[90.21722,55.02865],[90.16566,55.05651],[90.14087,55.06237],[90.12643,55.06844],[90.11829,55.06942],[90.11381,55.06876]],[[90.11381,55.06876],[90.11499,55.07107],[90.12503,55.07422]],[[90.11716,54.50105],[90.14953,54.49889]],[[90.27231,55.11083],[90.24364,55.10901],[90.23116,55.11036],[90.2123,55.1041],[90.19187,55.10427],[90.17893,55.10222],[90.15386,55.10266],[90.15161,55.10117],[90.1505,55.0966],[90.14824,55.09516],[90.11636,55.09006],[90.11177,55.08828],[90.11195,55.08653],[90.12503,55.07422]],[[90.12503,55.07422],[90.12976,55.06713]],[[90.16883,52.95001],[90.19081,52.95436],[90.19776,52.95768],[90.21585,52.95775]],[[90.17273,52.95075],[90.17293,52.95025]],[[90.19072,52.94445],[90.19418,52.93752],[90.2022,52.93068],[90.19831,52.9237],[90.21721,52.92297],[90.21913,52.91971],[90.22557,52.91758],[90.23039,52.91448],[90.23144,52.91073],[90.23532,52.90957],[90.23587,52.9052],[90.24171,52.90466],[90.24162,52.89553],[90.24462,52.89085],[90.24222,52.8766]],[[90.65728,54.25845],[90.64749,54.25839],[90.62533,54.24913],[90.62068,54.25044],[90.60639,54.25131],[90.57883,54.24984],[90.55772,54.25135],[90.54831,54.25309],[90.54059,54.25217],[90.52833,54.25384],[90.51692,54.25305],[90.51374,54.25156],[90.50619,54.24438],[90.49769,54.24267],[90.49435,54.24085],[90.47373,54.22305],[90.46563,54.22115],[90.45521,54.22217],[90.44073,54.21601],[90.40991,54.2178],[90.38506,54.21743],[90.36731,54.20958],[90.36022,54.20251],[90.3069,54.17843],[90.27992,54.17427],[90.26746,54.17599],[90.23958,54.16797],[90.22429,54.16648]],[[90.25125,53.99984],[90.24753,53.99605],[90.24406,53.99479],[90.23245,53.99511]],[[90.23527,53.8431],[90.24389,53.8332],[90.24536,53.82876],[90.24317,53.82635],[90.24063,53.82569],[90.23578,53.83036]],[[90.23776,54.01036],[90.2525,54.00249],[90.2589,54.00188],[90.27376,53.99554],[90.2953,53.99295]],[[90.23908,52.96401],[90.24225,52.95985],[90.24506,52.96219],[90.25395,52.9598]],[[90.25595,53.82165],[90.24533,53.82894]],[[90.2525,54.00249],[90.25125,53.99984]],[[90.25125,53.99984],[90.25162,53.99975],[90.25198,53.99985],[90.25374,54.00217]],[[90.4063,52.90662],[90.37486,52.90132],[90.33067,52.89126],[90.31172,52.88949],[90.30266,52.88651],[90.27915,52.87175],[90.28862,52.86098]],[[90.45856,53.12424],[90.45228,53.13244],[90.41375,53.13481],[90.41486,53.14022],[90.41662,53.14223],[90.41784,53.14669],[90.3907,53.16038],[90.38786,53.16337],[90.37602,53.16721],[90.37195,53.17046],[90.36622,53.18177],[90.36568,53.18847],[90.35328,53.20693],[90.35413,53.21184],[90.3515,53.21503],[90.33602,53.22386],[90.33641,53.22942],[90.32161,53.23306],[90.31268,53.23667],[90.30763,53.24278],[90.30001,53.24636],[90.2943,53.2452]],[[90.2953,53.99295],[90.2974,53.99166],[90.29745,53.98997]],[[90.29745,53.98997],[90.29797,53.99204],[90.2953,53.99295]],[[90.29745,53.98997],[90.29731,53.98956]],[[90.32872,54.08897],[90.3323,54.08825]],[[90.7908,54.78844],[90.78369,54.78852],[90.77461,54.78526],[90.74806,54.77873],[90.74509,54.77769],[90.73958,54.77543],[90.72435,54.76965],[90.71503,54.76336],[90.65405,54.74418],[90.65119,54.74242],[90.63543,54.7255],[90.63276,54.72404],[90.59728,54.72025],[90.5726,54.71032],[90.54445,54.70492],[90.53678,54.70454],[90.51891,54.70795],[90.49369,54.70968],[90.4816,54.70913],[90.45201,54.70352],[90.44306,54.70388],[90.39505,54.71615],[90.3295,54.70606]],[[90.3651,54.45735],[90.37314,54.46977]],[[90.38054,54.4599],[90.36856,54.46268]],[[90.37496,53.69616],[90.38224,53.70334]],[[90.38142,53.70261],[90.3782,53.69989]],[[90.39938,53.02097],[90.38962,53.04185],[90.3784,53.05295]],[[90.38624,54.81104],[90.38894,54.80619],[90.40311,54.80871]],[[90.38733,54.3877],[90.38869,54.38713]],[[90.38869,54.38713],[90.38857,54.38559]],[[90.42382,54.4297],[90.39779,54.4118],[90.39366,54.40764],[90.38644,54.39476],[90.38891,54.38985],[90.38733,54.3877],[90.38718,54.3875],[90.38869,54.38713]],[[90.40842,53.02422],[90.40167,53.0214],[90.39938,53.02097],[90.39112,53.01954]],[[90.49017,52.93195],[90.48538,52.93236],[90.46369,52.92855],[90.45883,52.92605],[90.45529,52.92225],[90.44781,52.91862],[90.42958,52.91235],[90.4063,52.90662]],[[90.4063,52.90662],[90.41812,52.87745],[90.42199,52.87305],[90.43353,52.86622],[90.42918,52.86304]],[[90.42771,53.04731],[90.42524,53.05388]],[[90.45658,53.12523],[90.45733,53.12552]],[[90.45891,53.55148],[90.46449,53.5488],[90.47007,53.5432],[90.486,53.54195],[90.50526,53.53159],[90.51188,53.52354],[90.51378,53.51663],[90.52032,53.51472],[90.53258,53.50701],[90.53628,53.50235],[90.53976,53.49484]],[[90.46525,52.93226],[90.48,52.93602],[90.48626,52.93624],[90.48963,52.93596],[90.49109,52.93568],[90.49225,52.93542],[90.49299,52.93525],[90.49418,52.93501],[90.49494,52.9349],[90.50145,52.93495]],[[90.49522,52.94407],[90.49572,52.93955],[90.49299,52.93525],[90.49017,52.93195]],[[90.49017,52.93195],[90.49445,52.9313],[90.50041,52.92833],[90.50096,52.92606],[90.50012,52.92458],[90.5018,52.92072]],[[90.49914,52.92905],[90.51648,52.93695],[90.52215,52.93828]],[[90.51833,53.13401],[90.50491,53.12944]],[[90.50717,53.14079],[90.51172,53.13623],[90.51713,53.13436],[90.51798,53.13411],[90.51815,53.13406],[90.51833,53.13401],[90.51913,53.13377],[90.51986,53.13357],[90.53007,53.13075],[90.53365,53.13045]],[[90.51804,53.13393],[90.51798,53.13411]],[[90.53401,53.13072],[90.53365,53.13045]],[[90.53365,53.13045],[90.53442,53.13034]],[[90.53419,53.13056],[90.53399,53.13056]],[[90.53409,53.13041],[90.53425,53.1305]],[[90.53635,53.12849],[90.54264,53.13167],[90.54662,53.14033],[90.54393,53.14134]],[[90.62016,53.38289],[90.61173,53.38985],[90.58835,53.39938],[90.58524,53.40647],[90.5776,53.4161],[90.57716,53.4198],[90.57436,53.42148],[90.57559,53.42254],[90.57476,53.42344],[90.57537,53.42507],[90.57735,53.42612],[90.57235,53.42836],[90.56877,53.43621],[90.57027,53.44734],[90.5697,53.44996],[90.56311,53.45742],[90.55721,53.46128],[90.5533,53.46739],[90.55219,53.47214],[90.55302,53.48001],[90.54702,53.49098],[90.54452,53.49325],[90.53927,53.49482]],[[90.62016,53.38289],[90.60914,53.38548],[90.60118,53.3901]],[[90.62838,54.27492],[90.62747,54.2705],[90.61664,54.2595],[90.61859,54.25057]],[[90.7855,53.32672],[90.77503,53.32792],[90.72915,53.34034],[90.7195,53.35224],[90.71731,53.35361],[90.71637,53.35386],[90.71388,53.35415],[90.7127,53.35432],[90.70957,53.35475],[90.70697,53.35511],[90.70651,53.35518],[90.68064,53.35765],[90.65417,53.36728],[90.63587,53.38024],[90.62016,53.38289]],[[90.64132,53.15847],[90.65379,53.16382],[90.66561,53.17084],[90.67611,53.17551],[90.68557,53.17778],[90.6871,53.17915],[90.69711,53.17117],[90.69946,53.17055],[90.71678,53.17318],[90.75941,53.18697],[90.77117,53.18806],[90.7724,53.18582]],[[90.70397,53.24251],[90.70984,53.24074],[90.71698,53.23678]],[[90.70465,53.35045],[90.70697,53.35511]],[[90.71033,52.94783],[90.70938,52.95782]],[[90.71135,54.58425],[90.73578,54.58242],[90.77805,54.59327]],[[90.7135,53.61852],[90.72303,53.61949],[90.72735,53.62373],[90.72891,53.6294],[90.73184,53.62876],[90.73581,53.63019]],[[90.84747,54.22002],[90.84177,54.21754],[90.8315,54.21566],[90.82865,54.21105],[90.82219,54.20542],[90.80396,54.19665],[90.79248,54.18889],[90.78413,54.17807],[90.76408,54.16268],[90.76048,54.15834],[90.74387,54.15026],[90.7282,54.14589]],[[90.73387,54.77329],[90.68282,54.81404],[90.69244,54.82803],[90.6918,54.83277],[90.6882,54.83488],[90.70358,54.83714],[90.72103,54.84573],[90.76893,54.84858],[90.78428,54.85235],[90.78545,54.85689],[90.80529,54.85639],[90.80341,54.85885],[90.80436,54.86104],[90.78964,54.86216]],[[90.77539,54.57969],[90.78361,54.58413]],[[90.779,54.5918],[90.77977,54.59001],[90.77828,54.58855],[90.77844,54.58829],[90.78145,54.58591],[90.78361,54.58413],[90.7839,54.58387],[90.78507,54.58241],[90.79101,54.56884]],[[90.79403,54.798],[90.79429,54.79826]],[[90.79406,54.79935],[90.79428,54.79871]],[[90.84747,54.22002],[90.83435,54.23122],[90.81019,54.23582]],[[90.82513,52.99946],[90.82756,52.98953]],[[90.83695,54.22924],[90.85176,54.23771],[90.91278,54.2671],[90.93137,54.28183],[90.9681,54.32194],[90.97241,54.34145],[90.97271,54.34905],[90.97599,54.35069]],[[90.8663,54.22335],[90.86048,54.22379],[90.84983,54.22094],[90.84747,54.22002]],[[90.85491,54.21328],[90.85653,54.21425],[90.8558,54.21745],[90.85387,54.21757],[90.85029,54.22102]],[[90.86551,53.25413],[90.87419,53.25766],[90.89188,53.26093]],[[90.87785,53.26564],[90.88456,53.26381],[90.88828,53.26421],[90.8925,53.26062],[90.89592,53.26021],[90.90497,53.25804],[90.90743,53.25765],[90.91411,53.25507]],[[90.94735,53.05243],[90.93483,53.05143],[90.91165,53.05259],[90.89625,53.05474],[90.88931,53.0603],[90.87931,53.06259]],[[90.88877,53.26392],[90.90892,53.27187],[90.91599,53.27149]],[[90.89663,53.03003],[90.89853,53.03329],[90.89767,53.03733],[90.89517,53.04141],[90.88151,53.05446],[90.87931,53.06259],[90.862,53.06695],[90.82683,53.07911],[90.82142,53.09337],[90.79761,53.12834],[90.79657,53.14363],[90.79033,53.16062],[90.77255,53.18604],[90.77914,53.18956],[90.79805,53.20418],[90.80638,53.21722],[90.86508,53.25173],[90.86588,53.25328],[90.86484,53.25541],[90.87699,53.26373],[90.87816,53.26684],[90.87917,53.26811],[90.92725,53.30341],[90.93423,53.31324],[90.94229,53.33694],[90.94046,53.34441],[90.95569,53.35626],[90.9665,53.3625],[90.98686,53.37221],[91.00052,53.37671],[91.00557,53.3818],[91.05897,53.4045],[91.07624,53.41527],[91.09754,53.42622],[91.11718,53.43315],[91.15471,53.43922],[91.20296,53.46066],[91.22198,53.46593],[91.24598,53.47657],[91.26785,53.48233],[91.28249,53.488],[91.3099,53.49532],[91.31691,53.49817]],[[90.90619,53.25787],[90.91196,53.25935]],[[90.9209,53.03734],[90.91772,53.04356],[90.91812,53.04665],[90.92216,53.04796]],[[91.37524,53.14417],[91.35019,53.14108],[91.33165,53.13348],[91.31332,53.13322],[91.30094,53.12786],[91.27534,53.12152],[91.25514,53.11626],[91.19443,53.10027],[91.18204,53.10057],[91.17182,53.09431],[91.14472,53.08099],[91.13374,53.07795],[91.05388,53.06486],[91.01814,53.06021],[90.95807,53.05986]],[[90.96521,54.35751],[90.96468,54.3577]],[[90.97357,54.38065],[90.97404,54.38066]],[[90.98055,54.37052],[90.97968,54.37204],[90.97362,54.38131]],[[90.97544,54.35152],[90.97599,54.35069]],[[90.97599,54.35069],[90.97782,54.35154]],[[90.98055,54.37052],[90.98192,54.37054],[90.98559,54.37042],[90.99714,54.36994],[91.00199,54.3709],[91.03378,54.39886],[91.04676,54.41222],[91.0774,54.42762],[91.09782,54.43315],[91.15125,54.43992],[91.16812,54.44368]],[[90.98531,54.35556],[90.98233,54.3623],[90.98055,54.37052]],[[90.98531,54.35556],[90.98489,54.35473]],[[90.98582,54.35474],[90.98531,54.35556]],[[91.05268,53.15772],[91.06141,53.14605]],[[91.26235,54.09969],[91.23586,54.09483],[91.18319,54.10199],[91.14906,54.09942],[91.13828,54.09961],[91.11808,54.09444],[91.1157,54.093],[91.11475,54.08939],[91.11035,54.0833],[91.10984,54.07678],[91.10128,54.06812],[91.08961,54.05892],[91.08369,54.05598],[91.07908,54.05547],[91.07252,54.06154]],[[91.07977,53.54323],[91.08694,53.54136],[91.10095,53.53338],[91.11789,53.52602],[91.15485,53.51931],[91.1563,53.51789],[91.17007,53.51853],[91.18245,53.5228]],[[91.0922,53.93562],[91.09587,53.93132],[91.1013,53.9305],[91.12093,53.92925],[91.13086,53.93014]],[[91.17356,53.68559],[91.16526,53.69206],[91.15126,53.6982]],[[91.41263,53.0784],[91.40535,53.07355],[91.33109,53.07628],[91.30594,53.0799],[91.29125,53.08137],[91.26445,53.08381],[91.23848,53.08655],[91.21579,53.09102],[91.18706,53.09162],[91.17635,53.0958],[91.17376,53.09542]],[[91.18291,53.68783],[91.18234,53.68779]],[[91.23361,53.64532],[91.21772,53.64585],[91.21674,53.64669],[91.22038,53.64931],[91.21788,53.65141],[91.20747,53.65382],[91.20609,53.6571],[91.20062,53.65882],[91.19668,53.66356],[91.1885,53.66538],[91.18381,53.66795],[91.18265,53.67014],[91.18147,53.68073],[91.17356,53.68559],[91.18234,53.68779]],[[91.18234,53.68779],[91.18278,53.6876]],[[91.1836,53.68806],[91.18273,53.69176]],[[91.1836,53.68806],[91.18319,53.68784]],[[91.1834,53.68753],[91.1849,53.68756]],[[91.1849,53.68756],[91.1836,53.68806]],[[91.1849,53.68756],[91.1852,53.68756],[91.18621,53.68757],[91.18821,53.68784]],[[91.21743,53.27789],[91.241,53.2743]],[[91.2578,53.10848],[91.24956,53.11477]],[[91.26226,54.09286],[91.27802,54.09831],[91.29205,54.101],[91.31815,54.10317],[91.37561,54.10565],[91.43672,54.11651]],[[91.26586,53.66018],[91.28365,53.6488],[91.28401,53.64444],[91.2863,53.64069]],[[91.32971,53.56615],[91.30304,53.55716],[91.29987,53.55408],[91.28001,53.55014]],[[91.2863,53.64069],[91.29397,53.62573],[91.29133,53.62067],[91.28228,53.61853],[91.28186,53.61566]],[[91.31502,53.83281],[91.31564,53.8319],[91.28217,53.82188]],[[91.28218,53.83177],[91.29068,53.83301],[91.31285,53.83983]],[[91.2921,53.08127],[91.28872,53.08033],[91.28496,53.07479]],[[91.28635,53.64278],[91.2863,53.64069]],[[91.29371,53.81975],[91.29341,53.81395]],[[91.30056,53.55435],[91.29785,53.55242]],[[91.30773,53.31377],[91.32303,53.30249],[91.33539,53.29521],[91.36362,53.27929],[91.37128,53.27664],[91.37199,53.27435],[91.37981,53.26922],[91.37974,53.26546],[91.37821,53.26069],[91.36677,53.25332],[91.35053,53.24012],[91.34115,53.23985],[91.34085,53.2288],[91.33531,53.2239],[91.33615,53.21346],[91.3182,53.20158],[91.31376,53.19749],[91.2995,53.19678],[91.30067,53.18601],[91.30879,53.1836],[91.32059,53.18663],[91.33194,53.18424],[91.36009,53.18164],[91.37595,53.18095],[91.37988,53.17796],[91.42077,53.16222],[91.43122,53.15108]],[[91.36331,53.67731],[91.36168,53.66696],[91.35823,53.66344],[91.33271,53.64817],[91.32879,53.64681],[91.32596,53.64708],[91.31715,53.64847],[91.30841,53.65171]],[[91.30934,53.78086],[91.30432,53.77145],[91.3103,53.77087]],[[91.34567,53.70773],[91.31993,53.71428],[91.31821,53.71535],[91.31879,53.71717]],[[91.32333,53.84539],[91.32158,53.84541]],[[91.32932,53.81565],[91.32821,53.81727],[91.33671,53.82002],[91.35004,53.81741]],[[91.3313,53.78066],[91.33129,53.7854],[91.32852,53.79002],[91.34605,53.79394],[91.35141,53.79918]],[[91.34567,53.70773],[91.34638,53.70731]],[[91.34696,53.70767],[91.34567,53.70773]],[[91.35971,53.72263],[91.3656,53.73031],[91.36149,53.73192],[91.34676,53.73383]],[[91.34716,53.70708],[91.34818,53.70697]],[[91.34818,53.70697],[91.34742,53.70741]],[[91.36068,53.71254],[91.35892,53.71273],[91.34817,53.71592]],[[91.34818,53.70697],[91.35113,53.70612]],[[91.41232,53.61803],[91.39804,53.61092],[91.37285,53.59589],[91.3633,53.59172],[91.35726,53.58806],[91.34908,53.58086]],[[91.35113,53.70612],[91.35121,53.7057]],[[91.35201,53.70614],[91.35145,53.70608],[91.35113,53.70612]],[[91.35275,53.71459],[91.35971,53.72263]],[[91.36019,53.18164],[91.35863,53.19039],[91.35632,53.19527],[91.35485,53.20398],[91.35528,53.20825],[91.35401,53.21227]],[[91.35971,53.72263],[91.36635,53.72074]],[[91.36868,53.72007],[91.35971,53.72263]],[[91.39126,53.83309],[91.38807,53.83078],[91.37537,53.82842],[91.37085,53.8268],[91.36894,53.82623],[91.36766,53.8259],[91.36522,53.82521],[91.36156,53.8242],[91.36002,53.82514]],[[91.36489,53.73822],[91.3624,53.77253],[91.36043,53.78074]],[[91.36145,53.71283],[91.36068,53.71254]],[[91.36068,53.71254],[91.36144,53.71246]],[[91.3657,53.73001],[91.3663,53.73196],[91.36495,53.73818]],[[91.37452,53.68932],[91.36222,53.68442],[91.36914,53.6782],[91.38069,53.67158],[91.40038,53.68493]],[[91.37469,53.83227],[91.38401,53.83198],[91.38418,53.83037]],[[91.46658,53.15542],[91.37524,53.14417]],[[91.3847,53.12361],[91.38307,53.12988],[91.37791,53.13248],[91.38028,53.13525],[91.37464,53.14185],[91.37524,53.14417]],[[91.3988,53.78854],[91.40086,53.79399],[91.40384,53.79694],[91.40771,53.79877],[91.40844,53.79967],[91.41095,53.80335],[91.4118,53.8213],[91.41461,53.83132],[91.41805,53.83345],[91.41642,53.8348],[91.41481,53.8407],[91.4102,53.84405],[91.38105,53.84912]],[[91.4059,53.74976],[91.40528,53.74816],[91.39885,53.74496],[91.38807,53.73404],[91.38124,53.73028]],[[91.38312,53.8481],[91.38365,53.84852]],[[91.3847,53.12361],[91.38804,53.11821]],[[91.38804,53.11821],[91.38804,53.11847],[91.3847,53.12361]],[[91.39622,53.81555],[91.38869,53.81588],[91.38389,53.81941],[91.37797,53.81965],[91.36895,53.82211],[91.36531,53.8251],[91.36522,53.82521],[91.36513,53.8253],[91.36362,53.82737],[91.36645,53.8298],[91.37445,53.83306],[91.3868,53.84358]],[[91.39132,53.11471],[91.38804,53.11821]],[[91.38927,53.69861],[91.40072,53.70255]],[[91.39058,53.83541],[91.3894,53.8341],[91.39126,53.83309]],[[91.39298,53.83225],[91.39126,53.83309]],[[91.39132,53.11471],[91.39165,53.11423]],[[91.39177,53.11439],[91.39132,53.11471]],[[91.39169,53.1142],[91.39214,53.11378]],[[91.39202,53.11461],[91.39183,53.11439]],[[91.39214,53.11378],[91.39199,53.11425]],[[91.392,53.11429],[91.39202,53.11461]],[[91.39202,53.11461],[91.39283,53.11544],[91.39403,53.11353]],[[91.39213,53.78056],[91.39396,53.77831],[91.39692,53.77947]],[[91.40579,53.08923],[91.40435,53.09116],[91.40129,53.09605],[91.39996,53.09809],[91.39888,53.09979],[91.39656,53.10349],[91.39727,53.10522],[91.39214,53.11378]],[[91.39374,53.68935],[91.39685,53.68655]],[[91.39387,53.83287],[91.39589,53.83177],[91.3978,53.82728],[91.40454,53.8209],[91.39911,53.81894]],[[91.42426,53.11609],[91.40675,53.11649],[91.39403,53.11353]],[[91.39699,53.10867],[91.39403,53.11353]],[[91.39864,53.81891],[91.39408,53.82332]],[[91.39525,53.7921],[91.40011,53.79216]],[[91.40844,53.79967],[91.39581,53.80128]],[[91.40015,53.81096],[91.39609,53.81101]],[[91.39685,53.68655],[91.39724,53.68615]],[[91.3975,53.68635],[91.39685,53.68655]],[[91.40576,53.11069],[91.39699,53.10867]],[[91.39706,53.10856],[91.39699,53.10867]],[[91.39706,53.10856],[91.40598,53.11041]],[[91.41371,53.08541],[91.40998,53.08599],[91.40876,53.08798],[91.40843,53.08905],[91.4083,53.08978],[91.40825,53.08998],[91.40818,53.09028],[91.40515,53.09515],[91.40473,53.09594],[91.40302,53.09876],[91.40289,53.09898],[91.40277,53.09917],[91.39706,53.10856]],[[91.3975,53.68635],[91.39724,53.68615]],[[91.39724,53.68615],[91.39761,53.68601]],[[91.39783,53.68616],[91.39775,53.6863],[91.39764,53.68634],[91.39755,53.68635],[91.3975,53.68635]],[[91.39761,53.68601],[91.39788,53.686]],[[91.39761,53.68601],[91.39783,53.68616]],[[91.39788,53.686],[91.39783,53.68616]],[[91.39788,53.686],[91.40038,53.68493]],[[91.3989,53.8185],[91.39864,53.81891]],[[91.39864,53.81891],[91.39885,53.81888],[91.39911,53.81894]],[[91.3989,53.8185],[91.39911,53.81894]],[[91.3989,53.8185],[91.40015,53.81105],[91.40015,53.81096],[91.4002,53.81033],[91.40025,53.80995],[91.40032,53.80874],[91.40072,53.80589],[91.40068,53.80524],[91.40409,53.80309],[91.40385,53.80048]],[[91.39996,53.09809],[91.40284,53.09873],[91.40302,53.09876],[91.40573,53.09936],[91.40713,53.09967],[91.40861,53.1],[91.40884,53.10005],[91.41204,53.10075],[91.41485,53.10125],[91.42158,53.10009]],[[91.40038,53.68493],[91.41191,53.67877]],[[91.43679,53.71049],[91.42721,53.70913],[91.40661,53.70458],[91.40072,53.70255]],[[91.40072,53.70255],[91.40814,53.69504],[91.41252,53.6871],[91.41612,53.68399]],[[91.40935,53.10446],[91.40073,53.10252]],[[91.40534,53.75057],[91.4059,53.74976]],[[91.4056,53.75049],[91.4059,53.74976]],[[91.40646,53.11048],[91.40635,53.11082],[91.40576,53.11069]],[[91.40576,53.11069],[91.40598,53.11041]],[[91.4059,53.74976],[91.40594,53.75029]],[[91.40598,53.11041],[91.40608,53.1104]],[[91.40608,53.1104],[91.40646,53.11048]],[[91.40608,53.1104],[91.40935,53.10446]],[[91.40998,53.10466],[91.40646,53.11048]],[[91.41268,53.69682],[91.40802,53.70089],[91.40661,53.70458]],[[91.40935,53.10446],[91.40974,53.10444]],[[91.41848,53.68501],[91.4121,53.69659]],[[91.41246,53.09007],[91.40825,53.08998],[91.4067,53.08978],[91.40579,53.08923],[91.39983,53.08542],[91.39969,53.08523],[91.41263,53.0784]],[[91.42109,53.07931],[91.41263,53.0784]],[[91.4154,53.09487],[91.41515,53.09492]],[[91.41516,53.09481],[91.4154,53.09487]],[[91.42158,53.10009],[91.41816,53.09501],[91.4154,53.09487]],[[91.41589,53.71442],[91.41593,53.7143]],[[91.4159,52.83957],[91.41385,52.84367],[91.40988,52.84595],[91.41519,52.84927],[91.42142,52.85638],[91.42066,52.86164],[91.41471,52.87252],[91.41846,52.88078],[91.42197,52.88355],[91.43229,52.88815],[91.44547,52.89053],[91.46102,52.88959],[91.46844,52.89225],[91.47081,52.89425],[91.47039,52.89922],[91.46641,52.9064],[91.45913,52.91393],[91.45912,52.91859],[91.46019,52.92165],[91.46495,52.9278],[91.46808,52.93783],[91.47184,52.94455],[91.47624,52.94795],[91.48657,52.9526],[91.49044,52.95864],[91.49223,52.96323],[91.4907,52.96739],[91.49288,52.97138],[91.4923,52.97786],[91.4925,52.97819],[91.4928,52.97857],[91.4929,52.97871],[91.49286,52.97888],[91.49227,52.97946],[91.492,52.97985],[91.49157,52.9834]],[[91.41694,53.11002],[91.41762,53.10983]],[[91.41762,53.10983],[91.41713,53.11017]],[[91.41762,53.10983],[91.42217,53.10782],[91.424,53.10489],[91.42158,53.10009]],[[91.42786,53.69095],[91.4228,53.69006],[91.41869,53.69918]],[[91.42203,53.70051],[91.42389,53.69893],[91.42786,53.69095]],[[91.4247,53.74178],[91.42701,53.7434],[91.43572,53.74331]],[[91.43581,53.69238],[91.42786,53.69095]],[[91.43679,53.71049],[91.43589,53.71166],[91.42804,53.71059]],[[91.44717,53.70625],[91.43036,53.7044]],[[91.44678,53.62968],[91.43954,53.62783],[91.43387,53.63201]],[[91.43572,53.74331],[91.42745,53.73623],[91.42698,53.73511],[91.42725,53.7332],[91.42743,53.73598],[91.43572,53.74331]],[[91.43572,53.74331],[91.43991,53.74322],[91.43971,53.73735],[91.43823,53.73604]],[[91.45423,53.71118],[91.43679,53.71049]],[[91.44675,53.70647],[91.44729,53.70652]],[[91.44717,53.70625],[91.44758,53.70694],[91.4477,53.70756],[91.44762,53.7106]],[[91.45221,53.69816],[91.44717,53.70625]],[[91.46034,53.71179],[91.45423,53.71118]],[[91.4594,53.71485],[91.45144,53.71409],[91.45423,53.71118]],[[91.45423,53.71118],[91.45886,53.70625],[91.45967,53.70354],[91.45855,53.70264]],[[91.45768,53.73661],[91.46924,53.73784]],[[91.4594,53.71485],[91.45828,53.71858]],[[91.45841,53.70678],[91.46503,53.70842]],[[91.47289,53.71556],[91.46542,53.71545],[91.4594,53.71485]],[[91.46034,53.71179],[91.4594,53.71485]],[[91.47875,53.71362],[91.47396,53.71324],[91.47063,53.71283],[91.46631,53.71239],[91.46556,53.71231],[91.46034,53.71179]],[[91.46137,53.70789],[91.46034,53.71179]],[[91.46542,53.71545],[91.46631,53.71239],[91.46715,53.70937]],[[91.46702,53.15585],[91.49079,53.16022],[91.52369,53.16341],[91.53984,53.16747],[91.61798,53.17209],[91.61959,53.17246],[91.63515,53.17776],[91.63862,53.17896],[91.64069,53.17976],[91.66352,53.19422],[91.67185,53.1956],[91.71532,53.19605],[91.72342,53.19786],[91.75878,53.22555],[91.77892,53.23697],[91.78251,53.25031],[91.78673,53.25872],[91.78503,53.26225],[91.79668,53.27241],[91.82105,53.28119],[91.82026,53.29611],[91.82106,53.30059],[91.84061,53.31522],[91.85107,53.33167],[91.86412,53.34089],[91.88677,53.34827],[91.88903,53.35242],[91.88898,53.35536],[91.88646,53.35892],[91.85583,53.38092],[91.83676,53.39848],[91.81171,53.4352],[91.80096,53.43886],[91.78513,53.43984],[91.77537,53.43877],[91.69662,53.42247],[91.67026,53.41371],[91.6581,53.40704],[91.64363,53.40383],[91.62539,53.39134],[91.60982,53.38515],[91.60385,53.38545],[91.5996,53.38704],[91.59652,53.39078],[91.57672,53.40606],[91.56227,53.40732],[91.55862,53.409]],[[91.47063,53.71283],[91.47546,53.7107]],[[91.4878,53.70834],[91.48833,53.70849]],[[91.5065,53.69013],[91.50886,53.6953],[91.49366,53.70122],[91.48748,53.70526],[91.48699,53.70789],[91.4878,53.70834]],[[91.4878,53.70834],[91.48829,53.70815]],[[91.48829,53.70815],[91.48833,53.70849]],[[91.48829,53.70815],[91.4904,53.70649]],[[91.48833,53.70849],[91.50408,53.71357],[91.51515,53.72104]],[[91.49104,53.17941],[91.51666,53.17587],[91.52531,53.17189]],[[91.49221,52.97955],[91.49374,52.97973]],[[91.4928,52.97857],[91.49336,52.97871],[91.49368,52.97843]],[[91.49286,52.97888],[91.49373,52.97945]],[[91.50031,53.70564],[91.49655,53.70408]],[[91.50083,53.70561],[91.50058,53.70564],[91.50031,53.70564]],[[91.50114,53.70584],[91.50031,53.70564]],[[91.52428,53.62187],[91.52286,53.62159]],[[91.52412,53.62091],[91.5251,53.6213]],[[91.52428,53.62187],[91.52365,53.64698],[91.52819,53.64973],[91.53019,53.6531],[91.53707,53.65856]],[[91.52516,53.62141],[91.52428,53.62187]],[[91.53384,53.67272],[91.53321,53.67301]],[[91.53384,53.67272],[91.53332,53.67262]],[[91.53348,53.47716],[91.53415,53.47766],[91.53282,53.47912],[91.53481,53.48008],[91.64008,53.50521],[91.64216,53.50604],[91.64563,53.5079],[91.64621,53.50821],[91.64653,53.50827],[91.64675,53.50824],[91.64744,53.50813]],[[91.53355,53.67226],[91.53384,53.67272]],[[91.53384,53.67272],[91.54155,53.67482],[91.54783,53.67045],[91.54947,53.66214],[91.5394,53.66029]],[[91.53733,53.65873],[91.53707,53.65856]],[[91.53707,53.65856],[91.53739,53.6585]],[[91.54635,53.25128],[91.58429,53.24336],[91.59109,53.23984],[91.59223,53.23859],[91.60254,53.22529],[91.61992,53.20296],[91.63862,53.17896],[91.63922,53.1782],[91.65144,53.16633]],[[91.55132,53.36878],[91.57276,53.37101],[91.58679,53.37452],[91.59341,53.37762],[91.59331,53.37951],[91.60562,53.38268],[91.61007,53.38518]],[[91.59892,53.38759],[91.59387,53.3847]],[[91.64563,53.5079],[91.64214,53.50898]],[[91.64621,53.50821],[91.65002,53.50995],[91.65815,53.50871],[91.65939,53.50702]],[[91.64689,53.50822],[91.65109,53.50716],[91.656,53.50846]],[[91.8869,53.34469],[91.88812,53.34933]],[[91.88748,53.34871],[91.88784,53.34861]],[[89.80889,54.63485],[89.80869,54.63496],[89.8085,54.63485],[89.80869,54.63474],[89.80889,54.63485]],[[91.18324,53.68752],[91.18356,53.68774],[91.18331,53.68785],[91.18291,53.68783],[91.18274,53.68773],[91.18324,53.68752]],[[91.34694,53.70705],[91.34733,53.70754],[91.34649,53.70755],[91.34646,53.70719],[91.34694,53.70705]],[[91.39198,53.11433],[91.39189,53.11438],[91.39183,53.11439],[91.39177,53.11439],[91.39164,53.11426],[91.39169,53.1142],[91.39174,53.11418],[91.39187,53.11417],[91.39198,53.11433]]]}},{"type":"Feature","properties":{"roadClass":"trunk"},"geometry":{"type":"MultiLineString","coordinates":[[[91.10112,54.27673],[91.10076,54.27698],[91.09972,54.27761],[91.09929,54.27785],[91.09637,54.27933],[91.0832,54.2848],[91.04069,54.30152],[90.98582,54.35474],[90.97606,54.35135],[90.96497,54.35708],[90.96491,54.35719],[90.96476,54.35746],[90.96449,54.35828],[90.96494,54.3619],[90.97027,54.37107],[90.97362,54.38131],[90.95779,54.40482],[90.91203,54.45301],[90.9097,54.45788],[90.90928,54.46629],[90.90154,54.46926],[90.90081,54.47534],[90.89453,54.49075],[90.87263,54.49964],[90.83627,54.51169],[90.81307,54.52507],[90.79891,54.54818],[90.79101,54.56884],[90.78643,54.57341],[90.76857,54.58412],[90.76939,54.58714],[90.779,54.5918],[90.77611,54.59766],[90.76721,54.63526],[90.75205,54.67429],[90.75189,54.71626],[90.766,54.74428],[90.76805,54.75847],[90.76738,54.76426],[90.79261,54.79041],[90.79401,54.79506],[90.79403,54.806],[90.78987,54.81418],[90.78541,54.81924],[90.77492,54.82749],[90.76305,54.8334],[90.766,54.88444],[90.75532,54.89669],[90.75149,54.91494]],[[90.96449,54.35828],[90.96406,54.35742]],[[90.96491,54.35719],[90.96521,54.35751]],[[91.10032,54.27725],[91.09998,54.27693]],[[91.10112,54.27673],[91.1014,54.27705]],[[91.10112,54.27673],[91.11997,54.25531],[91.18822,54.22706],[91.19523,54.2231],[91.23009,54.19326],[91.25679,54.15615],[91.25929,54.14481],[91.25782,54.13464],[91.26238,54.11206],[91.26225,54.08655],[91.26828,54.05559],[91.28094,54.02181],[91.28429,53.99492],[91.26207,53.93913],[91.25601,53.90301]],[[91.25552,53.9],[91.25464,53.89948]],[[91.25546,53.8984],[91.25554,53.89959],[91.2555,53.89961],[91.25546,53.89961],[91.25541,53.89962],[91.25494,53.89956]],[[91.25601,53.90301],[91.25574,53.90143],[91.25552,53.9],[91.25546,53.89963],[91.25546,53.89961],[91.25545,53.89955],[91.25531,53.8987],[91.25529,53.89855],[91.25453,53.89373],[91.25373,53.88941],[91.25367,53.88873],[91.25472,53.87888],[91.25581,53.8757],[91.2569,53.87375],[91.26117,53.86787],[91.26258,53.8665],[91.26462,53.86516],[91.26653,53.86426],[91.27171,53.86246],[91.2803,53.85953],[91.30082,53.85246],[91.3053,53.85089],[91.30829,53.84987],[91.31576,53.84704],[91.31907,53.84617],[91.33003,53.84251],[91.33262,53.84204],[91.33662,53.84162]],[[91.34703,53.8368],[91.34481,53.83898],[91.34292,53.84014],[91.3416,53.8407],[91.33863,53.84147],[91.32826,53.84311],[91.32284,53.84497],[91.31889,53.84635],[91.31595,53.84765],[91.26696,53.86423],[91.2633,53.8661],[91.25681,53.87422],[91.25482,53.87915],[91.25386,53.88877],[91.25472,53.89371],[91.25503,53.89563],[91.25508,53.89598],[91.25546,53.8984],[91.25548,53.89855],[91.25566,53.89967],[91.25601,53.90301]],[[91.30082,53.85246],[91.30197,53.8513]],[[91.31595,53.84765],[91.31515,53.84751],[91.31576,53.84704]],[[91.32149,53.84533],[91.32213,53.84448]],[[91.32419,53.84451],[91.32333,53.84539]],[[91.33662,53.84162],[91.34095,53.83992]],[[91.33662,53.84162],[91.34149,53.8406],[91.34524,53.83846],[91.35579,53.82717],[91.36575,53.81636],[91.36681,53.81487],[91.36696,53.81273],[91.36567,53.8107],[91.35301,53.79947]],[[91.34703,53.8368],[91.34297,53.84086]],[[91.35381,53.79902],[91.36596,53.81081],[91.36701,53.8123],[91.3672,53.81417],[91.36678,53.8153],[91.36577,53.81657],[91.34703,53.8368]],[[91.35276,53.79932],[91.35141,53.79918]],[[91.35301,53.79947],[91.35276,53.79932],[91.35237,53.79906],[91.35224,53.79861]],[[91.35224,53.79861],[91.35785,53.78467],[91.35965,53.78223],[91.36138,53.78077]],[[91.35224,53.79861],[91.35325,53.79838]],[[91.35381,53.79902],[91.35379,53.79941],[91.35346,53.79952],[91.35301,53.79947]],[[91.35391,53.79454],[91.35459,53.79545],[91.35324,53.79614]],[[91.35325,53.79838],[91.35381,53.79902]],[[91.36207,53.78049],[91.35781,53.78501],[91.35545,53.7907],[91.35324,53.79614],[91.3529,53.79706],[91.35325,53.79838]],[[91.35332,53.79564],[91.35268,53.79511],[91.35363,53.7949]],[[91.35911,53.82379],[91.36002,53.82514]],[[91.3594,53.82322],[91.35923,53.8229]],[[91.35956,53.70989],[91.35944,53.70919]],[[91.35944,53.70919],[91.36038,53.70646],[91.36322,53.70118],[91.36419,53.69999],[91.38223,53.68395],[91.38712,53.68032],[91.39042,53.67845],[91.39443,53.67665],[91.43645,53.66131],[91.46238,53.65274],[91.47206,53.64949],[91.47406,53.64869],[91.47905,53.64502],[91.48519,53.63292],[91.4864,53.63109],[91.48732,53.6301],[91.48915,53.62868],[91.49273,53.62687],[91.49752,53.62559],[91.52137,53.62169],[91.52534,53.62129],[91.52978,53.62132],[91.53381,53.62178],[91.5387,53.6228],[91.542,53.62366],[91.54448,53.6246],[91.54773,53.62644],[91.55502,53.63227]],[[91.35944,53.70919],[91.35981,53.70908],[91.36021,53.70922]],[[91.36038,53.70973],[91.36004,53.70998],[91.35956,53.70989]],[[91.36147,53.71244],[91.35956,53.70989]],[[91.35997,53.78191],[91.36008,53.78073]],[[91.36021,53.70922],[91.36038,53.70973]],[[91.55486,53.63234],[91.54427,53.62464],[91.53111,53.62155],[91.52204,53.6217],[91.49276,53.62699],[91.48672,53.63096],[91.47988,53.64415],[91.47776,53.64653],[91.47449,53.64865],[91.39667,53.67596],[91.38665,53.68083],[91.36531,53.69906],[91.3606,53.70648],[91.36021,53.70922]],[[91.36038,53.70973],[91.36212,53.71228]],[[91.36138,53.78077],[91.36043,53.78074]],[[91.36138,53.78077],[91.3637,53.77948],[91.36622,53.77854],[91.3915,53.77146]],[[91.36207,53.78049],[91.36138,53.78077]],[[91.36164,53.71295],[91.36147,53.71244]],[[91.36147,53.71244],[91.36212,53.71228]],[[91.36249,53.71291],[91.36211,53.71301],[91.36164,53.71295]],[[91.40212,53.73109],[91.38851,53.72987],[91.38465,53.72899],[91.38232,53.72811],[91.3794,53.72649],[91.37159,53.72039],[91.36694,53.71989],[91.36477,53.71889],[91.3636,53.71739],[91.36164,53.71295]],[[91.39177,53.77234],[91.36207,53.78049]],[[91.36212,53.71228],[91.36258,53.71248]],[[91.36249,53.71291],[91.36489,53.71878],[91.37195,53.72045],[91.38247,53.72803],[91.38982,53.72993],[91.40283,53.73101],[91.40409,53.73098]],[[91.36258,53.71248],[91.36249,53.71291]],[[91.36258,53.71248],[91.36345,53.71282]],[[91.37741,53.68812],[91.37806,53.6869],[91.37702,53.68368],[91.37498,53.6819]],[[91.39177,53.77234],[91.3915,53.77146]],[[91.3915,53.77146],[91.39201,53.77081]],[[91.3915,53.77146],[91.39215,53.77119]],[[91.39336,53.77213],[91.3917,53.77349]],[[91.39336,53.77213],[91.3927,53.77244],[91.39177,53.77234]],[[91.39215,53.77119],[91.39336,53.77213]],[[91.39215,53.77119],[91.40041,53.76799],[91.40616,53.76262],[91.40728,53.75697],[91.40602,53.75161]],[[91.40659,53.75108],[91.40744,53.75697],[91.40635,53.76259],[91.40099,53.76774],[91.39336,53.77213]],[[91.40399,53.7316],[91.40295,53.73122],[91.40212,53.73109]],[[91.40514,53.73325],[91.40212,53.73109]],[[91.40283,53.73101],[91.40403,53.73029]],[[91.40546,53.75125],[91.40395,53.75104]],[[91.40502,53.73154],[91.40446,53.73171],[91.40399,53.7316]],[[91.40514,53.73325],[91.40399,53.7316]],[[91.40399,53.7316],[91.40409,53.73098]],[[91.40409,53.73098],[91.40502,53.73154]],[[91.40502,53.73154],[91.40942,53.74429],[91.41204,53.7472]],[[91.41132,53.74751],[91.40925,53.74432],[91.40514,53.73325]],[[91.40602,53.75161],[91.40546,53.75125]],[[91.40546,53.75125],[91.4056,53.75049]],[[91.4056,53.75049],[91.41131,53.74757]],[[91.4056,53.75049],[91.40597,53.75047],[91.40611,53.75049],[91.40653,53.75083]],[[91.40659,53.75108],[91.40602,53.75161]],[[91.40653,53.75083],[91.40659,53.75108]],[[91.41191,53.74794],[91.40653,53.75083]],[[91.41191,53.74794],[91.41131,53.74757]],[[91.41131,53.74757],[91.41132,53.74751]],[[91.41132,53.74751],[91.41204,53.7472]],[[91.41257,53.74754],[91.41191,53.74794]],[[91.41204,53.7472],[91.41257,53.74754]],[[91.41257,53.74754],[91.41362,53.74821]],[[91.46405,53.65218],[91.46587,53.64979],[91.46109,53.64611]],[[91.47171,53.6496],[91.47236,53.64855],[91.47108,53.64792],[91.46962,53.64832],[91.46974,53.64945]]]}}],"provenance":{"sources":[{"id":"osm-siberian-260916","url":"https://download.geofabrik.de/russia/siberian-fed-district-260916.osm.pbf","snapshot":"2026-09-16T20:21:21Z","sha256":"37e12e429cc8617419edd3853f299c1e752a4d89b6dee4456a3a98ed62fc99a1","md5":"c5850699d3c22a686d229498cdc55b31","bytes":583874472,"license":"ODbL-1.0","attribution":"© OpenStreetMap contributors, Geofabrik","downloadDate":"2026-09-17"}],"attribution":"© OpenStreetMap contributors, Geofabrik; ODbL-1.0","geometryMethod":"Actual OSM road ways, merged by class and endpoint, display simplification 0.0007 degrees; not routing geometry","sourceWayCount":2196,"routingUse":false}}