{"type":"FeatureCollection","features":[{"type":"Feature","properties":{"roadClass":"primary"},"geometry":{"type":"MultiLineString","coordinates":[[[44.21641,42.98305],[44.21651,42.98305]],[[44.217,42.98965],[44.21713,42.98963]],[[44.26752,43.77334],[44.33398,43.76389],[44.42995,43.75236],[44.46627,43.75273],[44.55951,43.75186],[44.56353,43.75218],[44.59916,43.75191],[44.60023,43.75197],[44.60188,43.75211],[44.60285,43.75216],[44.60424,43.75176],[44.60356,43.75096],[44.60276,43.75138],[44.60273,43.75156],[44.60275,43.75184],[44.60276,43.7526],[44.60277,43.75287],[44.60419,43.75584],[44.60945,43.75909]],[[44.28642,43.20448],[44.31672,43.1903],[44.31941,43.18384],[44.3191,43.17884]],[[44.31885,43.17844],[44.31825,43.17828]],[[44.31924,43.17784],[44.31875,43.17814]],[[44.31875,43.17814],[44.31868,43.17816],[44.31885,43.17844],[44.3191,43.17884]],[[44.31875,43.17814],[44.31878,43.17754]],[[44.31878,43.17754],[44.31924,43.17784]],[[44.31878,43.17754],[44.32942,43.17078],[44.34255,43.16348],[44.3615,43.15365],[44.37195,43.15116],[44.37347,43.15094],[44.37574,43.15089],[44.37923,43.15151],[44.38792,43.15494],[44.39239,43.15546],[44.40476,43.15257],[44.41032,43.14919],[44.41664,43.13966],[44.41857,43.13768],[44.42129,43.13608],[44.42793,43.13403],[44.47473,43.12285],[44.48341,43.11946],[44.48564,43.11861],[44.48894,43.11731],[44.48976,43.11707]],[[44.31916,43.17802],[44.3191,43.17884]],[[44.3234,43.17479],[44.31924,43.17784]],[[44.3234,43.17479],[44.32367,43.17493],[44.32368,43.17461]],[[44.48976,43.11707],[44.48892,43.11744],[44.4835,43.11957],[44.47535,43.12275],[44.47482,43.12296],[44.45033,43.12887],[44.43037,43.13355],[44.42147,43.13613],[44.41677,43.13971],[44.41043,43.14925],[44.40481,43.15268],[44.3924,43.15556],[44.38788,43.15504],[44.37574,43.15101],[44.36151,43.15377],[44.34276,43.16352],[44.32853,43.17145],[44.32672,43.1726],[44.32481,43.17387],[44.32368,43.17461],[44.3234,43.17479]],[[44.39816,43.14154],[44.39801,43.14155]],[[44.45029,43.12877],[44.45033,43.12887]],[[44.48341,43.11946],[44.4835,43.11957]],[[44.5274,43.10906],[44.52442,43.11037],[44.52383,43.11905],[44.50478,43.11863],[44.49827,43.11715],[44.49491,43.11512],[44.48976,43.11707]],[[44.5274,43.10906],[44.53623,43.10554],[44.5562,43.09868]],[[44.55708,43.09858],[44.5274,43.10906]],[[44.53162,43.21557],[44.53013,43.2164]],[[44.53049,43.21573],[44.53202,43.21398]],[[44.53395,43.21505],[44.53162,43.21557]],[[44.53343,43.21662],[44.53285,43.21577],[44.53223,43.21556],[44.53162,43.21557]],[[44.53446,43.21139],[44.53424,43.21146],[44.53412,43.21156],[44.53298,43.2129],[44.5325,43.21389],[44.53202,43.21398]],[[44.53202,43.21398],[44.53439,43.21112]],[[44.61096,43.75904],[44.62381,43.75488],[44.63491,43.74373],[44.63851,43.73379],[44.62525,43.73171],[44.56934,43.73433],[44.55625,43.73142],[44.54569,43.7274],[44.53968,43.72807],[44.53466,43.72564],[44.52161,43.72239],[44.51769,43.71943],[44.51686,43.71489],[44.51744,43.70064],[44.52118,43.69693],[44.52135,43.69399],[44.52025,43.69105],[44.51811,43.68918],[44.45846,43.67702],[44.43916,43.67537],[44.4379,43.67385],[44.45851,43.62514],[44.46382,43.60635],[44.48214,43.58469],[44.48381,43.57489],[44.48891,43.57115],[44.48972,43.56936],[44.48925,43.56745],[44.48551,43.56417],[44.47437,43.56349],[44.47165,43.55975],[44.46816,43.54938],[44.47147,43.54559],[44.47455,43.5388],[44.47222,43.52929],[44.46698,43.52108],[44.47715,43.50149],[44.47719,43.49215],[44.47575,43.4889],[44.45766,43.47601],[44.45431,43.47105],[44.45451,43.4694],[44.47126,43.45716],[44.47076,43.45415],[44.46265,43.44336],[44.46303,43.44171],[44.47027,43.43475],[44.47261,43.43089],[44.4817,43.42596],[44.48152,43.42122],[44.4867,43.41001],[44.49439,43.40734],[44.49637,43.40271],[44.50713,43.40181],[44.50845,43.39684],[44.51286,43.39513],[44.51695,43.39082],[44.52649,43.38468],[44.54229,43.36718],[44.54271,43.3401],[44.53939,43.31424],[44.54381,43.30902],[44.54429,43.30673],[44.54074,43.24225],[44.54048,43.23949],[44.53787,43.23602],[44.53345,43.22304],[44.53343,43.21662]],[[44.53395,43.21505],[44.53311,43.21579],[44.53343,43.21662]],[[44.53732,43.2128],[44.53513,43.2135],[44.53343,43.21662]],[[44.53373,43.21372],[44.53268,43.21459],[44.53394,43.21498]],[[44.53395,43.21505],[44.53394,43.21498]],[[44.53394,43.21498],[44.53435,43.21417],[44.53455,43.2123],[44.53457,43.21164],[44.53453,43.21143]],[[44.53487,43.2114],[44.53469,43.21165],[44.5346,43.21231],[44.5344,43.2141],[44.53432,43.21451],[44.53395,43.21505]],[[44.53455,43.21155],[44.53424,43.21146]],[[44.53453,43.21143],[44.53446,43.21139],[44.53441,43.21135],[44.53437,43.2113],[44.53439,43.21112]],[[44.53439,43.21112],[44.53487,43.2114]],[[44.53487,43.2114],[44.5347,43.21145],[44.53453,43.21143]],[[44.53466,43.21187],[44.53665,43.21272]],[[44.60945,43.75909],[44.61052,43.75915]],[[44.60945,43.75909],[44.60994,43.75933],[44.61002,43.75936]],[[44.60994,43.75933],[44.61096,43.75904]],[[44.61002,43.75936],[44.61093,43.75979]],[[44.61096,43.75904],[44.61002,43.75936]],[[44.61073,43.75913],[44.61093,43.75979]],[[44.61093,43.75979],[44.62247,43.767],[44.62642,43.7681],[44.63887,43.76799],[44.64844,43.76654],[44.65684,43.76603],[44.69652,43.77006],[44.70941,43.77623],[44.71342,43.77696],[44.73572,43.77022],[44.73822,43.76744],[44.73688,43.76339]],[[44.63858,43.02547],[44.63858,43.02541]],[[44.64043,43.04609],[44.64908,43.0338]],[[44.64924,43.03381],[44.64056,43.04619]],[[44.64099,43.76774],[44.641,43.82696]],[[44.64908,43.0338],[44.6428,43.03153]],[[44.66546,43.05853],[44.64536,43.05836],[44.64296,43.05756]],[[44.64296,43.03132],[44.64773,43.03317]],[[44.6431,43.05708],[44.65384,43.05168],[44.66232,43.03866]],[[44.66245,43.03871],[44.65395,43.0518],[44.6433,43.05728]],[[44.6433,43.05734],[44.64537,43.05819],[44.66544,43.05844]],[[44.6453,43.02545],[44.6446,43.02565]],[[44.64463,43.02528],[44.6453,43.02545]],[[44.6453,43.02545],[44.64972,43.02542],[44.65394,43.02682]],[[44.64773,43.03317],[44.64766,43.03327]],[[44.64773,43.03317],[44.64915,43.0337],[44.64924,43.03381]],[[44.64908,43.0338],[44.64924,43.03381]],[[44.64908,43.0338],[44.64915,43.0337],[44.64918,43.03365],[44.65021,43.0322],[44.65086,43.03128],[44.65394,43.02682]],[[44.64924,43.03381],[44.66232,43.03866]],[[44.65407,43.02686],[44.64924,43.03381]],[[44.65394,43.02682],[44.65407,43.02686]],[[44.65394,43.02682],[44.65926,43.01885]],[[44.65407,43.02686],[44.66739,43.03062]],[[44.67514,43.00189],[44.66974,43.00225],[44.66743,43.00464],[44.66249,43.01437],[44.65407,43.02686]],[[44.67514,43.00178],[44.67052,43.00193],[44.66963,43.00217],[44.66894,43.0027],[44.66676,43.0053],[44.66443,43.00895],[44.65934,43.01872]],[[44.66232,43.03866],[44.66245,43.03871]],[[44.66232,43.03866],[44.66615,43.03268]],[[44.66245,43.03871],[44.66398,43.03931]],[[44.66632,43.03273],[44.66245,43.03871]],[[44.66398,43.03931],[44.68125,43.04326],[44.68761,43.03732]],[[44.68783,43.03729],[44.68135,43.04338],[44.66398,43.03931]],[[44.66546,43.05853],[44.66544,43.05844]],[[44.66544,43.05844],[44.66593,43.05844]],[[44.66591,43.05853],[44.66568,43.05864],[44.66546,43.05853]],[[44.69181,43.05881],[44.66591,43.05853]],[[44.66593,43.05844],[44.66591,43.05853]],[[44.66593,43.05844],[44.6918,43.05869]],[[44.66615,43.03268],[44.66632,43.03273]],[[44.66615,43.03268],[44.66739,43.03062]],[[44.66632,43.03273],[44.67467,43.03396]],[[44.66753,43.03067],[44.66632,43.03273]],[[44.6667,42.96968],[44.66713,42.97055]],[[44.66685,42.97045],[44.66713,42.97055]],[[44.66747,42.97114],[44.66688,42.9706]],[[44.66713,42.97055],[44.66759,42.97109]],[[44.66739,43.03062],[44.66753,43.03067]],[[44.66739,43.03062],[44.67467,43.01894]],[[44.67516,43.00175],[44.67461,42.98028],[44.66747,42.97114]],[[44.66747,42.97114],[44.66759,42.97109]],[[44.67467,43.01894],[44.66753,43.03067]],[[44.66759,42.97109],[44.6747,42.9802],[44.67505,42.98788],[44.67535,42.9977],[44.67538,42.99827],[44.67539,42.99849],[44.67548,43.00117],[44.67552,43.00177]],[[44.67473,43.01933],[44.67443,43.01941]],[[44.67467,43.01894],[44.67576,43.01418]],[[44.67467,43.03396],[44.68633,43.03559],[44.6868,43.03582],[44.68769,43.03698]],[[44.68761,43.03732],[44.68627,43.03568],[44.67467,43.03396]],[[44.67517,43.00192],[44.67514,43.00189],[44.67514,43.00178]],[[44.67514,43.00178],[44.67516,43.00175]],[[44.67516,43.00175],[44.67534,43.00168],[44.67552,43.00177]],[[44.67553,43.00186],[44.67534,43.00198],[44.67517,43.00192]],[[44.67552,43.00594],[44.67517,43.00192]],[[44.67522,42.99827],[44.67538,42.99827]],[[44.67552,43.00177],[44.67553,43.00186]],[[44.67552,43.00594],[44.67575,43.01331]],[[44.67553,43.00186],[44.67552,43.00594]],[[44.67575,43.01331],[44.67576,43.01418]],[[44.67576,43.01418],[44.67571,43.0138],[44.67575,43.01331]],[[44.68761,43.03732],[44.68766,43.03726],[44.68771,43.03722],[44.6878,43.03716],[44.6879,43.03709],[44.68802,43.037]],[[44.68769,43.03698],[44.68802,43.037]],[[44.68769,43.03698],[44.6878,43.03716],[44.68783,43.03729]],[[44.68851,43.03657],[44.68783,43.03729]],[[44.68802,43.037],[44.68851,43.03657]],[[44.68851,43.03657],[44.69047,43.03463]],[[44.68992,43.04668],[44.69226,43.05858]],[[44.69185,43.05862],[44.68992,43.04668]],[[44.69329,43.0364],[44.69477,43.04101],[44.68992,43.04668]],[[44.69329,43.0364],[44.69047,43.03463]],[[44.69047,43.03463],[44.69155,43.03386],[44.69313,43.0357],[44.69329,43.0364]],[[44.69181,43.05881],[44.6918,43.05869]],[[44.6918,43.05869],[44.69185,43.05862]],[[44.69184,43.05886],[44.69181,43.05881]],[[44.69234,43.05881],[44.69209,43.05895],[44.69184,43.05886]],[[44.70564,43.12818],[44.70551,43.12797],[44.70539,43.12761],[44.70365,43.11927],[44.69184,43.05886]],[[44.69185,43.05862],[44.69226,43.05858]],[[44.69226,43.05858],[44.69234,43.05881]],[[44.69234,43.05881],[44.70564,43.12818]],[[44.69313,43.0357],[44.69298,43.03578]],[[44.71292,43.17174],[44.71421,43.14176],[44.71054,43.13182],[44.70564,43.12818]],[[44.7128,43.17199],[44.71292,43.17174]],[[44.71292,43.17174],[44.71302,43.17198]],[[44.73688,43.76339],[44.73636,43.76299]],[[44.73636,43.76299],[44.73655,43.7622]],[[44.73687,43.7628],[44.73636,43.76299]],[[44.73655,43.7622],[44.73691,43.76242]],[[44.73655,43.7622],[44.73717,43.76188]],[[44.73687,43.7628],[44.73688,43.76339]],[[44.73691,43.76242],[44.73687,43.7628]],[[44.73717,43.76188],[44.73691,43.76242]],[[44.73717,43.76188],[44.74405,43.75924],[44.74669,43.75505],[44.77789,43.74413],[44.98224,43.7359],[45.0292,43.73618],[45.06341,43.73221]]]}},{"type":"Feature","properties":{"roadClass":"secondary"},"geometry":{"type":"MultiLineString","coordinates":[[[44.27548,43.17435],[44.2441,43.17194],[44.18306,43.16275],[44.16719,43.15936],[44.15808,43.15918]],[[44.19332,43.3762],[44.19366,43.37266],[44.19566,43.36998],[44.19932,43.35757],[44.20472,43.35935],[44.2139,43.34714],[44.22724,43.31871]],[[44.22637,43.02275],[44.22614,43.0258],[44.22441,43.02803],[44.22353,43.03532],[44.226,43.05547],[44.22909,43.06094],[44.23981,43.07061]],[[44.22637,43.02275],[44.22644,43.02202]],[[44.22685,43.0221],[44.22676,43.02215],[44.22668,43.02222],[44.22661,43.02229],[44.22649,43.02242],[44.22637,43.02275]],[[44.22694,43.02222],[44.22668,43.02222]],[[44.22769,43.02189],[44.22754,43.02192],[44.22715,43.02199],[44.2269,43.02207]],[[44.22693,43.02175],[44.22769,43.02189]],[[44.22754,43.02192],[44.22741,43.02228]],[[44.22769,43.02189],[44.2339,43.02195]],[[44.27711,43.17888],[44.29292,43.17864],[44.30161,43.17964]],[[44.31268,43.18048],[44.30161,43.17964]],[[44.30161,43.17964],[44.30565,43.17981],[44.31268,43.18048]],[[44.31469,43.18033],[44.31391,43.18054],[44.31268,43.18048]],[[44.31469,43.18033],[44.31844,43.17771]],[[44.31868,43.17816],[44.31469,43.18033]],[[44.37121,43.15132],[44.37929,43.1491]],[[44.37837,43.15256],[44.37803,43.15133]],[[44.37867,43.1495],[44.37737,43.15181],[44.37837,43.15256]],[[44.382,43.15267],[44.3804,43.15234],[44.37837,43.15256]],[[44.37867,43.1495],[44.37929,43.1491]],[[44.3835,43.14735],[44.37867,43.1495]],[[44.37929,43.1491],[44.3835,43.14735]],[[44.37977,43.14905],[44.37868,43.15046],[44.38041,43.1519]],[[44.39801,43.14155],[44.3835,43.14735]],[[44.41538,43.1378],[44.39816,43.14154]],[[44.41597,43.14063],[44.41597,43.13882],[44.4135,43.13837]],[[44.41538,43.1378],[44.42359,43.13526]],[[44.41538,43.1378],[44.4169,43.1376],[44.42011,43.13839]],[[44.42011,43.13839],[44.41868,43.13776]],[[44.42265,43.1357],[44.42011,43.13839]],[[44.4264,43.54019],[44.43265,43.53944],[44.45266,43.54151],[44.47284,43.53749],[44.48389,43.53656],[44.5022,43.53232]],[[44.52135,43.69399],[44.53157,43.69298],[44.53327,43.69461],[44.53623,43.69371],[44.54096,43.69486],[44.5453,43.69936],[44.55356,43.70372],[44.55825,43.70439],[44.58671,43.70332],[44.60774,43.69818],[44.63769,43.69563],[44.64378,43.69298],[44.65437,43.69531],[44.67796,43.7085],[44.68451,43.71086],[44.68948,43.71717],[44.69213,43.72716],[44.69117,43.73054],[44.68344,43.73417],[44.66748,43.73939],[44.66732,43.73944],[44.66642,43.73975],[44.66521,43.74018]],[[44.53444,43.21107],[44.53505,43.21041]],[[44.53505,43.21041],[44.53489,43.21106]],[[44.5487,43.19377],[44.53505,43.21041]],[[44.54396,43.19189],[44.54384,43.19183]],[[44.54384,43.19183],[44.54089,43.19053],[44.54395,43.19167]],[[44.54384,43.19183],[44.54395,43.19167]],[[44.54395,43.19167],[44.54408,43.1917]],[[44.54463,43.19198],[44.54396,43.19189]],[[44.54408,43.1917],[44.54396,43.19189]],[[44.54408,43.1917],[44.54463,43.19198]],[[44.5487,43.19377],[44.54463,43.19198]],[[44.55736,43.18725],[44.5487,43.19377]],[[44.55736,43.18725],[44.57831,43.19579],[44.58695,43.19542]],[[44.56423,43.17827],[44.55736,43.18725]],[[44.58608,43.14736],[44.57097,43.15907],[44.56284,43.16302],[44.56228,43.16495],[44.56566,43.17499],[44.56423,43.17827]],[[44.56423,43.17827],[44.58787,43.17713]],[[44.58472,43.14512],[44.58715,43.14654]],[[44.58515,43.14603],[44.58502,43.14553]],[[44.58608,43.14736],[44.58515,43.14603]],[[44.58603,43.14623],[44.58554,43.14597],[44.58515,43.14603]],[[44.58608,43.14736],[44.58715,43.14654]],[[44.593,43.19669],[44.59146,43.19662],[44.58887,43.19566],[44.58826,43.19551],[44.58695,43.19542]],[[44.58695,43.19542],[44.59384,43.19505]],[[44.58715,43.14654],[44.58976,43.14421],[44.59197,43.13823],[44.59512,43.13306],[44.61141,43.113]],[[44.58932,43.19902],[44.58946,43.19678],[44.5875,43.19546]],[[44.58787,43.17713],[44.594,43.1767]],[[44.59087,43.17701],[44.58787,43.17713]],[[44.59325,43.17998],[44.58816,43.17713]],[[44.58929,43.17702],[44.59282,43.1755]],[[44.59135,43.13996],[44.59368,43.14283],[44.5895,43.14651],[44.59067,43.15095]],[[44.59461,43.17683],[44.59087,43.17701]],[[44.59202,43.17697],[44.59087,43.17701]],[[44.59277,43.19541],[44.59321,43.19633],[44.59452,43.19582]],[[44.59452,43.19582],[44.59384,43.19505]],[[44.59384,43.19505],[44.59605,43.19494],[44.59729,43.19489]],[[44.594,43.1767],[44.59739,43.17668]],[[44.594,43.1767],[44.59525,43.17688]],[[44.59452,43.19582],[44.59605,43.19494]],[[44.62498,43.09879],[44.61282,43.09071],[44.59944,43.07874]],[[44.6036,43.75215],[44.60471,43.75207]],[[44.60422,43.75125],[44.60448,43.75154]],[[44.60448,43.75154],[44.60534,43.75199]],[[44.60448,43.75154],[44.60471,43.75207]],[[44.60471,43.75207],[44.60534,43.75199]],[[44.60534,43.75199],[44.62636,43.75194]],[[44.61141,43.113],[44.61352,43.11079]],[[44.61352,43.11079],[44.61304,43.11157],[44.61141,43.113]],[[44.61352,43.11079],[44.61946,43.10402],[44.62478,43.10015]],[[44.61778,43.05901],[44.61799,43.05913]],[[44.61797,43.05916],[44.61778,43.05901]],[[44.61778,43.05901],[44.62843,43.05115]],[[44.61797,43.05916],[44.62747,43.06459]],[[44.61799,43.05913],[44.61797,43.05916]],[[44.6286,43.05128],[44.61799,43.05913]],[[44.62478,43.10015],[44.62549,43.09931]],[[44.62582,43.09942],[44.62478,43.10015]],[[44.62498,43.09879],[44.62573,43.09907]],[[44.62547,43.09926],[44.62498,43.09879]],[[44.62549,43.09931],[44.62547,43.09926]],[[44.62547,43.09926],[44.62573,43.09907]],[[44.62582,43.09942],[44.62549,43.09931]],[[44.62573,43.09907],[44.62584,43.09909]],[[44.62594,43.09935],[44.62582,43.09942]],[[44.62584,43.09909],[44.62594,43.09935]],[[44.62584,43.09909],[44.62687,43.09887]],[[44.62687,43.09887],[44.62594,43.09935]],[[44.62666,43.75195],[44.63215,43.75188],[44.63453,43.75014],[44.64847,43.74555]],[[44.62687,43.09887],[44.63514,43.09256],[44.63916,43.09137]],[[44.6286,43.05128],[44.62843,43.05115]],[[44.62843,43.05115],[44.63996,43.04264]],[[44.6401,43.04278],[44.6286,43.05128]],[[44.63916,43.09137],[44.64933,43.09967]],[[44.63916,43.09137],[44.65397,43.07965],[44.66401,43.06537],[44.66568,43.05864]],[[44.63996,43.04264],[44.6401,43.04278]],[[44.63996,43.04264],[44.64039,43.04233]],[[44.64056,43.04254],[44.64039,43.04254],[44.64015,43.04274],[44.6401,43.04278]],[[44.64041,43.04286],[44.64015,43.04274]],[[44.65864,43.04422],[44.6449,43.039],[44.6413,43.03642]],[[44.64134,43.03626],[44.64542,43.03904],[44.65854,43.04388],[44.65907,43.04432],[44.66784,43.04639]],[[44.64847,43.74555],[44.64857,43.74539],[44.64876,43.74547],[44.64863,43.74561],[44.64847,43.74555]],[[44.64876,43.74547],[44.65311,43.74418]],[[44.65087,43.011],[44.65028,43.01086]],[[44.65133,43.01113],[44.65036,43.01165]],[[44.65047,43.01068],[44.65087,43.011]],[[44.67423,43.01608],[44.66635,43.01357],[44.65699,43.01235],[44.65166,43.0112],[44.65133,43.01113],[44.65087,43.011]],[[44.65311,43.74418],[44.66521,43.74018]],[[44.66521,43.74018],[44.65785,43.7427],[44.65311,43.74418]],[[44.65853,43.04437],[44.65868,43.04431],[44.65907,43.04432]],[[44.65883,43.04419],[44.65872,43.04423],[44.65864,43.04422]],[[44.66775,43.04653],[44.66107,43.04512],[44.6588,43.04441],[44.65872,43.04437],[44.65868,43.04431],[44.65864,43.04422]],[[44.65926,43.01885],[44.65934,43.01872]],[[44.6605,43.038],[44.67423,43.01608]],[[44.67286,43.01863],[44.66063,43.03805]],[[44.66449,43.03215],[44.66615,43.03268]],[[44.66574,43.05829],[44.66775,43.04653]],[[44.66732,43.73944],[44.66975,43.74177],[44.67637,43.74357],[44.69268,43.75191],[44.70075,43.75299],[44.71091,43.76473],[44.71547,43.76828]],[[44.66784,43.04639],[44.67187,43.04722],[44.66775,43.04653]],[[44.66775,43.04653],[44.66784,43.04639]],[[44.66784,43.04639],[44.66994,43.04093]],[[44.67542,43.04791],[44.67191,43.04722],[44.67118,43.05858]],[[44.67286,43.01863],[44.67274,43.01858]],[[44.67376,43.01892],[44.67286,43.01863]],[[44.67437,43.01613],[44.67286,43.01863]],[[44.67376,43.01892],[44.67912,43.02035]],[[44.6791,43.02047],[44.67376,43.01892]],[[44.67437,43.01613],[44.67423,43.01608]],[[44.67423,43.01608],[44.67574,43.01345]],[[44.67912,43.02035],[44.67965,43.01787],[44.67437,43.01613]],[[44.67577,43.01353],[44.67437,43.01613]],[[44.68117,43.04358],[44.67655,43.04815],[44.67542,43.04791]],[[44.67542,43.04791],[44.67744,43.04239]],[[44.68458,43.01818],[44.68338,43.01747],[44.68368,43.0162],[44.68677,43.01021],[44.68567,43.00165],[44.67553,43.00181]],[[44.68246,43.02094],[44.6791,43.02047]],[[44.67912,43.02035],[44.6791,43.02047]],[[44.67912,43.02035],[44.68248,43.0208]],[[44.68122,43.04326],[44.68117,43.04358]],[[44.68154,43.04335],[44.68117,43.04358]],[[44.68171,43.0351],[44.68246,43.03072]],[[44.68398,43.0211],[44.68246,43.02094]],[[44.68246,43.02094],[44.68248,43.0208]],[[44.68246,43.03072],[44.68561,43.03126]],[[44.68246,43.03072],[44.68306,43.02664]],[[44.68248,43.0208],[44.684,43.02097]],[[44.68248,43.0208],[44.68278,43.01945],[44.68428,43.01955]],[[44.68306,43.02664],[44.68652,43.02707]],[[44.68306,43.02664],[44.68375,43.02228]],[[44.68326,43.03519],[44.68324,43.03528]],[[44.69159,43.02157],[44.68375,43.02228]],[[44.68375,43.02228],[44.68398,43.0211]],[[44.68398,43.0211],[44.684,43.02097]],[[44.684,43.02097],[44.68428,43.01955]],[[44.68428,43.01955],[44.69146,43.01982],[44.69159,43.02157]],[[44.68428,43.01955],[44.68458,43.01818]],[[44.68458,43.01818],[44.68593,43.01842],[44.69757,43.01808],[44.69736,43.02454]],[[44.68482,43.03547],[44.68561,43.03126]],[[44.68561,43.03126],[44.68499,43.03549]],[[44.68561,43.03126],[44.68992,43.03196]],[[44.68561,43.03126],[44.68652,43.02707]],[[44.68652,43.02707],[44.69067,43.02759]],[[44.68833,43.32929],[44.68387,43.30172],[44.68586,43.29293],[44.68169,43.27871],[44.68316,43.23939],[44.69754,43.21692],[44.70553,43.22247],[44.7111,43.22488],[44.73203,43.22491]],[[44.68992,43.03196],[44.69127,43.03356]],[[44.69067,43.02759],[44.68992,43.03196]],[[44.69118,43.0244],[44.69067,43.02759]],[[44.69118,43.0244],[44.69736,43.02454]],[[44.69159,43.02157],[44.69118,43.0244]],[[44.69119,43.03393],[44.69127,43.03356]],[[44.69127,43.03356],[44.69155,43.03386]],[[44.69987,43.04096],[44.69466,43.0403]],[[44.69736,43.02454],[44.70348,43.02468],[44.70833,43.02744]],[[44.69944,43.77091],[44.71592,43.76861],[44.7201,43.77068],[44.72123,43.77246],[44.7256,43.77233],[44.7269,43.77335],[44.72794,43.81704]],[[44.7052,43.04125],[44.70486,43.04124],[44.70273,43.04119],[44.70171,43.04117],[44.70085,43.04113],[44.69987,43.04096]],[[44.69987,43.04096],[44.70016,43.04096],[44.7025,43.0411],[44.70421,43.04113],[44.70467,43.04114],[44.705,43.04115],[44.70502,43.04115],[44.70529,43.04115]],[[44.70467,43.04114],[44.70488,43.04091]],[[44.70505,43.0409],[44.70502,43.04115],[44.70501,43.04116],[44.705,43.04117],[44.70494,43.04121],[44.70486,43.04124]],[[44.7052,43.04125],[44.70504,43.04119],[44.70501,43.04116],[44.705,43.04115],[44.70498,43.04113],[44.70488,43.04091]],[[44.70488,43.04091],[44.70552,43.03809],[44.70753,43.03419],[44.70778,43.03077],[44.70833,43.02744]],[[44.7209,43.043],[44.7052,43.04125]],[[44.70529,43.04115],[44.71147,43.04128],[44.71815,43.04254],[44.72045,43.04283]],[[44.70795,43.03051],[44.70758,43.03446],[44.70548,43.03851],[44.70505,43.04085],[44.70505,43.0409],[44.7051,43.04099],[44.70529,43.04115]],[[44.70833,43.02744],[44.70797,43.03042]],[[44.71528,43.7686],[44.71547,43.76828]],[[44.71547,43.76828],[44.71592,43.76861]],[[44.71814,43.04264],[44.71815,43.04254]],[[44.72045,43.04283],[44.72041,43.0429]],[[44.72045,43.04283],[44.7216,43.04311]],[[44.7216,43.04311],[44.721,43.04301]],[[44.7216,43.04311],[44.74076,43.04758],[44.74514,43.05152]],[[44.75102,43.05583],[44.75144,43.05384],[44.74514,43.05152]],[[44.81606,43.06651],[44.80896,43.06099],[44.79195,43.05662],[44.77877,43.05514],[44.76804,43.05807],[44.75421,43.05783],[44.75248,43.05706],[44.75032,43.05534],[44.74443,43.0543],[44.74514,43.05152]],[[44.74891,43.18958],[44.74474,43.1866],[44.74661,43.18766]],[[44.75138,43.19056],[44.75254,43.19122]]]}},{"type":"Feature","properties":{"roadClass":"tertiary"},"geometry":{"type":"MultiLineString","coordinates":[[[43.70427,42.92614],[43.68845,42.91252],[43.68071,42.91192],[43.6752,42.9081],[43.65939,42.90487],[43.65515,42.9017],[43.63938,42.90278],[43.62315,42.89963],[43.61572,42.90169],[43.60256,42.89926],[43.59354,42.90295],[43.58761,42.90199],[43.58488,42.90017]],[[43.70427,42.92614],[43.70423,42.92375],[43.69893,42.9145],[43.6998,42.90506],[43.70395,42.89803],[43.69924,42.89441],[43.70043,42.8925]],[[43.92424,43.19965],[43.90478,43.18835],[43.89801,43.18497],[43.8936,43.18295],[43.888,43.18039],[43.8745,43.17425],[43.86383,43.16889],[43.83936,43.15247],[43.83598,43.14822],[43.82941,43.14332],[43.82389,43.13353],[43.81509,43.12241],[43.81389,43.11913],[43.81543,43.11625],[43.81376,43.11529],[43.81461,43.11198],[43.82144,43.09917],[43.821,43.09615],[43.82309,43.08973],[43.82724,43.08643],[43.82332,43.08693],[43.82358,43.08264],[43.82334,43.07901],[43.81787,43.07389],[43.81876,43.06909],[43.81368,43.06412],[43.81257,43.06194],[43.81373,43.06038],[43.81112,43.06033],[43.80977,43.05859],[43.81084,43.04201],[43.81243,43.03941],[43.81086,43.0332],[43.80901,43.03117],[43.80644,43.0304],[43.80681,43.02778],[43.79451,43.0174],[43.79179,43.00709],[43.78838,43.00386],[43.78876,43.00154],[43.78435,42.99639],[43.78086,42.98706],[43.77599,42.98104],[43.76931,42.98009],[43.7564,42.97289],[43.75177,42.9722],[43.73775,42.96403],[43.73336,42.95984],[43.7265,42.95723],[43.72685,42.95582],[43.71802,42.9496],[43.71198,42.94062],[43.70904,42.93759],[43.70973,42.94022],[43.70808,42.93907],[43.70375,42.9334],[43.70292,42.93024],[43.70427,42.92614]],[[43.75936,43.22397],[43.76145,43.22086],[43.75725,43.20083],[43.75679,43.18955],[43.74253,43.15238]],[[43.75028,43.22099],[43.75936,43.22397]],[[43.75936,43.22397],[43.7613,43.2248],[43.78291,43.24698],[43.79178,43.25319],[43.81423,43.26373]],[[43.78435,42.99639],[43.78547,42.99664],[43.78447,42.99501],[43.78579,42.99577],[43.78651,42.99496],[43.78941,42.99761],[43.78965,42.99649],[43.79253,42.99833],[43.79359,43.0027],[43.79636,43.00412],[43.79609,43.00518],[43.79881,43.00731],[43.79987,43.01049]],[[43.82941,43.14332],[43.82049,43.13869],[43.81509,43.12241]],[[43.82275,43.09057],[43.82336,43.08526]],[[43.9198,43.2038],[43.88088,43.20224],[43.85684,43.20616],[43.85519,43.20557],[43.85122,43.2006],[43.84383,43.1993],[43.8421,43.20787],[43.83832,43.20989],[43.83626,43.21427],[43.83635,43.2226],[43.83327,43.22468],[43.83376,43.22848],[43.82807,43.23008],[43.82517,43.23546],[43.82912,43.24576],[43.82845,43.25236],[43.82298,43.25334],[43.82228,43.25171],[43.82107,43.25305],[43.82248,43.25411],[43.82171,43.25584],[43.82019,43.25415],[43.81971,43.25726],[43.81423,43.26373],[43.81197,43.26602],[43.835,43.28679],[43.85572,43.30206]],[[43.94282,43.19725],[43.93468,43.18927],[43.92817,43.18038],[43.91332,43.17658],[43.90712,43.17638],[43.89621,43.18055],[43.89543,43.18126],[43.8936,43.18295],[43.87757,43.19781],[43.87582,43.19948],[43.87372,43.20335]],[[43.90071,42.66589],[43.90041,42.66554]],[[43.9763,42.72726],[43.97594,42.7179],[43.97356,42.7152],[43.97266,42.7115],[43.97346,42.70689],[43.96784,42.6958],[43.96423,42.6947],[43.96579,42.69139],[43.96495,42.69018],[43.94101,42.68588],[43.93022,42.67965],[43.91658,42.67492],[43.9088,42.66985]],[[44.02081,43.32225],[44.01866,43.31051],[44.01114,43.29326],[43.99197,43.26508],[43.9879,43.2665],[43.98183,43.2579],[43.97516,43.2522],[43.95614,43.2434],[43.94438,43.23666],[43.93319,43.23377],[43.93368,43.23199],[43.92856,43.22708],[43.92978,43.22419],[43.92562,43.2211],[43.91893,43.20501],[43.9198,43.2038]],[[43.92424,43.19965],[43.9198,43.2038]],[[44.00438,43.19063],[43.97976,43.19395],[43.95144,43.20017],[43.9456,43.19885],[43.93329,43.19206],[43.92424,43.19965]],[[43.93267,43.2349],[43.94357,43.238],[43.94574,43.23745]],[[44.00438,43.19063],[44.00218,43.18596],[43.998,43.18345],[43.99792,43.18097],[43.99547,43.17816],[43.99562,43.17572],[44.00431,43.17733],[44.00614,43.17184],[44.00721,43.15468],[44.00903,43.15073],[44.01702,43.14683],[44.01885,43.14427],[44.01765,43.14352],[44.02834,43.13836],[44.03553,43.12813],[44.14585,43.15687],[44.15254,43.15674]],[[44.15808,43.15918],[44.14378,43.15973],[44.14359,43.15979],[44.12792,43.16559],[44.10907,43.17262],[44.10212,43.17601],[44.09598,43.1832],[44.06958,43.18674],[44.01888,43.18871],[44.00438,43.19063]],[[44.05421,43.36562],[44.06094,43.36084],[44.06632,43.36144],[44.09985,43.32242]],[[44.09761,43.10164],[44.08211,43.09369],[44.07046,43.08532],[44.06989,43.08318],[44.0639,43.07564]],[[44.07598,43.32195],[44.08943,43.30762]],[[44.09402,42.83289],[44.0965,42.8338],[44.09898,42.83409],[44.09913,42.83792],[44.10143,42.83454],[44.10354,42.83516],[44.10321,42.83644],[44.10479,42.83565]],[[44.09737,42.83387],[44.09705,42.8334]],[[44.15267,43.15924],[44.15254,43.15674],[44.15228,43.15268],[44.15207,43.14824],[44.15157,43.14361],[44.14868,43.13442],[44.12613,43.11503],[44.09761,43.10164]],[[44.09761,43.10164],[44.10214,43.09806]],[[44.10103,42.83546],[44.10278,42.83546]],[[44.1118,42.85734],[44.10384,42.851],[44.10359,42.83845],[44.10479,42.83565]],[[44.11809,42.82666],[44.1149,42.82811],[44.11228,42.82797],[44.10479,42.83565]],[[44.17371,43.17022],[44.15877,43.17344],[44.1439,43.17282],[44.13602,43.16259]],[[44.14868,43.13442],[44.15571,43.13273],[44.16291,43.13337],[44.16999,43.1416],[44.17252,43.16048]],[[44.21482,43.21229],[44.2071,43.21495],[44.20257,43.20964],[44.19573,43.19422],[44.17371,43.17022],[44.16784,43.16365],[44.16545,43.1592]],[[44.2058,43.04442],[44.19089,43.04648],[44.18835,43.04784],[44.18414,43.04628],[44.17409,43.05927]],[[44.22136,43.05272],[44.21842,43.05627],[44.20663,43.04895],[44.2058,43.04442]],[[44.2058,43.04442],[44.20555,43.04247],[44.20782,43.03625],[44.20742,43.03166],[44.21406,43.0279],[44.21762,43.02755],[44.22489,43.02715]],[[44.22435,43.04225],[44.22129,43.04246],[44.22031,43.04251],[44.22005,43.04252],[44.21828,43.04263],[44.21348,43.04297],[44.21143,43.04308],[44.2058,43.04442]],[[44.20957,43.35226],[44.22253,43.35437],[44.26664,43.38362],[44.27749,43.37501],[44.28554,43.37414]],[[44.21482,43.21229],[44.22522,43.21766],[44.22809,43.22613],[44.23037,43.22562],[44.23342,43.23479],[44.24556,43.24746],[44.24415,43.25304],[44.24634,43.2567],[44.25596,43.26077],[44.25874,43.26516],[44.26955,43.26411]],[[44.2802,43.18739],[44.21482,43.21229]],[[44.21841,43.02751],[44.21872,43.0303]],[[44.21872,43.0303],[44.21908,43.03222],[44.21972,43.03769],[44.2199,43.03924],[44.22016,43.04115],[44.22031,43.04251],[44.22076,43.04596],[44.22136,43.05272]],[[44.22136,43.05272],[44.22005,43.04252],[44.21967,43.03926],[44.21872,43.0303]],[[44.21952,43.03771],[44.21972,43.03769],[44.22071,43.03763],[44.22577,43.03733]],[[44.22136,43.05272],[44.22153,43.05373],[44.22575,43.05339]],[[44.22355,43.03509],[44.22546,43.03513],[44.22577,43.03733]],[[44.22425,43.0415],[44.22603,43.04055],[44.22577,43.03733]],[[44.23879,43.02785],[44.25569,43.05799],[44.27406,43.07403],[44.2775,43.07984],[44.28182,43.08405],[44.28296,43.09019],[44.3043,43.1025],[44.31825,43.11736],[44.33339,43.13958],[44.34489,43.16248]],[[44.29762,43.27677],[44.29401,43.27419],[44.2917,43.26905],[44.30403,43.2657],[44.30323,43.26465],[44.28352,43.26836],[44.27222,43.26827],[44.26867,43.26722]],[[44.29036,43.17366],[44.27548,43.17435]],[[44.30455,43.18889],[44.2893,43.18817],[44.28868,43.17884]],[[44.31143,43.1803],[44.31162,43.17934],[44.30679,43.17591],[44.29723,43.17164],[44.29059,43.17332],[44.29036,43.17366],[44.29067,43.17874]],[[44.30364,43.19667],[44.30455,43.18889]],[[44.30407,43.18757],[44.30455,43.18889]],[[44.30407,43.18757],[44.30527,43.17978]],[[44.30557,43.1798],[44.30407,43.18757]],[[44.30468,43.76842],[44.30456,43.72138],[44.31696,43.71286],[44.319,43.70281],[44.333,43.69684]],[[44.31372,42.84197],[44.30954,42.83605],[44.30768,42.83514]],[[44.31464,43.1917],[44.31455,43.18039],[44.31232,43.17448],[44.30876,43.16916]],[[44.31372,42.84197],[44.31654,42.84385],[44.31737,42.84701],[44.31679,42.85037],[44.32224,42.84666],[44.32539,42.84285],[44.32509,42.84186],[44.32874,42.84116],[44.33074,42.83894],[44.33,42.8377],[44.33314,42.83677],[44.33247,42.83578],[44.3353,42.83656],[44.34333,42.83504],[44.35147,42.83662],[44.35667,42.83216],[44.36134,42.83149],[44.36418,42.83212],[44.36483,42.83335],[44.36755,42.83234],[44.36941,42.83435],[44.37409,42.83503],[44.37531,42.83681],[44.37899,42.83832],[44.38862,42.83716],[44.38955,42.83795],[44.39778,42.83337],[44.40728,42.83207],[44.40797,42.83055],[44.40661,42.83],[44.40752,42.82868],[44.43161,42.83415],[44.4451,42.84025],[44.45046,42.83881],[44.46196,42.83931],[44.46395,42.83824],[44.46465,42.83993],[44.46811,42.83657],[44.47365,42.83481],[44.47122,42.83695],[44.47919,42.83453],[44.48756,42.83407],[44.48932,42.83492],[44.48908,42.83362],[44.49203,42.83573],[44.49198,42.83751],[44.49401,42.83756],[44.50082,42.84173],[44.5047,42.84167],[44.50849,42.84308],[44.50856,42.84488],[44.51234,42.84139],[44.5112,42.83897],[44.51447,42.84227]],[[44.40083,43.03234],[44.39983,43.02612],[44.39251,43.01456],[44.38641,43.00123],[44.39062,42.99412],[44.39027,42.9916],[44.38403,42.98181],[44.38002,42.97879],[44.3774,42.97326],[44.37111,42.96796],[44.36889,42.96025],[44.36706,42.95817],[44.37033,42.95137],[44.37026,42.94553],[44.36675,42.9398],[44.36482,42.93207],[44.36617,42.92988],[44.36535,42.92511],[44.3692,42.91702],[44.36856,42.90907],[44.35657,42.89739],[44.35223,42.89021],[44.34892,42.88842],[44.34241,42.8877],[44.33381,42.88454],[44.32809,42.88426],[44.32518,42.88089],[44.31839,42.87882],[44.31344,42.87465],[44.31328,42.8607],[44.31224,42.8579],[44.3138,42.84936],[44.31372,42.84197]],[[44.31868,43.17816],[44.31865,43.17811]],[[44.32367,43.17493],[44.32324,43.17491]],[[44.37977,43.80738],[44.36119,43.80645],[44.35413,43.80481],[44.34294,43.80425],[44.34277,43.80428],[44.34105,43.8044],[44.33558,43.80458],[44.3258,43.80427]],[[44.34198,43.75989],[44.33188,43.76036],[44.32982,43.76209],[44.32944,43.76503]],[[44.34161,43.70336],[44.34019,43.69907],[44.333,43.69684]],[[44.333,43.69684],[44.34617,43.68984]],[[44.34198,43.75989],[44.35351,43.76002],[44.35482,43.76094],[44.35548,43.76384],[44.34241,43.7666],[44.34277,43.80428],[44.34295,43.84722],[44.34405,43.97257]],[[44.34617,43.68984],[44.34758,43.69733],[44.34161,43.70336],[44.34198,43.75989]],[[44.38005,43.69858],[44.35882,43.69129],[44.35215,43.6898],[44.35111,43.68968],[44.35051,43.68961],[44.34617,43.68984]],[[44.34706,43.69206],[44.35111,43.68968]],[[44.40884,43.70403],[44.39314,43.70205],[44.38005,43.69858]],[[44.38005,43.69858],[44.37911,43.70062],[44.3848,43.70263],[44.38902,43.70578],[44.40332,43.70824],[44.40409,43.75512]],[[44.40045,43.03281],[44.40083,43.03234]],[[44.40083,43.03234],[44.40204,43.03249]],[[44.40085,43.03273],[44.40083,43.03234]],[[44.40332,43.70824],[44.40681,43.70749],[44.40884,43.70403]],[[44.50284,43.18538],[44.47431,43.1936],[44.469,43.19238],[44.44726,43.19792],[44.44493,43.19352],[44.41979,43.17398],[44.4046,43.16992],[44.40705,43.16359],[44.39973,43.1556],[44.39939,43.15367],[44.40031,43.1517],[44.40571,43.14898],[44.40633,43.14409],[44.40518,43.14063]],[[44.45576,43.71433],[44.41597,43.70473],[44.40884,43.70403]],[[44.4588,43.62317],[44.452,43.61042],[44.44295,43.60729],[44.42778,43.59341],[44.42703,43.591],[44.42448,43.58981],[44.41707,43.57736],[44.41282,43.57284],[44.41265,43.56975]],[[44.50392,43.10671],[44.48273,43.08376],[44.42666,43.04226],[44.4185,43.0311]],[[44.43942,43.0747],[44.43106,43.07495],[44.42577,43.07933],[44.42261,43.08056]],[[44.42685,43.13447],[44.4267,43.13232],[44.43398,43.11769],[44.44176,43.10972],[44.44019,43.10359],[44.43942,43.0747]],[[44.43386,43.07207],[44.43856,43.07129],[44.44811,43.06901],[44.4598,43.06689]],[[44.43942,43.0747],[44.43856,43.07129],[44.43751,43.06731],[44.42826,43.05236],[44.42861,43.05085],[44.43065,43.05108],[44.43553,43.04884]],[[44.50217,43.72291],[44.48183,43.71942],[44.4771,43.71855],[44.47321,43.71788],[44.46815,43.71695],[44.45576,43.71433]],[[44.50217,43.72291],[44.50031,43.72538],[44.48728,43.72664],[44.47721,43.73002],[44.4706,43.72997],[44.46993,43.72969],[44.46723,43.72778],[44.46599,43.72711],[44.45609,43.72357],[44.45394,43.71966],[44.45576,43.71433]],[[44.4558,43.26853],[44.41739,43.32477],[44.4125,43.32905],[44.41139,43.33131],[44.41294,43.33541],[44.40881,43.34604],[44.41522,43.34507],[44.43309,43.34541],[44.45028,43.34836],[44.45304,43.35158],[44.4546,43.35697],[44.45667,43.35969],[44.47182,43.36264],[44.47284,43.36108],[44.47085,43.35417],[44.47296,43.34713],[44.48057,43.34154],[44.48781,43.34494]],[[44.46627,43.75273],[44.46604,43.72995],[44.46723,43.72778],[44.46877,43.72516],[44.46978,43.72282],[44.47146,43.72191],[44.47321,43.71788],[44.47461,43.71562]],[[44.4803,43.68155],[44.48012,43.68632],[44.48688,43.6911],[44.48482,43.69943]],[[44.48781,43.34494],[44.50777,43.35334],[44.54182,43.36487]],[[44.50651,43.21105],[44.48244,43.23145],[44.48494,43.23801],[44.47425,43.24171],[44.48325,43.25478],[44.48781,43.34494]],[[44.49073,43.81815],[44.49137,43.79737],[44.49495,43.79767],[44.49896,43.79642],[44.50187,43.79369],[44.55341,43.77734],[44.55851,43.77567],[44.56722,43.77291],[44.60222,43.76187],[44.60813,43.76187],[44.60922,43.75975]],[[44.49514,43.11484],[44.49468,43.11513]],[[44.49518,43.1152],[44.49514,43.11484]],[[44.50392,43.10671],[44.49514,43.11484]],[[44.54328,43.30967],[44.52251,43.30968],[44.52198,43.31102],[44.51189,43.31201],[44.51163,43.31091],[44.49801,43.31168]],[[44.52462,43.72322],[44.52287,43.7248],[44.51444,43.72214],[44.5125,43.7222],[44.50771,43.72259],[44.50274,43.72292],[44.50217,43.72291]],[[44.5024,43.69888],[44.50972,43.69753],[44.51182,43.69491],[44.52135,43.69399]],[[44.50284,43.18538],[44.50729,43.18972]],[[44.51535,43.11908],[44.498,43.17725],[44.50284,43.18538]],[[44.52696,43.10924],[44.50973,43.10922],[44.50392,43.10671]],[[44.5252,43.23483],[44.52682,43.23369],[44.52713,43.23147],[44.52545,43.22517],[44.51261,43.21675],[44.50651,43.21105]],[[44.50651,43.21105],[44.50258,43.20205],[44.51058,43.19986],[44.51115,43.19939],[44.52134,43.1964],[44.52599,43.19492],[44.52628,43.19479]],[[44.50729,43.18972],[44.51495,43.19033],[44.5242,43.18614],[44.52876,43.18538],[44.53081,43.18212],[44.53919,43.17682],[44.53989,43.17698],[44.54488,43.18028],[44.54629,43.1813],[44.54784,43.18228],[44.54861,43.18337]],[[44.50729,43.18972],[44.50672,43.19468],[44.50988,43.19904],[44.52495,43.19399]],[[44.51623,42.84358],[44.51447,42.84227]],[[44.51447,42.84227],[44.51518,42.84659],[44.51928,42.85044],[44.52047,42.85323],[44.52096,42.85726],[44.51953,42.86353]],[[44.51953,42.86353],[44.51819,42.86761],[44.52166,42.87126],[44.52377,42.87646],[44.52316,42.87904],[44.52411,42.88209],[44.52263,42.88372],[44.52182,42.88876],[44.5227,42.89379],[44.52816,42.90025],[44.53307,42.91225],[44.53701,42.91702],[44.53932,42.92346],[44.54246,42.92763],[44.54094,42.92874],[44.54611,42.93232],[44.5494,42.93175],[44.55629,42.93655],[44.55949,42.94094],[44.56329,42.95539],[44.57251,42.97378],[44.57165,42.97902],[44.57339,42.99108],[44.56958,43.01391]],[[44.51953,42.86353],[44.52108,42.86104],[44.52235,42.86148],[44.52886,42.85502],[44.52809,42.85366],[44.52898,42.8431],[44.53193,42.84081],[44.53094,42.83729],[44.53709,42.83508],[44.53581,42.83681],[44.5399,42.83595],[44.53824,42.83669],[44.53661,42.83974],[44.5388,42.83847],[44.54097,42.83901],[44.54257,42.8374],[44.54214,42.83905],[44.54052,42.83986],[44.54585,42.83936],[44.54371,42.84186],[44.54624,42.84195],[44.54737,42.84054],[44.55408,42.8403],[44.55788,42.83707],[44.55759,42.83866],[44.55952,42.83661],[44.56137,42.83639],[44.56114,42.83495],[44.56506,42.83306],[44.56686,42.83299],[44.569,42.83482],[44.56788,42.83304],[44.5701,42.83217],[44.57165,42.82902],[44.57519,42.8267],[44.57318,42.83082],[44.57857,42.8267],[44.5813,42.82781],[44.5812,42.82942],[44.58285,42.82904],[44.58301,42.82748],[44.58358,42.82936],[44.58208,42.83029],[44.58484,42.82946],[44.5851,42.82828],[44.58525,42.83087],[44.58677,42.82899],[44.58754,42.82982],[44.59078,42.82542],[44.59316,42.8247],[44.59173,42.82572],[44.59436,42.82578],[44.59909,42.82442],[44.60258,42.82632],[44.60798,42.82666],[44.61208,42.82884],[44.61623,42.82845],[44.61817,42.83097],[44.62776,42.83302],[44.62769,42.83431],[44.63149,42.83524],[44.6316,42.83682],[44.6332,42.83744],[44.63668,42.83624]],[[44.52028,43.18793],[44.52501,43.19336]],[[44.52495,43.19399],[44.52503,43.19379]],[[44.52512,43.19386],[44.52495,43.19399]],[[44.52501,43.19336],[44.52529,43.19361]],[[44.52505,43.19365],[44.52501,43.19336]],[[44.52512,43.19386],[44.52503,43.19379]],[[44.52503,43.19379],[44.52502,43.19372],[44.52504,43.19367],[44.52505,43.19365],[44.52508,43.19364],[44.52529,43.19362]],[[44.52539,43.19371],[44.5253,43.19385],[44.52522,43.19387],[44.52512,43.19386]],[[44.52666,43.19668],[44.52601,43.19508],[44.52599,43.19492],[44.52591,43.19469],[44.52514,43.19386]],[[44.52525,43.10949],[44.52539,43.10983]],[[44.52529,43.19362],[44.52539,43.19371]],[[44.52529,43.19362],[44.5255,43.19354]],[[44.52539,43.19376],[44.52628,43.19479]],[[44.5255,43.19354],[44.52539,43.19371]],[[44.5255,43.19354],[44.53297,43.18823]],[[44.52628,43.19479],[44.52666,43.19668]],[[44.52666,43.19668],[44.52877,43.20054],[44.53246,43.20044],[44.54046,43.20409]],[[44.52721,43.10914],[44.53122,43.09988],[44.54318,43.0871],[44.56089,43.06151],[44.56975,43.05546],[44.56511,43.03509],[44.56622,43.03183],[44.57001,43.03077]],[[44.52876,43.18538],[44.53297,43.18823]],[[44.54229,43.36718],[44.54665,43.36789],[44.54769,43.37003],[44.54174,43.37912],[44.53672,43.38853],[44.53549,43.39329],[44.53163,43.39935],[44.53026,43.40446],[44.5311,43.41066]],[[44.53297,43.18823],[44.54437,43.17996]],[[44.53577,43.21141],[44.53492,43.21136]],[[44.53495,43.21113],[44.53577,43.21141]],[[44.53577,43.21141],[44.53829,43.21154],[44.54631,43.20812],[44.55659,43.20618],[44.56818,43.19934],[44.5786,43.1987],[44.57814,43.19572]],[[44.54096,43.69486],[44.55238,43.67952],[44.58393,43.60409],[44.58381,43.57731],[44.58713,43.5757],[44.58652,43.57424],[44.58756,43.57225],[44.58608,43.57059],[44.58769,43.56876],[44.58519,43.56681],[44.58389,43.56005],[44.58211,43.55902],[44.58186,43.55743],[44.57889,43.55644],[44.58259,43.55493],[44.5821,43.55267],[44.57864,43.55266],[44.57982,43.55134],[44.5784,43.55064],[44.58241,43.54837]],[[44.54861,43.18337],[44.541,43.19032]],[[44.54391,43.19188],[44.54242,43.19423]],[[44.5458,43.18845],[44.55178,43.19132]],[[44.54861,43.18337],[44.55736,43.18725]],[[44.54952,43.18345],[44.5551,43.17755]],[[44.5551,43.17755],[44.55157,43.17373]],[[44.5551,43.17755],[44.55691,43.17413],[44.56244,43.1777],[44.56332,43.17961]],[[44.55851,43.77567],[44.55877,43.79163],[44.5659,43.79193],[44.56608,43.81933]],[[44.56874,43.02484],[44.57102,43.034],[44.57322,43.03839],[44.57599,43.05085],[44.57591,43.0547],[44.58243,43.05907],[44.58553,43.06368],[44.60491,43.07523]],[[44.5786,43.1987],[44.57937,43.20313]],[[44.61083,43.69786],[44.60721,43.69575],[44.59344,43.69397],[44.58404,43.69725],[44.58094,43.70343]],[[44.59238,43.1374],[44.59613,43.14029],[44.60066,43.14051],[44.60895,43.14567],[44.61348,43.14642],[44.62384,43.15195],[44.63212,43.152]],[[44.59641,43.78055],[44.60564,43.78055],[44.60943,43.78055],[44.62386,43.78053],[44.62417,43.77846]],[[44.5984,43.07859],[44.59933,43.07865],[44.59927,43.07818]],[[44.59944,43.07874],[44.59933,43.07865],[44.59892,43.07834],[44.59872,43.07821]],[[44.60171,43.77475],[44.61628,43.77419],[44.61981,43.76542]],[[44.60559,43.78262],[44.60564,43.78055],[44.60561,43.77948],[44.60572,43.77476]],[[44.6872,43.2328],[44.67138,43.23435],[44.6529,43.23445],[44.64387,43.23752],[44.6283,43.23737],[44.6074,43.23972]],[[44.60931,43.75968],[44.60919,43.75898]],[[44.60922,43.75975],[44.60931,43.75968],[44.60939,43.75962],[44.60963,43.75947],[44.60994,43.75933]],[[44.61002,43.75936],[44.60966,43.75952],[44.60922,43.75975]],[[44.61048,43.7596],[44.60966,43.75952]],[[44.61267,43.1116],[44.61376,43.111]],[[44.61376,43.111],[44.61282,43.1118]],[[44.61376,43.111],[44.63916,43.09137]],[[44.62005,43.0494],[44.61544,43.04439]],[[44.61584,43.54275],[44.62357,43.54705],[44.62767,43.54767],[44.63508,43.54637],[44.64846,43.54092],[44.65818,43.54277],[44.6602,43.54221]],[[44.6165,43.09321],[44.61794,43.09334]],[[44.6173,43.09375],[44.61794,43.09334]],[[44.61858,43.78054],[44.61855,43.77475],[44.61744,43.7731]],[[44.61794,43.09334],[44.61821,43.09433]],[[44.656,43.05164],[44.65575,43.06226],[44.65346,43.06623],[44.65333,43.06896],[44.65045,43.0733],[44.61794,43.09334]],[[44.62005,43.0494],[44.62454,43.05434]],[[44.62005,43.0494],[44.62296,43.04721]],[[44.623,43.04718],[44.62294,43.04713]],[[44.62296,43.04721],[44.62294,43.04713]],[[44.62294,43.04713],[44.62738,43.04373]],[[44.623,43.04718],[44.62296,43.04721]],[[44.62843,43.05115],[44.623,43.04718]],[[44.6275,43.04382],[44.623,43.04718]],[[44.6244,43.05442],[44.62423,43.05405]],[[44.6275,43.04382],[44.62738,43.04373]],[[44.62738,43.04373],[44.62086,43.03903],[44.62529,43.03585],[44.63177,43.04045]],[[44.62738,43.04373],[44.63177,43.04045]],[[44.63903,43.05212],[44.6275,43.04382]],[[44.6319,43.04057],[44.6275,43.04382]],[[44.63903,43.05212],[44.63444,43.05549],[44.6286,43.05128]],[[44.63013,43.75402],[44.64367,43.7545],[44.64826,43.7535],[44.65507,43.75491]],[[44.63177,43.04045],[44.6393,43.0348]],[[44.63996,43.04637],[44.6319,43.04057]],[[44.63395,43.03905],[44.6319,43.04057]],[[44.63326,43.75116],[44.64525,43.75104]],[[44.63395,43.03905],[44.63948,43.04298]],[[44.63935,43.03497],[44.63395,43.03905]],[[44.63752,42.84447],[44.64728,42.84356]],[[44.63851,43.73379],[44.64593,43.73469]],[[44.64044,43.05288],[44.63903,43.05212]],[[44.6393,43.0348],[44.63945,43.03488]],[[44.63935,43.03497],[44.6393,43.0348]],[[44.6393,43.0348],[44.64231,43.03136]],[[44.6413,43.03642],[44.63935,43.03497]],[[44.63945,43.03488],[44.63935,43.03497]],[[44.63945,43.03488],[44.64134,43.03626]],[[44.6427,43.03155],[44.63945,43.03488]],[[44.64043,43.04653],[44.63996,43.04637]],[[44.64043,43.04678],[44.63996,43.04637]],[[44.63996,43.04637],[44.64043,43.04636]],[[44.6404,43.04278],[44.6411,43.04299]],[[44.6411,43.04299],[44.64041,43.04293]],[[44.64102,43.05138],[44.64047,43.05155]],[[44.64048,43.05118],[44.64102,43.05138]],[[44.72794,43.81704],[44.7281,43.83129],[44.69898,43.81188],[44.6786,43.80631],[44.66828,43.79756],[44.66986,43.78445],[44.66528,43.7773],[44.64991,43.76909],[44.64098,43.7679]],[[44.65377,43.74838],[44.65804,43.75157],[44.65531,43.75423],[44.6541,43.75833],[44.64926,43.75778],[44.64099,43.76774]],[[44.64102,43.05138],[44.64158,43.0514],[44.6453,43.05144],[44.65257,43.05155],[44.656,43.05164]],[[44.6411,43.04299],[44.64235,43.04343]],[[44.65375,43.04593],[44.64613,43.04481],[44.64547,43.04563],[44.64193,43.04434]],[[44.64525,43.75104],[44.64849,43.74556]],[[44.64863,43.74561],[44.64525,43.75104]],[[44.64624,43.08645],[44.6455,43.08667]],[[44.65192,43.73879],[44.64842,43.73793],[44.64593,43.73469]],[[44.65828,43.73478],[44.65548,43.73223],[44.65249,43.73151],[44.65036,43.7311],[44.65014,43.73109],[44.64765,43.73198],[44.64593,43.73469]],[[44.64707,43.08636],[44.64603,43.08629]],[[44.64609,43.08625],[44.64669,43.08632]],[[44.6464,43.08601],[44.64707,43.08636]],[[44.64707,43.08636],[44.65642,43.08601]],[[44.6529,43.01973],[44.64755,43.01784]],[[44.64767,43.05483],[44.64778,43.05148]],[[44.64793,43.05149],[44.64838,43.05451]],[[44.64812,43.09893],[44.65006,43.09855]],[[44.64852,43.7454],[44.65127,43.74],[44.65138,43.73982]],[[44.65149,43.7399],[44.65014,43.74266],[44.64947,43.74398],[44.64941,43.7441],[44.64913,43.74464],[44.64895,43.74498],[44.64873,43.74542]],[[44.64921,43.74405],[44.64941,43.7441]],[[44.64924,43.02539],[44.65015,43.02387],[44.65203,43.02102],[44.6529,43.01973]],[[44.65642,43.08601],[44.65127,43.09878],[44.65006,43.09855]],[[44.65006,43.09855],[44.64933,43.09967],[44.65189,43.10548]],[[44.66292,43.02671],[44.65098,43.02261]],[[44.65493,43.03595],[44.65129,43.04118]],[[44.65213,43.7384],[44.65192,43.73879],[44.65156,43.73965]],[[44.65159,43.74454],[44.65306,43.74776]],[[44.65217,43.73782],[44.652,43.73143]],[[44.65213,43.7384],[44.65217,43.73782]],[[44.66116,43.73301],[44.66022,43.73361],[44.65928,43.73417],[44.65828,43.73478],[44.65733,43.73535],[44.65527,43.73665],[44.65519,43.73669],[44.65504,43.73678],[44.65492,43.73685],[44.65453,43.73707],[44.65306,43.73789],[44.65237,43.73828],[44.65213,43.7384]],[[44.65217,43.73782],[44.65237,43.73828]],[[44.66292,43.02671],[44.66482,43.02367],[44.6529,43.01973]],[[44.65306,43.74776],[44.65328,43.74805]],[[44.65313,43.74809],[44.65306,43.74776]],[[44.65377,43.74838],[44.65328,43.74825]],[[44.65339,43.74814],[44.65377,43.74838]],[[44.65375,43.04593],[44.65865,43.04767]],[[44.65858,43.04785],[44.65375,43.04593]],[[44.65477,43.03588],[44.65988,43.02857]],[[44.65488,43.75585],[44.65936,43.76638]],[[44.66019,43.02865],[44.65507,43.036]],[[44.65519,43.73669],[44.65656,43.73785],[44.65857,43.73655],[44.66051,43.73541],[44.66147,43.73483],[44.66238,43.73428],[44.6625,43.7342],[44.66333,43.7337],[44.66615,43.73197],[44.66707,43.73141],[44.66889,43.73027],[44.67009,43.73143],[44.67141,43.73006],[44.67414,43.72977]],[[44.65542,43.04296],[44.65671,43.04088],[44.65827,43.04145],[44.65897,43.04041]],[[44.66744,43.73024],[44.66273,43.73308],[44.6618,43.73366],[44.66087,43.73424],[44.65894,43.73542],[44.65586,43.73725]],[[44.656,43.05164],[44.65843,43.05166]],[[44.65642,43.08601],[44.66273,43.08336],[44.68079,43.08332],[44.6815,43.07982],[44.67916,43.07506]],[[44.65919,43.76196],[44.65793,43.76213]],[[44.65843,43.05166],[44.659,43.05834]],[[44.65865,43.04767],[44.65858,43.04785],[44.65856,43.04794],[44.65843,43.05166]],[[44.66753,43.0169],[44.66555,43.02006],[44.65865,43.01976]],[[44.6599,43.04458],[44.65865,43.04767]],[[44.65874,43.76196],[44.65893,43.75849],[44.66428,43.75497],[44.66897,43.75751],[44.67384,43.75779]],[[44.66088,43.04108],[44.65897,43.04041]],[[44.65897,43.04041],[44.6605,43.038]],[[44.66063,43.03805],[44.65904,43.04043]],[[44.65938,43.74209],[44.65943,43.74217]],[[44.6668,43.73827],[44.66637,43.73828],[44.66326,43.73519],[44.663,43.73488],[44.66238,43.73428],[44.6618,43.73366],[44.66116,43.73301]],[[44.66116,43.73301],[44.66208,43.73243],[44.66273,43.73308],[44.66333,43.7337],[44.66622,43.73673],[44.66651,43.73778],[44.6668,43.73827],[44.6669,43.73844],[44.66727,43.73905],[44.66748,43.73939]],[[44.66145,43.74139],[44.66151,43.74148]],[[44.66171,43.06909],[44.66712,43.0689],[44.67481,43.06668]],[[44.66875,43.02867],[44.66292,43.02671]],[[44.6631,42.83475],[44.66282,42.83378],[44.66886,42.82872]],[[44.6637,43.03652],[44.66609,43.03728],[44.67017,43.03104],[44.66771,43.03012]],[[44.67567,43.00994],[44.66443,43.00895]],[[44.66721,43.05452],[44.66642,43.05448]],[[44.66738,43.05453],[44.66721,43.05452]],[[44.66738,43.05453],[44.66718,43.06159],[44.66813,43.06384],[44.66702,43.06164],[44.66721,43.05452]],[[44.67537,43.05462],[44.66738,43.05453]],[[44.67274,43.01858],[44.66753,43.0169]],[[44.66903,43.01443],[44.66753,43.0169]],[[44.66916,43.04677],[44.67121,43.04118],[44.66921,43.04678]],[[44.67052,43.03306],[44.66925,43.03251]],[[44.66931,43.03242],[44.67095,43.03298]],[[44.66994,43.04093],[44.67104,43.03849]],[[44.68177,43.04101],[44.67657,43.03982],[44.67104,43.03849]],[[44.67104,43.03849],[44.67183,43.03843],[44.67474,43.03914],[44.67856,43.04003],[44.68181,43.04082],[44.68344,43.04159]],[[44.67118,43.05858],[44.67481,43.06668]],[[44.6791,43.02047],[44.67131,43.03307]],[[44.67187,43.04722],[44.67191,43.04722]],[[44.6761,43.76834],[44.67384,43.75779]],[[44.67384,43.75779],[44.67492,43.7554]],[[44.67481,43.06668],[44.67916,43.07506]],[[44.67646,43.03434],[44.67474,43.03914],[44.67494,43.03943]],[[44.67515,43.05861],[44.67537,43.05462],[44.67538,43.04901]],[[44.67538,43.04901],[44.67517,43.04869],[44.67542,43.04791],[44.67551,43.04806],[44.67538,43.04901]],[[44.67662,43.173],[44.67834,43.15754],[44.69391,43.15781],[44.69441,43.14992],[44.69696,43.14959],[44.69877,43.14356],[44.70151,43.14106],[44.70564,43.12818]],[[44.6772,43.21651],[44.69281,43.21553],[44.69754,43.21692],[44.70857,43.20599],[44.71027,43.20216],[44.7116,43.19296],[44.7129,43.17254]],[[44.67818,43.03468],[44.67898,43.03242]],[[44.67898,43.03242],[44.67839,43.03473]],[[44.68381,43.03305],[44.67898,43.03242]],[[44.67916,43.07506],[44.69515,43.07494]],[[44.68177,43.04101],[44.68122,43.04326]],[[44.6833,43.04172],[44.68177,43.04101]],[[44.68324,43.03528],[44.68247,43.03812],[44.68183,43.04072],[44.68181,43.04082],[44.68177,43.04101]],[[44.68278,43.01945],[44.68338,43.01747]],[[44.68381,43.03305],[44.68326,43.03519]],[[44.69047,43.03463],[44.68381,43.03305]],[[44.68407,43.03098],[44.68381,43.03305]],[[44.684,43.02097],[44.68562,43.0211],[44.68476,43.02118]],[[44.68567,43.00165],[44.68649,42.98206],[44.68834,42.98014],[44.68489,42.97343],[44.68864,42.96995],[44.69484,42.96863],[44.69746,42.96683],[44.70421,42.96821],[44.70982,42.96502],[44.71341,42.96569],[44.72787,42.96435],[44.73538,42.96536],[44.75649,42.9622],[44.76643,42.96246],[44.76835,42.97482],[44.76725,42.9826],[44.76504,42.98547],[44.76658,42.99414],[44.76442,42.9981],[44.76697,43.01073],[44.75944,43.0246],[44.75326,43.04314],[44.74796,43.04795],[44.74146,43.04787]],[[44.6877,43.71455],[44.68856,43.70842],[44.71534,43.61212],[44.7214,43.59509]],[[44.68874,43.57167],[44.69098,43.56321],[44.69405,43.55707],[44.69242,43.55576],[44.69339,43.55451],[44.69238,43.55308],[44.69603,43.55199],[44.69265,43.55065],[44.69244,43.54858],[44.69409,43.54918],[44.69372,43.54648]],[[44.68992,43.03196],[44.69119,43.03199]],[[44.69119,43.03199],[44.69013,43.03225]],[[44.69033,43.05012],[44.70078,43.05012],[44.70016,43.04096]],[[44.69059,43.0198],[44.69329,43.00983]],[[44.69712,43.03205],[44.69511,43.03202],[44.69301,43.03202],[44.69146,43.03198],[44.69119,43.03199]],[[44.69163,43.01975],[44.69125,43.01979]],[[44.69143,43.72442],[44.70972,43.72112],[44.71566,43.71758],[44.74661,43.69877],[44.82275,43.65715],[44.83659,43.65319],[44.86087,43.65094],[44.86962,43.65136],[44.87403,43.65308],[44.88706,43.65441],[44.91175,43.65532],[44.92984,43.66219]],[[44.69163,43.01975],[44.69162,43.01994]],[[44.69255,43.01953],[44.69163,43.01975]],[[44.69255,43.01953],[44.69231,43.02445]],[[44.69236,43.05874],[44.71642,43.05907],[44.71935,43.0611],[44.73214,43.06074],[44.74341,43.06224]],[[44.69255,43.01953],[44.69268,43.01799]],[[44.69329,43.00983],[44.69315,43.00936],[44.69341,43.00918],[44.69353,43.00931],[44.69329,43.00983]],[[44.7139,43.03293],[44.69712,43.03205]],[[44.69846,43.0408],[44.69712,43.03205]],[[44.69712,43.03205],[44.69736,43.02454]],[[44.75616,43.05777],[44.74639,43.08146],[44.74174,43.08955],[44.73514,43.09063],[44.69835,43.09227]],[[44.70797,43.03042],[44.70795,43.03051]],[[44.7129,43.17254],[44.71279,43.17228]],[[44.71307,43.17227],[44.7129,43.17254]],[[44.71959,43.22527],[44.72065,43.22472],[44.72098,43.22524]],[[44.72027,43.22526],[44.72065,43.22472],[44.72275,43.22178],[44.72447,43.21938],[44.74224,43.1948],[44.748,43.18987]],[[44.721,43.04301],[44.7209,43.043]],[[44.7256,43.77233],[44.7293,43.77186]],[[44.73031,43.70865],[44.75098,43.63521]],[[44.73289,43.0907],[44.73115,43.08341],[44.73558,43.08311],[44.73483,43.07611],[44.73597,43.07445],[44.73926,43.07494],[44.74341,43.06224]],[[44.73768,43.20112],[44.7549,43.21878]],[[44.73945,43.76079],[44.74488,43.75768],[44.7456,43.75766],[44.74612,43.75606],[44.75131,43.75386]],[[44.74138,43.7602],[44.74115,43.75991]],[[44.74928,43.04714],[44.74528,43.06231],[44.74341,43.06224]],[[44.7456,43.75766],[44.74695,43.75795],[44.76371,43.75036],[44.76442,43.76259]],[[44.748,43.1895],[44.74703,43.1884]],[[44.748,43.18987],[44.748,43.1895]],[[44.748,43.18987],[44.74851,43.18976],[44.748,43.1895]],[[44.75118,43.19059],[44.74891,43.18958]],[[44.77915,43.05513],[44.75424,43.05162],[44.75301,43.05377],[44.75144,43.05384]],[[44.90518,43.05374],[44.8965,43.05248],[44.88234,43.0564],[44.8517,43.05445],[44.84437,43.0563],[44.84383,43.05821],[44.84008,43.06208],[44.82161,43.07025],[44.81606,43.06651]],[[44.65139,43.73972],[44.65163,43.73966],[44.65175,43.73979],[44.65152,43.73991],[44.65149,43.7399],[44.65144,43.73988],[44.6514,43.73985],[44.65139,43.73972]],[[44.6531,43.74812],[44.65313,43.74809],[44.65317,43.74806],[44.65328,43.74805],[44.65338,43.74818],[44.6531,43.74812]]]}},{"type":"Feature","properties":{"roadClass":"trunk"},"geometry":{"type":"MultiLineString","coordinates":[[[44.21239,42.96008],[44.21167,42.95702],[44.21412,42.95124],[44.20257,42.94138],[44.18837,42.92412],[44.1818,42.91824],[44.16802,42.89834],[44.1667,42.89508],[44.16676,42.89047],[44.16379,42.88363],[44.1601,42.88088],[44.1494,42.8686],[44.14788,42.86449],[44.14317,42.86177],[44.14038,42.85846],[44.10784,42.85772],[44.09888,42.85571],[44.08592,42.85478],[44.077,42.85098],[44.063,42.85174],[44.04262,42.8461],[44.03551,42.84305],[44.02786,42.83887],[44.02651,42.83354],[44.02686,42.82879],[44.02332,42.8216],[44.02263,42.81652],[44.02353,42.81126],[44.01955,42.80814],[44.01351,42.80563],[44.01123,42.79988],[44.00621,42.7944],[44.00546,42.7905],[44.00297,42.78719],[44.00004,42.78585],[43.99877,42.78399],[43.98921,42.78125],[43.9875,42.77936],[43.98902,42.77551],[43.9854,42.77122],[43.98281,42.76234],[43.98644,42.75814],[43.98706,42.75591],[43.98262,42.74973],[43.9782,42.74645],[43.97775,42.74223],[43.97547,42.73946],[43.97822,42.73364],[43.976,42.7281],[43.97813,42.72221],[43.97678,42.71556],[43.97677,42.71186],[43.97807,42.71019],[43.9774,42.7051],[43.97864,42.70106],[43.97735,42.69622],[43.98199,42.69498],[43.9826,42.69288],[43.98572,42.69021],[43.99003,42.6899],[43.99282,42.68798],[44.00035,42.6859],[44.00819,42.68565],[44.01914,42.68233],[44.02082,42.6807],[44.02455,42.68033],[44.02394,42.67757],[44.02668,42.67573],[44.02726,42.67359],[44.02468,42.66858],[44.02477,42.66478],[44.02274,42.66191],[44.02016,42.65336],[44.02124,42.64966],[44.01975,42.64376],[44.02558,42.64072],[44.03006,42.63588],[44.03278,42.63492],[44.04053,42.63715],[44.05103,42.6376],[44.0589,42.63159],[44.06815,42.62932],[44.07178,42.62929],[44.0763,42.63122],[44.09031,42.63024],[44.10314,42.61354]],[[44.14677,43.32314],[44.14689,43.32369]],[[44.14792,43.32372],[44.14791,43.32314]],[[44.1853,43.32934],[44.18532,43.32989]],[[44.18614,43.32988],[44.18623,43.32934]],[[44.18959,43.32911],[44.18758,43.32969],[44.18681,43.32983],[44.18614,43.32988],[44.18532,43.32989],[44.16984,43.32845],[44.16799,43.32807],[44.15761,43.32442],[44.15435,43.32388],[44.06214,43.32168],[44.06164,43.32159],[44.14791,43.32314],[44.15686,43.32408],[44.16986,43.32832],[44.18959,43.32911]],[[44.18959,43.32911],[44.2024,43.32204],[44.20697,43.31754],[44.21095,43.31754],[44.21954,43.32131],[44.22281,43.32148],[44.22531,43.32036],[44.23692,43.31001],[44.24504,43.3007],[44.24987,43.28871],[44.25728,43.27701]],[[44.21239,42.96008],[44.21478,42.96539],[44.21509,42.96645],[44.21671,42.97874],[44.21653,42.98698],[44.21835,42.99466],[44.22161,43.00644],[44.22654,43.01618]],[[44.2257,43.01649],[44.22131,43.00594],[44.21698,42.98958],[44.21636,42.98671],[44.21659,42.97873],[44.215,42.96645],[44.21239,42.96008]],[[44.2262,43.01679],[44.2257,43.01649]],[[44.22586,43.01719],[44.2257,43.01649]],[[44.2257,43.01649],[44.22654,43.01618]],[[44.22654,43.02094],[44.22586,43.01719]],[[44.2262,43.01679],[44.22586,43.01719]],[[44.22644,43.01674],[44.2262,43.01679]],[[44.22664,43.01627],[44.22644,43.01674]],[[44.2364,43.02453],[44.23568,43.02274],[44.23508,43.02178],[44.23487,43.02154],[44.23439,43.02101],[44.23347,43.02022],[44.23231,43.01951],[44.2268,43.01681],[44.22662,43.01674],[44.22644,43.01674]],[[44.22664,43.02212],[44.22645,43.02177]],[[44.22645,43.02177],[44.22654,43.02094]],[[44.22645,43.02177],[44.22686,43.0217]],[[44.22654,43.02094],[44.22686,43.0217]],[[44.22654,43.01618],[44.22664,43.01627]],[[44.22664,43.01627],[44.2334,43.01998],[44.23522,43.02171],[44.23584,43.02274],[44.2364,43.02453]],[[44.22701,43.02185],[44.2269,43.02207],[44.22678,43.02212],[44.22671,43.02212],[44.22664,43.02212]],[[44.22776,43.02255],[44.22664,43.02212]],[[44.22686,43.0217],[44.22701,43.02185]],[[44.22701,43.02185],[44.22776,43.02255]],[[44.22776,43.02255],[44.23254,43.02566],[44.23418,43.02845],[44.24321,43.06351],[44.24276,43.06654],[44.24119,43.06888],[44.24086,43.06929],[44.2404,43.06987],[44.2402,43.07012],[44.23981,43.07061],[44.24153,43.07264],[44.25024,43.09352],[44.25731,43.12171],[44.26964,43.15286],[44.27372,43.16941],[44.27711,43.17888],[44.27725,43.1792],[44.27735,43.17938],[44.27758,43.17966],[44.27994,43.18191],[44.28037,43.18283],[44.28007,43.18699],[44.28789,43.20883],[44.28642,43.22509],[44.26935,43.26454],[44.26836,43.26933]],[[44.23356,43.02013],[44.23393,43.0193]],[[44.23399,43.01923],[44.23439,43.02082]],[[44.23583,43.02318],[44.2339,43.02195],[44.23487,43.02154]],[[44.2364,43.02453],[44.23834,43.02748],[44.26134,43.04486],[44.29461,43.05036],[44.35829,43.04177],[44.40261,43.03237],[44.41129,43.0317]],[[44.23926,43.07012],[44.2404,43.06987],[44.24027,43.07104]],[[44.25728,43.27701],[44.259,43.2739],[44.25996,43.27286],[44.26222,43.27132]],[[44.26293,43.27206],[44.2599,43.27364],[44.25728,43.27701]],[[44.26293,43.27206],[44.26186,43.27206],[44.26222,43.27132]],[[44.26222,43.27132],[44.26317,43.27086]],[[44.26657,43.27139],[44.26293,43.27206]],[[44.26317,43.27086],[44.26554,43.27003],[44.2681,43.27001],[44.26849,43.27008],[44.26906,43.27024],[44.26964,43.27046],[44.27194,43.2718],[44.27431,43.27255]],[[44.26317,43.27086],[44.26437,43.27058],[44.26702,43.27104],[44.26802,43.27041],[44.26815,43.2702],[44.26824,43.26993],[44.26836,43.26933]],[[44.26836,43.26933],[44.26828,43.27012],[44.26824,43.27047],[44.26811,43.27078],[44.26657,43.27139]],[[44.2763,43.27306],[44.27017,43.27162],[44.26845,43.2714],[44.26723,43.27137],[44.26657,43.27139]],[[44.26836,43.26933],[44.26836,43.26993],[44.26836,43.27022],[44.26843,43.27053],[44.26907,43.27119],[44.27431,43.27255]],[[44.27431,43.27255],[44.2763,43.27306]],[[44.52194,43.22293],[44.51649,43.22612],[44.50784,43.23921],[44.45708,43.26792],[44.45245,43.26941],[44.41319,43.26678],[44.34231,43.26911],[44.33289,43.27104],[44.31217,43.28078],[44.29241,43.27466],[44.28333,43.27478],[44.2763,43.27306]],[[44.277,43.17857],[44.27725,43.1792]],[[44.41129,43.0317],[44.41586,43.03133]],[[44.41586,43.03133],[44.41311,43.03165],[44.41129,43.0317]],[[44.41586,43.03133],[44.46635,43.02724],[44.4913,43.03258],[44.5155,43.03195],[44.54888,43.0274],[44.55859,43.02338],[44.56874,43.02484]],[[44.47277,43.02853],[44.47357,43.0287]],[[44.52194,43.22293],[44.52665,43.21997],[44.53105,43.21519],[44.53272,43.21405],[44.53395,43.21348],[44.53705,43.21267],[44.55109,43.21184],[44.55991,43.21014],[44.56254,43.20936],[44.5825,43.20243],[44.58507,43.20149],[44.58848,43.19964],[44.59144,43.19698]],[[44.59108,43.19763],[44.58857,43.19976],[44.58518,43.20159],[44.55998,43.21025],[44.55112,43.21197],[44.53409,43.21355],[44.52637,43.22037],[44.52194,43.22293]],[[44.59346,43.18213],[44.59299,43.17766],[44.59298,43.1773],[44.59289,43.17618],[44.59282,43.1755],[44.5928,43.17497],[44.59201,43.16617],[44.59068,43.15237],[44.58986,43.14934],[44.57813,43.14061],[44.56331,43.12789],[44.5607,43.12541],[44.55692,43.12137],[44.55558,43.11961],[44.55438,43.11746],[44.55357,43.11509],[44.55324,43.11299],[44.55348,43.1094],[44.55506,43.10532],[44.55867,43.10046]],[[44.56646,43.09459],[44.5648,43.09763],[44.56355,43.09861],[44.56288,43.09887],[44.56153,43.09904],[44.56064,43.09895],[44.56002,43.0988],[44.55938,43.09864],[44.5587,43.09851],[44.55791,43.09846],[44.55708,43.09858],[44.55906,43.09891],[44.55867,43.10046]],[[44.55867,43.10046],[44.5597,43.09938],[44.56092,43.09824],[44.56169,43.0976],[44.56451,43.0956],[44.56612,43.09465]],[[44.56217,43.09741],[44.56169,43.09778],[44.56072,43.09862],[44.5603,43.099],[44.55842,43.10102],[44.55455,43.10667],[44.55337,43.11226],[44.55424,43.11673],[44.55675,43.12098],[44.56345,43.12785],[44.59001,43.1493],[44.59084,43.15236],[44.5912,43.15564],[44.59214,43.16615],[44.59302,43.17546],[44.59309,43.17618],[44.59319,43.17728],[44.59324,43.17762]],[[44.56646,43.09459],[44.56217,43.09741]],[[44.56217,43.09741],[44.56338,43.09727],[44.56384,43.09823],[44.56194,43.09893],[44.56069,43.09886],[44.56007,43.09872],[44.55939,43.09855],[44.55845,43.0984],[44.55734,43.09844],[44.5562,43.09868],[44.56612,43.09465]],[[44.56612,43.09465],[44.59872,43.07821],[44.6426,43.05734]],[[44.6428,43.05754],[44.56646,43.09459]],[[44.64392,43.02568],[44.62797,43.02535],[44.60599,43.02772],[44.58136,43.02899],[44.57983,43.02888],[44.57812,43.0284],[44.57132,43.02519],[44.56874,43.02484]],[[44.56874,43.02484],[44.57142,43.02513],[44.58136,43.0289],[44.62729,43.0253],[44.64386,43.02527]],[[44.57991,43.20345],[44.57918,43.2037]],[[44.57936,43.20351],[44.57979,43.20337]],[[44.59386,43.18487],[44.59434,43.19001],[44.59423,43.19164],[44.59399,43.1927],[44.59288,43.19524],[44.59217,43.19629],[44.59151,43.19713],[44.59108,43.19763]],[[44.60119,43.19504],[44.59691,43.19505],[44.5943,43.19633],[44.59108,43.19763]],[[44.59335,43.19665],[44.59196,43.19679],[44.59147,43.19672],[44.59046,43.19651],[44.58969,43.19694],[44.59144,43.19698]],[[44.59144,43.19698],[44.59198,43.19629]],[[44.59198,43.19629],[44.59049,43.19573],[44.59087,43.19637],[44.59133,43.1965],[44.59155,43.19654],[44.5922,43.19662],[44.59305,43.1966],[44.59729,43.19489],[44.60135,43.19468]],[[44.59198,43.19629],[44.59418,43.19061],[44.59346,43.18213]],[[44.59412,43.17686],[44.59357,43.17687],[44.59334,43.17689],[44.59269,43.17692],[44.59202,43.17697],[44.59122,43.17756],[44.59299,43.17766]],[[44.59302,43.17546],[44.59458,43.17659],[44.60022,43.17657]],[[44.59324,43.17762],[44.59477,43.17796],[44.59412,43.17686]],[[44.59324,43.17762],[44.59368,43.17891],[44.59409,43.17934],[44.59457,43.17979],[44.59479,43.18004],[44.59535,43.1811],[44.59386,43.18487]],[[44.59346,43.18213],[44.59355,43.18168]],[[44.59355,43.18168],[44.59386,43.18487]],[[44.60022,43.17657],[44.59864,43.17681],[44.59803,43.17699],[44.59722,43.1773],[44.59663,43.17758],[44.59557,43.17825],[44.59483,43.17891],[44.59445,43.17937],[44.59403,43.18004],[44.59355,43.18168]],[[44.59885,43.17799],[44.59782,43.17779],[44.5973,43.17754],[44.59662,43.17725],[44.59572,43.17698],[44.59487,43.17683],[44.59412,43.17686]],[[44.59885,43.17799],[44.59953,43.17714],[44.59803,43.17699]],[[44.60432,43.1764],[44.60037,43.17792],[44.59969,43.178],[44.59885,43.17799]],[[44.60022,43.17657],[44.60432,43.1764]],[[44.60135,43.19468],[44.60182,43.19474],[44.60187,43.19505],[44.6013,43.19513],[44.60119,43.19504],[44.60116,43.1949],[44.60135,43.19468]],[[44.60363,43.20101],[44.60154,43.19519]],[[44.60191,43.19493],[44.60423,43.20107]],[[44.60432,43.1764],[44.7123,43.17203]],[[44.63105,42.75907],[44.62918,42.7575],[44.62629,42.74941],[44.62292,42.74692],[44.62357,42.74482]],[[44.6506,43.00847],[44.65573,42.99423],[44.66687,42.98289],[44.66824,42.97616],[44.66537,42.96196],[44.66607,42.95534],[44.66295,42.94989],[44.65813,42.94359],[44.65285,42.93911],[44.6467,42.93725],[44.63857,42.9319],[44.63611,42.92827],[44.633,42.91784],[44.63267,42.90117],[44.6302,42.89489],[44.62883,42.87534],[44.636,42.866],[44.63758,42.84711],[44.6366,42.83672],[44.64176,42.8186],[44.64132,42.81473],[44.64279,42.80763],[44.63924,42.80304],[44.63791,42.79725],[44.63317,42.79412],[44.63167,42.79007],[44.6282,42.78674],[44.63056,42.77337]],[[44.63056,42.77337],[44.63093,42.76981]],[[44.6311,42.76985],[44.63056,42.77337]],[[44.63093,42.76981],[44.63051,42.76796],[44.63139,42.76731]],[[44.63093,42.76981],[44.63139,42.76731]],[[44.63105,42.75907],[44.63142,42.75947],[44.63138,42.75987],[44.63018,42.76179],[44.63137,42.76472],[44.63158,42.76575],[44.63165,42.76757]],[[44.63139,42.76731],[44.62995,42.76171],[44.63105,42.75907]],[[44.63165,42.76757],[44.6311,42.76985]],[[44.63165,42.76757],[44.63215,42.76938],[44.6311,42.76985]],[[44.64043,43.04653],[44.64043,43.04636]],[[44.64043,43.04636],[44.64054,43.03893],[44.64241,43.0315]],[[44.64043,43.04636],[44.64057,43.04636]],[[44.64057,43.04653],[44.64043,43.04653]],[[44.64262,43.05723],[44.64065,43.05496],[44.64023,43.05405],[44.64043,43.04653]],[[44.64057,43.04636],[44.64057,43.04653]],[[44.6428,43.03153],[44.64073,43.03878],[44.64057,43.04636]],[[44.64057,43.04653],[44.64047,43.0541],[44.64292,43.05706]],[[44.6428,43.03153],[44.64241,43.0315]],[[44.64241,43.0315],[44.64243,43.03113]],[[44.64243,43.03113],[44.64395,43.0257]],[[44.64243,43.03113],[44.64276,43.0311],[44.64295,43.03125]],[[44.6428,43.05754],[44.6426,43.05734]],[[44.6426,43.05734],[44.64262,43.05723]],[[44.64262,43.05723],[44.64292,43.05706]],[[44.64295,43.03125],[44.6428,43.03153]],[[44.64292,43.05706],[44.64329,43.05739],[44.64309,43.05755],[44.6428,43.05754]],[[44.64455,43.02569],[44.64295,43.03125]],[[44.64392,43.02568],[44.64386,43.02527]],[[44.64386,43.02527],[44.64397,43.02518]],[[44.64395,43.0257],[44.64392,43.02568]],[[44.64455,43.02569],[44.64421,43.02578],[44.64395,43.0257]],[[44.64397,43.02518],[44.64603,43.02023],[44.64964,43.01382],[44.6506,43.00847]],[[44.64397,43.02518],[44.64434,43.02513],[44.64461,43.02526]],[[44.64461,43.02526],[44.64455,43.02569]],[[44.6506,43.00847],[44.65003,43.0132],[44.64461,43.02526]],[[44.7123,43.17203],[44.71274,43.17203]],[[44.7127,43.17219],[44.7123,43.17203]],[[44.7131,43.17225],[44.7127,43.17219]],[[44.7127,43.17219],[44.71274,43.17203]],[[44.71274,43.17203],[44.71313,43.17207]],[[44.71313,43.17207],[44.7131,43.17225]],[[44.71356,43.17224],[44.7131,43.17225]],[[44.71313,43.17207],[44.71356,43.17224]],[[44.71356,43.17224],[44.7263,43.17558],[44.74353,43.18588]],[[44.74353,43.18588],[44.75256,43.19131]],[[44.754,43.19232],[44.74353,43.18588]]]}}],"provenance":{"sources":[{"id":"osm-north-caucasus-260916","url":"https://download.geofabrik.de/russia/north-caucasus-fed-district-260916.osm.pbf","snapshot":"2026-09-16T20:21:21Z","sha256":"6b57ddc7e26ed9a599b733fd201ead0c5669ff108d34a05bd9005bb2ceea91a6","md5":"1e96bf0e0cc7972e18ec11f3d33d563c","bytes":128531657,"license":"ODbL-1.0","attribution":"© OpenStreetMap contributors, Geofabrik","downloadDate":"2026-09-17"}],"attribution":"© OpenStreetMap contributors, Geofabrik; ODbL-1.0","geometryMethod":"Actual OSM road ways, merged by class and endpoint, display simplification 0.0007 degrees; not routing geometry","sourceWayCount":2259,"routingUse":false}}