{"type":"FeatureCollection","features":[{"type":"Feature","properties":{"roadClass":"primary"},"geometry":{"type":"MultiLineString","coordinates":[[[44.76038,43.19526],[44.75696,43.19399],[44.75298,43.19177]],[[44.75577,43.19317],[44.75845,43.19425],[44.75985,43.19475],[44.76029,43.1949],[44.76108,43.19516]],[[44.76021,43.19591],[44.75515,43.19938],[44.75445,43.20205],[44.76337,43.22486]],[[44.76021,43.19591],[44.76038,43.19526]],[[44.76021,43.19591],[44.76034,43.19584]],[[44.7619,43.19578],[44.76021,43.19591]],[[44.76029,43.1949],[44.76253,43.19446]],[[44.76034,43.19584],[44.76038,43.19526]],[[44.76539,43.19676],[44.7635,43.19628],[44.7619,43.19578],[44.76115,43.19551],[44.76034,43.19584]],[[44.76113,43.19516],[44.76163,43.195],[44.77625,43.1863],[44.77907,43.18491],[44.78274,43.18357],[44.78609,43.18272],[44.79615,43.18142],[44.80171,43.17834]],[[44.76182,43.19499],[44.76472,43.19638]],[[44.76232,43.22754],[44.76267,43.22738]],[[44.76267,43.22738],[44.76241,43.22762]],[[44.76267,43.22738],[44.76413,43.22595]],[[44.76337,43.22486],[44.76403,43.2258]],[[44.76403,43.2258],[44.76343,43.22507],[44.76337,43.22486]],[[44.76413,43.22595],[44.76403,43.2258]],[[44.76413,43.22595],[44.7751,43.22159],[44.79411,43.21189]],[[44.80224,43.17812],[44.7959,43.18163],[44.7862,43.18283],[44.77899,43.18508],[44.77638,43.18636],[44.76606,43.19254],[44.76182,43.19499],[44.76133,43.1953],[44.76553,43.19668]],[[44.79457,43.21149],[44.79411,43.21189]],[[44.7948,43.21169],[44.79411,43.21189]],[[44.80171,43.17834],[44.80183,43.17725]],[[44.80171,43.17834],[44.80259,43.17781],[44.80336,43.17727]],[[44.80183,43.17725],[44.80328,43.17732]],[[44.80183,43.17725],[44.80275,43.17648],[44.80338,43.1768],[44.80623,43.17876],[44.80411,43.1779],[44.80224,43.17812]],[[44.80336,43.17727],[44.80224,43.17812]],[[44.80336,43.17727],[44.80343,43.17719],[44.80381,43.17677],[44.8039,43.17667],[44.80411,43.17635],[44.80512,43.17418],[44.80376,43.16494]],[[44.76096,43.19549],[44.76095,43.19519],[44.76132,43.19527],[44.76123,43.19548],[44.76096,43.19549]],[[44.76209,43.22767],[44.76224,43.22752],[44.76241,43.22762],[44.76229,43.22776],[44.76209,43.22767]]]}},{"type":"Feature","properties":{"roadClass":"secondary"},"geometry":{"type":"MultiLineString","coordinates":[[[44.5016,43.53251],[44.51418,43.52858],[44.52035,43.52545],[44.54114,43.52036],[44.55513,43.51331],[44.56726,43.50472],[44.58585,43.5026],[44.60368,43.49679],[44.63851,43.4801]],[[44.61549,43.47843],[44.64039,43.479]],[[44.63851,43.4801],[44.64039,43.479]],[[44.6411,43.47953],[44.63851,43.4801]],[[44.64039,43.479],[44.64095,43.4789]],[[44.64075,43.47934],[44.64071,43.47914]],[[44.64136,43.47891],[44.64441,43.47916]],[[44.64441,43.47916],[44.64141,43.47947]],[[44.64441,43.47916],[44.75694,43.4797]],[[44.73471,43.36868],[44.73267,43.36501],[44.72381,43.35827],[44.71074,43.35173],[44.69805,43.3485],[44.69237,43.34226],[44.68715,43.3254],[44.68387,43.30172],[44.68586,43.29293],[44.68169,43.27736]],[[44.69754,43.21692],[44.70553,43.22247],[44.71208,43.22502],[44.73051,43.22505],[44.7467,43.22342]],[[44.75793,43.47917],[44.76181,43.45507],[44.77178,43.43092],[44.77199,43.4281],[44.76529,43.41704],[44.76377,43.41139],[44.76094,43.40652],[44.7513,43.39616],[44.74752,43.39004],[44.74024,43.38568],[44.73471,43.36868]],[[44.73471,43.36868],[44.73963,43.36614],[44.74808,43.36712],[44.76305,43.36536],[44.768,43.36289],[44.76996,43.358],[44.78236,43.35568],[44.78285,43.35037],[44.78867,43.34746]],[[44.74757,43.22343],[44.7467,43.22342]],[[44.7467,43.22342],[44.74751,43.22317]],[[44.74751,43.22317],[44.74779,43.22315],[44.74789,43.22333],[44.74778,43.22343],[44.74766,43.22345],[44.74757,43.22343],[44.74751,43.22317]],[[44.74765,43.22312],[44.74837,43.22297]],[[44.74881,43.2239],[44.74766,43.22345]],[[44.74891,43.18958],[44.74808,43.18871]],[[44.74837,43.22297],[44.74881,43.2239]],[[44.74837,43.22297],[44.75523,43.21913]],[[44.74881,43.2239],[44.75573,43.2289]],[[44.75138,43.19056],[44.75254,43.19122]],[[44.75343,43.19176],[44.75631,43.193]],[[44.75419,43.19249],[44.754,43.19255]],[[44.75468,43.23004],[44.7558,43.22904]],[[44.7549,43.21878],[44.75531,43.21887]],[[44.7553,43.21899],[44.7549,43.21878]],[[44.7549,43.21878],[44.75797,43.21192],[44.7584,43.2118]],[[44.75523,43.21913],[44.75532,43.21901]],[[44.75545,43.21903],[44.75523,43.21913]],[[44.75816,43.21186],[44.75539,43.21884]],[[44.75625,43.21905],[44.75549,43.21902]],[[44.75554,43.2189],[44.75625,43.21905]],[[44.75573,43.2289],[44.75589,43.22893]],[[44.7558,43.22901],[44.75573,43.2289]],[[44.77369,43.23922],[44.76596,43.236],[44.76381,43.23492],[44.75593,43.22912]],[[44.75593,43.22893],[44.75613,43.22888]],[[44.75607,43.22904],[44.76386,43.23481],[44.77369,43.23922]],[[44.75607,43.22904],[44.7558,43.22901],[44.75593,43.22893],[44.75607,43.22901]],[[44.75607,43.22901],[44.75607,43.22904]],[[44.75613,43.22888],[44.75607,43.22901]],[[44.75613,43.22888],[44.75803,43.22764],[44.76165,43.22752]],[[44.75625,43.21905],[44.76146,43.21905]],[[44.7574,43.47985],[44.75694,43.4797]],[[44.75694,43.4797],[44.75746,43.47956]],[[44.75767,43.47944],[44.75793,43.47917]],[[44.75793,43.47917],[44.75806,43.47946]],[[44.76165,43.22752],[44.76216,43.22755]],[[44.76209,43.22767],[44.76165,43.22752]],[[44.7622,43.22798],[44.76214,43.22773]],[[44.77867,43.23634],[44.7763,43.23376],[44.76394,43.23014],[44.7622,43.22798]],[[44.76229,43.22776],[44.7622,43.22798]],[[44.77369,43.23922],[44.7748,43.23964],[44.77867,43.23634]],[[44.84589,43.28713],[44.84148,43.28534],[44.83401,43.27998],[44.81642,43.27179],[44.81444,43.26773],[44.81045,43.26506],[44.80588,43.25781],[44.80296,43.25607],[44.79937,43.24955],[44.78296,43.2425],[44.77867,43.23634]],[[44.84589,43.28713],[44.84561,43.29061],[44.84867,43.29183],[44.85058,43.29718],[44.85061,43.30447],[44.84788,43.31361],[44.83392,43.3274],[44.79905,43.34303],[44.7922,43.34508],[44.78881,43.34737]],[[44.79469,43.21138],[44.79543,43.21101]],[[44.79543,43.21101],[44.79501,43.21156]],[[44.79543,43.21101],[44.8145,43.20739],[44.82107,43.20772],[44.82903,43.20561],[44.84107,43.20637],[44.86764,43.20132],[44.87572,43.20483],[44.89392,43.20272],[44.90347,43.20299],[44.90927,43.20484],[44.92411,43.2033],[44.93709,43.19991],[44.94263,43.19677],[44.94481,43.19226],[44.94432,43.18932],[44.94259,43.18787],[44.93826,43.17535],[44.94186,43.17072],[44.94345,43.17238],[44.94633,43.16782],[44.95027,43.1695],[44.95395,43.16929],[44.95604,43.17227],[44.96002,43.17045],[44.96244,43.17268],[44.9671,43.17327],[44.97255,43.17576],[44.97405,43.17308],[44.97942,43.17186],[44.97964,43.16913],[44.98698,43.16849],[44.99255,43.18037],[44.99268,43.18428],[44.99691,43.18468],[44.99765,43.18746],[45.03743,43.22914],[45.03916,43.23576],[45.04633,43.24489]],[[44.80103,43.22683],[44.82028,43.21966]],[[44.82719,43.20599],[44.82915,43.20294],[44.82617,43.20128],[44.82426,43.18967],[44.80623,43.17876]],[[44.88518,43.30261],[44.8783,43.29917],[44.87553,43.29995],[44.86868,43.2967],[44.85506,43.29265],[44.84864,43.2877],[44.84589,43.28713]],[[44.91274,43.30588],[44.91242,43.30739],[44.90859,43.30708],[44.88518,43.30261]],[[44.88518,43.30261],[44.88571,43.30107],[44.91274,43.30588]],[[44.91274,43.30588],[44.91968,43.3066]],[[45.01866,43.30886],[45.00749,43.30886],[44.97657,43.3162],[44.9667,43.3136],[44.94714,43.31184],[44.93435,43.30855],[44.91968,43.3066]],[[44.91968,43.3066],[44.92246,43.28964]],[[45.01729,43.28633],[45.01607,43.28511],[45.01342,43.28491]],[[45.01716,43.28517],[45.01636,43.28473]],[[45.01716,43.28517],[45.01729,43.28633]],[[45.01772,43.28463],[45.01716,43.28517]],[[45.01729,43.28633],[45.01938,43.30857]],[[45.02056,43.28439],[45.01819,43.28475],[45.01729,43.28633]],[[45.01866,43.30886],[45.01924,43.30895]],[[45.01918,43.3091],[45.01866,43.30886]],[[45.01949,43.30895],[45.01945,43.30919],[45.01918,43.3091]],[[45.01918,43.3091],[45.01926,43.30894]],[[45.01926,43.30894],[45.01938,43.30857]],[[45.01926,43.30894],[45.01937,43.30892],[45.01949,43.30895]],[[45.01938,43.30857],[45.01949,43.30895]],[[45.02001,43.30924],[45.01947,43.30918]],[[45.01956,43.30904],[45.02001,43.30924]],[[45.02001,43.30924],[45.03465,43.31306],[45.04128,43.3143],[45.04279,43.31364],[45.05557,43.29702],[45.05201,43.28643]],[[45.04633,43.24489],[45.04667,43.24495]],[[45.04693,43.24564],[45.04633,43.24489]],[[45.04692,43.24508],[45.04667,43.24495]],[[45.04667,43.24495],[45.04686,43.24498],[45.04692,43.24508]],[[45.04692,43.24508],[45.04693,43.24564]],[[45.04693,43.24564],[45.05113,43.28259]],[[45.05002,43.28304],[45.05113,43.28259]],[[45.05319,43.28302],[45.05003,43.28315]],[[45.05089,43.2809],[45.05059,43.27871]],[[45.05073,43.27982],[45.04963,43.28047],[45.04994,43.28574],[45.05054,43.28625],[45.0509,43.28632],[45.05201,43.28643],[45.05137,43.2835]],[[45.05113,43.28259],[45.05319,43.28291]],[[45.05218,43.2873],[45.0509,43.28632],[45.05179,43.28549]],[[44.64123,43.47888],[44.64152,43.47939],[44.64119,43.47953],[44.6411,43.47953],[44.64095,43.47949],[44.64083,43.47943],[44.64075,43.47934],[44.6407,43.47924],[44.64071,43.47914],[44.64075,43.47904],[44.64123,43.47888]],[[44.75772,43.48006],[44.7574,43.47985],[44.75747,43.47955],[44.75767,43.47944],[44.75786,43.47941],[44.75814,43.4795],[44.75772,43.48006]]]}},{"type":"Feature","properties":{"roadClass":"tertiary"},"geometry":{"type":"MultiLineString","coordinates":[[[44.5502,43.4686],[44.5421,43.46784]],[[44.5885,43.48688],[44.58735,43.47877],[44.58385,43.474],[44.57102,43.46791],[44.56264,43.46949],[44.5502,43.4686]],[[44.5502,43.4686],[44.54852,43.47888],[44.54804,43.49644],[44.55324,43.49776],[44.55311,43.51127],[44.55492,43.51297],[44.5711,43.51394],[44.57255,43.51375],[44.57345,43.51362],[44.57524,43.51336],[44.57934,43.51277],[44.58114,43.51252],[44.58287,43.51226],[44.58564,43.51187],[44.58576,43.51185],[44.58592,43.51183],[44.58972,43.5113],[44.59285,43.51086],[44.59297,43.51084],[44.59491,43.51057],[44.59688,43.5103],[44.59696,43.51029],[44.59829,43.5101],[44.5997,43.50991],[44.60152,43.50965],[44.60341,43.50939],[44.60348,43.50939],[44.6036,43.50941],[44.60373,43.5095],[44.60543,43.51016],[44.60688,43.51065],[44.62019,43.51025],[44.62027,43.51179],[44.62237,43.51179],[44.62232,43.50435]],[[44.56548,43.49765],[44.56517,43.49651],[44.56826,43.4874],[44.56836,43.48735],[44.57711,43.48611],[44.57924,43.49412],[44.57963,43.49566]],[[44.56678,43.49178],[44.57045,43.49242],[44.57152,43.49153],[44.57216,43.49095],[44.57223,43.49088],[44.5723,43.49082]],[[44.57021,43.46813],[44.57583,43.47624],[44.57793,43.48216]],[[44.57963,43.49566],[44.57035,43.49696]],[[44.57216,43.49095],[44.57212,43.49081],[44.57193,43.4901],[44.57187,43.48989],[44.57109,43.48696]],[[44.57435,43.51349],[44.57335,43.50982],[44.57201,43.50439]],[[44.5723,43.49082],[44.57212,43.49081]],[[44.5723,43.49082],[44.57814,43.48999]],[[44.58481,43.5082],[44.57838,43.50911],[44.57429,43.5097],[44.57335,43.50982]],[[44.5737,43.51113],[44.57873,43.51044]],[[44.57793,43.48216],[44.57827,43.4834],[44.57833,43.48362]],[[44.57793,43.48216],[44.57833,43.48362]],[[44.578,43.5078],[44.57811,43.50818],[44.57838,43.50911],[44.57841,43.5092],[44.57873,43.51044]],[[44.57833,43.48362],[44.5796,43.48846]],[[44.57873,43.51044],[44.57934,43.51277],[44.58032,43.51613]],[[44.57873,43.51044],[44.58516,43.50953],[44.58532,43.50951],[44.58623,43.50938],[44.59198,43.50855],[44.59219,43.50852],[44.59232,43.5085],[44.59431,43.50822],[44.59767,43.50775],[44.59999,43.50745],[44.60091,43.50733],[44.60214,43.50718],[44.60461,43.50808]],[[44.57893,43.61564],[44.58403,43.60368],[44.58385,43.57709],[44.58701,43.57589],[44.58652,43.57424],[44.5876,43.57247],[44.58608,43.57059],[44.58769,43.56876],[44.58519,43.56681],[44.58389,43.56005],[44.58211,43.55902],[44.58186,43.55743],[44.57889,43.55644],[44.58259,43.55493],[44.5821,43.55267],[44.57864,43.55266],[44.57982,43.55134],[44.5784,43.55064],[44.58241,43.54837]],[[44.5796,43.48846],[44.58454,43.50708]],[[44.5885,43.48688],[44.5796,43.48846]],[[44.58143,43.49548],[44.5798,43.49567],[44.57963,43.49566]],[[44.58604,43.51376],[44.58595,43.51834],[44.58057,43.52396],[44.57511,43.52737],[44.57382,43.53124],[44.56979,43.53407],[44.57225,43.53459],[44.57265,43.5384],[44.5709,43.5394],[44.57366,43.53896],[44.57239,43.53974],[44.57321,43.54193],[44.57199,43.54429],[44.57357,43.54368],[44.57588,43.54673],[44.5799,43.54678],[44.58241,43.54837]],[[44.58241,43.54837],[44.58883,43.54622],[44.59125,43.5439],[44.59536,43.54349],[44.59675,43.54146],[44.6009,43.54456],[44.60704,43.5422],[44.61584,43.54275]],[[44.61441,43.47842],[44.61473,43.46477],[44.61736,43.46324],[44.61369,43.45638],[44.61698,43.44926],[44.61208,43.44189],[44.60983,43.44327],[44.60859,43.44148],[44.61044,43.42418],[44.60978,43.42082],[44.61092,43.41917],[44.61041,43.41565],[44.60165,43.41287],[44.59431,43.41452],[44.58525,43.41164],[44.58923,43.40816],[44.58427,43.40165],[44.58246,43.40075],[44.57938,43.38786],[44.5848,43.37897],[44.58561,43.37258],[44.5881,43.36733],[44.58649,43.34498],[44.58439,43.25505],[44.58293,43.24646]],[[44.58454,43.50708],[44.58498,43.50818]],[[44.58481,43.5082],[44.58454,43.50708]],[[44.5862,43.51355],[44.58596,43.51264],[44.58578,43.51195],[44.58576,43.51185],[44.58574,43.51179],[44.58517,43.50957],[44.58516,43.50953],[44.58515,43.50949],[44.58484,43.5083],[44.58481,43.5082]],[[44.58498,43.50818],[44.58481,43.5082]],[[44.58498,43.50818],[44.58532,43.50951],[44.58533,43.50955],[44.58554,43.51036],[44.5859,43.51177],[44.58592,43.51183],[44.58635,43.51352]],[[44.60051,43.50595],[44.59964,43.50608],[44.59731,43.50639],[44.59396,43.50685],[44.59194,43.50715],[44.59182,43.50717],[44.58978,43.50749],[44.58498,43.50818]],[[44.58604,43.51376],[44.58617,43.5136]],[[44.58626,43.51369],[44.58604,43.51376]],[[44.58663,43.51365],[44.58638,43.51366]],[[44.5864,43.51357],[44.58663,43.51365]],[[44.61584,43.54275],[44.61563,43.54126],[44.61353,43.54028],[44.61288,43.53504],[44.61161,43.53377],[44.61171,43.52984],[44.61511,43.52657],[44.60731,43.52508],[44.61029,43.51733],[44.6088,43.51343],[44.60391,43.51167],[44.59878,43.51202],[44.58692,43.51363],[44.58677,43.51365],[44.5867,43.51365],[44.58663,43.51365]],[[44.59104,43.50064],[44.5885,43.48688]],[[44.59704,43.48609],[44.5885,43.48688]],[[44.59335,43.51274],[44.59285,43.51086],[44.59262,43.51008],[44.59219,43.50852],[44.59182,43.50717],[44.59016,43.50097]],[[44.59026,43.50093],[44.59141,43.50524],[44.59194,43.50715],[44.59232,43.5085],[44.59252,43.5092],[44.59297,43.51084],[44.59348,43.51272]],[[44.59552,43.40396],[44.60021,43.39777],[44.60457,43.39435],[44.61373,43.38815],[44.62122,43.38535],[44.62452,43.38591],[44.62869,43.39159],[44.63116,43.39303],[44.66313,43.39344],[44.70853,43.3811]],[[44.59878,43.51202],[44.59829,43.5101],[44.59827,43.51003],[44.59767,43.50775],[44.59731,43.50639],[44.59716,43.50578],[44.59679,43.50444]],[[44.60051,43.50595],[44.60072,43.50665],[44.60091,43.50733],[44.60109,43.50799],[44.60152,43.50965]],[[44.60296,43.50123],[44.60051,43.50595]],[[44.60301,43.50557],[44.60051,43.50595]],[[44.60376,43.50933],[44.60355,43.5094]],[[44.60429,43.51171],[44.60373,43.5095],[44.60376,43.50933],[44.60384,43.50916],[44.60461,43.50808]],[[44.60461,43.50808],[44.60789,43.50329],[44.60302,43.50133],[44.60296,43.50123],[44.6029,43.50111],[44.6024,43.49989],[44.60024,43.49458],[44.59672,43.48841],[44.59667,43.48819],[44.59694,43.48753],[44.59704,43.48609],[44.59725,43.48541],[44.5983,43.48365],[44.59804,43.48035],[44.60429,43.47842],[44.61441,43.47842]],[[44.61441,43.47842],[44.61549,43.47843]],[[44.61584,43.54275],[44.62357,43.54705],[44.62745,43.54766],[44.63508,43.54637],[44.64861,43.54092],[44.65848,43.5428],[44.66318,43.54165],[44.66671,43.54602],[44.67171,43.54566],[44.67547,43.54795],[44.68418,43.54777],[44.69145,43.54603],[44.69913,43.54654],[44.70547,43.54503],[44.71379,43.54683],[44.71893,43.54569],[44.73536,43.54758],[44.74039,43.54685]],[[44.62178,43.48834],[44.62222,43.48842]],[[44.62232,43.50414],[44.62222,43.48842]],[[44.62222,43.48842],[44.62248,43.48799]],[[44.62334,43.22743],[44.63927,43.22566],[44.68171,43.21572],[44.69377,43.21559],[44.69754,43.21692]],[[44.6872,43.2328],[44.67138,43.23435],[44.6529,43.23445],[44.64387,43.23752],[44.62129,43.23804],[44.58546,43.24398],[44.57992,43.24319],[44.57605,43.23891],[44.58544,43.23658],[44.61021,43.23315],[44.62772,43.23319],[44.6283,43.23737]],[[44.64614,42.84355],[44.65541,42.84219],[44.66297,42.83555],[44.66271,42.83391],[44.66429,42.83236],[44.66877,42.82963],[44.66896,42.82799],[44.67322,42.82633],[44.67113,42.82569],[44.67514,42.82365],[44.67529,42.82245],[44.68319,42.82204],[44.68603,42.82099],[44.68609,42.81953],[44.68973,42.81967],[44.69476,42.81754],[44.69527,42.81621],[44.69913,42.81683],[44.70133,42.81575],[44.71198,42.81464],[44.71733,42.81071],[44.72285,42.80841],[44.72724,42.80856],[44.72688,42.80921],[44.73271,42.80727],[44.74757,42.80514],[44.74861,42.80374],[44.75818,42.80108],[44.76218,42.79649],[44.76339,42.79313],[44.76935,42.79088],[44.7769,42.79017],[44.7781,42.79039],[44.78252,42.79597],[44.78458,42.7965],[44.78642,42.79532],[44.78745,42.79821],[44.78933,42.79923],[44.78898,42.80326],[44.79713,42.80896],[44.7985,42.80871],[44.79784,42.80991],[44.7987,42.80929],[44.80026,42.81156],[44.80456,42.81064],[44.81199,42.81247],[44.81531,42.81764],[44.81475,42.81847],[44.81616,42.81872],[44.81574,42.82077],[44.81884,42.82217],[44.82691,42.82066],[44.82401,42.82509],[44.82766,42.8239],[44.83131,42.82018],[44.83364,42.82108],[44.83598,42.8194],[44.83816,42.82053],[44.83965,42.81806],[44.84393,42.81984],[44.84557,42.82257],[44.84781,42.82135],[44.84959,42.81847],[44.85455,42.82061],[44.85634,42.81875],[44.8586,42.82],[44.86504,42.81909],[44.86518,42.82059],[44.86338,42.82206],[44.86217,42.82519],[44.8641,42.82604],[44.86488,42.829],[44.8699,42.83105],[44.87136,42.83055],[44.87266,42.83274],[44.87825,42.83622],[44.87806,42.83371],[44.88036,42.8347],[44.88054,42.8336],[44.88207,42.83386],[44.88152,42.83549],[44.8873,42.83488],[44.88499,42.83373],[44.89415,42.83183],[44.89495,42.83276],[44.89662,42.83149],[44.89586,42.82997],[44.8983,42.8319],[44.89953,42.82975],[44.90113,42.82923],[44.90343,42.8309],[44.91761,42.83153],[44.92565,42.83425],[44.93149,42.83191],[44.93541,42.83457],[44.93665,42.83683],[44.93522,42.83972],[44.93146,42.8413],[44.92959,42.84972],[44.93003,42.85548],[44.93227,42.85868],[44.92886,42.86341],[44.92818,42.86931],[44.92913,42.87145],[44.92864,42.87428],[44.93101,42.87907],[44.93116,42.88418],[44.93749,42.88937],[44.94496,42.89335],[44.9476,42.90036],[44.95932,42.90655],[44.9675,42.90793],[44.97585,42.90672],[44.98244,42.90734],[44.98864,42.9098],[44.99007,42.91165],[44.99918,42.91445],[45.0036,42.91961],[45.00674,42.926],[45.00958,42.92751],[45.00945,42.93455],[45.0119,42.9379],[45.00971,42.93982],[45.00953,42.94251],[45.01477,42.94764],[45.01879,42.94986],[45.01967,42.95302],[45.01519,42.95654],[45.01252,42.96355],[45.01237,42.9739],[45.01375,42.97546],[45.01067,42.98618],[45.01034,42.99476],[45.00642,42.99968],[45.00094,43.01144],[44.99761,43.01608],[44.99095,43.03478],[44.98704,43.04251],[44.98414,43.04538],[44.98281,43.0492],[44.98194,43.06021],[44.98516,43.07235],[44.98288,43.07386],[44.98735,43.07602],[44.98689,43.07718],[44.98412,43.07752],[44.98397,43.08435],[44.98306,43.08538],[44.98851,43.09998],[44.99114,43.12591],[44.99524,43.13405],[44.99375,43.13896],[44.99078,43.14054],[44.98931,43.14646],[44.98523,43.14705],[44.98781,43.14934],[44.97926,43.14778],[44.9772,43.14963],[44.9802,43.1535],[44.97955,43.15532],[44.98148,43.15649],[44.97835,43.15875],[44.98386,43.15985],[44.98481,43.16185],[44.98335,43.16401],[44.98698,43.16849]],[[44.6877,43.71455],[44.68856,43.70842],[44.71534,43.61212],[44.72087,43.59714],[44.72396,43.58145],[44.72915,43.57639],[44.73574,43.57387],[44.73764,43.5743],[44.73838,43.57244],[44.73765,43.57019],[44.73258,43.56898],[44.73215,43.56499],[44.73427,43.56747],[44.73588,43.56598],[44.73459,43.56619],[44.73389,43.56369],[44.73056,43.56029],[44.73378,43.55987],[44.73143,43.55706],[44.73165,43.55376],[44.73642,43.55178],[44.73523,43.55037],[44.73569,43.54837],[44.74039,43.54685]],[[44.69399,43.55738],[44.69242,43.55576],[44.69339,43.55451],[44.69238,43.55308],[44.69603,43.55199],[44.69265,43.55065],[44.69244,43.54858],[44.69409,43.54918],[44.69372,43.54648]],[[44.70632,42.81531],[44.70189,42.81661],[44.70298,42.81694],[44.70175,42.81826],[44.70419,42.81735],[44.70242,42.82033],[44.70614,42.81815],[44.70441,42.82131],[44.7051,42.82365],[44.70861,42.82527],[44.71409,42.83139],[44.71504,42.83327],[44.71441,42.83473],[44.71791,42.83551],[44.71748,42.83483]],[[44.73875,43.2243],[44.74049,43.22705],[44.73926,43.2318],[44.73186,43.23175]],[[44.73203,43.23439],[44.73186,43.23175]],[[44.73186,43.23175],[44.73267,43.22485]],[[44.73768,43.20112],[44.7549,43.21878]],[[44.74039,43.54685],[44.74893,43.54597],[44.74208,43.54316],[44.73962,43.53663],[44.74306,43.53187],[44.74754,43.52857],[44.74698,43.52575],[44.75146,43.52214],[44.75473,43.50037]],[[44.74794,43.23103],[44.74883,43.22806],[44.74676,43.22648]],[[44.748,43.18987],[44.74851,43.18976]],[[44.74851,43.18976],[44.748,43.1895]],[[44.7493,43.19023],[44.74851,43.18976]],[[44.74851,43.18976],[44.74891,43.18958]],[[44.74891,43.18958],[44.7493,43.19023]],[[44.75118,43.19059],[44.7492,43.18952],[44.74891,43.18958]],[[44.7493,43.19023],[44.75417,43.20144]],[[44.75265,43.23543],[44.75246,43.23552]],[[44.75265,43.23543],[44.75328,43.23334]],[[44.75328,43.23334],[44.75336,43.23365],[44.75265,43.23543]],[[44.75328,43.23334],[44.75468,43.23004]],[[44.75417,43.20144],[44.75445,43.20156]],[[44.75445,43.20205],[44.75417,43.20144]],[[44.75772,43.48028],[44.75475,43.50023]],[[44.75588,43.22912],[44.75576,43.22914]],[[44.75963,43.20819],[44.75753,43.20964]],[[44.75772,43.48028],[44.7576,43.48002]],[[44.75799,43.48004],[44.75772,43.48028]],[[44.75887,43.47972],[44.75821,43.47992]],[[44.75824,43.47962],[44.75887,43.47972]],[[44.75887,43.47972],[44.78556,43.47971],[44.81226,43.47976],[44.83346,43.47971],[44.85028,43.48153],[44.86175,43.48119],[44.88914,43.48082],[44.96826,43.48045],[45.0578,43.48086],[45.06961,43.47886],[45.08017,43.47849],[45.08593,43.48264],[45.08819,43.48278]],[[44.77698,43.2311],[44.77676,43.22737],[44.76888,43.21754],[44.76794,43.21661],[44.76774,43.21648],[44.76622,43.21514],[44.7648,43.2133],[44.76431,43.21271],[44.75963,43.20819]],[[44.77917,43.2122],[44.77659,43.21048],[44.77451,43.21052],[44.77278,43.20931],[44.76933,43.20778],[44.76567,43.20473],[44.75963,43.20819]],[[44.77278,43.20931],[44.77165,43.21015],[44.76663,43.2125],[44.7648,43.2133],[44.7599,43.2154]],[[44.76071,43.23923],[44.7461,43.25353],[44.74411,43.25533],[44.74426,43.2551],[44.76071,43.23923]],[[44.76128,43.23915],[44.76071,43.23923]],[[44.76124,43.2496],[44.76689,43.25271]],[[44.7614,43.23911],[44.76575,43.23576]],[[44.76146,43.21905],[44.76757,43.21653],[44.76774,43.21648],[44.7702,43.21589],[44.77329,43.21485],[44.77917,43.2122]],[[44.76303,43.2185],[44.76743,43.22452]],[[44.76689,43.25271],[44.76547,43.25609],[44.76483,43.26954]],[[44.76689,43.25271],[44.77214,43.24053],[44.77401,43.23936]],[[44.77561,43.23346],[44.77698,43.2311]],[[44.77698,43.2311],[44.7813,43.23183],[44.78478,43.23422]],[[44.77915,43.23686],[44.78478,43.23422]],[[44.78161,43.21323],[44.77917,43.2122]],[[44.80699,43.24196],[44.80703,43.23802],[44.79717,43.22507],[44.78161,43.21323]],[[44.78161,43.21323],[44.78582,43.20973],[44.79207,43.2083]],[[44.78228,43.35573],[44.78636,43.35805],[44.79431,43.35799],[44.79753,43.35635],[44.80345,43.35721],[44.80781,43.35308],[44.81801,43.34714],[44.82779,43.34809],[44.83996,43.34514],[44.8445,43.347],[44.90921,43.33698],[44.91567,43.32365],[44.91968,43.3066]],[[44.80958,43.24551],[44.80699,43.24196],[44.80557,43.24213],[44.80405,43.24044],[44.79034,43.2368],[44.78478,43.23422]],[[44.78881,43.34737],[44.78867,43.34746]],[[44.80285,43.25589],[44.80687,43.25239]],[[44.81481,43.17342],[44.81345,43.16419],[44.80376,43.16494],[44.8029,43.15871]],[[44.80457,43.17541],[44.80623,43.17876]],[[44.80512,43.17418],[44.81481,43.17342]],[[44.80607,43.47973],[44.80581,43.47124]],[[44.80687,43.25239],[44.80745,43.26021]],[[44.81325,43.25378],[44.81157,43.25166],[44.8091,43.25242],[44.80706,43.25217],[44.80687,43.25239]],[[44.81325,43.25378],[44.81376,43.25752],[44.80913,43.26356]],[[44.80986,43.24834],[44.80799,43.24779],[44.80934,43.24545]],[[44.81237,43.24461],[44.81062,43.24502],[44.80972,43.24543],[44.80958,43.24551],[44.80947,43.24571]],[[44.81361,43.24772],[44.81251,43.24817],[44.81189,43.24827],[44.81006,43.24832],[44.80986,43.24834],[44.80974,43.24835],[44.80931,43.24861],[44.80823,43.25103],[44.81006,43.25197]],[[44.81643,43.25388],[44.81325,43.25378]],[[44.81434,43.18432],[44.81414,43.18155],[44.8156,43.17874],[44.81481,43.17342]],[[44.8188,43.20792],[44.82028,43.21966]],[[44.82426,43.18967],[44.83865,43.17285],[44.84797,43.15476]],[[44.84797,43.15476],[44.8443,43.15154]],[[44.93895,43.17405],[44.93805,43.17186],[44.93623,43.17318],[44.9253,43.17408],[44.92246,43.17581],[44.9159,43.17555],[44.9071,43.17956],[44.90022,43.18101],[44.89948,43.1787],[44.8974,43.17974],[44.8906,43.17501],[44.88611,43.17366],[44.88078,43.17425],[44.87343,43.17161],[44.87022,43.16905],[44.86963,43.16623],[44.86541,43.16232],[44.84797,43.15476]],[[44.86251,43.50889],[44.86122,43.49682],[44.86175,43.48119]],[[44.8991,43.30128],[44.88956,43.29925],[44.88348,43.29976],[44.88255,43.30141]],[[44.88567,43.34038],[44.88516,43.33942],[44.88863,43.32695],[44.89462,43.31663],[44.89431,43.31479],[44.89917,43.30161],[44.8991,43.30128],[44.8983,43.30002],[44.89899,43.29838],[44.90652,43.29812],[44.90744,43.29653],[44.90762,43.28939]],[[44.90775,43.28863],[44.90795,43.27802],[44.90891,43.27333],[44.90442,43.26929],[44.89614,43.26454],[44.89404,43.25283],[44.89081,43.25014],[44.89001,43.24686],[44.89053,43.24311],[44.89833,43.2368],[44.9017,43.22564],[44.90177,43.21827],[44.8999,43.21377],[44.90116,43.2029]],[[44.90657,43.28871],[44.90775,43.28863]],[[44.90762,43.28939],[44.90728,43.28898]],[[44.90806,43.28908],[44.90762,43.28939]],[[44.90775,43.28863],[44.90838,43.28899]],[[44.90887,43.2736],[44.91524,43.27684],[44.91694,43.281],[44.92109,43.28622],[44.92059,43.28731]],[[44.92059,43.28731],[44.91711,43.28979]],[[44.92246,43.28964],[44.92059,43.28731]],[[44.96271,43.30709],[44.97976,43.30634],[44.98526,43.3054],[44.98611,43.30521],[44.98898,43.30457],[44.98986,43.30437],[44.99113,43.30402]],[[44.9803,43.28764],[44.98095,43.29408],[44.98355,43.29863],[44.98581,43.3043],[44.98611,43.30521],[44.98687,43.30719],[44.98721,43.31133],[44.99061,43.31056],[44.99101,43.31303]],[[45.01285,43.31654],[45.01918,43.3091]],[[45.01939,43.3092],[45.01324,43.31661]],[[45.03953,43.3321],[45.04642,43.32445],[45.05589,43.31035]],[[45.04128,43.3143],[45.05103,43.31753]],[[45.1179,43.1352],[45.12596,43.13921],[45.13644,43.14056],[45.13682,43.14301],[45.1384,43.1431],[45.13768,43.14512],[45.13929,43.14566],[45.13956,43.14819],[45.13823,43.15493],[45.13483,43.1612],[45.13521,43.16327],[45.13088,43.16462],[45.1325,43.17397],[45.12596,43.17902],[45.12594,43.18267],[45.12303,43.18974],[45.12381,43.19113],[45.12119,43.19171],[45.11905,43.1905],[45.11786,43.19177],[45.11863,43.19368],[45.11518,43.19459],[45.11346,43.19768],[45.11233,43.2048],[45.10977,43.20625],[45.11291,43.21229],[45.12066,43.21463],[45.12173,43.21657],[45.11967,43.21994],[45.12147,43.22218],[45.09702,43.22494],[45.09125,43.22852],[45.08261,43.22981],[45.06985,43.23577],[45.06503,43.24058],[45.06429,43.24066],[45.04935,43.24016],[45.04695,43.24012],[45.04252,43.24009]],[[45.04667,43.24495],[45.04694,43.24476]],[[45.04694,43.24476],[45.04692,43.24508]],[[45.04731,43.23387],[45.04692,43.23614],[45.04695,43.24012],[45.04698,43.24164],[45.04694,43.24476]],[[45.04754,43.30758],[45.0552,43.30977]],[[45.0552,43.30977],[45.05589,43.30976]],[[45.0558,43.31002],[45.0552,43.30977]],[[45.05585,43.31005],[45.0558,43.31002]],[[45.0558,43.31002],[45.05589,43.30976]],[[45.05617,43.31002],[45.05598,43.31008],[45.05585,43.31005]],[[45.05589,43.31035],[45.05585,43.31005]],[[45.05589,43.30976],[45.05595,43.30975]],[[45.05617,43.31002],[45.05589,43.31035]],[[45.05595,43.30975],[45.0562,43.30998]],[[45.05595,43.30975],[45.05672,43.30934]],[[45.0562,43.30998],[45.05617,43.31002]],[[45.05619,43.30962],[45.05639,43.30974]],[[45.05672,43.30934],[45.0562,43.30998]],[[45.05672,43.30934],[45.05897,43.30758],[45.06377,43.29957]],[[45.06699,43.28251],[45.06461,43.283],[45.06327,43.28263]],[[45.06377,43.29957],[45.06841,43.30082]],[[45.06377,43.29957],[45.06475,43.29631],[45.06474,43.29412],[45.06461,43.283],[45.06459,43.28244]],[[45.06841,43.30082],[45.12141,43.30925],[45.14591,43.30816]],[[45.09694,43.27999],[45.08323,43.28858],[45.06841,43.30082]],[[45.07477,42.96575],[45.07521,42.96794],[45.07869,42.9589],[45.07973,42.95868],[45.07944,42.95967],[45.08115,42.96086],[45.08314,42.96091],[45.0872,42.95688],[45.09265,42.95708],[45.08771,42.95421],[45.09678,42.95131],[45.09645,42.94853],[45.09949,42.94834],[45.09773,42.94892],[45.09829,42.9501],[45.09856,42.94904],[45.10357,42.9493],[45.11308,42.94248],[45.12611,42.94083],[45.1281,42.93932],[45.12964,42.94046],[45.13492,42.94103],[45.1353,42.94237],[45.14245,42.94577],[45.14232,42.9439],[45.14391,42.94473],[45.14502,42.94308],[45.14539,42.9447],[45.14805,42.94328],[45.14727,42.94453],[45.14964,42.94331],[45.15866,42.94343],[45.16268,42.94235],[45.16612,42.9429],[45.1643,42.94356],[45.17029,42.9441],[45.17637,42.94062],[45.17901,42.94128],[45.18241,42.94051],[45.18796,42.93629],[45.19297,42.93732],[45.20036,42.9362],[45.2084,42.93803],[45.20987,42.93573],[45.22036,42.92996],[45.21772,42.92723],[45.21972,42.92422],[45.21759,42.92324],[45.22504,42.91961],[45.22994,42.92014],[45.2355,42.91773],[45.24524,42.9164],[45.24612,42.9176],[45.24773,42.91691],[45.24908,42.91803],[45.25172,42.91786],[45.25273,42.91898],[45.26254,42.9218]],[[45.0748,42.96563],[45.07405,42.96834],[45.07071,42.97123],[45.07345,42.97541],[45.07204,42.97708],[45.07413,42.97865],[45.07001,42.98303],[45.07041,42.99036],[45.07524,42.99415],[45.07682,42.99415],[45.07603,42.99683],[45.07807,42.99888],[45.07834,43.00517],[45.08199,43.00822],[45.08358,43.0126],[45.08818,43.01482],[45.0878,43.01823],[45.0911,43.01865],[45.099,43.02364],[45.10215,43.02408],[45.11965,43.0315],[45.12266,43.0373],[45.12972,43.04031],[45.13605,43.04754],[45.13849,43.04855],[45.13986,43.05054],[45.14217,43.05092],[45.14826,43.05699],[45.15221,43.05677],[45.15701,43.06056],[45.15834,43.0645],[45.16207,43.06652],[45.16203,43.06924],[45.16364,43.07243],[45.16866,43.07662],[45.17242,43.07812],[45.17298,43.08256],[45.17614,43.08361],[45.17637,43.08567],[45.17859,43.0866],[45.17895,43.08886],[45.18393,43.08934],[45.1847,43.09452],[45.18766,43.09854],[45.19613,43.1031],[45.1963,43.10814],[45.19495,43.11279]],[[45.08877,43.48291],[45.08819,43.48278]],[[45.08819,43.48278],[45.08886,43.48269]],[[45.08926,43.48317],[45.09046,43.48527],[45.08846,43.49098]],[[45.08926,43.48317],[45.08896,43.48301]],[[45.08903,43.48267],[45.08962,43.4826]],[[45.08919,43.48292],[45.08926,43.48317]],[[45.08962,43.4826],[45.08922,43.48281]],[[45.10918,43.47615],[45.08962,43.4826]],[[45.16957,43.24131],[45.15585,43.24889],[45.11148,43.2698],[45.10291,43.27479],[45.09712,43.27987]],[[45.13561,43.14044],[45.17985,43.14159],[45.18776,43.14555],[45.19277,43.1533],[45.19592,43.16074]],[[44.58629,43.51369],[44.58626,43.51369],[44.58622,43.51367],[44.5862,43.51365],[44.58617,43.5136],[44.5862,43.51355],[44.58628,43.51351],[44.58629,43.51369]],[[44.75536,43.21903],[44.75531,43.21887],[44.75552,43.21887],[44.75552,43.219],[44.75536,43.21903]],[[45.0128,43.31657],[45.01285,43.31654],[45.01286,43.31653],[45.01293,43.3165],[45.01309,43.3165],[45.01325,43.31671],[45.0128,43.31657]],[[45.08911,43.48298],[45.08883,43.48297],[45.08877,43.48291],[45.08875,43.48286],[45.08877,43.48276],[45.08911,43.48298]]]}},{"type":"Feature","properties":{"roadClass":"trunk"},"geometry":{"type":"MultiLineString","coordinates":[[[44.79321,43.20959],[44.78658,43.20409],[44.75719,43.19398],[44.754,43.19232],[44.74353,43.18588]],[[44.74917,43.18922],[44.75452,43.19249],[44.75795,43.19416],[44.78661,43.20397],[44.79334,43.20951],[44.79484,43.21154],[44.79645,43.21513]],[[44.75631,43.193],[44.7592,43.19452]],[[44.79635,43.21528],[44.79471,43.21155],[44.79321,43.20959]],[[44.79457,43.21151],[44.79321,43.20959]],[[44.79334,43.20951],[44.79459,43.21104]],[[44.79476,43.21189],[44.79411,43.21189]],[[44.79459,43.21104],[44.79543,43.21101]],[[44.79459,43.21104],[44.79496,43.21142]],[[44.79476,43.21189],[44.79461,43.21162]],[[44.79635,43.21528],[44.79476,43.21189]],[[44.79501,43.21156],[44.79645,43.21513]],[[44.80708,43.23514],[44.80509,43.2322],[44.80399,43.2311],[44.80086,43.2269],[44.79635,43.21528]],[[44.79645,43.21513],[44.80103,43.22683],[44.80229,43.22869],[44.80307,43.22961],[44.80449,43.23092],[44.80505,43.23161],[44.80708,43.23514]],[[44.80444,43.23088],[44.80399,43.2311]],[[44.80708,43.23514],[44.8127,43.24543]],[[44.8127,43.24543],[44.81557,43.25101],[44.81658,43.2538],[44.82032,43.25658]],[[44.82032,43.25658],[44.81808,43.25557],[44.81589,43.25312],[44.81524,43.25175],[44.81464,43.25033],[44.8127,43.24543]],[[44.81501,43.25122],[44.81557,43.25104]],[[44.82354,43.25739],[44.82032,43.25658]],[[44.82354,43.25739],[44.82577,43.25778],[44.82988,43.25896],[44.83054,43.2592],[44.83106,43.25943],[44.83114,43.25947],[44.83183,43.25985],[44.83481,43.2618],[44.84435,43.26927],[44.84829,43.27145],[44.88324,43.28407],[44.89786,43.28747],[44.90117,43.288],[44.90376,43.28823],[44.9085,43.28901],[44.91654,43.29011],[44.91703,43.29017],[44.91845,43.2903],[44.92035,43.29041],[44.92126,43.29044],[44.92181,43.29044],[44.92214,43.29044],[44.92289,43.29042],[44.92374,43.2904],[44.92458,43.29037],[44.92519,43.29037],[44.9309,43.29021],[44.93444,43.29005],[44.93748,43.28983],[44.93854,43.28978],[44.95196,43.28963]],[[44.95196,43.28963],[44.9375,43.29019],[44.93691,43.29019],[44.93466,43.29015],[44.92368,43.29053],[44.91931,43.29048],[44.90365,43.28858],[44.89748,43.28751],[44.89038,43.28622],[44.88996,43.28613],[44.88922,43.28595],[44.87174,43.28053],[44.84953,43.27213],[44.84482,43.26974],[44.83262,43.26056],[44.82354,43.25739]],[[44.83043,43.25915],[44.83008,43.25945]],[[44.83074,43.25975],[44.83106,43.25943]],[[44.88996,43.28613],[44.89023,43.28575]],[[44.90376,43.28823],[44.90451,43.28852],[44.90365,43.28858]],[[44.91654,43.29011],[44.91711,43.28979]],[[44.91698,43.28993],[44.91703,43.29017]],[[44.92231,43.29326],[44.91816,43.29041]],[[44.92155,43.29056],[44.92114,43.29169],[44.92248,43.2914]],[[44.9233,43.29041],[44.9239,43.2894],[44.92169,43.28903],[44.92077,43.28981],[44.92181,43.29044]],[[44.92692,43.29045],[44.9222,43.29383]],[[44.92248,43.29178],[44.92445,43.29149],[44.92368,43.29053]],[[44.93086,43.29003],[44.9309,43.29021]],[[44.93109,43.29042],[44.93098,43.2903]],[[44.93108,43.29049],[44.93109,43.29042]],[[44.93117,43.2903],[44.93109,43.29042]],[[44.93691,43.29019],[44.93624,43.29018]],[[44.93748,43.28983],[44.93847,43.28999],[44.9375,43.29019]],[[44.95323,43.2896],[44.95196,43.28963]],[[44.95323,43.2896],[45.01701,43.28412],[45.01774,43.28409],[45.01841,43.28412],[45.02078,43.28427],[45.07818,43.28183],[45.15465,43.2737]],[[45.15815,43.27346],[45.07819,43.28193],[45.01968,43.28444],[45.01772,43.28463],[45.01636,43.28473],[45.01342,43.28491],[44.9803,43.28764],[44.97708,43.28799],[44.97555,43.28813],[44.9746,43.28821],[44.95323,43.2896]],[[44.97555,43.28813],[44.97441,43.288],[44.97548,43.28775]],[[45.01636,43.28473],[45.01628,43.28422]],[[45.01774,43.28409],[45.01772,43.28463]]]}}],"provenance":{"sources":[{"id":"osm-north-caucasus-260916","url":"https://download.geofabrik.de/russia/north-caucasus-fed-district-260916.osm.pbf","snapshot":"2026-09-16T20:21:21Z","sha256":"6b57ddc7e26ed9a599b733fd201ead0c5669ff108d34a05bd9005bb2ceea91a6","md5":"1e96bf0e0cc7972e18ec11f3d33d563c","bytes":128531657,"license":"ODbL-1.0","attribution":"© OpenStreetMap contributors, Geofabrik","downloadDate":"2026-09-17"}],"attribution":"© OpenStreetMap contributors, Geofabrik; ODbL-1.0","geometryMethod":"Actual OSM road ways, merged by class and endpoint, display simplification 0.0007 degrees; not routing geometry","sourceWayCount":808,"routingUse":false}}