{"type":"FeatureCollection","features":[{"type":"Feature","properties":{"roadClass":"primary"},"geometry":{"type":"MultiLineString","coordinates":[[[38.9396,44.97],[38.93689,44.96652]],[[38.93751,44.96636],[38.94771,44.97944]],[[38.94725,44.97975],[38.9396,44.97]],[[38.9396,44.97],[38.94018,44.96981]],[[38.94774,44.98036],[38.94725,44.97975]],[[38.94725,44.97975],[38.94771,44.97944]],[[38.94771,44.97944],[38.94823,44.98007]],[[38.94823,44.98007],[38.94819,44.98046],[38.94774,44.98036]],[[38.94945,44.98177],[38.94774,44.98036]],[[38.94823,44.98007],[38.94945,44.98177]],[[38.94945,44.98177],[38.9494,44.98403],[38.95535,44.99174]],[[38.95535,44.99174],[38.95967,44.99686]],[[38.95956,44.99693],[38.95535,44.99174]],[[39.17647,44.89445],[39.17025,44.8939],[39.16748,44.89516]],[[39.17071,44.88864],[39.17039,44.89158],[39.17015,44.89209],[39.16994,44.8924],[39.1694,44.8931],[39.16799,44.89434],[39.16654,44.89407],[39.1672,44.89277],[39.16762,44.89276],[39.16903,44.89295],[39.17011,44.89309],[39.17084,44.8932],[39.17586,44.89427],[39.17647,44.89445],[39.18237,44.89602],[39.18779,44.89753],[39.19279,44.89884],[39.19865,44.90009],[39.22804,44.90346],[39.2614,44.91174]],[[39.2582,44.91092],[39.26226,44.9119]],[[39.2614,44.91174],[39.26795,44.91341]],[[39.26795,44.91341],[39.2628,44.91214],[39.2614,44.91174]],[[39.26795,44.91341],[39.28713,44.91658],[39.29364,44.91611],[39.30482,44.91334],[39.35362,44.89635],[39.3569,44.8937],[39.36459,44.8835],[39.37262,44.87932],[39.41246,44.87785],[39.42476,44.87348],[39.43828,44.87281],[39.47893,44.88138],[39.49515,44.89052],[39.51339,44.89051],[39.53451,44.89566],[39.57839,44.91868]],[[39.28066,44.91616],[39.27481,44.91508]],[[39.35663,44.89401],[39.35594,44.89533],[39.35325,44.89653]],[[39.57839,44.91868],[39.57983,44.91993],[39.58109,44.92203],[39.58245,44.92858]],[[39.58217,44.92843],[39.58092,44.92216],[39.57839,44.91868]],[[39.64351,45.18205],[39.64239,45.18447]],[[39.64272,45.18213],[39.64351,45.18205]],[[39.64351,45.18205],[39.65379,45.17961],[39.66087,45.17304],[39.66715,45.16427],[39.67749,45.15814],[39.69162,45.14583],[39.7237,45.12597],[39.72916,45.12495],[39.76901,45.12496],[39.77455,45.12795],[39.77806,45.13406]],[[39.67867,44.97217],[39.69692,44.97272],[39.71473,44.97949],[39.71888,44.98058],[39.71945,44.97949]],[[39.82884,44.44451],[39.83129,44.44678],[39.84475,44.44284],[39.8491,44.44483],[39.84966,44.44941],[39.85188,44.45189],[39.85052,44.4551],[39.85189,44.45756],[39.8519,44.46162],[39.85002,44.46756],[39.85962,44.47427],[39.86213,44.48157],[39.87176,44.4838],[39.88021,44.48957],[39.88258,44.48953],[39.88965,44.48593],[39.89805,44.47864],[39.90978,44.47839],[39.93151,44.48053],[39.93533,44.48737],[39.95074,44.5049],[39.96367,44.50957],[39.97212,44.51807],[39.97834,44.52223],[39.99143,44.53667],[40.0426,44.5616],[40.04809,44.56439],[40.05021,44.5655],[40.05354,44.56732],[40.06104,44.57145],[40.06299,44.57253],[40.06361,44.57286],[40.06684,44.57489],[40.0773,44.57908],[40.08464,44.57966],[40.08633,44.58147],[40.08636,44.58638],[40.08973,44.5889],[40.1037,44.59102],[40.10824,44.59302],[40.11375,44.61672]],[[39.95769,44.84227],[40.03813,44.86532],[40.04817,44.86898],[40.04764,44.87106],[40.04949,44.87242],[40.05383,44.87244],[40.05896,44.8691],[40.06177,44.86983],[40.06447,44.86451],[40.07527,44.85583],[40.097,44.86225]],[[40.0391,44.63253],[40.04051,44.63109],[40.03997,44.62719]],[[40.05601,44.62332],[40.05427,44.62392],[40.05411,44.62402],[40.05305,44.62462],[40.04661,44.62834],[40.04508,44.62922],[40.04371,44.63002],[40.04309,44.63037],[40.04232,44.63083],[40.04202,44.63101],[40.03947,44.63247]],[[40.03949,44.62614],[40.0398,44.62681],[40.03995,44.62707],[40.04014,44.6274],[40.04071,44.62818],[40.04264,44.63003]],[[40.04345,44.63098],[40.04321,44.63077],[40.04253,44.63017],[40.04245,44.63009],[40.04236,44.63001],[40.04191,44.62961],[40.04111,44.62883],[40.0401,44.62741],[40.03977,44.62684],[40.03949,44.62614]],[[40.04378,44.61048],[40.03915,44.6223],[40.03949,44.62614]],[[40.04004,44.62722],[40.04269,44.62876],[40.0472,44.62785]],[[40.042,44.61497],[40.043,44.61234]],[[40.04236,44.63001],[40.04092,44.63016],[40.0422,44.63074]],[[40.04232,44.63083],[40.0427,44.63186],[40.04345,44.63098]],[[40.04731,44.62794],[40.04559,44.62951],[40.04528,44.63199],[40.04623,44.63329],[40.04345,44.63098]],[[40.04345,44.63002],[40.05318,44.62442],[40.05566,44.62295]],[[40.04367,44.63093],[40.04506,44.63056],[40.04371,44.63002]],[[40.04378,44.61048],[40.04355,44.60941],[40.04494,44.6076],[40.04459,44.60894],[40.04596,44.60894],[40.04378,44.61048]],[[40.05299,44.56778],[40.04546,44.57479],[40.04302,44.58463],[40.03697,44.59021],[40.03582,44.59258],[40.03706,44.59706],[40.04484,44.60357],[40.04516,44.60674],[40.04494,44.6076],[40.04378,44.61048]],[[40.05299,44.56778],[40.05131,44.56611]],[[40.05354,44.56732],[40.05299,44.56778]],[[40.05535,44.56832],[40.05368,44.56748],[40.05299,44.56778]],[[40.05601,44.62332],[40.05566,44.62295]],[[40.05566,44.62295],[40.05735,44.62213],[40.05885,44.62281]],[[40.05731,44.62307],[40.05601,44.62332]],[[40.05788,44.62259],[40.05731,44.62307]],[[40.05885,44.62281],[40.05731,44.62307]],[[40.05885,44.62281],[40.11375,44.61672]],[[40.09742,44.86259],[40.097,44.86225]],[[40.097,44.86225],[40.09761,44.86224]],[[40.09847,44.8627],[40.09788,44.86272]],[[40.09808,44.8624],[40.09847,44.8627]],[[40.48573,44.90722],[40.47344,44.90272],[40.3855,44.93194],[40.38231,44.93394],[40.38092,44.93266],[40.37824,44.92444],[40.37113,44.9105],[40.36534,44.90762],[40.3569,44.90578],[40.35336,44.90301],[40.35437,44.90098],[40.35933,44.90071],[40.36183,44.89708],[40.36245,44.87787],[40.36113,44.87548],[40.34369,44.87594],[40.33451,44.8794],[40.20323,44.88036],[40.18974,44.87641],[40.18814,44.87735],[40.16518,44.87712],[40.15583,44.87917],[40.09847,44.8627]],[[40.11375,44.61672],[40.13399,44.61475]],[[40.13399,44.61475],[40.13781,44.61414],[40.14088,44.6139],[40.14256,44.61387],[40.1446,44.61415],[40.14691,44.61499],[40.15974,44.62104]],[[40.15429,44.6186],[40.14417,44.61419],[40.13399,44.61475]],[[40.16124,44.6219],[40.15429,44.6186]],[[40.15506,44.62368],[40.15535,44.61974],[40.15429,44.6186]],[[40.15974,44.62104],[40.16114,44.62032]],[[40.15974,44.62104],[40.16335,44.62278]],[[40.21439,44.6537],[40.21388,44.65394]],[[40.48573,44.90722],[40.48726,44.90774]],[[40.48726,44.90774],[40.4863,44.90767],[40.48573,44.90722]],[[40.48726,44.90774],[40.50624,44.9123],[40.52736,44.90179]],[[40.51191,44.89476],[40.51174,44.8943]],[[40.52788,44.90067],[40.5126,44.89602],[40.51191,44.89476]],[[40.51215,44.89431],[40.51191,44.89476]],[[40.51191,44.89375],[40.51234,44.89394]],[[40.51215,44.89431],[40.51191,44.89375]],[[40.51191,44.89375],[40.51225,44.89347]],[[40.51234,44.89394],[40.51215,44.89431]],[[40.51225,44.89347],[40.51234,44.89394]],[[40.6723,44.6567],[40.67015,44.66471],[40.66733,44.66726],[40.66339,44.67393],[40.64179,44.69648],[40.62978,44.71788],[40.62563,44.72095],[40.61684,44.74144],[40.60203,44.74915],[40.53403,44.7958],[40.52465,44.80336],[40.497,44.83332],[40.49852,44.84317],[40.50832,44.86844],[40.50897,44.87454],[40.51283,44.88581],[40.51225,44.89347]],[[40.52736,44.90179],[40.52765,44.90154]],[[40.52786,44.9018],[40.52758,44.90179],[40.52736,44.90179]],[[40.52786,44.9018],[40.52765,44.90154]],[[40.52765,44.90154],[40.52779,44.90118]],[[40.52779,44.90118],[40.52788,44.90067]],[[40.52779,44.90118],[40.52802,44.90107],[40.52836,44.90118]],[[40.52842,44.90205],[40.52786,44.9018]],[[40.52824,44.90168],[40.52786,44.9018]],[[40.52788,44.90067],[40.52836,44.90118]],[[40.52824,44.90168],[40.52842,44.90205]],[[40.52836,44.90118],[40.52824,44.90168]],[[40.54146,44.90823],[40.53393,44.90657],[40.52842,44.90205]],[[40.67426,44.65302],[40.6823,44.64367],[40.6836,44.63718],[40.69257,44.62432],[40.70105,44.61829],[40.71196,44.60347],[40.71437,44.59388],[40.71297,44.57964],[40.71514,44.56307],[40.71211,44.54296],[40.7221,44.52876],[40.72563,44.52043],[40.73471,44.51125],[40.74985,44.49158],[40.76139,44.46871],[40.76642,44.44998]],[[39.00457,44.9191],[39.00437,44.91901],[39.00445,44.91886],[39.00472,44.91892],[39.00457,44.9191]],[[40.09805,44.86259],[40.09763,44.86272],[40.09742,44.86259],[40.09739,44.8624],[40.09805,44.86259]]]}},{"type":"Feature","properties":{"roadClass":"secondary"},"geometry":{"type":"MultiLineString","coordinates":[[[38.77531,44.98267],[38.7531,44.99408],[38.72857,44.99803],[38.72199,44.99188],[38.68486,44.99036],[38.67358,44.99373],[38.66944,44.99096]],[[38.91051,44.93053],[38.91877,44.92959],[38.94115,44.92161],[38.94955,44.93084],[38.97579,44.92983],[38.98068,44.92819]],[[38.91824,44.98036],[38.91879,44.98068]],[[38.91841,44.98069],[38.91965,44.98065],[38.92291,44.98051],[38.93014,44.98015]],[[38.93014,44.98015],[38.91846,44.98075]],[[38.9196,44.98073],[38.91963,44.98175]],[[38.92975,45.00294],[38.93036,45.00344]],[[38.94865,44.98304],[38.94677,44.98088],[38.94342,44.97965],[38.93014,44.98015]],[[38.93036,45.00344],[38.93014,45.00399]],[[38.93978,44.9969],[38.93036,45.00344]],[[38.93978,44.9969],[38.94117,44.99633]],[[38.94117,44.99633],[38.9407,44.99659],[38.93978,44.9969]],[[38.95337,44.98931],[38.94831,44.99128],[38.94733,44.99303],[38.94117,44.99633]],[[38.94865,44.98304],[38.94899,44.98317],[38.94928,44.98295]],[[38.9488,44.98325],[38.94865,44.98304]],[[38.94918,44.98323],[38.94896,44.98329],[38.9488,44.98325]],[[38.94895,44.98347],[38.9488,44.98325]],[[38.94895,44.98347],[38.94926,44.98374]],[[38.9494,44.98403],[38.94895,44.98347]],[[38.98068,44.92819],[38.98001,44.93016],[38.98526,44.93791],[38.99602,44.94631],[38.99718,44.9514]],[[39.18426,44.87131],[39.16781,44.86791],[39.16003,44.86818],[39.14477,44.87368],[39.12323,44.86922],[39.11837,44.87085],[39.10544,44.8701],[39.08608,44.87536],[39.07786,44.8788],[39.06877,44.87985],[39.05533,44.88815],[39.04949,44.9133],[39.03164,44.91702],[39.02192,44.91718],[39.007,44.91924],[38.99793,44.91714],[38.98659,44.91739],[38.9861,44.92347],[38.98191,44.92617],[38.98068,44.92819]],[[38.99664,44.95199],[38.99718,44.9514]],[[38.99718,44.9514],[38.99785,44.95184]],[[39.18426,44.87131],[39.18469,44.87135],[39.18502,44.87116]],[[39.18442,44.87191],[39.18426,44.87131]],[[39.1871,44.87187],[39.1857,44.8728]],[[39.1877,44.87026],[39.1871,44.87187]],[[39.1871,44.87187],[39.19007,44.87164],[39.19507,44.87199],[39.21417,44.87674],[39.23221,44.87931],[39.23984,44.88419],[39.25287,44.88514],[39.26339,44.88793],[39.26652,44.89776],[39.25976,44.90489],[39.26023,44.91144]],[[40.08321,44.97928],[40.07852,44.98925],[40.08031,44.99376],[40.07678,45.00028],[40.07113,45.01537],[40.06007,45.02872],[40.0399,45.03871],[40.00308,45.04771],[39.96453,45.04634],[39.89011,45.05309],[39.82997,45.05616],[39.81845,45.06075],[39.78969,45.06375],[39.77369,45.06786],[39.74646,45.08506],[39.73162,45.09241],[39.69848,45.10198],[39.66828,45.11681],[39.66229,45.11734],[39.65454,45.12019],[39.63513,45.12942]],[[39.9875,45.08837],[39.98941,45.08455],[39.98936,45.04743]],[[40.04429,44.60928],[40.04908,44.60815],[40.05172,44.60681],[40.0523,44.60662],[40.05301,44.60649]],[[40.0533,44.60714],[40.0523,44.60662]],[[40.0533,44.60714],[40.05301,44.60649]],[[40.05301,44.60649],[40.07114,44.60456],[40.07268,44.6002]],[[40.05464,44.61226],[40.0533,44.60714]],[[40.05464,44.61226],[40.05488,44.6127]],[[40.05464,44.61275],[40.05464,44.61226]],[[40.05522,44.61317],[40.05479,44.61302]],[[40.05501,44.61277],[40.05519,44.61281]],[[40.05502,44.61294],[40.05522,44.61317]],[[40.05519,44.61281],[40.05504,44.6129]],[[40.05519,44.61281],[40.10468,44.60761]],[[40.0584,44.6153],[40.05522,44.61317]],[[40.05705,44.62219],[40.05789,44.62176]],[[40.05789,44.62176],[40.05775,44.62235]],[[40.05789,44.62176],[40.06346,44.61877]],[[40.0584,44.6153],[40.06321,44.61861]],[[40.06321,44.61861],[40.06107,44.61721],[40.0584,44.6153]],[[40.06318,44.61263],[40.06307,44.61209]],[[40.06318,44.61263],[40.06641,44.61718]],[[40.06635,44.61721],[40.06342,44.61431],[40.06318,44.61263]],[[40.07276,44.61228],[40.06318,44.61263]],[[40.06321,44.61861],[40.06346,44.61877]],[[40.06736,44.62157],[40.06346,44.61877]],[[40.06346,44.61877],[40.06635,44.61721]],[[40.06635,44.61721],[40.06641,44.61718]],[[40.06641,44.61718],[40.07493,44.61266]],[[40.06728,44.62185],[40.06736,44.62157]],[[40.07167,44.62478],[40.06736,44.62157]],[[40.06823,44.62174],[40.06803,44.62206]],[[40.07276,44.61228],[40.07252,44.61107]],[[40.09091,44.60247],[40.09083,44.60405],[40.08842,44.6041],[40.07268,44.6002]],[[40.07268,44.6002],[40.07308,44.59926],[40.0781,44.60026]],[[40.07488,44.61245],[40.07276,44.61228]],[[40.07493,44.61266],[40.07488,44.61245]],[[40.07488,44.61245],[40.07537,44.61244]],[[40.07537,44.61244],[40.07528,44.61269],[40.07493,44.61266]],[[40.07537,44.61244],[40.08978,44.61092],[40.0914,44.61073],[40.09236,44.61062],[40.09333,44.61053],[40.09354,44.6105],[40.09373,44.61048],[40.09459,44.61037],[40.10504,44.60926]],[[40.07659,44.57884],[40.07729,44.57871]],[[40.07693,44.57896],[40.07729,44.57871]],[[40.07729,44.57871],[40.0773,44.57908]],[[40.07729,44.57871],[40.09703,44.56916],[40.10749,44.55698],[40.11134,44.55689],[40.116,44.55381],[40.12933,44.55521],[40.12962,44.54674],[40.13392,44.54706],[40.13344,44.5445],[40.13602,44.54065],[40.14101,44.53884],[40.13562,44.52591],[40.13535,44.52205],[40.15251,44.50992],[40.16222,44.49741],[40.17428,44.48021],[40.1827,44.46315],[40.19352,44.44542],[40.19597,44.43117],[40.1947,44.41919],[40.195,44.41079],[40.19352,44.40638],[40.18897,44.40062],[40.19098,44.39264],[40.18891,44.38427],[40.18909,44.37987],[40.19152,44.37525],[40.19244,44.36382],[40.20307,44.3515],[40.2035,44.3466],[40.20081,44.34427],[40.19883,44.33432],[40.20092,44.32719],[40.19437,44.32256],[40.18976,44.30284],[40.18306,44.2954],[40.18333,44.29408],[40.18028,44.29256],[40.17527,44.28587],[40.18141,44.28083],[40.18337,44.27376],[40.18499,44.27177],[40.19426,44.26709],[40.20004,44.26178]],[[40.07918,44.60047],[40.0781,44.60026]],[[40.0781,44.60026],[40.07877,44.60003],[40.07918,44.60047]],[[40.07918,44.60047],[40.08683,44.60251],[40.09091,44.60247]],[[40.08284,44.98011],[40.08328,44.98008]],[[40.38231,44.93394],[40.37152,44.93792],[40.33592,44.96017],[40.333,44.96373],[40.32471,44.98012],[40.31526,44.99368],[40.30637,44.99645],[40.28389,44.99926],[40.25627,45.01104],[40.24578,45.02269],[40.21704,45.03128],[40.2139,45.02994],[40.20425,45.01929],[40.20125,45.01342],[40.19925,45.01165],[40.15103,44.9993],[40.09028,44.9909],[40.08678,44.98844],[40.08321,44.97928]],[[40.08321,44.97928],[40.08253,44.96858],[40.08447,44.93423],[40.07289,44.90348],[40.0898,44.87339],[40.09733,44.86306]],[[40.09091,44.60247],[40.09104,44.60248],[40.09137,44.60245],[40.09593,44.60199],[40.10781,44.60069]],[[40.09322,44.60883],[40.09354,44.6105],[40.09394,44.61278],[40.09576,44.62198],[40.09614,44.6241],[40.0963,44.62469],[40.11233,44.6232],[40.11295,44.65546],[40.11415,44.6627],[40.11724,44.66595]],[[40.09733,44.86306],[40.09742,44.86259]],[[40.09788,44.86272],[40.09733,44.86306]],[[40.09761,44.86224],[40.09811,44.86188]],[[40.09811,44.86188],[40.09808,44.8624]],[[40.09811,44.86188],[40.10628,44.84826],[40.1005,44.84117],[40.10059,44.83854],[40.12221,44.81592],[40.12969,44.80527],[40.13857,44.80066],[40.14078,44.7968],[40.14164,44.78935],[40.14082,44.77367],[40.13848,44.77175],[40.12865,44.76952],[40.1263,44.76639],[40.12851,44.75661],[40.13135,44.72229],[40.13101,44.71386],[40.13403,44.70195],[40.13459,44.69528],[40.13157,44.68171],[40.12833,44.67279]],[[40.10468,44.60761],[40.10504,44.60926]],[[40.10468,44.60761],[40.10433,44.606],[40.10891,44.60554]],[[40.10504,44.60926],[40.10961,44.60874]],[[40.10781,44.60069],[40.10891,44.60554]],[[40.10781,44.60069],[40.11695,44.59972]],[[40.10859,44.59395],[40.11539,44.59322]],[[40.10891,44.60554],[40.10961,44.60874]],[[40.10961,44.60874],[40.11887,44.60773]],[[40.11539,44.59322],[40.11695,44.59972]],[[40.11539,44.59322],[40.11492,44.59135],[40.12035,44.5905]],[[40.11695,44.59972],[40.11793,44.60375],[40.11813,44.60467],[40.11887,44.60773],[40.1196,44.61089],[40.12069,44.616]],[[40.11695,44.59972],[40.12079,44.59933],[40.12158,44.59924],[40.12388,44.599],[40.12405,44.59898],[40.12614,44.59876],[40.12732,44.59866],[40.13281,44.59806]],[[40.11724,44.66595],[40.12102,44.66783]],[[40.12833,44.67279],[40.1272,44.67192],[40.12588,44.67119],[40.12495,44.6707],[40.1231,44.66973],[40.1221,44.6692],[40.12147,44.66887],[40.11986,44.66802],[40.1187,44.66734],[40.11724,44.66595]],[[40.1231,44.66973],[40.11741,44.67336]],[[40.128,44.61531],[40.12625,44.60856],[40.12391,44.59912],[40.12388,44.599],[40.12386,44.59888],[40.12351,44.59744],[40.12224,44.59249],[40.12035,44.5905]],[[40.12035,44.5905],[40.12085,44.58768],[40.12526,44.58603],[40.13395,44.57387]],[[40.12068,44.66845],[40.12102,44.66783]],[[40.12102,44.66783],[40.12378,44.66932],[40.12544,44.67018]],[[40.12271,44.66874],[40.12751,44.66597]],[[40.12544,44.67018],[40.12495,44.6707]],[[40.12544,44.67018],[40.12833,44.67279]],[[40.13281,44.59806],[40.13792,44.61469],[40.13764,44.61656],[40.141,44.61705],[40.14211,44.61438]],[[40.13281,44.59806],[40.13124,44.59015],[40.13593,44.57966],[40.13398,44.57485],[40.13393,44.57464],[40.13395,44.57387]],[[40.13352,44.57456],[40.13393,44.57464]],[[40.1643,44.49452],[40.17302,44.49752],[40.17337,44.49882],[40.17037,44.50548],[40.17086,44.50712],[40.1744,44.50656],[40.17545,44.50776],[40.17338,44.51677],[40.16682,44.52914],[40.15162,44.54942],[40.14453,44.56418],[40.1389,44.56696],[40.13395,44.57387]],[[40.13741,44.61278],[40.14155,44.61209],[40.14211,44.61353]],[[40.14211,44.61438],[40.14161,44.61399]],[[40.14163,44.61387],[40.14211,44.61353]],[[40.14211,44.61353],[40.14256,44.61387]],[[40.14256,44.61399],[40.14211,44.61438]],[[40.19541,44.41872],[40.19474,44.41849]],[[40.20016,44.34105],[40.19968,44.34078]],[[40.20004,44.26178],[40.20104,44.25976]],[[40.20104,44.25976],[40.20096,44.26058],[40.20004,44.26178]],[[40.20104,44.25976],[40.20423,44.25407],[40.20395,44.24989]],[[40.2343,44.66148],[40.23065,44.6607],[40.22765,44.6594]],[[40.22965,44.65972],[40.23022,44.65971],[40.23079,44.65963],[40.23124,44.65901]],[[40.23124,44.65901],[40.23307,44.66012]],[[40.23286,44.66114],[40.23088,44.66058],[40.23044,44.66026],[40.22981,44.65941],[40.22974,44.65912],[40.23124,44.65901]],[[40.2343,44.66148],[40.23286,44.66114]],[[40.23291,44.66023],[40.23212,44.66054],[40.23286,44.66114]],[[40.345,44.87584],[40.34184,44.84068],[40.34018,44.83264],[40.34545,44.81486],[40.34476,44.80475],[40.34291,44.80437],[40.3408,44.79509],[40.33796,44.78969],[40.3182,44.77137],[40.31303,44.76196],[40.30497,44.75067],[40.30407,44.73468],[40.30004,44.72631],[40.29766,44.70338],[40.2953,44.69337],[40.29619,44.69073],[40.28259,44.6705],[40.26686,44.66833],[40.2343,44.66148]],[[40.70001,44.61921],[40.71654,44.62907]],[[40.05499,44.61274],[40.0549,44.61301],[40.05459,44.6129],[40.0546,44.61279],[40.05464,44.61275],[40.05471,44.61271],[40.05499,44.61274]]]}},{"type":"Feature","properties":{"roadClass":"tertiary"},"geometry":{"type":"MultiLineString","coordinates":[[[38.70306,45.04275],[38.68936,45.04956]],[[38.6952,44.9908],[38.69476,44.98674],[38.7075,44.98775],[38.71338,44.98351],[38.72273,44.99225]],[[38.70306,45.04275],[38.70317,45.04655]],[[38.70306,45.04275],[38.7277,45.0302],[38.72844,44.99803]],[[38.91776,44.98075],[38.87523,44.98369],[38.87317,44.99053],[38.86583,44.99706],[38.85637,44.99922],[38.84535,45.00536],[38.83652,45.00341],[38.8284,45.00347],[38.81841,44.9996],[38.8129,44.9954],[38.80915,44.9941],[38.79898,44.9963],[38.79196,44.99456],[38.78143,44.98541],[38.78705,44.98032],[38.78728,44.97843],[38.78605,44.97665],[38.78172,44.97639],[38.77531,44.98267],[38.77758,44.98659],[38.774,44.99706],[38.77629,45.00217],[38.79092,45.00022],[38.79328,44.99879],[38.79414,44.99515]],[[38.83811,44.93172],[38.84079,44.93161],[38.84712,44.92745],[38.85074,44.92224],[38.88698,44.92211],[38.88943,44.92408],[38.88861,44.92822],[38.892,44.92954],[38.89235,44.93062],[38.89773,44.93352],[38.90413,44.92983],[38.90864,44.93425]],[[38.92931,45.00382],[38.91064,45.01764],[38.90185,45.01864],[38.89812,45.02152],[38.89755,45.03017],[38.89557,45.03297],[38.89427,45.04017],[38.89859,45.04479]],[[38.91514,44.92932],[38.90725,44.91774],[38.90074,44.92085],[38.90264,44.92379]],[[38.90805,44.94012],[38.90864,44.93425]],[[38.90831,44.93988],[38.90835,44.94013]],[[38.90855,44.94025],[38.90895,44.94037]],[[38.90895,44.94037],[38.90859,44.94058]],[[38.90864,44.93425],[38.91128,44.93298]],[[38.90895,44.94037],[38.91569,44.942],[38.91884,44.94143]],[[38.91128,44.93298],[38.9116,44.93256]],[[38.91128,44.93298],[38.91195,44.93279]],[[38.91478,44.92972],[38.91514,44.92932]],[[38.91531,44.92968],[38.91514,44.92932]],[[38.91884,44.94143],[38.91909,44.94055],[38.91766,44.94055]],[[38.91776,44.98075],[38.9181,44.98035]],[[38.91776,44.98075],[38.91841,44.98069]],[[38.91816,44.98074],[38.91776,44.98075]],[[38.91846,44.98075],[38.91816,44.98074]],[[38.91866,44.98093],[38.91816,44.98074]],[[38.91912,44.94243],[38.92008,44.94196],[38.9197,44.94146],[38.91931,44.94137],[38.91884,44.94143]],[[38.92931,45.00382],[38.92969,45.0033]],[[38.92991,45.00393],[38.92964,45.00379],[38.92931,45.00382]],[[38.93243,45.00167],[38.93295,45.00178]],[[38.9327,45.00199],[38.93243,45.00167]],[[38.93245,45.00222],[38.93243,45.00167]],[[38.93243,45.00167],[38.92995,44.99304],[38.93762,44.97978]],[[38.93903,45.02021],[38.93969,45.02031]],[[38.93969,45.02031],[38.9395,45.02072]],[[38.94129,44.99629],[38.94297,45.00303],[38.94098,45.00575],[38.9459,45.00686],[38.94424,45.01216],[38.93969,45.02031]],[[38.94063,44.92171],[38.9412,44.92149],[38.94179,44.92127],[38.94207,44.92116],[38.94321,44.92076],[38.94444,44.92027],[38.93555,44.90894],[38.94397,44.90523],[38.9397,44.89739],[38.93908,44.89413],[38.93677,44.89173],[38.95281,44.88512],[38.95304,44.88228],[38.95538,44.88044],[38.95491,44.871],[38.96279,44.86923],[38.9648,44.86987],[38.9686,44.87758],[38.97069,44.87943],[38.97036,44.88606],[38.96867,44.88846],[38.99302,44.89196],[38.99518,44.89755],[38.99517,44.91717]],[[38.94157,44.99617],[38.93956,44.99222],[38.94831,44.99128]],[[38.9422,44.92191],[38.94179,44.92127]],[[38.95004,44.98261],[38.94945,44.98273]],[[38.94953,44.98193],[38.95012,44.98267]],[[38.95012,44.98267],[38.95004,44.98261],[38.94962,44.98234]],[[38.95012,44.98267],[38.95468,44.98899],[38.96313,44.98613]],[[38.96431,44.98945],[38.96313,44.98613]],[[38.99867,44.98932],[38.98865,44.98695],[38.97289,44.98529],[38.96313,44.98613]],[[38.96431,44.98945],[38.96491,44.98987]],[[38.96491,44.98987],[38.96444,44.98966],[38.96431,44.98945]],[[38.99753,44.95315],[39.00379,44.98114],[39.00332,44.98237],[39.00187,44.98457],[38.99867,44.98932],[38.99653,44.99251],[38.99561,44.99387],[38.99347,44.9971],[38.99065,45.00124],[38.98908,45.00371],[38.98834,45.00475],[38.98458,45.00704],[38.98067,45.00668],[38.97817,45.00256],[38.97282,44.99876],[38.97381,44.99266],[38.97198,44.99052],[38.96491,44.98987]],[[38.99493,44.92196],[38.99228,44.92393],[38.99295,44.92561],[38.98099,44.92755]],[[38.98943,44.91728],[38.99493,44.92196]],[[39.00408,44.91917],[38.99493,44.92196]],[[38.99753,44.95315],[38.99697,44.95257]],[[38.99782,44.95246],[38.99753,44.95315]],[[39.00408,44.91917],[39.00423,44.91875]],[[39.00541,44.91903],[39.00408,44.91917]],[[39.06191,44.88368],[39.05022,44.86847],[39.05464,44.86602],[39.04948,44.86669],[39.04754,44.863],[39.0462,44.85975],[39.04567,44.84572],[39.05888,44.8386],[39.07414,44.83901],[39.08588,44.84122],[39.09583,44.83902],[39.10203,44.83635],[39.11206,44.83611]],[[39.16439,44.89926],[39.16304,44.89946]],[[39.16412,44.8984],[39.16439,44.89926]],[[39.16439,44.89926],[39.17121,44.90132],[39.17285,44.90295]],[[39.17924,44.88145],[39.17783,44.88262]],[[39.17924,44.88145],[39.18582,44.88334],[39.20379,44.88292]],[[39.17984,44.88012],[39.17924,44.88145]],[[39.18139,44.89576],[39.18304,44.89592]],[[39.18304,44.89621],[39.18304,44.89592]],[[39.18304,44.89592],[39.18426,44.89658]],[[39.18304,44.89592],[39.18582,44.88334]],[[39.20018,44.90032],[39.2026,44.90033],[39.20571,44.90108]],[[39.20379,44.88292],[39.20404,44.88898],[39.20269,44.89975],[39.20263,44.90018],[39.2026,44.90033],[39.20254,44.90068]],[[39.20379,44.88292],[39.20292,44.88097],[39.20432,44.87431]],[[39.2053,44.84278],[39.20778,44.84333],[39.21005,44.84208]],[[39.2053,44.84278],[39.20953,44.84465],[39.20786,44.84606]],[[39.20684,44.8459],[39.20727,44.84411],[39.2053,44.84278]],[[39.2169,44.83424],[39.21389,44.83249],[39.21137,44.83528],[39.20857,44.83607],[39.19837,44.83443],[39.20122,44.84066],[39.2053,44.84278]],[[39.20786,44.84606],[39.20595,44.84727]],[[39.20761,44.84519],[39.20786,44.84606]],[[39.2169,44.83424],[39.21734,44.83431],[39.21784,44.83394]],[[39.21695,44.83488],[39.2169,44.83424]],[[39.22217,44.82964],[39.22502,44.82794],[39.22529,44.82771],[39.22588,44.82697],[39.22613,44.8265],[39.22613,44.826],[39.22549,44.82416],[39.23019,44.80549]],[[39.22353,44.82607],[39.22313,44.82695],[39.22349,44.82716],[39.22435,44.82743],[39.22488,44.8276],[39.22529,44.82771]],[[39.22353,44.82607],[39.22492,44.8244]],[[39.22404,44.827],[39.22431,44.82608],[39.22394,44.8259],[39.22353,44.82607]],[[39.2248,44.82633],[39.22458,44.82643],[39.22416,44.82725],[39.22389,44.82762]],[[39.2247,44.82585],[39.2248,44.82633]],[[39.2248,44.82633],[39.22613,44.826]],[[39.2627,44.88764],[39.26806,44.8806],[39.27068,44.87183]],[[39.27452,44.91502],[39.27445,44.90731],[39.27602,44.90202],[39.28254,44.89238],[39.28274,44.88169],[39.28416,44.8756],[39.28788,44.86814],[39.29307,44.86101]],[[39.32915,44.90497],[39.3313,44.91096],[39.33952,44.91911],[39.34357,44.91805],[39.34645,44.91878],[39.35081,44.92795]],[[39.35532,44.8952],[39.37416,44.88965],[39.37979,44.88905],[39.38085,44.8888],[39.38422,44.88787],[39.38716,44.88729],[39.38782,44.88691]],[[39.40006,44.95649],[39.38297,44.96304],[39.36953,44.96557],[39.36734,44.96827]],[[39.36815,44.94809],[39.37013,44.93784],[39.38265,44.93018],[39.39021,44.91545],[39.3907,44.91206],[39.38228,44.89567],[39.38217,44.89116],[39.38085,44.8888],[39.37999,44.88565],[39.38102,44.87818],[39.37841,44.86878],[39.38079,44.86008],[39.37847,44.85135],[39.3743,44.84208],[39.37249,44.84056],[39.3702,44.83154]],[[39.38782,44.88691],[39.41232,44.89968],[39.41873,44.90543],[39.41865,44.90958],[39.41415,44.91948],[39.42136,44.92605],[39.42432,44.93239],[39.42312,44.93906],[39.41512,44.94394],[39.41062,44.94307],[39.40336,44.95055],[39.40006,44.95649]],[[39.38782,44.88691],[39.39182,44.88082],[39.39464,44.87953],[39.39454,44.87833]],[[39.40006,44.95649],[39.40241,44.96046],[39.4071,44.96249],[39.42099,44.97474],[39.42457,44.98123],[39.43183,44.98864],[39.45097,44.98848],[39.46934,44.98269],[39.47182,44.98376],[39.48911,44.97696],[39.51053,44.96037],[39.55121,44.9444],[39.55505,44.94073],[39.55658,44.93761],[39.56376,44.93138],[39.56523,44.92816],[39.56416,44.92638]],[[39.4523,44.87521],[39.45967,44.85725],[39.466,44.85036],[39.46449,44.84659],[39.46779,44.84527],[39.47303,44.83376]],[[39.50393,44.93657],[39.50497,44.93247],[39.50367,44.92668],[39.50835,44.91156],[39.51336,44.90412],[39.51941,44.89798]],[[39.64333,45.17356],[39.63853,45.17025],[39.63139,45.15539],[39.60129,45.14686],[39.58526,45.13875],[39.58425,45.13754],[39.58391,45.13691],[39.58051,45.13015],[39.57982,45.12865],[39.57949,45.12809],[39.56872,45.12083],[39.5601,45.11086],[39.55384,45.10341],[39.54549,45.09364],[39.51015,45.07598],[39.50137,45.07307],[39.49474,45.0667],[39.49739,45.06537],[39.50143,45.06094],[39.50444,45.05974]],[[39.56416,44.92638],[39.54786,44.91158],[39.5359,44.9043],[39.52758,44.90207],[39.51941,44.89798]],[[39.51941,44.89798],[39.52288,44.89262]],[[39.5424,45.10246],[39.54415,45.10161],[39.54661,45.1007],[39.55018,45.09913]],[[39.54862,45.09982],[39.54732,45.09819]],[[39.56416,44.92638],[39.56919,44.92062],[39.57156,44.91946],[39.5749,44.92039],[39.58189,44.91594],[39.59072,44.90362],[39.59974,44.89637],[39.61445,44.87655],[39.6223,44.86426],[39.62199,44.86239]],[[39.61617,45.10666],[39.59231,45.07993],[39.58551,45.07624],[39.58411,45.07027],[39.57692,45.06144],[39.58227,45.05969],[39.58315,45.0584]],[[39.62697,45.09633],[39.61617,45.10666],[39.59775,45.12404],[39.58391,45.13691]],[[39.63513,45.12942],[39.59832,45.14517]],[[39.59894,45.14504],[39.59887,45.14549]],[[39.60973,44.85566],[39.61363,44.85732],[39.6166,44.86057],[39.62142,44.86144],[39.62199,44.86239]],[[39.62199,44.86239],[39.62623,44.86028]],[[39.62697,45.09633],[39.62761,45.09658]],[[39.62697,45.09633],[39.62869,45.09472]],[[39.63114,45.21009],[39.62769,45.20628],[39.63068,45.20491],[39.63251,45.20248],[39.63788,45.20208],[39.6592,45.19282],[39.65824,45.19101],[39.66404,45.18887]],[[39.64333,45.17356],[39.64354,45.17359],[39.64372,45.17355],[39.64387,45.17345],[39.64423,45.17141]],[[39.64393,45.17376],[39.64333,45.17356]],[[39.65336,45.17991],[39.66404,45.18887]],[[39.66404,45.18887],[39.67281,45.2003]],[[39.69683,45.05992],[39.68628,45.05421],[39.67947,45.05182],[39.66435,45.04955]],[[39.6837,45.02844],[39.68206,45.02995]],[[39.69683,45.05992],[39.69732,45.05998],[39.69771,45.05987],[39.7065,45.05322],[39.70609,45.04403],[39.70277,45.04253],[39.70489,45.03876],[39.69577,45.03123],[39.69516,45.031],[39.68965,45.0298],[39.68641,45.02904],[39.6837,45.02844],[39.68335,45.02837]],[[39.71466,45.06039],[39.70669,45.0663],[39.69683,45.05992]],[[39.71466,45.06039],[39.70527,45.05417]],[[39.70762,45.00039],[39.70624,45.0014]],[[39.70693,45.00019],[39.70762,45.00039]],[[39.74692,45.01091],[39.74007,45.01095],[39.7266,45.00483],[39.70762,45.00039]],[[39.71466,45.06039],[39.73007,45.06658],[39.74963,45.08851],[39.75496,45.08953],[39.75971,45.0942],[39.75846,45.10066],[39.74847,45.11914],[39.74661,45.12484]],[[39.8147,44.19464],[39.81687,44.18976],[39.82304,44.18449],[39.82353,44.18208],[39.82243,44.1783],[39.82375,44.17165],[39.82531,44.16995],[39.8252,44.16618],[39.82431,44.16379],[39.82301,44.16336],[39.8171,44.16386],[39.81425,44.16537],[39.80693,44.16543],[39.79449,44.161],[39.79434,44.15686],[39.7993,44.15008],[39.80154,44.14866],[39.80601,44.1487],[39.80889,44.14751],[39.81032,44.14545],[39.80993,44.14382],[39.81281,44.14108],[39.81408,44.13754],[39.81271,44.13637],[39.81291,44.13294],[39.80933,44.13118],[39.80917,44.12905],[39.80588,44.1261],[39.80286,44.12544],[39.79842,44.11852]],[[39.82213,44.35225],[39.8269,44.35206],[39.83509,44.3556],[39.83969,44.35265],[39.84284,44.3521],[39.84871,44.35683],[39.85179,44.35661],[39.86502,44.35986],[39.87312,44.35787],[39.88559,44.36159],[39.89025,44.36077],[39.89561,44.36221],[39.90489,44.35396],[39.90522,44.34903],[39.90764,44.34724],[39.91043,44.34717],[39.9168,44.35074],[39.9199,44.35084],[39.91974,44.34818],[39.92505,44.3416],[39.93052,44.33985],[39.9304,44.33807],[39.93283,44.33791],[39.93945,44.33352],[39.94875,44.33299],[39.95338,44.33649],[39.95554,44.33692]],[[39.82369,45.05849],[39.83185,45.03473],[39.84094,45.03617],[39.84435,45.02693],[39.8491,45.02301],[39.85179,45.01366]],[[39.89338,44.73755],[39.90973,44.7291],[39.93469,44.70757],[39.94353,44.69546],[39.95845,44.68092],[39.96206,44.67857],[39.98354,44.66468],[39.99053,44.66063]],[[39.90245,45.00873],[39.91411,45.00459]],[[39.90277,45.052],[39.90928,45.02941],[39.91705,45.01256],[39.91388,45.00752],[39.91411,45.00459]],[[39.91411,45.00459],[39.91457,45.00306],[39.91915,45.00032],[39.9217,45.00048],[39.94,44.99398]],[[40.13192,44.79663],[40.11635,44.79629],[40.06361,44.78109],[40.05683,44.79301],[40.05139,44.79181],[40.04929,44.79584],[40.04439,44.79879],[40.03538,44.79654],[40.02316,44.81812],[39.95768,44.80003],[39.95584,44.80333],[39.95246,44.80336],[39.9532,44.80779],[39.94975,44.80859],[39.93558,44.83356],[39.93136,44.83469]],[[39.94,44.99398],[39.9502,44.99441],[39.95759,44.99823],[40.07175,45.01407]],[[39.94,44.99398],[39.94636,44.98576],[39.94702,44.97695],[39.95065,44.97148],[39.95552,44.95867],[39.965,44.95487],[39.97101,44.95465],[39.98268,44.9484],[39.98601,44.94028],[40.00044,44.93202],[40.00215,44.92603],[40.00758,44.92307],[40.01891,44.90346],[40.02846,44.89922]],[[39.98078,44.68629],[39.96729,44.68172],[39.96206,44.67857]],[[39.96344,44.54718],[39.96841,44.54789],[39.97851,44.55262],[39.99654,44.55437],[40.00148,44.55328],[40.00293,44.55173],[40.00139,44.54991],[40.00295,44.54547],[40.00653,44.54403]],[[39.974,44.8876],[39.9759,44.88583],[39.99484,44.85281]],[[39.9794,44.68564],[39.98112,44.68459],[39.98421,44.68585]],[[39.98078,44.68629],[39.98133,44.68637],[39.98176,44.68621]],[[39.98083,44.6868],[39.98078,44.68629]],[[39.98188,44.68674],[39.98105,44.68681]],[[39.9843,44.68617],[39.98281,44.68719],[39.98188,44.68674]],[[39.9819,44.68627],[39.98188,44.68674]],[[39.98539,44.685],[39.98399,44.68496]],[[39.98421,44.68585],[39.9847,44.68591]],[[39.98421,44.68585],[39.9843,44.68617]],[[39.9843,44.68617],[39.98526,44.68559],[39.98536,44.68532],[39.98539,44.685],[39.98553,44.68442],[39.98611,44.68373],[39.98994,44.68065]],[[39.99408,44.68383],[39.9928,44.68275],[39.9903,44.68091],[39.98994,44.68065],[39.98965,44.68047]],[[39.99053,44.66063],[39.99598,44.65761]],[[39.99486,44.65903],[39.99646,44.65823],[39.99053,44.66063]],[[39.99308,44.65991],[39.99301,44.66083],[39.99405,44.66006]],[[39.99455,44.85308],[39.99449,44.8527]],[[40.0069,44.08279],[40.01127,44.0765]],[[40.0152,44.3687],[40.01799,44.3708],[40.01836,44.3728],[40.02751,44.37842],[40.03541,44.38177],[40.0386,44.38503],[40.03883,44.38719],[40.03751,44.38933],[40.03865,44.39148],[40.04564,44.39457],[40.0463,44.40172],[40.05016,44.40879],[40.05099,44.41565],[40.05271,44.4192],[40.05097,44.43006],[40.04736,44.43518],[40.04877,44.45483],[40.05318,44.45961],[40.05819,44.46798],[40.0647,44.48699],[40.06488,44.49358],[40.07339,44.50058],[40.07681,44.50633],[40.09106,44.51694],[40.09724,44.52735],[40.09732,44.53509],[40.10258,44.53745],[40.10852,44.53833],[40.11153,44.54234],[40.11167,44.54398],[40.10748,44.55071],[40.1088,44.55575],[40.10749,44.55698]],[[40.01856,44.10748],[40.0195,44.10813],[40.02118,44.11975],[40.02258,44.12137],[40.03564,44.12971],[40.0512,44.14334],[40.05746,44.14639],[40.06325,44.15085],[40.06615,44.15155],[40.07139,44.1499],[40.07393,44.15105],[40.07293,44.15492],[40.06825,44.1576],[40.06716,44.16014],[40.07164,44.17061],[40.07893,44.17838],[40.08033,44.1813],[40.08015,44.18481],[40.07639,44.19385],[40.07701,44.19789],[40.08019,44.20437],[40.07662,44.21304],[40.0785,44.21684],[40.10981,44.22535],[40.12152,44.23194],[40.13272,44.23107],[40.14368,44.23264],[40.1609,44.23843],[40.17741,44.2397],[40.19056,44.24571],[40.19052,44.24272],[40.18846,44.24091],[40.19201,44.24102],[40.19416,44.24237],[40.19625,44.2476],[40.20395,44.24989],[40.20393,44.23966],[40.20502,44.23811],[40.20137,44.23554],[40.20168,44.23245]],[[40.02846,44.89922],[40.03383,44.89307],[40.03958,44.89044],[40.04133,44.89066],[40.04809,44.88137],[40.04983,44.87973],[40.05275,44.8774],[40.05567,44.87513],[40.06131,44.87057],[40.06177,44.86983]],[[40.02846,44.89922],[40.03524,44.89765],[40.04373,44.89768],[40.04945,44.89018],[40.05687,44.88551],[40.06125,44.88132],[40.07235,44.8647],[40.09089,44.84188],[40.09879,44.84004],[40.10059,44.83854]],[[40.02929,45.04125],[40.03285,45.04573],[40.03742,45.049],[40.04646,45.04449]],[[40.03043,44.63753],[40.03064,44.63682]],[[40.03064,44.63682],[40.0317,44.6368]],[[40.03064,44.63682],[40.01236,44.6235],[40.02698,44.61507],[40.04429,44.60928]],[[40.04646,45.04449],[40.04695,45.04396],[40.04074,45.03841]],[[40.04646,45.04449],[40.06362,45.0559],[40.06712,45.06289],[40.07367,45.06341],[40.10204,45.07629],[40.10681,45.09241],[40.1155,45.09208],[40.11556,45.08927],[40.11859,45.0857],[40.12446,45.08354],[40.14475,45.07861],[40.15159,45.07927],[40.16183,45.07757],[40.17322,45.07145],[40.17903,45.06945],[40.18226,45.0703]],[[40.05301,44.60649],[40.05188,44.60153]],[[40.05188,44.60153],[40.05058,44.60003],[40.05217,44.59828],[40.05874,44.59669],[40.0625,44.59628],[40.06516,44.59758]],[[40.05188,44.60153],[40.06545,44.60014]],[[40.05667,44.87431],[40.05371,44.87248]],[[40.07288,44.90424],[40.06369,44.88744],[40.06584,44.88425],[40.06125,44.88132],[40.05374,44.87663]],[[40.05414,44.60946],[40.06723,44.60817],[40.07182,44.60781]],[[40.0963,44.62469],[40.09261,44.62534],[40.08957,44.62703],[40.05963,44.64472]],[[40.06104,44.60056],[40.06022,44.59657]],[[40.06226,44.61789],[40.06218,44.61795]],[[40.06307,44.61209],[40.06243,44.60867]],[[40.06516,44.59758],[40.06545,44.60014]],[[40.06516,44.59758],[40.06618,44.59757],[40.06729,44.5976],[40.06773,44.59918]],[[40.06545,44.60014],[40.06773,44.59918]],[[40.06752,44.6166],[40.08039,44.61527]],[[40.06773,44.59918],[40.07297,44.59949]],[[40.06817,44.61625],[40.06825,44.61652]],[[40.07182,44.60781],[40.07114,44.60456]],[[40.07136,44.61457],[40.08006,44.61363]],[[40.07163,44.60305],[40.07905,44.60449]],[[40.07252,44.61107],[40.07182,44.60781]],[[40.07182,44.60781],[40.07867,44.60706]],[[40.07388,44.62624],[40.07377,44.62628]],[[40.07789,44.63391],[40.08123,44.63101],[40.07642,44.62727],[40.07422,44.62659],[40.07377,44.62628],[40.07354,44.62612],[40.07167,44.62478],[40.10531,44.62087]],[[40.07867,44.60706],[40.08101,44.60722]],[[40.08006,44.61363],[40.07867,44.60706]],[[40.07867,44.60706],[40.07905,44.60449]],[[40.07877,44.60003],[40.08205,44.59167]],[[40.07905,44.60449],[40.09444,44.60703]],[[40.07905,44.60449],[40.08012,44.60172]],[[40.08039,44.61527],[40.08006,44.61363]],[[40.08006,44.61363],[40.09229,44.61228],[40.09401,44.61213],[40.10088,44.61136],[40.10195,44.61125],[40.10313,44.61113],[40.10354,44.61109],[40.10446,44.611],[40.10539,44.6109]],[[40.08039,44.61527],[40.08589,44.61465],[40.0873,44.61453],[40.09399,44.61379],[40.10102,44.61303],[40.10123,44.61301],[40.10138,44.613],[40.1025,44.61288],[40.10347,44.61277],[40.10365,44.61275],[40.10393,44.61272],[40.10577,44.61253],[40.10721,44.61236],[40.10808,44.61229]],[[40.08101,44.60722],[40.08358,44.60749]],[[40.08101,44.60722],[40.08134,44.60849]],[[40.08176,44.63168],[40.09373,44.64028]],[[40.0855,44.72945],[40.08055,44.72809],[40.07769,44.72572],[40.0612,44.72112],[40.06158,44.71335],[40.07594,44.69718],[40.09019,44.68691],[40.10012,44.67365],[40.10444,44.67109],[40.1064,44.66803],[40.11312,44.66553],[40.11415,44.6627]],[[40.09131,44.60403],[40.09083,44.60405]],[[40.09491,44.6053],[40.09214,44.60468],[40.09167,44.60438],[40.09131,44.60403],[40.09099,44.60368]],[[40.09491,44.6053],[40.09444,44.60703]],[[40.09444,44.60703],[40.09978,44.60647]],[[40.10171,44.60461],[40.09491,44.6053]],[[40.09978,44.60647],[40.09943,44.60486]],[[40.10302,44.62112],[40.10262,44.6194],[40.1023,44.61788],[40.10194,44.61626],[40.10159,44.61464],[40.10139,44.61373],[40.10123,44.61301],[40.10088,44.61136],[40.09978,44.60647]],[[40.09978,44.60647],[40.10207,44.60623]],[[40.10171,44.60461],[40.10103,44.60141]],[[40.10207,44.60623],[40.10171,44.60461]],[[40.10207,44.60623],[40.10276,44.6095],[40.10313,44.61113],[40.10344,44.61264],[40.10347,44.61277],[40.1035,44.61291],[40.10417,44.61601],[40.10531,44.62087]],[[40.10207,44.60623],[40.10433,44.606]],[[40.10468,44.60761],[40.10698,44.60737]],[[40.10504,44.60926],[40.10539,44.6109]],[[40.10531,44.62087],[40.10555,44.62178],[40.10778,44.62152]],[[40.10539,44.6109],[40.10555,44.61157],[40.10557,44.61165],[40.10566,44.61204],[40.10577,44.61253],[40.10579,44.61264],[40.10653,44.61591],[40.10687,44.61739],[40.10722,44.61901]],[[40.10539,44.6109],[40.10771,44.61063]],[[40.10551,44.60093],[40.10698,44.60737]],[[40.10698,44.60737],[40.10771,44.61063]],[[40.10722,44.61901],[40.10778,44.62152]],[[40.10722,44.61901],[40.10954,44.61875]],[[40.10771,44.61063],[40.10808,44.61229]],[[40.10771,44.61063],[40.10995,44.61038]],[[40.10803,44.62191],[40.10775,44.62193]],[[40.10775,44.62193],[40.10778,44.62152]],[[40.10775,44.62193],[40.10787,44.62186],[40.10803,44.62191]],[[40.10778,44.62152],[40.10803,44.62191]],[[40.10808,44.61229],[40.10954,44.61875]],[[40.11033,44.61203],[40.10808,44.61229]],[[40.10817,44.60229],[40.11044,44.60206]],[[40.10891,44.60554],[40.13358,44.60283],[40.13457,44.60609]],[[40.10954,44.61875],[40.11412,44.61833],[40.11375,44.61672]],[[40.10961,44.60874],[40.10995,44.61038]],[[40.10995,44.61038],[40.11924,44.60936]],[[40.10995,44.61038],[40.11033,44.61203]],[[40.11963,44.61103],[40.11033,44.61203]],[[40.11237,44.62614],[40.12287,44.62606]],[[40.12069,44.616],[40.12458,44.63361],[40.11253,44.63374]],[[40.11887,44.60773],[40.13272,44.60628]],[[40.12536,44.77028],[40.12711,44.77437],[40.12583,44.77641],[40.12834,44.77926],[40.12888,44.78237],[40.13169,44.78495],[40.13192,44.79663]],[[40.13192,44.79663],[40.13227,44.79854],[40.12988,44.80169],[40.12969,44.80527]],[[40.1349,44.58189],[40.12981,44.5795]],[[40.12991,44.80451],[40.13031,44.80471]],[[40.18472,44.79508],[40.17832,44.79721],[40.14703,44.7881],[40.13191,44.78754]],[[40.13212,44.59579],[40.15191,44.58704]],[[40.13272,44.60628],[40.13476,44.61452]],[[40.13272,44.60628],[40.13428,44.60612],[40.13457,44.60609],[40.13483,44.60606]],[[40.13393,44.57464],[40.14061,44.57646]],[[40.13434,44.69873],[40.14537,44.69927],[40.14981,44.69828],[40.16873,44.70109]],[[40.20168,44.23245],[40.20285,44.2284],[40.20248,44.22353],[40.20393,44.22053],[40.20351,44.215],[40.20172,44.21229],[40.19516,44.20848],[40.18851,44.20962],[40.18742,44.21301],[40.18357,44.2126],[40.18179,44.21351],[40.18257,44.21154],[40.17638,44.20216],[40.17655,44.19935],[40.17646,44.19916],[40.17322,44.19454],[40.16407,44.18795],[40.16032,44.18335],[40.15514,44.18013],[40.15456,44.17619],[40.14882,44.17237],[40.14619,44.16579],[40.141,44.16323],[40.13695,44.16574],[40.13039,44.1624],[40.12917,44.16042],[40.12552,44.15954],[40.12553,44.15652],[40.12291,44.15462],[40.11503,44.15382],[40.12038,44.1459],[40.12442,44.14276],[40.12566,44.13674],[40.12418,44.12978],[40.12554,44.12329],[40.11823,44.11324],[40.12114,44.10602],[40.12558,44.10007],[40.13605,44.09449],[40.13983,44.09],[40.1471,44.08745],[40.15223,44.08326],[40.15993,44.0749],[40.16259,44.06905],[40.17158,44.05887],[40.17286,44.05227],[40.17053,44.04059],[40.1679,44.03716],[40.16414,44.03538],[40.1628,44.03204],[40.15764,44.02892],[40.15518,44.02444],[40.15129,44.0248],[40.14629,44.01666],[40.14588,44.01378],[40.14812,44.01045],[40.14087,44.00747],[40.1345,44.00243],[40.13371,43.99744],[40.13447,43.99621]],[[40.13447,43.99621],[40.13492,43.99597]],[[40.13499,43.99616],[40.13447,43.99621]],[[40.13461,44.61464],[40.13476,44.61452]],[[40.13476,44.61452],[40.13495,44.61459]],[[40.15191,44.58704],[40.14663,44.58652],[40.14193,44.58307],[40.14013,44.58034],[40.13531,44.57802]],[[40.13562,44.52591],[40.1384,44.52483],[40.14494,44.52511],[40.14973,44.52662]],[[40.13591,44.65566],[40.13841,44.65605]],[[40.13766,44.65698],[40.13932,44.65905],[40.13871,44.66001]],[[40.13883,44.56704],[40.1389,44.5666]],[[40.1389,44.5666],[40.13929,44.56672]],[[40.1389,44.5666],[40.1385,44.56577],[40.14135,44.56395],[40.14939,44.55151]],[[40.14152,44.54016],[40.14076,44.5389]],[[40.14702,44.66665],[40.14516,44.66619],[40.13824,44.65959],[40.13756,44.65888],[40.13061,44.64546],[40.13273,44.64247],[40.13554,44.63053],[40.13871,44.62458],[40.13925,44.61974],[40.141,44.61705]],[[40.14939,44.55151],[40.14898,44.54903],[40.14286,44.54275],[40.14194,44.54117],[40.14152,44.54016],[40.14101,44.53884]],[[40.17955,44.46987],[40.17333,44.46836],[40.17775,44.45785],[40.16321,44.45417],[40.15636,44.45386],[40.14886,44.45117]],[[40.14939,44.55151],[40.15029,44.55122]],[[40.14986,44.63633],[40.14949,44.63623]],[[40.14986,44.63633],[40.14994,44.63668]],[[40.14986,44.63633],[40.15024,44.63614]],[[40.15052,44.63622],[40.15007,44.63646]],[[40.15029,44.55122],[40.15051,44.5511]],[[40.15078,44.55134],[40.15062,44.55123],[40.15049,44.55121],[40.15029,44.55122]],[[40.15039,44.63588],[40.15052,44.63622]],[[40.15049,44.55121],[40.15051,44.5511]],[[40.15051,44.5511],[40.15114,44.55023]],[[40.15052,44.63622],[40.15088,44.63632]],[[40.15084,44.55119],[40.15062,44.55123]],[[40.15143,44.587],[40.1515,44.58719]],[[40.15191,44.58704],[40.15928,44.58399]],[[40.16622,44.92904],[40.17902,44.93228],[40.19351,44.91214],[40.19115,44.90986],[40.19138,44.89696],[40.18555,44.89455],[40.18498,44.88767],[40.18814,44.87735]],[[40.19797,44.70373],[40.19623,44.69314],[40.19429,44.69178],[40.19011,44.68384],[40.1745,44.69424],[40.17399,44.69655],[40.17538,44.70086],[40.16873,44.70109]],[[40.16873,44.70109],[40.17491,44.70406],[40.19797,44.70373]],[[40.17362,44.46698],[40.17193,44.46666],[40.17234,44.46583]],[[40.17576,44.28745],[40.17318,44.28797],[40.1651,44.29468],[40.16672,44.29516],[40.17252,44.30199]],[[40.17565,44.19803],[40.17236,44.19933],[40.17098,44.2011],[40.15818,44.20537],[40.1574,44.20647],[40.17653,44.21729],[40.18045,44.22158],[40.18274,44.22211],[40.18689,44.23053],[40.19199,44.23215],[40.1927,44.23451],[40.19178,44.23751]],[[40.1895,45.07105],[40.18226,45.0703]],[[40.19094,45.05871],[40.18226,45.0703]],[[40.18617,44.29885],[40.19057,44.2964],[40.19132,44.29424],[40.20216,44.28974],[40.20761,44.28293],[40.2105,44.282],[40.2163,44.27746],[40.22095,44.27778],[40.22224,44.27669],[40.22938,44.27551],[40.23986,44.27804],[40.25304,44.28297],[40.25675,44.28244],[40.25862,44.28085],[40.26386,44.28376],[40.27283,44.27954],[40.27439,44.27637],[40.27866,44.27436],[40.29171,44.28028],[40.2938,44.28378],[40.29697,44.28581],[40.31357,44.29113],[40.31616,44.2909]],[[40.1895,45.07105],[40.22704,45.08739],[40.23178,45.09218],[40.23306,45.09165],[40.23461,45.09324],[40.24882,45.08614],[40.25706,45.08916],[40.26341,45.09289],[40.27194,45.09034]],[[40.19094,45.05871],[40.1933,45.0646],[40.1895,45.07105]],[[40.21826,45.03106],[40.21151,45.03547],[40.19094,45.05871]],[[40.19178,44.23751],[40.19181,44.23757],[40.19172,44.23757],[40.19172,44.23752],[40.19178,44.23751]],[[40.2026,44.35221],[40.20307,44.35238],[40.2038,44.35267],[40.20414,44.35282],[40.2053,44.35364],[40.21566,44.36974],[40.21845,44.37168],[40.21976,44.37847],[40.21797,44.37898],[40.21975,44.38888],[40.22093,44.38925],[40.22122,44.39126],[40.21481,44.39223],[40.21271,44.39565],[40.20984,44.39639],[40.20942,44.39996],[40.2075,44.40309],[40.20775,44.4053],[40.20597,44.40682],[40.20621,44.40916],[40.20417,44.41085],[40.20317,44.4136],[40.19472,44.4195]],[[40.19797,44.70373],[40.20047,44.71974]],[[40.19925,45.01165],[40.2213,45.01519],[40.22587,45.01887]],[[40.20168,44.23245],[40.20345,44.23257],[40.20438,44.22891],[40.21096,44.22416],[40.21091,44.22302],[40.21971,44.21742],[40.24283,44.21184],[40.25244,44.21211],[40.25463,44.20929],[40.2495,44.20534],[40.2509,44.2003],[40.25261,44.1963],[40.25892,44.19306],[40.26167,44.18807],[40.25797,44.17907],[40.24773,44.17295],[40.24607,44.16969],[40.2468,44.16649],[40.24428,44.164],[40.24478,44.16006],[40.24201,44.15534],[40.24455,44.15359],[40.24708,44.15425],[40.24877,44.14763],[40.25219,44.14532],[40.25792,44.1449],[40.25799,44.14121],[40.2619,44.13861],[40.26467,44.13842],[40.26988,44.14177],[40.277,44.14241],[40.2874,44.13819]],[[40.20319,44.3513],[40.20307,44.35238],[40.20182,44.35316]],[[40.22109,44.39025],[40.23356,44.38752],[40.23909,44.38017],[40.24604,44.37961],[40.24953,44.38075],[40.25223,44.37487],[40.25447,44.37303],[40.26143,44.37058],[40.26297,44.36765],[40.26671,44.36556],[40.27336,44.36581],[40.27933,44.36099],[40.2859,44.35948],[40.30129,44.36052],[40.3054,44.35972],[40.31022,44.35526],[40.30812,44.35566],[40.30786,44.35398],[40.31671,44.34916],[40.31861,44.34674],[40.32078,44.34682],[40.32517,44.35182],[40.32914,44.34852],[40.33727,44.34845],[40.3419,44.34388],[40.35011,44.34171],[40.3557,44.34189],[40.35868,44.34436],[40.35983,44.34722],[40.36915,44.35317],[40.371,44.3565],[40.37766,44.35875],[40.40415,44.35935],[40.40864,44.35695],[40.40828,44.35515],[40.41087,44.35202]],[[40.22587,45.01887],[40.22965,45.02765]],[[40.22587,45.01887],[40.25948,45.00949]],[[40.22939,45.02671],[40.23091,45.0274]],[[40.24071,44.87963],[40.24064,44.8419],[40.23331,44.84133],[40.23227,44.83885]],[[40.31413,44.95639],[40.30879,44.95574],[40.28751,44.9408],[40.2655,44.93233],[40.24481,44.91948],[40.26958,44.90283],[40.26793,44.89883],[40.26839,44.896],[40.26622,44.89511],[40.26614,44.87969]],[[40.33655,44.65277],[40.32314,44.65695],[40.31422,44.66275],[40.30877,44.66394],[40.30606,44.66839],[40.29348,44.6701],[40.2927,44.67015],[40.28521,44.67049],[40.2842,44.67055],[40.28259,44.6705]],[[40.2932,44.64832],[40.29161,44.64898],[40.28924,44.64915]],[[40.29099,44.67022],[40.29088,44.6696]],[[40.2927,44.67015],[40.29321,44.66139],[40.29699,44.65903],[40.29544,44.65742],[40.29341,44.65005],[40.293,44.64951],[40.29176,44.64909],[40.29161,44.64898],[40.29132,44.64862]],[[40.29964,44.75054],[40.29759,44.75083],[40.29289,44.75412]],[[40.29619,44.69073],[40.3027,44.68181],[40.29998,44.67992],[40.30327,44.67584],[40.29348,44.6701]],[[40.29905,44.74208],[40.29964,44.75054]],[[40.30347,44.75419],[40.30035,44.75413],[40.29964,44.75054]],[[40.30347,44.75419],[40.30488,44.75779],[40.30227,44.7591],[40.3046,44.7622]],[[40.35452,44.75305],[40.31631,44.75146],[40.30347,44.75419]],[[40.30689,44.99635],[40.30623,44.99077]],[[40.36608,44.9285],[40.36457,44.92947],[40.36338,44.93313],[40.34859,44.93945],[40.33194,44.94918],[40.31979,44.94905],[40.31476,44.95499],[40.31413,44.95639],[40.31335,44.95809],[40.31295,44.959],[40.3122,44.9636],[40.28668,44.9821],[40.29188,44.98535],[40.2964,44.98512],[40.30041,44.98285],[40.30332,44.98524],[40.30423,44.98921],[40.30623,44.99077]],[[40.32031,44.98717],[40.31181,44.98769],[40.30623,44.99077]],[[40.35046,44.78332],[40.34845,44.78382],[40.34813,44.78518],[40.34053,44.78546],[40.33548,44.78362],[40.33227,44.7842]],[[40.34476,44.80475],[40.34917,44.80448],[40.34848,44.80014],[40.3582,44.79865],[40.3622,44.78679],[40.36516,44.78566],[40.36477,44.7739],[40.37177,44.76313]],[[40.345,44.87584],[40.34642,44.8919],[40.35732,44.89117],[40.35785,44.89353],[40.36179,44.89335]],[[40.35316,44.91662],[40.36608,44.9285]],[[40.37177,44.76313],[40.3607,44.76229],[40.35247,44.76316],[40.35171,44.76142],[40.35327,44.75993],[40.35452,44.75305]],[[40.35452,44.75305],[40.35624,44.75034],[40.35877,44.75009]],[[40.35944,44.64367],[40.36318,44.64604],[40.36511,44.64965],[40.3809,44.66234]],[[40.37663,44.92447],[40.37347,44.92622],[40.37071,44.92588],[40.36608,44.9285]],[[40.37177,44.76313],[40.3733,44.75291],[40.36958,44.73954]],[[40.37756,44.92296],[40.37663,44.92447]],[[40.37835,44.92471],[40.37739,44.92433],[40.37663,44.92447]],[[40.37801,44.93616],[40.38306,44.93853],[40.38618,44.93856],[40.38646,44.9398],[40.3921,44.94314],[40.39213,44.94925],[40.3955,44.9523],[40.40751,44.97147],[40.39891,44.98917],[40.39547,45.0006],[40.39835,45.00031],[40.40187,44.99457],[40.40681,44.99084],[40.44698,44.94702],[40.46682,44.92963],[40.48603,44.90793]],[[40.43227,44.91637],[40.4305,44.9062],[40.42434,44.90324]],[[40.4865,44.89699],[40.47344,44.90272]],[[40.47406,44.9025],[40.4742,44.90289]],[[40.48602,44.89499],[40.4865,44.89699]],[[40.48602,44.89499],[40.48396,44.89413],[40.48408,44.88913],[40.46421,44.84978],[40.45623,44.84461],[40.47047,44.83212],[40.47213,44.82956],[40.47724,44.83108],[40.4832,44.82878],[40.49584,44.81541],[40.50004,44.81298],[40.51236,44.81661]],[[40.51223,44.89296],[40.48602,44.89499]],[[40.48603,44.90793],[40.48615,44.90755]],[[40.48652,44.90769],[40.48603,44.90793]],[[40.51102,44.89393],[40.48906,44.89595],[40.4865,44.89699]],[[40.49689,44.83347],[40.49484,44.82552],[40.48958,44.82246]],[[40.51155,44.89415],[40.51102,44.89393]],[[40.51102,44.89393],[40.51167,44.89382]],[[40.54137,44.7904],[40.52645,44.78255],[40.52208,44.78125],[40.52113,44.77907],[40.51883,44.77868],[40.51923,44.7733],[40.52128,44.76694],[40.52789,44.76713],[40.5294,44.76631],[40.53043,44.76332],[40.52979,44.75882],[40.52297,44.75244],[40.52211,44.74432],[40.51849,44.74443]],[[40.61648,44.74168],[40.60502,44.73934],[40.59218,44.73949],[40.58317,44.73697],[40.56858,44.735]],[[40.5971,44.52057],[40.60038,44.51947],[40.6003,44.52155],[40.60342,44.51947],[40.60215,44.52429],[40.61065,44.53617],[40.61899,44.5394],[40.66538,44.53941],[40.67068,44.54063],[40.69177,44.54043],[40.69615,44.54319],[40.71211,44.54296]],[[40.7132,44.5776],[40.68587,44.57704]],[[40.71091,44.54262],[40.70909,44.52871],[40.7126,44.52544],[40.71344,44.52136],[40.72476,44.52163]],[[38.90784,44.94065],[38.90794,44.94016],[38.90805,44.94012],[38.9082,44.94011],[38.90835,44.94013],[38.90861,44.94033],[38.90784,44.94065]],[[40.13518,43.99595],[40.13516,43.99614],[40.13505,43.99616],[40.13499,43.99616],[40.13489,43.99608],[40.13518,43.99595]]]}},{"type":"Feature","properties":{"roadClass":"trunk"},"geometry":{"type":"MultiLineString","coordinates":[[[38.85978,44.89323],[38.89774,44.9196],[38.90927,44.92891],[38.9111,44.9315]],[[38.9111,44.9315],[38.91528,44.93781]],[[38.91183,44.93306],[38.9111,44.9315]],[[38.91183,44.93306],[38.91128,44.93298]],[[38.91464,44.938],[38.91284,44.93557],[38.91205,44.93363],[38.91183,44.93306]],[[38.91183,44.93306],[38.91208,44.933]],[[38.91254,44.93376],[38.91215,44.93387]],[[38.91528,44.93781],[38.91507,44.93814],[38.91464,44.938]],[[38.92162,44.94696],[38.91977,44.9446],[38.91866,44.94318],[38.91775,44.94202],[38.91726,44.94136],[38.91685,44.94086],[38.91464,44.938]],[[38.91528,44.93781],[38.91578,44.93845]],[[38.91578,44.93845],[38.91984,44.941],[38.92213,44.94658]],[[38.91578,44.93845],[38.91766,44.94055]],[[38.9169,44.94093],[38.91766,44.94055]],[[38.91766,44.94055],[38.91941,44.94284]],[[38.91941,44.94284],[38.91866,44.94318]],[[38.91941,44.94284],[38.92071,44.94483]],[[38.92969,44.95725],[38.92162,44.94696]],[[38.92162,44.94696],[38.92103,44.94597],[38.92213,44.94658]],[[38.92213,44.94658],[38.9303,44.95713]],[[38.95504,45.03844],[38.9541,45.03662],[38.93656,45.01775],[38.93454,45.0151],[38.93228,45.01085],[38.92768,44.9981]],[[38.92768,44.9981],[38.92394,44.98735],[38.91722,44.97929],[38.9166,44.9778],[38.91659,44.97631],[38.91727,44.97465],[38.91776,44.97398],[38.91839,44.97344],[38.9318,44.96513],[38.93418,44.964],[38.93459,44.96376],[38.93467,44.96371],[38.93476,44.96364],[38.93347,44.96211]],[[38.92768,44.9981],[38.92846,44.99802]],[[38.92846,44.99802],[38.93466,45.01505],[38.95421,45.03658],[38.95518,45.03853]],[[38.93449,44.96251],[38.93486,44.96372],[38.93478,44.96378],[38.93455,44.9639],[38.93279,44.96468],[38.93211,44.96503],[38.91845,44.97348],[38.91669,44.97631],[38.91729,44.97925],[38.924,44.98734],[38.92846,44.99802]],[[38.9303,44.95713],[38.9301,44.95743],[38.92969,44.95725]],[[38.93347,44.96211],[38.92969,44.95725]],[[38.9303,44.95713],[38.93086,44.95779]],[[38.93086,44.95779],[38.9328,44.95947],[38.94139,44.96165],[38.96384,44.95503],[38.97203,44.95292],[38.97948,44.95219],[38.99656,44.95204]],[[38.93086,44.95779],[38.93311,44.96069]],[[38.93311,44.96069],[38.93449,44.96251]],[[38.99683,44.95254],[38.97421,44.95272],[38.94219,44.96166],[38.94041,44.96171],[38.93366,44.95979],[38.93311,44.96069]],[[38.93449,44.96251],[38.93747,44.96668],[38.93689,44.96652],[38.93505,44.96414],[38.93474,44.96374],[38.93453,44.96347],[38.93382,44.96259],[38.93347,44.96211]],[[38.99683,44.95254],[38.99656,44.95204]],[[38.99656,44.95204],[38.99785,44.95184]],[[38.99791,44.9524],[38.99734,44.95259],[38.99683,44.95254]],[[38.99785,44.95184],[39.06413,44.9435],[39.07073,44.94307],[39.07906,44.94322],[39.10058,44.94519],[39.1131,44.94726],[39.12006,44.94893]],[[38.99785,44.95184],[38.99791,44.9524]],[[39.11691,44.94822],[39.10078,44.94532],[39.07069,44.94318],[38.99791,44.9524]],[[39.11302,44.98059],[39.11226,44.98011]],[[39.1135,44.97556],[39.11312,44.97604],[39.11286,44.97619],[39.11219,44.97651],[39.1108,44.9772],[39.10986,44.97778],[39.10912,44.9792],[39.11226,44.98011]],[[39.11226,44.98011],[39.11238,44.97893]],[[39.1135,44.97556],[39.11243,44.97602]],[[39.11504,44.99952],[39.11265,44.99345],[39.11295,44.99207],[39.11477,44.98873],[39.11501,44.98744],[39.11302,44.98059]],[[39.11302,44.98059],[39.11226,44.97836],[39.11217,44.97733],[39.11223,44.97647],[39.1123,44.97587],[39.11245,44.97526],[39.12294,44.95241]],[[39.1133,44.97368],[39.1135,44.97556]],[[39.1133,44.97368],[39.11243,44.97602],[39.11236,44.97649],[39.11231,44.97738],[39.1124,44.97829],[39.11515,44.98744],[39.11501,44.98859],[39.11283,44.99332],[39.11515,44.99789]],[[39.12139,44.95631],[39.1133,44.97368]],[[39.11514,44.94768],[39.11763,44.94786]],[[39.12294,44.95241],[39.12218,44.9498],[39.12188,44.94961],[39.12172,44.94953],[39.12151,44.94943],[39.12132,44.94936],[39.11691,44.94822]],[[39.12638,44.94561],[39.12571,44.94796],[39.1252,44.94824],[39.12418,44.94859],[39.12236,44.9492],[39.12175,44.94941],[39.12159,44.94946],[39.12144,44.94951],[39.11691,44.94822]],[[39.11974,44.94944],[39.11786,44.94889]],[[39.12006,44.94893],[39.12078,44.94909],[39.12185,44.94936],[39.12206,44.94941],[39.12246,44.94947],[39.12389,44.94921],[39.12459,44.9486],[39.12467,44.94845],[39.12479,44.94822],[39.12503,44.94776],[39.12541,44.94696],[39.12591,44.94611]],[[39.12006,44.94893],[39.12136,44.94927],[39.1221,44.94948],[39.12307,44.94974],[39.12366,44.94996],[39.12397,44.95015],[39.1241,44.95025],[39.1242,44.95035],[39.12427,44.95042],[39.12458,44.95111],[39.12139,44.95631]],[[39.12638,44.94561],[39.12609,44.94618],[39.12544,44.94754],[39.12426,44.95009],[39.12422,44.95017],[39.12365,44.95136],[39.12331,44.95208],[39.12139,44.95631]],[[39.12294,44.95241],[39.12311,44.95202],[39.1235,44.95122],[39.12403,44.95009],[39.12547,44.94706],[39.12591,44.94611],[39.12595,44.94601],[39.1263,44.9453],[39.12707,44.94401],[39.15548,44.90672],[39.16015,44.9011]],[[39.15491,44.90845],[39.12638,44.94561]],[[39.15491,44.90845],[39.15441,44.9083]],[[39.17142,44.89068],[39.17083,44.89148],[39.16954,44.89312],[39.15848,44.90387],[39.15491,44.90845]],[[39.16015,44.9011],[39.16422,44.89631]],[[39.16015,44.9011],[39.16074,44.90104],[39.16094,44.90148]],[[39.16422,44.89631],[39.16612,44.89287],[39.17248,44.8869],[39.18144,44.87575]],[[39.16422,44.89631],[39.16542,44.89464]],[[39.16422,44.89631],[39.16524,44.89605],[39.16571,44.89642],[39.16439,44.89812]],[[39.16542,44.89464],[39.16655,44.89296],[39.16767,44.89268],[39.16904,44.89288],[39.17015,44.89302],[39.17323,44.89358],[39.17748,44.8947]],[[39.16542,44.89464],[39.16726,44.89441]],[[39.17142,44.89068],[39.17137,44.8929],[39.17653,44.8944]],[[39.18383,44.87509],[39.17624,44.88466],[39.17266,44.88902],[39.17142,44.89068]],[[39.17619,44.88471],[39.17499,44.88551],[39.17433,44.88474]],[[39.18144,44.87575],[39.18286,44.87606],[39.18132,44.87821]],[[39.18144,44.87575],[39.18224,44.87467],[39.18347,44.87311],[39.18597,44.87005],[39.18785,44.86838]],[[39.18383,44.87509],[39.18224,44.87467]],[[39.22488,44.82511],[39.22443,44.82654],[39.22346,44.82822],[39.20867,44.84384],[39.18383,44.87509]],[[39.18785,44.86838],[39.1913,44.86559],[39.21005,44.84208],[39.22291,44.82862],[39.22473,44.82514]],[[39.18785,44.86838],[39.18869,44.86798],[39.18909,44.86847]],[[39.64297,45.18042],[39.64351,45.18205]],[[39.64784,45.21158],[39.64203,45.19284],[39.64297,45.18042]],[[39.64297,45.18042],[39.64361,45.17608]],[[39.64361,45.17608],[39.64333,45.17356]],[[39.64361,45.17608],[39.64666,45.15487],[39.64628,45.14811],[39.64274,45.13892],[39.63013,45.12363],[39.62611,45.11676],[39.62451,45.10763],[39.62625,45.09949],[39.62869,45.09472],[39.64938,45.06926],[39.66427,45.05149],[39.68335,45.02837],[39.70819,44.99915],[39.71402,44.9921]],[[39.66427,45.05149],[39.66534,45.04969]],[[39.6845,45.02704],[39.6837,45.02844]],[[39.70617,45.00148],[39.70781,44.99959]],[[39.70819,44.99915],[39.70762,45.00039]],[[39.71402,44.9921],[39.71898,44.98194]],[[39.71898,44.98194],[39.72005,44.97506],[39.72177,44.97042],[39.72728,44.96076],[39.72882,44.95887],[39.73007,44.95757],[39.72152,44.9713],[39.721,44.97274],[39.72055,44.97553],[39.72036,44.97634],[39.72015,44.97703],[39.71993,44.97775],[39.71893,44.98301],[39.71847,44.98495],[39.71833,44.98544],[39.7183,44.98555],[39.71825,44.9857],[39.71818,44.9859],[39.71778,44.98676],[39.71573,44.9899],[39.71402,44.9921]],[[39.7183,44.98555],[39.71736,44.9868],[39.71821,44.98449]],[[39.71898,44.98194],[39.71838,44.9805]],[[39.71983,44.9765],[39.72041,44.97484],[39.72015,44.97703]],[[39.94859,44.72691],[39.95102,44.72425]],[[39.95166,44.72355],[39.95442,44.72052]],[[39.98842,44.68113],[39.99009,44.67897]],[[39.99022,44.67901],[39.98847,44.68126]],[[39.99349,44.66233],[39.99271,44.66081],[39.99053,44.66063]],[[39.99778,44.65656],[39.99648,44.65842]],[[39.99778,44.65656],[39.99402,44.6605],[39.99235,44.67383],[39.99132,44.67706],[39.99051,44.67856],[39.99022,44.67901],[39.98988,44.67954],[39.98938,44.6802],[39.98854,44.68119],[39.98747,44.68227],[39.98529,44.68407],[39.97153,44.69328],[39.96933,44.69678],[39.96854,44.7035],[39.96786,44.70539],[39.96678,44.70714],[39.9422,44.73401],[39.93935,44.7367],[39.93504,44.74001],[39.94207,44.73397],[39.96669,44.70702],[39.96836,44.70365],[39.96918,44.6967],[39.97111,44.69355],[39.98575,44.68357],[39.98738,44.68218],[39.98842,44.68113],[39.98929,44.68009],[39.99009,44.67897],[39.9909,44.67767],[39.99226,44.67383],[39.99336,44.66342],[39.99349,44.66233],[39.99354,44.66192],[39.99365,44.66126],[39.99384,44.66058],[39.99598,44.65761],[40.00765,44.65065],[40.03508,44.63485]],[[40.02679,44.64018],[39.99778,44.65656]],[[40.02679,44.64018],[40.02646,44.63983]],[[40.04623,44.63329],[40.04436,44.63219],[40.04027,44.6321],[40.03785,44.63342],[40.03599,44.63482],[40.03552,44.63513],[40.03475,44.63559],[40.03021,44.6378],[40.02679,44.64018]],[[40.03508,44.63485],[40.03839,44.63295],[40.03905,44.63256],[40.0391,44.63253],[40.04107,44.63139],[40.0422,44.63074],[40.04298,44.63029],[40.04345,44.63002],[40.04292,44.62894],[40.04236,44.62971],[40.04269,44.63009],[40.04338,44.63068],[40.04367,44.63093],[40.04623,44.63329]],[[40.03508,44.63485],[40.03566,44.63475],[40.03552,44.63513]],[[40.11741,44.67336],[40.10748,44.67898],[40.09668,44.68038],[40.07823,44.67575],[40.07045,44.67249],[40.06396,44.66801],[40.05881,44.66204],[40.05644,44.65699],[40.0527,44.64207],[40.04623,44.63329]],[[40.11741,44.67336],[40.1221,44.6692]],[[40.15491,44.62437],[40.15291,44.63134],[40.13975,44.65437],[40.13205,44.6625],[40.11741,44.67336]],[[40.12751,44.66597],[40.12378,44.66932]],[[40.15491,44.62437],[40.156,44.61974],[40.15924,44.61879],[40.16335,44.62278],[40.19416,44.63707]],[[40.19388,44.63746],[40.16083,44.62176],[40.15684,44.62184],[40.15491,44.62437]],[[40.2556,44.65657],[40.24142,44.65967],[40.23774,44.66018],[40.23291,44.66023],[40.22952,44.65982],[40.22622,44.65902],[40.21728,44.65597],[40.21478,44.65465],[40.21226,44.65219],[40.2079,44.64527],[40.19388,44.63746]],[[40.19388,44.63746],[40.19416,44.63707]],[[40.19416,44.63707],[40.20833,44.64543],[40.21228,44.65168],[40.21598,44.65495],[40.22564,44.65871],[40.23779,44.66008],[40.2556,44.65657]],[[40.2556,44.65657],[40.2881,44.64939]],[[40.2881,44.64939],[40.29132,44.64862],[40.29476,44.64801]],[[40.29476,44.64801],[40.2881,44.64939]],[[40.29476,44.64801],[40.30687,44.64743],[40.3388,44.65315],[40.34437,44.65273],[40.363,44.64154],[40.37571,44.63588],[40.38028,44.63208],[40.38196,44.6255],[40.39106,44.62274],[40.39792,44.61821]],[[40.58094,44.62865],[40.58879,44.62734],[40.59497,44.62778],[40.60629,44.63182],[40.63684,44.63546],[40.67426,44.65302],[40.6723,44.6567],[40.68558,44.66086]]]}}],"provenance":{"sources":[{"id":"osm-south-260916","url":"https://download.geofabrik.de/russia/south-fed-district-260916.osm.pbf","snapshot":"2026-09-16T20:21:21Z","sha256":"3ccca698671dbc4d23d4a4fbc8f83bca9ea620c541d0f15c2d60ac03919f99d7","md5":"3ba975cd945a4f9f637abd451290e6d7","bytes":313497295,"license":"ODbL-1.0","attribution":"© OpenStreetMap contributors, Geofabrik","downloadDate":"2026-09-17"}],"attribution":"© OpenStreetMap contributors, Geofabrik; ODbL-1.0","geometryMethod":"Actual OSM road ways, merged by class and endpoint, display simplification 0.0007 degrees; not routing geometry","sourceWayCount":2261,"routingUse":false}}