{"type":"FeatureCollection","features":[{"type":"Feature","properties":{"roadClass":"primary"},"geometry":{"type":"MultiLineString","coordinates":[[[90.56853,51.16096],[90.53539,51.176],[90.52788,51.18857],[90.52254,51.20269],[90.51434,51.21242],[90.52111,51.21789],[90.52634,51.28774],[90.5337,51.306],[90.54211,51.31396],[90.54292,51.31756],[90.54823,51.32175],[90.55129,51.32735],[90.54832,51.33141],[90.54149,51.33343],[90.5403,51.33829],[90.52649,51.34439],[90.51569,51.35277],[90.51277,51.35758],[90.50753,51.36123],[90.49926,51.36393],[90.4807,51.36643],[90.47369,51.37033],[90.46026,51.3684],[90.45359,51.37045],[90.44795,51.37607],[90.45138,51.38232],[90.45577,51.38375],[90.46441,51.38288],[90.46671,51.38156],[90.46811,51.38225],[90.46607,51.38408],[90.4665,51.38535],[90.46456,51.38629],[90.46463,51.38748],[90.45597,51.39377],[90.45323,51.39754],[90.44748,51.39889],[90.44506,51.39775],[90.4429,51.3947],[90.43881,51.39429],[90.43132,51.39918],[90.41952,51.402],[90.41383,51.40654],[90.40943,51.40806],[90.40666,51.41371],[90.4034,51.41415],[90.39874,51.41204],[90.39385,51.41296],[90.39432,51.42125],[90.38265,51.4249],[90.3772,51.42949],[90.3708,51.43027],[90.3518,51.43729],[90.34326,51.43846],[90.33855,51.44144],[90.32626,51.44542],[90.31718,51.44659],[90.29686,51.45304],[90.28494,51.455],[90.27936,51.45862],[90.26934,51.46232],[90.26232,51.46307],[90.25505,51.46627],[90.24762,51.46759],[90.23945,51.47159],[90.23266,51.47646],[90.22592,51.47929],[90.21983,51.48431],[90.21534,51.49254],[90.20269,51.50275],[90.20266,51.50488],[90.20565,51.50848],[90.20526,51.5096],[90.1933,51.51596],[90.16515,51.5271],[90.15932,51.52615],[90.1418,51.53068],[90.12375,51.55021],[90.12385,51.55137],[90.12684,51.55328],[90.12485,51.55717],[90.11732,51.56421],[90.09315,51.58217],[90.07549,51.59076],[90.07405,51.59809],[90.07524,51.61621],[90.07701,51.62049],[90.07719,51.62998],[90.06401,51.65015],[90.05426,51.65356],[90.04975,51.65391],[90.04312,51.65722],[90.03876,51.66114],[90.01597,51.66698],[90.00687,51.67233],[90.00188,51.67333],[89.99904,51.67527],[89.99049,51.6753],[89.98924,51.67864],[89.98655,51.68117],[89.98208,51.68299],[89.97559,51.68777],[89.972,51.69281],[89.96949,51.70063],[89.96356,51.70034],[89.95642,51.6932],[89.95464,51.69263],[89.95174,51.69548],[89.94481,51.69828],[89.92269,51.70303],[89.9211,51.70225],[89.92122,51.69945],[89.92407,51.69627],[89.91851,51.69512],[89.91489,51.69615],[89.90559,51.70213],[89.90263,51.70226],[89.90031,51.69944],[89.89831,51.69888],[89.88606,51.70185]],[[90.56853,51.16096],[90.56928,51.16065]],[[90.56946,51.1609],[90.56853,51.16096]],[[90.56945,51.16051],[90.57006,51.16003]],[[90.57006,51.16003],[90.56989,51.16059]],[[90.57006,51.16003],[90.58136,51.15016],[90.58264,51.14724]],[[90.58264,51.14724],[90.58291,51.14676]],[[90.58375,51.14672],[90.58264,51.14724]],[[90.58316,51.14666],[90.58375,51.14672]],[[90.58375,51.14672],[90.59983,51.15117],[90.63669,51.15533],[90.70686,51.16808],[90.7342,51.17701],[90.7406,51.18031],[90.74315,51.18452],[90.74769,51.19976],[90.7502,51.2025],[90.75484,51.20388],[90.78229,51.20647],[90.80434,51.21522],[90.82607,51.21733],[90.8389,51.2197],[90.87694,51.22055],[90.88266,51.21904],[90.88707,51.21422],[90.8909,51.21275],[90.9264,51.21724],[90.97994,51.21614],[91.0514,51.22282],[91.06166,51.22701],[91.10796,51.25759],[91.12423,51.26384],[91.14077,51.2721],[91.1504,51.2744],[91.19256,51.27501],[91.29407,51.27256],[91.35751,51.28083],[91.3804,51.28194],[91.43279,51.28867],[91.49105,51.28835]],[[91.49105,51.28835],[91.49251,51.28764]],[[91.49105,51.28835],[91.49191,51.28834]],[[90.56931,51.16059],[90.56945,51.16051],[90.56955,51.16049],[90.56975,51.16051],[90.56993,51.16076],[90.56979,51.16088],[90.56969,51.16091],[90.56946,51.1609],[90.56931,51.16059]],[[90.58324,51.14672],[90.58311,51.14686],[90.58291,51.14676],[90.58307,51.14665],[90.58324,51.14672]]]}},{"type":"Feature","properties":{"roadClass":"secondary"},"geometry":{"type":"MultiLineString","coordinates":[[[90.55047,51.16908],[90.50498,51.16045],[90.48064,51.16262],[90.4518,51.16145],[90.42293,51.16247],[90.41314,51.16131],[90.39615,51.15614],[90.38433,51.1559],[90.37407,51.15702],[90.37057,51.15508],[90.35814,51.14196],[90.33793,51.13888],[90.31436,51.13931],[90.29899,51.14195],[90.29201,51.14129],[90.27628,51.13292],[90.27199,51.12663],[90.27764,51.12038],[90.28384,51.11684],[90.28527,51.11411],[90.28453,51.10903],[90.30015,51.09811],[90.30307,51.09337],[90.30198,51.08701],[90.29707,51.07415],[90.28392,51.05351],[90.27468,51.04252],[90.2562,51.0267],[90.23561,51.00565],[90.23183,51.00512],[90.21473,51.00952],[90.20308,51.01557],[90.20166,51.0145]],[[91.89436,50.78062],[91.8811,50.76125],[91.87993,50.7568],[91.87492,50.75322],[91.86581,50.75118],[91.862,50.75178],[91.8566,50.75076],[91.84425,50.74668],[91.83716,50.74152],[91.83281,50.74422],[91.76229,50.73923],[91.72133,50.72972],[91.70457,50.72132],[91.68383,50.72838],[91.66301,50.72254],[91.6509,50.72038],[91.63511,50.70886],[91.61659,50.68621],[91.60164,50.67377],[91.58374,50.6457],[91.574,50.64255],[91.56381,50.63269],[91.56005,50.62455],[91.5539,50.62343],[91.55024,50.62472],[91.54406,50.62293],[91.5398,50.61843],[91.50552,50.60374],[91.51072,50.59993],[91.49398,50.59969],[91.49025,50.59728],[91.46896,50.58982],[91.46485,50.58546],[91.45697,50.56417],[91.44888,50.56038],[91.44283,50.55566],[91.2985,50.50291],[91.29295,50.50208],[91.26956,50.50266],[91.15309,50.47809],[91.00494,50.48358],[90.96325,50.49825],[90.9483,50.49632],[90.94109,50.49294],[90.93663,50.49396],[90.92277,50.50057],[90.91871,50.49875],[90.9137,50.4983],[90.90663,50.48607],[90.88905,50.47431],[90.8702,50.47158],[90.86576,50.46871],[90.84504,50.46645],[90.82978,50.46207],[90.81186,50.46391],[90.79563,50.46376],[90.78229,50.46622],[90.75908,50.47415],[90.73769,50.48766],[90.73691,50.48505],[90.72239,50.47178],[90.71331,50.46799],[90.70201,50.45768],[90.69896,50.45069],[90.70144,50.44687],[90.69933,50.44455],[90.70024,50.44269],[90.69956,50.43327],[90.70428,50.42783],[90.70464,50.4256],[90.7007,50.41817],[90.68576,50.40003],[90.68466,50.39785],[90.68533,50.39325],[90.6834,50.38823],[90.68013,50.38391],[90.67321,50.37983],[90.6683,50.37149],[90.66728,50.36477],[90.66828,50.35962],[90.66703,50.35651],[90.66829,50.34035],[90.68047,50.32992],[90.68735,50.32595],[90.69911,50.32133],[90.69213,50.32042],[90.69136,50.31805],[90.68769,50.31821],[90.6872,50.3171],[90.68142,50.31525],[90.67582,50.3111],[90.66866,50.30905],[90.67203,50.30857],[90.66666,50.30547],[90.66486,50.30607],[90.66371,50.30406],[90.65786,50.30401],[90.65922,50.30291],[90.6563,50.30059],[90.65411,50.29623],[90.65394,50.29068],[90.65171,50.2869],[90.65272,50.28382],[90.66177,50.2765],[90.66312,50.27378],[90.64763,50.27141],[90.6264,50.27059],[90.60611,50.27246],[90.58137,50.27221],[90.56329,50.27631],[90.55925,50.28053],[90.56006,50.28548],[90.55905,50.28778],[90.54437,50.29253],[90.53227,50.3027],[90.52628,50.31021],[90.52174,50.31408],[90.50175,50.32673],[90.45155,50.34296],[90.44848,50.35049],[90.4482,50.35738],[90.44473,50.36232],[90.44654,50.3726],[90.44809,50.37578],[90.44517,50.37544]],[[91.49161,51.28857],[91.48315,51.29544],[91.48181,51.31461],[91.47314,51.32076],[91.46515,51.33102],[91.46227,51.34197],[91.44928,51.34764],[91.44639,51.35294],[91.44267,51.35433],[91.42996,51.36356],[91.36356,51.37168],[91.30073,51.37556],[91.28743,51.37558],[91.27621,51.37127],[91.26426,51.37029],[91.25972,51.37121],[91.25501,51.37519],[91.25026,51.37715],[91.25045,51.38392],[91.26593,51.39205],[91.26802,51.39681],[91.27727,51.40041]],[[91.49161,51.28857],[91.49105,51.28835]],[[91.49161,51.28857],[91.49191,51.28834]],[[92.22059,51.39621],[92.22413,51.41021],[92.23909,51.42995],[92.26235,51.44418],[92.26485,51.44701],[92.26703,51.45356],[92.29186,51.46257],[92.29736,51.46766],[92.30198,51.46911],[92.3089,51.47762],[92.31565,51.49404],[92.33049,51.50605],[92.32912,51.51025],[92.33575,51.51404]],[[93.72154,51.13008],[93.71251,51.13331],[93.70771,51.13214],[93.70041,51.13335],[93.69451,51.13269],[93.6924,51.13711],[93.68613,51.14048],[93.68651,51.14271],[93.68426,51.14313],[93.67556,51.149],[93.66881,51.15103],[93.6599,51.16346],[93.65599,51.17233],[93.65873,51.18364],[93.67012,51.18824],[93.66982,51.19076],[93.67345,51.19692],[93.68154,51.19956],[93.68228,51.203],[93.68612,51.20233],[93.69633,51.20343],[93.69855,51.20118],[93.70288,51.2045],[93.7079,51.20465],[93.71436,51.20743],[93.71182,51.20938],[93.71137,51.2119],[93.7195,51.21556],[93.72396,51.22176],[93.72518,51.22622],[93.72768,51.22879],[93.72736,51.23264],[93.7286,51.23379],[93.73906,51.23613],[93.74647,51.23389],[93.75136,51.23584],[93.75508,51.23603],[93.7639,51.23362],[93.77011,51.23344],[93.77544,51.2362],[93.79175,51.2352],[93.82791,51.23844],[93.83528,51.24021],[93.84496,51.24348],[93.85212,51.24762],[93.85722,51.24768],[93.87364,51.2574],[93.87862,51.25918],[93.88057,51.26187],[93.88391,51.26228],[93.8887,51.26713],[93.89448,51.27094],[93.89913,51.27714],[93.91908,51.28288],[93.9228,51.28625],[93.92657,51.28784],[93.93126,51.29606],[93.93003,51.29786],[93.91121,51.3081],[93.90546,51.32324],[93.89781,51.33286],[93.90224,51.3505],[93.90118,51.35792],[93.8969,51.36157],[93.89862,51.37047],[93.89561,51.38374],[93.89694,51.40374],[93.89623,51.40656],[93.88587,51.41919],[93.88151,51.42278],[93.87116,51.42971],[93.84986,51.43909],[93.83811,51.44625],[93.84991,51.47735],[93.85093,51.48427],[93.85127,51.54221]],[[94.3539,51.68281],[94.34579,51.68204]],[[94.3748,51.69692],[94.36541,51.69062],[94.35618,51.68437],[94.3539,51.68281],[94.35146,51.68115]],[[94.35199,51.68055],[94.35545,51.67972]],[[94.35545,51.67972],[94.35384,51.68143],[94.35419,51.683]],[[94.35436,51.76022],[94.36017,51.7564]],[[94.35545,51.67972],[94.36375,51.67793],[94.36949,51.67809],[94.40512,51.68731]],[[94.36017,51.7564],[94.36421,51.75297],[94.3749,51.74519],[94.37887,51.74295],[94.37978,51.7426],[94.38087,51.74232],[94.39653,51.73884]],[[94.41203,51.73404],[94.4098,51.735],[94.40148,51.7378],[94.39656,51.7389],[94.3878,51.74101],[94.37927,51.74282],[94.36017,51.7564]],[[94.40493,51.70633],[94.3956,51.70494],[94.3905,51.70256],[94.37866,51.7004],[94.3748,51.69692]],[[94.40569,51.70174],[94.39782,51.70199],[94.38708,51.69912],[94.37506,51.69692],[94.37493,51.69691],[94.3748,51.69692]],[[94.39653,51.73884],[94.39656,51.7389]],[[94.39653,51.73884],[94.4117,51.73376]],[[94.40493,51.70633],[94.4062,51.70636]],[[94.40604,51.70678],[94.40493,51.70633]],[[94.40512,51.68731],[94.40639,51.68747]],[[94.40622,51.68787],[94.40512,51.68731]],[[94.40628,51.70189],[94.40569,51.70174]],[[94.40569,51.70174],[94.40621,51.70151]],[[94.40708,51.70735],[94.40619,51.70685]],[[94.40625,51.70148],[94.40648,51.70109]],[[94.40626,51.68791],[94.40622,51.68787],[94.40618,51.68778],[94.40621,51.68761],[94.40656,51.68742],[94.40722,51.68768],[94.40626,51.68791]],[[94.40661,51.68853],[94.40626,51.68791]],[[94.4063,51.70634],[94.40635,51.70192]],[[94.40648,51.70109],[94.40681,51.70145]],[[94.40648,51.70109],[94.40661,51.68853]],[[94.40701,51.688],[94.40661,51.68853]],[[94.40681,51.70145],[94.40687,51.70188],[94.40647,51.70195],[94.40628,51.70189],[94.40614,51.70178],[94.40625,51.70148],[94.40681,51.70145]],[[94.40687,51.70188],[94.40681,51.70655]],[[94.40682,51.70662],[94.40708,51.70735]],[[94.43411,51.70474],[94.4069,51.70186]],[[94.40694,51.70153],[94.40779,51.70173],[94.41882,51.70277],[94.42241,51.70317],[94.42428,51.70337],[94.42627,51.70359],[94.42764,51.70373],[94.42801,51.70377],[94.4286,51.70383],[94.42887,51.70387],[94.42904,51.70389],[94.43219,51.70421],[94.43344,51.70435],[94.43414,51.70427]],[[94.40814,51.68787],[94.40705,51.68798]],[[94.40708,51.70735],[94.41824,51.71403]],[[94.40714,51.68755],[94.40814,51.68787]],[[94.40814,51.68787],[94.43355,51.69022]],[[94.4093,51.70188],[94.40927,51.70201]],[[94.41185,51.73351],[94.40948,51.72659],[94.40905,51.72453],[94.40921,51.72352],[94.41023,51.72217],[94.4169,51.71691]],[[94.41759,51.71719],[94.40933,51.72373],[94.41239,51.73343]],[[94.41417,51.70235],[94.41414,51.70247]],[[94.41725,51.71659],[94.41758,51.71634]],[[94.41758,51.71634],[94.4178,51.71669]],[[94.41824,51.71403],[94.41758,51.71634]],[[94.41841,51.71699],[94.41765,51.71718]],[[94.41784,51.71671],[94.41841,51.71699]],[[94.47225,51.71708],[94.45524,51.71661],[94.44338,51.71533],[94.43939,51.71491],[94.43916,51.71489],[94.43887,51.71485],[94.43573,51.71454],[94.43541,51.7145],[94.43241,51.71419],[94.43216,51.71417],[94.42879,51.71383],[94.42744,51.71372],[94.41824,51.71403]],[[94.41841,51.71699],[94.43099,51.71835]],[[94.42798,51.70391],[94.42801,51.70377]],[[94.42883,51.704],[94.42887,51.70387]],[[94.43074,51.70406],[94.43071,51.7042]],[[94.43099,51.71835],[94.43761,51.71907],[94.43818,51.71918],[94.44406,51.71983],[94.45422,51.7209],[94.45713,51.71932],[94.4724,51.71775]],[[94.43099,51.71835],[94.43148,51.71668],[94.43195,51.7149],[94.43212,51.71432],[94.43216,51.71417],[94.43221,51.71402],[94.43248,51.71306],[94.4328,51.7118],[94.43296,51.71029],[94.43446,51.70518]],[[94.43355,51.69022],[94.43443,51.69011]],[[94.43439,51.69054],[94.43355,51.69022]],[[94.43421,51.70479],[94.43411,51.70474],[94.43404,51.70467],[94.43398,51.7045],[94.43422,51.70423],[94.43505,51.70445],[94.43485,51.70477],[94.43452,51.70485],[94.43421,51.70479]],[[94.43446,51.70518],[94.43421,51.70479]],[[94.43422,51.70423],[94.43457,51.70393]],[[94.43439,51.69054],[94.43461,51.69004],[94.43532,51.69026],[94.43499,51.69065],[94.43439,51.69054]],[[94.43479,51.69117],[94.43444,51.69058]],[[94.43474,51.70482],[94.43446,51.70518]],[[94.43449,51.69009],[94.43483,51.6896]],[[94.43457,51.70393],[94.45182,51.70182],[94.47328,51.7034],[94.50402,51.70312],[94.51284,51.70315],[94.53452,51.7029],[94.56564,51.69539],[94.58541,51.69205],[94.59394,51.69174]],[[94.43457,51.70393],[94.43479,51.69117]],[[94.43519,51.69057],[94.43479,51.69117]],[[94.43483,51.6896],[94.4352,51.69013]],[[94.43483,51.6896],[94.43476,51.67826],[94.4283,51.65425],[94.42898,51.64727],[94.43174,51.64192],[94.54194,51.53317],[94.57233,51.50989],[94.64936,51.45422],[94.68239,51.43639],[94.71707,51.40847],[94.72244,51.40022],[94.72983,51.37699],[94.73322,51.37215],[94.73835,51.36768],[94.75485,51.35581],[94.78188,51.33862],[94.79833,51.32349],[94.88848,51.27558],[94.98102,51.20445],[95.01973,51.16178],[95.03424,51.13704],[95.04934,51.1249],[95.05917,51.11359],[95.06709,51.09964],[95.0803,51.08809],[95.08897,51.06808],[95.13671,51.01962],[95.13952,51.01608],[95.15752,50.99203],[95.15825,50.99115],[95.17183,50.98497],[95.17616,50.98057],[95.18707,50.94566],[95.19722,50.87595],[95.20124,50.87104],[95.24654,50.83334],[95.24939,50.82857],[95.26484,50.78617],[95.28593,50.76814],[95.29176,50.75283],[95.30234,50.74513],[95.30621,50.73242],[95.30276,50.72524],[95.30275,50.72222],[95.30876,50.71567],[95.32243,50.69518],[95.32548,50.65544],[95.32424,50.64175],[95.32127,50.63736],[95.30944,50.63715],[95.29829,50.63277],[95.27573,50.62979],[95.26455,50.62357],[95.25379,50.62155],[95.2403,50.62209],[95.22693,50.62531],[95.19745,50.62258],[95.19156,50.62387],[95.18934,50.62731],[95.18732,50.62553],[95.17962,50.62316],[95.12879,50.62595],[95.09574,50.6255],[95.07437,50.62709],[95.05846,50.62293],[95.04619,50.61775],[95.02741,50.61283],[95.01867,50.6093],[94.99342,50.60641],[94.97908,50.59573],[94.96849,50.5808],[94.96154,50.57501],[94.93657,50.56208],[94.91933,50.56255],[94.91231,50.55591],[94.90067,50.54816],[94.87847,50.53043],[94.88182,50.52255],[94.88819,50.5161],[94.89193,50.50828],[94.89574,50.47907],[94.89701,50.47603],[94.91567,50.46776],[94.92086,50.46382],[94.93568,50.46088],[94.94484,50.4537],[94.94776,50.45395],[94.95435,50.45793],[94.96481,50.45872],[94.98251,50.46362],[94.98762,50.46221],[94.99987,50.45325],[95.04045,50.41974],[95.06387,50.3862],[95.07117,50.38072],[95.10298,50.35184],[95.10574,50.34712],[95.12103,50.30107],[95.12726,50.29254],[95.14029,50.28044],[95.1426,50.27121],[95.13888,50.26498],[95.14009,50.26137],[95.14668,50.2567],[95.15877,50.2548],[95.19542,50.23987],[95.22148,50.22336],[95.22926,50.21049],[95.25166,50.18469],[95.25549,50.17855],[95.26777,50.17133],[95.27767,50.16324],[95.28522,50.15458],[95.29088,50.14373],[95.29309,50.1414],[95.3147,50.13719],[95.35264,50.11975],[95.3693,50.1149],[95.3839,50.10576],[95.39695,50.10333],[95.42725,50.09328],[95.47095,50.06358],[95.47889,50.05728],[95.48048,50.05126],[95.48753,50.04205],[95.48904,50.02027],[95.50522,49.99025],[95.52769,49.98276],[95.62641,49.95716]],[[94.43494,51.70472],[94.43766,51.71059]],[[94.59394,51.69174],[94.58546,51.69214],[94.56533,51.69555],[94.56096,51.69664],[94.54753,51.69993],[94.54197,51.70129],[94.54047,51.70165],[94.5381,51.70223],[94.53467,51.70299],[94.47242,51.70349],[94.45183,51.70192],[94.43505,51.70458]],[[94.43754,51.71097],[94.43766,51.71059]],[[94.43757,51.71245],[94.43839,51.71243]],[[94.43771,51.7116],[94.43766,51.71121]],[[94.43766,51.71059],[94.43793,51.71092]],[[94.43768,51.71197],[94.43839,51.71243]],[[94.43925,51.71449],[94.43756,51.71348],[94.43749,51.71318],[94.43757,51.71245],[94.43768,51.71197]],[[94.43771,51.7116],[94.43768,51.71197]],[[94.43794,51.71119],[94.43771,51.7116]],[[94.43787,51.71912],[94.43871,51.71637]],[[94.43871,51.71637],[94.43798,51.71914]],[[94.43839,51.71243],[94.43941,51.71282],[94.43925,51.71449]],[[94.43925,51.71449],[94.43916,51.71489],[94.43871,51.71637]],[[94.43928,51.71413],[94.43908,51.7142]],[[94.45593,51.71919],[94.45679,51.7194]],[[94.47225,51.71708],[94.47297,51.71711]],[[94.47254,51.71733],[94.47225,51.71708]],[[94.4724,51.71775],[94.47258,51.7175]],[[94.473,51.71766],[94.4724,51.71775]],[[94.47254,51.71733],[94.47305,51.71711],[94.47342,51.7174],[94.47293,51.71765],[94.47254,51.71733]],[[94.47404,51.7175],[94.47312,51.71764]],[[94.47339,51.71729],[94.47404,51.7175]],[[94.54192,51.70119],[94.54197,51.70129],[94.54136,51.70363],[94.54119,51.70398],[94.53728,51.70587],[94.51902,51.70856],[94.50586,51.71266],[94.47404,51.7175]],[[94.49961,51.70326],[94.49961,51.70316]],[[94.59394,51.69174],[94.68257,51.68863],[94.69388,51.68955],[94.69513,51.69011],[94.69593,51.69275],[94.71044,51.70476],[94.71975,51.70774],[94.7298,51.70727],[94.74236,51.70561],[94.77433,51.69627],[94.83567,51.66754],[94.87854,51.66192],[94.91955,51.65465],[94.94994,51.65385],[94.97524,51.64399],[94.98759,51.64579],[94.99755,51.64869],[95.00815,51.64972],[95.03379,51.64853],[95.05302,51.6431],[95.10658,51.61278],[95.12151,51.60062],[95.1837,51.57594],[95.20524,51.57316],[95.2154,51.57708],[95.22357,51.57679],[95.2373,51.57033],[95.27,51.54979],[95.2791,51.5468],[95.35988,51.54588],[95.36993,51.54893],[95.39557,51.55246],[95.41797,51.54605],[95.43102,51.54055],[95.44269,51.53746],[95.45128,51.53714],[95.45909,51.53297],[95.46269,51.52918],[95.4699,51.52699],[95.48947,51.52203],[95.5032,51.52064],[95.5141,51.51621],[95.55411,51.48811],[95.57978,51.47727],[95.58742,51.46896],[95.59949,51.46106],[95.60265,51.45966],[95.61415,51.45789],[95.60694,51.45404],[95.60388,51.45049]],[[95.60229,51.44974],[95.60127,51.44919],[95.61036,51.43562],[95.62166,51.42444],[95.62851,51.41532],[95.63842,51.40712],[95.64292,51.40642],[95.64513,51.40465],[95.65227,51.39528],[95.65521,51.3939],[95.65976,51.3857],[95.65683,51.38157],[95.65614,51.37694],[95.64586,51.3708],[95.61482,51.34071],[95.59898,51.32923],[95.59766,51.32476],[95.56823,51.31012],[95.56575,51.30764],[95.56208,51.30075],[95.56084,51.29811],[95.56188,51.29559],[95.57456,51.28906],[95.57778,51.28556],[95.56155,51.25451],[95.56098,51.24848],[95.5549,51.23986],[95.55679,51.23292],[95.56234,51.23045],[95.5597,51.22979],[95.55911,51.22671],[95.56208,51.22391],[95.56155,51.22127],[95.55441,51.20848],[95.54084,51.19366],[95.53991,51.19031],[95.54074,51.18357],[95.53896,51.17517],[95.53376,51.17021],[95.52867,51.16072],[95.52922,51.15736],[95.5351,51.1537],[95.539,51.14566],[95.53565,51.13963],[95.53524,51.13433],[95.52709,51.12395],[95.51911,51.11981],[95.50805,51.12235],[95.48612,51.11953],[95.45529,51.10892],[95.43915,51.09923],[95.4384,51.09708],[95.43947,51.09152],[95.43779,51.08971],[95.42693,51.09123],[95.42019,51.09013],[95.41311,51.09131],[95.39748,51.08594],[95.3918,51.08033],[95.37498,51.07862],[95.3665,51.07503],[95.36286,51.07154],[95.33463,51.07002],[95.31007,51.05366],[95.30598,51.04364],[95.2891,51.01527],[95.28785,51.01461],[95.27943,51.01813],[95.23623,51.00953],[95.22651,51.00121],[95.22224,50.99969],[95.21698,50.99955],[95.20699,51.00231],[95.19019,51.00212],[95.17788,51.00372],[95.16505,50.99268],[95.16082,50.99422],[95.15611,50.99398]],[[95.62641,49.95716],[95.62706,49.9563]],[[95.62641,49.95716],[95.62695,49.95668],[95.62706,49.9563]],[[95.62706,49.9563],[95.62724,49.95606]],[[94.40669,51.70641],[94.40661,51.70684],[94.40619,51.70685],[94.40604,51.70678],[94.40596,51.70668],[94.4062,51.70636],[94.4063,51.70634],[94.40639,51.70634],[94.40647,51.70634],[94.40669,51.70641]],[[94.41213,51.73405],[94.41207,51.73404],[94.41203,51.73404],[94.412,51.73403],[94.41188,51.73398],[94.41173,51.73385],[94.41181,51.73354],[94.41185,51.73351],[94.4119,51.73348],[94.41202,51.73344],[94.41227,51.73342],[94.41268,51.73359],[94.41213,51.73405]],[[94.41691,51.71683],[94.41711,51.71664],[94.41725,51.71659],[94.41745,51.71658],[94.41793,51.71692],[94.41691,51.71683]],[[94.43777,51.71089],[94.438,51.71096],[94.438,51.71115],[94.43752,51.71112],[94.43754,51.71097],[94.43777,51.71089]]]}},{"type":"Feature","properties":{"roadClass":"tertiary"},"geometry":{"type":"MultiLineString","coordinates":[[[90.52262,51.23862],[90.52062,51.23993],[90.48813,51.24088],[90.4739,51.24313],[90.45073,51.24362],[90.44509,51.24493],[90.43427,51.24404],[90.42716,51.24471],[90.39175,51.25007],[90.37952,51.2547],[90.36254,51.25689],[90.35754,51.26089],[90.34671,51.26076],[90.34471,51.26175],[90.34255,51.26216],[90.34063,51.26536],[90.33213,51.26908],[90.31189,51.26721],[90.3061,51.2704],[90.29302,51.28287],[90.29089,51.28992],[90.28543,51.29512],[90.28273,51.29936],[90.2826,51.30869],[90.27617,51.31224],[90.26691,51.31039],[90.26178,51.31124],[90.24115,51.30696],[90.22645,51.31159],[90.2068,51.32379],[90.20021,51.32289],[90.19771,51.32373],[90.19276,51.3211],[90.18772,51.32052],[90.18155,51.31687],[90.16727,51.31671],[90.15076,51.32018],[90.1393,51.32808],[90.11971,51.33241],[90.10804,51.33672],[90.08851,51.34163],[90.08431,51.34155],[90.08079,51.33954],[90.08044,51.338],[90.07703,51.33925],[90.06315,51.33548],[90.05094,51.33867],[90.042,51.3424],[90.02213,51.34178],[90.00933,51.3448],[89.979,51.34223],[89.96579,51.3423],[89.94624,51.33681],[89.94771,51.33272],[89.94732,51.32975],[89.94552,51.3293],[89.94572,51.32641],[89.94301,51.32416],[89.92745,51.32054],[89.91968,51.3212],[89.91711,51.31881],[89.90899,51.3168],[89.89025,51.316],[89.883,51.31785],[89.86206,51.30997],[89.85321,51.30447],[89.85312,51.30264],[89.84403,51.30003],[89.83941,51.30054],[89.83141,51.29845],[89.82661,51.29424],[89.81685,51.29003],[89.79514,51.2856],[89.78074,51.28469],[89.76744,51.28231],[89.76125,51.28293]],[[90.44852,50.35034],[90.44662,50.34245],[90.43261,50.32394],[90.43052,50.31652],[90.43361,50.31449],[90.42868,50.30588],[90.42622,50.30357],[90.42705,50.29049],[90.43353,50.28344],[90.44477,50.27864],[90.45211,50.27395],[90.46104,50.27097],[90.46239,50.26751],[90.46119,50.26552],[90.46141,50.26053],[90.46006,50.25831],[90.46001,50.25811],[90.4603,50.25583],[90.43853,50.24906],[90.43638,50.24516],[90.42702,50.24026],[90.42884,50.23889],[90.42879,50.23721],[90.4164,50.22092],[90.40328,50.21434],[90.40133,50.20932],[90.39623,50.20692],[90.40067,50.20511],[90.38495,50.19931],[90.37433,50.20072],[90.37181,50.20008],[90.37337,50.19541],[90.37672,50.19307],[90.37419,50.19131],[90.37189,50.18506],[90.35782,50.16934],[90.35089,50.16641],[90.3503,50.16245],[90.348,50.16038],[90.33476,50.15821],[90.32011,50.15317],[90.30494,50.1393],[90.29072,50.12249],[90.27239,50.11639],[90.26344,50.11659],[90.25013,50.12002],[90.2469,50.12193],[90.24185,50.12209],[90.23272,50.11722],[90.22961,50.11239],[90.21945,50.1125],[90.20509,50.10726],[90.18199,50.11336],[90.17012,50.11187],[90.15866,50.11304],[90.15638,50.11102],[90.14622,50.10922],[90.14841,50.10712],[90.14668,50.10637],[90.1406,50.10819],[90.1274,50.1045],[90.10423,50.10531],[90.09364,50.10228],[90.08688,50.1019],[90.07917,50.09554],[90.07615,50.09504],[90.07323,50.09297],[90.07129,50.09055],[90.07045,50.09143],[90.06891,50.09025],[90.06546,50.09002],[90.06347,50.0922],[90.05432,50.09118],[90.05452,50.08616],[90.0514,50.07666],[90.04125,50.0738],[90.02936,50.07505],[90.01847,50.07202],[90.01123,50.07391],[90.0064,50.06951],[89.99987,50.0671],[89.99861,50.06469],[89.99299,50.06088],[89.97793,50.05769],[89.94299,50.06043],[89.9273,50.06269],[89.91081,50.06172],[89.88576,50.06372],[89.87126,50.05725],[89.86892,50.05302],[89.86928,50.05092]],[[90.05745,50.91071],[90.07221,50.91423],[90.08977,50.92057],[90.10166,50.92988],[90.13404,50.9502],[90.14997,50.96395],[90.1505,50.96554],[90.16662,50.98035]],[[90.16662,50.98035],[90.1529,50.97978],[90.14878,50.97839],[90.14834,50.97684],[90.14614,50.97617],[90.14381,50.97636],[90.14276,50.97957],[90.13968,50.98034],[90.13899,50.98765],[90.1369,50.99308],[90.13446,50.99594],[90.12296,51.03203],[90.11457,51.03552],[90.10708,51.03569],[90.10781,51.04348]],[[90.16662,50.98035],[90.1988,51.0083],[90.20166,51.0145],[90.1966,51.01694],[90.19231,51.01691],[90.18911,51.01829]],[[90.22016,51.0081],[90.21697,51.00419],[90.2195,50.99755],[90.23237,50.99673],[90.25852,50.99885],[90.26,50.99576],[90.25969,50.97572],[90.26434,50.96846],[90.26149,50.96546],[90.26014,50.96096],[90.25405,50.9563],[90.25412,50.95537],[90.2741,50.94049],[90.29221,50.92522],[90.29454,50.92273],[90.2918,50.9185],[90.29762,50.91728],[90.3002,50.91557],[90.30285,50.90966],[90.30869,50.90209],[90.31524,50.89996],[90.3232,50.89503],[90.32974,50.89365],[90.33636,50.89465],[90.34198,50.88627]],[[90.34641,51.26088],[90.33904,51.26055],[90.33193,51.25749],[90.3228,51.25748],[90.31983,51.25517],[90.31414,51.25351],[90.3001,51.25148]],[[90.5541,51.13732],[90.52663,51.13176],[90.52339,51.13025],[90.48674,51.12785],[90.47648,51.12422],[90.4565,51.11955],[90.42532,51.12352],[90.40373,51.1186]],[[90.5541,51.13732],[90.54838,51.12926],[90.541,51.12453],[90.52848,51.10703],[90.52722,51.09932],[90.52577,51.09752],[90.45702,51.06899],[90.44202,51.03288],[90.4421,51.02755],[90.42771,50.99002],[90.42569,50.9793],[90.42791,50.97201],[90.40485,50.94514],[90.40611,50.94221],[90.40181,50.93926],[90.40714,50.93608]],[[90.44517,50.37544],[90.44406,50.37685],[90.44488,50.3788],[90.44424,50.38114],[90.42331,50.38286]],[[90.4602,50.25852],[90.47075,50.25438],[90.4763,50.25336],[90.49967,50.25383],[90.52184,50.26052],[90.57537,50.27312]],[[90.58272,51.14646],[90.56823,51.14231],[90.5655,51.14252],[90.5541,51.13732]],[[90.5703,51.16122],[90.56946,51.1609]],[[90.56994,51.16069],[90.5703,51.16122]],[[90.5703,51.16122],[90.5975,51.18482],[90.6083,51.18008],[90.61137,51.18267],[90.63778,51.18941],[90.65689,51.19882],[90.66554,51.20023],[90.70043,51.21132],[90.70376,51.21428]],[[90.5763,51.14458],[90.57795,51.14114],[90.57468,51.13716],[90.57412,51.13465],[90.57811,51.12296],[90.58284,51.11944],[90.58055,51.11653],[90.60644,51.09871],[90.61355,51.09489],[90.65281,51.07851],[90.65874,51.07873],[90.66973,51.07612],[90.67554,51.07885],[90.72127,51.05426],[90.73165,51.0517],[90.75935,51.04773],[90.77158,51.04392],[90.79539,51.0299],[90.81031,51.01964],[90.81667,51.01337],[90.82581,50.99773],[90.82825,50.99602],[90.83363,50.99462],[90.8486,50.9963]],[[90.58272,51.14646],[90.58316,51.14666]],[[90.58291,51.14676],[90.58272,51.14646]],[[90.62634,51.08997],[90.63821,51.1005]],[[90.73585,50.48422],[90.73472,50.48585],[90.73672,50.48839],[90.73693,50.4921],[90.7348,50.49554],[90.7322,50.49685],[90.73216,50.49896],[90.72473,50.50577],[90.72522,50.51252],[90.72253,50.51715],[90.713,50.52083],[90.70816,50.52004],[90.70015,50.5217],[90.69603,50.52457],[90.68158,50.5289],[90.66606,50.52793],[90.65406,50.53311]],[[90.66327,50.27387],[90.68422,50.26098],[90.70142,50.24765],[90.71889,50.24107],[90.72201,50.23868]],[[90.97735,51.29739],[90.9767,51.30111],[90.98753,51.30442],[91.02582,51.30919],[91.05609,51.3105],[91.07024,51.31349],[91.07947,51.31709],[91.08683,51.32217],[91.10012,51.32819],[91.11153,51.332],[91.11942,51.33297],[91.12458,51.33805],[91.13158,51.33939],[91.13893,51.34467],[91.16076,51.35024],[91.1705,51.35483],[91.17979,51.35766],[91.18755,51.35694],[91.20576,51.36105],[91.21329,51.36454],[91.22249,51.36574],[91.23658,51.37356],[91.24912,51.38285]],[[91.04724,51.2845],[91.05794,51.28515],[91.08644,51.29027],[91.09579,51.28608],[91.08346,51.2574],[91.07588,51.24733],[91.07896,51.23848]],[[91.10623,50.86961],[91.09987,50.87407],[91.08236,50.89371],[91.07475,50.89763],[91.06855,50.90281],[91.06622,50.90638],[91.06551,50.91034],[91.06286,50.9128],[91.06022,50.91872],[91.06037,50.92912],[91.05448,50.94014],[91.05396,50.94472],[91.05191,50.94768],[91.05324,50.94893],[91.0543,50.95686],[91.0517,50.96008],[91.05103,50.96482],[91.04795,50.97252],[91.04594,50.97489],[91.04573,50.97945],[91.04132,50.9892],[91.0376,51.009],[91.03544,51.01621],[91.03448,51.0167],[91.03447,51.02191],[91.02267,51.04323],[91.01839,51.04762],[91.01569,51.0488],[91.01228,51.04856],[91.01052,51.04983],[91.00357,51.06421],[91.00316,51.07207],[91.00444,51.07449],[91.02125,51.08747],[91.02494,51.09323],[91.04218,51.11335],[91.058,51.13856],[91.0586,51.1491],[91.05375,51.15605],[91.05142,51.16292],[91.05201,51.17523],[91.0541,51.182],[91.05062,51.18664],[91.04987,51.19242],[91.05269,51.19642],[91.05133,51.20131],[91.05325,51.2082],[91.05062,51.2125],[91.04929,51.21753],[91.05648,51.22157],[91.05785,51.22495]],[[91.14272,51.40401],[91.16076,51.40304],[91.16782,51.39953],[91.17741,51.39968],[91.19108,51.39647],[91.20417,51.39615],[91.24912,51.38285]],[[91.25017,51.38365],[91.24912,51.38285]],[[91.24912,51.38285],[91.24996,51.38265]],[[91.27727,51.40041],[91.2963,51.40713],[91.30464,51.41163],[91.33236,51.42075],[91.35856,51.43887],[91.3753,51.44709],[91.38212,51.45831],[91.38284,51.4619],[91.38206,51.46512],[91.38284,51.46896],[91.37847,51.4768],[91.37879,51.4778],[91.39501,51.49382],[91.39882,51.50314],[91.40823,51.50532],[91.40962,51.50763],[91.40779,51.51471],[91.40316,51.52011],[91.40278,51.52438],[91.40521,51.52594],[91.40576,51.52814],[91.40565,51.53123],[91.40312,51.53534],[91.40274,51.54441],[91.40379,51.54769],[91.40247,51.54876],[91.4041,51.55204],[91.40294,51.55598],[91.41918,51.55828],[91.42525,51.56098],[91.43435,51.56708],[91.42845,51.57608],[91.42578,51.5781],[91.42457,51.58206],[91.42675,51.58258],[91.43304,51.57734],[91.4361,51.57743],[91.44525,51.57369],[91.46457,51.56947]],[[91.31826,51.27543],[91.31505,51.25424],[91.31664,51.24545],[91.31202,51.23511],[91.30945,51.22368],[91.31444,51.21299],[91.31272,51.20591],[91.28824,51.20177],[91.27212,51.18708],[91.28276,51.16463],[91.28702,51.15986],[91.28988,51.15915],[91.29198,51.1565]],[[91.3139,51.37455],[91.3304,51.38278],[91.33241,51.38591],[91.33525,51.39896],[91.34522,51.40677],[91.36795,51.41246],[91.39045,51.42741],[91.40749,51.43681],[91.41727,51.45136],[91.42659,51.45625],[91.48105,51.45592]],[[91.32978,50.49394],[91.31978,50.49593],[91.31754,50.49774],[91.31885,50.50711],[91.32415,50.51227]],[[91.45098,51.36318],[91.43557,51.36023]],[[91.48105,51.45592],[91.47784,51.46473],[91.47711,51.47536],[91.48176,51.50375],[91.48825,51.51194],[91.49581,51.52664],[91.49965,51.53111],[91.501,51.53929],[91.51038,51.54455],[91.52001,51.5464],[91.53835,51.54725],[91.585,51.55795],[91.59998,51.56741],[91.59969,51.57232],[91.58924,51.58101]],[[91.58588,51.28963],[91.58436,51.29281],[91.57477,51.30018],[91.57127,51.30155],[91.55609,51.30575],[91.53615,51.31628],[91.52697,51.32841],[91.52065,51.33446],[91.50255,51.36327],[91.49796,51.36705],[91.49549,51.37079],[91.49724,51.38328],[91.49976,51.38949],[91.49669,51.41633],[91.48993,51.43958],[91.48105,51.45592]],[[91.55618,51.29128],[91.56887,51.2836],[91.58013,51.28839],[91.5817,51.28876],[91.58588,51.28963],[91.58998,51.29046],[91.59051,51.2906],[91.59135,51.29082],[91.59252,51.29125]],[[91.55938,51.29146],[91.5677,51.30248]],[[91.59031,51.29106],[91.59051,51.2906]],[[91.59086,51.29069],[91.59075,51.29106]],[[91.59316,51.2914],[91.59444,51.28921],[91.59784,51.28718],[91.6087,51.28318],[91.66044,51.27231],[91.71537,51.25012],[91.73054,51.24156],[91.73367,51.23432],[91.73018,51.23146]],[[91.59552,51.12156],[91.60134,51.12324],[91.61495,51.13047],[91.62218,51.12459]],[[92.33575,51.51404],[92.34933,51.52154],[92.35677,51.52916],[92.36465,51.53247],[92.3651,51.53438],[92.36234,51.53943],[92.36392,51.54932],[92.35959,51.55817],[92.35576,51.56114],[92.32558,51.57154],[92.28932,51.57988],[92.2645,51.58268],[92.24858,51.58852],[92.23646,51.59051],[92.19066,51.59737],[92.18589,51.59703],[92.17795,51.59434],[92.1557,51.59735],[92.15209,51.59861],[92.14873,51.60298],[92.14588,51.60414],[92.12703,51.60214],[92.12283,51.59903],[92.11439,51.59902],[92.10391,51.59541],[92.02606,51.59433],[92.01271,51.59556],[92.00094,51.59919],[91.9675,51.60465],[91.96225,51.60704]],[[92.08773,50.7279],[92.10861,50.73743],[92.11848,50.73661],[92.15216,50.74166],[92.20632,50.73615],[92.21627,50.73626],[92.23079,50.74396],[92.23821,50.74993],[92.24505,50.75078],[92.25254,50.75358],[92.25364,50.75468],[92.25252,50.76086],[92.25454,50.76303],[92.27201,50.76724],[92.27526,50.76958],[92.28411,50.76956],[92.28895,50.77242],[92.29195,50.77583],[92.29112,50.77953],[92.28314,50.78547],[92.28266,50.78819],[92.27768,50.7938],[92.27558,50.80318],[92.27632,50.80707],[92.27337,50.81011],[92.27269,50.81269],[92.27625,50.81925],[92.27277,50.8307],[92.2748,50.83287],[92.27503,50.83498],[92.26223,50.84164],[92.26074,50.84421],[92.25659,50.84643],[92.25587,50.84944],[92.25358,50.85224],[92.2642,50.86907],[92.26373,50.8724],[92.26832,50.88893],[92.27332,50.89013],[92.27522,50.89191],[92.28817,50.89131],[92.29752,50.89505],[92.30391,50.9023],[92.30067,50.90017],[92.29789,50.9],[92.29847,50.89879],[92.29453,50.89681],[92.2905,50.89837],[92.29132,50.90062],[92.28843,50.90379],[92.28869,50.90539],[92.30149,50.91056],[92.30201,50.91415],[92.31069,50.92265],[92.3258,50.92259],[92.32924,50.92092],[92.33275,50.92162],[92.34398,50.91885],[92.35291,50.91856],[92.36467,50.92273],[92.36783,50.92526],[92.37098,50.92566],[92.37364,50.9236],[92.37863,50.92433],[92.38645,50.92235],[92.39318,50.92365],[92.39868,50.92104],[92.40088,50.91786],[92.40377,50.91805],[92.40805,50.91638],[92.41391,50.90837],[92.41466,50.90482],[92.42477,50.89634],[92.42079,50.8948],[92.42086,50.89082],[92.41774,50.88284],[92.41956,50.88003],[92.41791,50.87793],[92.41926,50.87679],[92.4168,50.87154],[92.42458,50.8662],[92.42887,50.8656],[92.44398,50.85952],[92.45335,50.84849],[92.45803,50.84578],[92.46693,50.83768],[92.47268,50.83003],[92.49776,50.81705],[92.52064,50.80253],[92.52494,50.80279],[92.52985,50.80518],[92.536,50.80542],[92.54288,50.80463],[92.55531,50.79992],[92.56762,50.801],[92.59508,50.8089],[92.60497,50.81052],[92.60976,50.80936],[92.61105,50.81062],[92.6118,50.81528],[92.61428,50.81618],[92.66114,50.81363],[92.66314,50.81247],[92.67512,50.81937],[92.6823,50.81827],[92.67961,50.81296],[92.70734,50.81391],[92.70925,50.8068],[92.70838,50.80042],[92.71895,50.80039],[92.72871,50.80154],[92.73286,50.80347],[92.74262,50.8051],[92.76008,50.8102],[92.76282,50.81269],[92.76527,50.82432],[92.78031,50.82998],[92.82452,50.83883],[92.83654,50.83977],[92.85296,50.83883],[92.87948,50.83254],[92.90437,50.8228],[92.91849,50.81938],[92.92968,50.81845],[92.93693,50.8153],[92.94798,50.81289],[92.95185,50.81335],[92.95559,50.81142],[92.97325,50.81783],[92.99038,50.82084],[92.99406,50.81866],[93.00629,50.80729],[93.01073,50.80028],[93.02002,50.79623],[93.02226,50.79237],[93.02952,50.78545],[93.02854,50.78215],[93.03216,50.77978],[93.03414,50.77575],[93.03769,50.77377],[93.03759,50.77081],[93.0412,50.76872],[93.04216,50.76421],[93.08983,50.7551],[93.10995,50.74937],[93.13015,50.74075],[93.14825,50.73716],[93.16307,50.73041],[93.17582,50.72712],[93.20112,50.71637],[93.22302,50.71201],[93.2406,50.71127]],[[92.21457,51.39385],[92.20837,51.39906],[92.20047,51.39885]],[[92.26529,51.47705],[92.26613,51.48027],[92.27845,51.48148],[92.28978,51.48124],[92.29425,51.4836],[92.31317,51.48815]],[[92.29174,50.77543],[92.29375,50.77762],[92.29703,50.77858],[92.30367,50.77772],[92.31335,50.77869],[92.31748,50.77555],[92.32513,50.77209],[92.33795,50.77045],[92.34315,50.76778],[92.36436,50.77591],[92.40232,50.77995],[92.4394,50.78666],[92.47094,50.78967],[92.48954,50.79505],[92.49563,50.79854],[92.50759,50.80165],[92.52091,50.80247]],[[92.33235,51.51628],[92.3406,51.51076]],[[92.45504,51.3816],[92.45623,51.37832],[92.45242,51.3747],[92.45449,51.36994],[92.44795,51.36231],[92.44868,51.35313],[92.45044,51.35105],[92.45081,51.34266],[92.46617,51.32716],[92.46658,51.32246],[92.4684,51.32073],[92.47242,51.32031],[92.47845,51.3223]],[[92.7055,51.40525],[92.7071,51.40751],[92.70526,51.40996],[92.63205,51.42686],[92.62928,51.43009],[92.62681,51.43118],[92.61986,51.43042],[92.61544,51.42844],[92.61254,51.42879],[92.60205,51.42543],[92.59084,51.43525]],[[92.93874,51.57889],[92.93784,51.57955],[92.94017,51.58098],[92.92597,51.59649],[92.91245,51.62228],[92.90905,51.62601],[92.8485,51.6515],[92.83669,51.65462],[92.82046,51.64983],[92.80582,51.64725],[92.79008,51.63853],[92.69818,51.61194],[92.68098,51.61025],[92.67589,51.61079],[92.6733,51.61328]],[[92.84433,51.41151],[92.84217,51.41009],[92.82582,51.38924],[92.81701,51.38591],[92.81538,51.38374],[92.81347,51.37497],[92.81329,51.35449],[92.81613,51.3427],[92.82396,51.32628]],[[92.91677,51.53905],[92.87253,51.5372],[92.85931,51.53527],[92.85836,51.53199],[92.86503,51.52072],[92.86458,51.5185],[92.8669,51.5155],[92.86804,51.51021],[92.87195,51.50316],[92.8742,51.48745],[92.88195,51.46558],[92.88172,51.46091],[92.87106,51.43686],[92.87098,51.4313],[92.8679,51.4254],[92.85824,51.41861],[92.84433,51.41151]],[[92.84433,51.41151],[92.87621,51.38761],[92.88514,51.37523]],[[92.92905,51.52273],[92.91856,51.53163],[92.91729,51.53886]],[[92.91766,51.53914],[92.98063,51.54247]],[[92.91766,51.53914],[92.9172,51.53943],[92.91674,51.53914],[92.91677,51.53905],[92.91683,51.53897],[92.9172,51.53886],[92.91766,51.53914]],[[92.95758,51.54129],[92.95772,51.54834],[92.95398,51.55341],[92.95141,51.56163],[92.95288,51.56837],[92.95216,51.57387],[92.94111,51.57676]],[[93.01333,51.54428],[93.01964,51.49686],[93.00993,51.47882],[93.0161,51.47336],[93.03243,51.46555],[93.04772,51.4566],[93.04617,51.45155],[93.05646,51.44362]],[[93.13378,51.55917],[93.13438,51.565]],[[93.2406,50.71127],[93.24066,50.70568],[93.23555,50.69985]],[[94.31831,50.68149],[94.20938,50.69735],[94.18541,50.69865],[94.14985,50.70375],[94.13147,50.70782],[94.09804,50.7206],[94.06762,50.72881],[94.03232,50.73642],[94.02559,50.73487],[93.99416,50.7159],[93.96414,50.70912],[93.94951,50.70283],[93.92316,50.69544],[93.88181,50.69318],[93.85887,50.68919],[93.83737,50.68712],[93.81471,50.67991],[93.7782,50.67598],[93.75712,50.66621],[93.74063,50.66073],[93.70332,50.6536],[93.62126,50.67089],[93.38588,50.68665],[93.35054,50.69986],[93.34649,50.70554],[93.34373,50.70656],[93.30693,50.7034],[93.28361,50.70308],[93.25532,50.71068],[93.2406,50.71127]],[[93.27718,51.07411],[93.28561,51.07513],[93.29853,51.08241],[93.30142,51.08604],[93.30067,51.09441],[93.30245,51.09775],[93.30947,51.10227],[93.31872,51.11222],[93.33409,51.11517],[93.34452,51.11331],[93.35592,51.11468],[93.38167,51.1305],[93.38725,51.14533],[93.39653,51.15484],[93.39886,51.16179],[93.40303,51.16879],[93.40811,51.17227],[93.40689,51.17392],[93.41037,51.17599],[93.49071,51.18617],[93.52373,51.1889],[93.53696,51.19315],[93.54066,51.19324],[93.55264,51.19219],[93.57487,51.18626],[93.59379,51.18341],[93.61875,51.17559],[93.63499,51.17285],[93.64119,51.16764],[93.6599,51.16346]],[[93.33854,51.55882],[93.33728,51.56686]],[[93.40797,52.0697],[93.41238,52.06751],[93.42512,52.05678],[93.43129,52.0486],[93.4338,52.04726],[93.47461,52.04363],[93.48889,52.04462],[93.52237,52.04415],[93.59552,52.06112],[93.60098,52.06079],[93.60491,52.05707],[93.61407,52.06066],[93.61762,52.0589],[93.62992,52.06102]],[[93.54984,51.62322],[93.54146,51.65244],[93.54355,51.65375],[93.54331,51.65666],[93.53834,51.66638],[93.52365,51.70906]],[[93.54984,51.62322],[93.56811,51.63355],[93.57681,51.63498],[93.59223,51.64048],[93.60115,51.64139],[93.60616,51.64319],[93.6133,51.64241],[93.6268,51.64421],[93.63858,51.63973],[93.65378,51.64361],[93.66087,51.64361],[93.69074,51.63699],[93.71149,51.63488],[93.71822,51.63138],[93.74142,51.62924],[93.77579,51.61806],[93.818,51.61125],[93.90857,51.58336],[93.92741,51.58018],[93.94119,51.57632],[93.94725,51.57888],[93.98509,51.57172],[94.00811,51.57184],[94.02139,51.56896],[94.03831,51.56835],[94.05036,51.57204],[94.06464,51.57853],[94.09894,51.6005],[94.15795,51.62595],[94.16482,51.63778],[94.17281,51.64383],[94.18059,51.64553],[94.19212,51.65242],[94.21291,51.65731],[94.22162,51.66057],[94.22758,51.6642],[94.23955,51.66731],[94.24955,51.67199],[94.25402,51.67526],[94.27959,51.68314],[94.31288,51.70444]],[[93.55399,51.5783],[93.54984,51.62322]],[[93.62375,51.95656],[93.63061,51.96061],[93.64705,51.97806],[93.66276,51.99183],[93.66867,52.00089],[93.68602,52.00701],[93.68526,52.01208],[93.67525,52.03255],[93.67977,52.03963],[93.67959,52.04202],[93.66733,52.0522],[93.65325,52.05905],[93.63549,52.06026]],[[93.63343,52.06281],[93.62992,52.06102]],[[93.63549,52.06026],[93.62992,52.06102]],[[93.85995,52.15508],[93.85003,52.14946],[93.7699,52.1178],[93.76434,52.11769],[93.74749,52.11195],[93.69583,52.08849],[93.69191,52.08519],[93.64502,52.07326],[93.63343,52.06281]],[[93.63549,52.06026],[93.63343,52.06281]],[[93.68021,51.14592],[93.67809,51.14064],[93.68158,51.13525],[93.68572,51.13157],[93.68537,51.12974],[93.68236,51.12796],[93.68501,51.12548],[93.6941,51.12717],[93.69819,51.13299]],[[93.70789,52.24126],[93.72154,52.23269]],[[93.89834,51.37351],[93.91352,51.37063],[93.92455,51.37104],[93.96004,51.36804],[93.96449,51.36661],[93.96385,51.36356]],[[93.90652,52.13842],[93.91162,52.14209],[93.91343,52.14839],[93.92659,52.14691]],[[93.92659,52.14691],[93.92298,52.13688],[93.91815,52.13668],[93.91492,52.13517]],[[93.94106,52.22926],[93.93875,52.23165],[93.94244,52.24189],[93.9427,52.25053],[93.93981,52.25203],[93.92951,52.25117],[93.92496,52.25264],[93.92335,52.25433],[93.92407,52.26975],[93.92912,52.29393],[93.92636,52.2963]],[[93.92659,52.14691],[93.92972,52.15543],[93.9392,52.15793],[93.94178,52.16047],[93.94025,52.17376],[93.94679,52.19262],[93.94647,52.19769],[93.94801,52.20234],[93.9464,52.20849],[93.94326,52.2147],[93.94106,52.22926]],[[93.92659,52.14691],[93.92799,52.14679],[93.9407,52.14848],[93.93972,52.15667],[93.9385,52.1577]],[[94.46654,51.1653],[94.45976,51.16747],[94.33287,51.18663],[94.30354,51.19566],[94.28252,51.20129],[94.27262,51.20278],[94.25257,51.22456],[94.24719,51.23208],[94.21799,51.24746],[94.17822,51.25916],[94.17071,51.27205],[94.13691,51.30387],[94.11934,51.3138],[94.09831,51.32069],[94.08846,51.3252],[94.07429,51.33836],[94.07136,51.33804],[94.06485,51.33386],[94.05048,51.33554],[94.02411,51.3235],[94.01036,51.3241],[93.95652,51.29863],[93.93704,51.29119],[93.9296,51.29205]],[[93.94106,52.22926],[93.94396,52.23601],[93.9487,52.2394],[93.95842,52.24327],[93.97006,52.25022],[93.98334,52.25423],[93.98784,52.25816],[93.99113,52.26406],[93.99868,52.26777],[94.00554,52.26789],[94.01572,52.27495],[94.01725,52.27842],[94.02459,52.28465],[94.04467,52.28255],[94.05603,52.28254],[94.0696,52.28407],[94.07491,52.28665],[94.07638,52.28784],[94.07827,52.29536],[94.07767,52.30329],[94.07949,52.30823],[94.08534,52.31142],[94.08994,52.31241],[94.09175,52.31423],[94.09696,52.3156],[94.10403,52.32065],[94.12284,52.32776],[94.1288,52.33105],[94.14033,52.3339],[94.14288,52.3373],[94.14263,52.33891],[94.13255,52.35417],[94.13288,52.35822],[94.13134,52.36563],[94.12133,52.38231],[94.12327,52.38807],[94.12203,52.39454],[94.12287,52.39685],[94.13169,52.40393],[94.1656,52.41526],[94.17413,52.41582],[94.18118,52.41839],[94.19053,52.42426],[94.21527,52.42957],[94.22489,52.43281],[94.23231,52.43901],[94.24843,52.44118],[94.26291,52.44973],[94.26823,52.45085],[94.29013,52.46246],[94.29498,52.46296],[94.3046,52.46737],[94.30782,52.47341],[94.31532,52.48172],[94.32105,52.48572],[94.32736,52.48736],[94.34152,52.49849],[94.37825,52.51413],[94.40521,52.51803],[94.41359,52.52705],[94.41966,52.52962],[94.42252,52.5371],[94.42261,52.54355],[94.4285,52.55421],[94.42926,52.55923],[94.43432,52.56578],[94.43458,52.56933],[94.43618,52.57133],[94.43576,52.57353],[94.44326,52.57988],[94.46246,52.58024],[94.47358,52.58407],[94.48395,52.59226],[94.49423,52.59677],[94.51462,52.5995],[94.54569,52.60892],[94.55503,52.61274]],[[94.07536,51.338],[94.07067,51.34322],[94.06599,51.34321],[94.06303,51.34896],[94.0542,51.35627],[94.0557,51.36436],[94.07725,51.37956],[94.09627,51.38316],[94.1017,51.38993],[94.12025,51.40305],[94.1598,51.42682],[94.16694,51.43453],[94.17568,51.43819],[94.17647,51.44164],[94.17911,51.44547],[94.18475,51.45011],[94.19064,51.48036],[94.18867,51.48279],[94.18233,51.48396],[94.1793,51.4904],[94.16812,51.49734],[94.157,51.50633],[94.14541,51.51979],[94.13134,51.53283],[94.12673,51.54304],[94.121,51.55016],[94.11349,51.55303],[94.11163,51.55474],[94.11087,51.5603],[94.10745,51.56568],[94.10349,51.56801],[94.09894,51.56894]],[[94.32877,51.81895],[94.32674,51.82261],[94.31145,51.83644],[94.29933,51.84208],[94.29262,51.84949],[94.28632,51.85419],[94.2805,51.85643],[94.2426,51.88272],[94.21889,51.88577],[94.20659,51.88891],[94.20355,51.89033],[94.20177,51.89532],[94.20666,51.89947],[94.20618,51.9013],[94.19939,51.90227],[94.18939,51.9017],[94.17841,51.904],[94.17281,51.90667],[94.17289,51.91107],[94.16898,51.91124],[94.15749,51.91523],[94.15173,51.91451],[94.1474,51.91599],[94.13982,51.93039],[94.12971,51.9368],[94.12754,51.94007],[94.12715,51.94229],[94.13047,51.95024],[94.1286,51.95529],[94.12713,51.95672],[94.11707,51.95897],[94.11154,51.96164],[94.1071,51.96713],[94.09702,51.97224],[94.09532,51.97581],[94.09083,51.97737],[94.10157,51.97648],[94.10722,51.97462],[94.09688,51.98059],[94.09039,51.98234],[94.08688,51.98517],[94.07918,52.00277],[94.08605,52.0414],[94.08119,52.05078],[94.07849,52.0522]],[[94.16425,52.0566],[94.16851,52.06379]],[[94.27012,51.64905],[94.27455,51.65225],[94.28097,51.64909],[94.28781,51.64853]],[[94.30809,51.67799],[94.30525,51.67706],[94.29863,51.6798]],[[94.30635,51.67558],[94.30563,51.67705]],[[94.30809,51.67799],[94.30635,51.67558]],[[94.30635,51.67558],[94.29944,51.67279],[94.3149,51.66152]],[[94.91871,50.56219],[94.8768,50.57225],[94.86598,50.57316],[94.84982,50.5703],[94.84212,50.56765],[94.79756,50.54224],[94.76125,50.51979],[94.75469,50.5139],[94.74709,50.51039],[94.74474,50.50638],[94.73876,50.50581],[94.73102,50.50627],[94.72582,50.50987],[94.72208,50.5104],[94.71208,50.51009],[94.70597,50.50731],[94.69208,50.50583],[94.68177,50.5073],[94.6628,50.51296],[94.65037,50.51427],[94.61717,50.51477],[94.6091,50.51596],[94.49169,50.51727],[94.34055,50.51555],[94.33866,50.51481],[94.30644,50.52476]],[[94.33851,51.67365],[94.32948,51.67985],[94.31936,51.68281],[94.30809,51.67799]],[[94.31821,51.69684],[94.32009,51.69893],[94.32403,51.70043],[94.32837,51.7006],[94.32941,51.69837],[94.33216,51.69796],[94.33792,51.69783],[94.3439,51.69914],[94.35061,51.70258],[94.35037,51.70388],[94.35909,51.70643],[94.35836,51.70861],[94.36169,51.71037],[94.37377,51.71126],[94.37463,51.7121],[94.37472,51.71676],[94.38265,51.71788],[94.38434,51.7162],[94.39278,51.71908],[94.39458,51.71676],[94.40985,51.7228]],[[94.31831,50.68149],[94.38444,50.7191],[94.40372,50.73169],[94.40831,50.73679],[94.41251,50.7373],[94.41412,50.73989]],[[94.31831,50.68149],[94.34222,50.67523],[94.38252,50.66216],[94.43149,50.65099],[94.48381,50.63397],[94.55083,50.62147],[94.60424,50.62232],[94.63158,50.62408],[94.68716,50.61973],[94.72074,50.61955],[94.75416,50.62576],[94.76653,50.62621],[94.78856,50.61991],[94.80091,50.62018],[94.81556,50.62319],[94.86172,50.61639],[94.93474,50.61514],[94.96093,50.61573],[94.9793,50.612],[94.98929,50.60801],[94.99811,50.6059],[95.00669,50.60152]],[[94.48637,51.15436],[94.46851,51.15957],[94.46469,51.16214],[94.46665,51.164],[94.46665,51.16454],[94.46654,51.1653],[94.4664,51.16627],[94.46616,51.16763],[94.4661,51.16835],[94.4661,51.17021],[94.46594,51.17052],[94.44942,51.18326],[94.4294,51.20126],[94.41598,51.20735],[94.41127,51.21087],[94.40596,51.2123],[94.38871,51.231],[94.36002,51.23952],[94.35241,51.24064],[94.34556,51.24378],[94.32842,51.24851],[94.32505,51.25313],[94.3266,51.257]],[[94.33851,51.67365],[94.3385,51.6728]],[[94.33851,51.67365],[94.33917,51.67319]],[[94.33917,51.67319],[94.33913,51.67329],[94.33851,51.67365]],[[94.33997,51.6735],[94.33851,51.67365]],[[94.33917,51.67319],[94.33924,51.67314]],[[94.40535,51.67767],[94.40458,51.67643],[94.4072,51.68068],[94.4068,51.68698]],[[94.40639,51.68747],[94.4068,51.68698]],[[94.40642,51.69639],[94.41751,51.69744]],[[94.40658,51.70574],[94.41686,51.70693],[94.41712,51.70696],[94.41734,51.70699],[94.42716,51.7082]],[[94.4068,51.68698],[94.4071,51.68752]],[[94.41025,51.70977],[94.41015,51.70918]],[[94.41666,51.71647],[94.41094,51.71291],[94.41025,51.70977]],[[94.41065,51.70947],[94.41025,51.70977]],[[94.41263,51.73354],[94.4133,51.73367]],[[94.4133,51.73367],[94.41269,51.73387]],[[94.4133,51.73367],[94.41487,51.73363],[94.41603,51.734],[94.42674,51.74117],[94.43977,51.75326],[94.44222,51.75647],[94.44357,51.76307],[94.44895,51.76689],[94.45186,51.77252],[94.46202,51.84267],[94.46793,51.84721],[94.46483,51.85048],[94.46418,51.85306],[94.4694,51.8646],[94.47005,51.8851],[94.47169,51.88796],[94.47047,51.89072]],[[94.41666,51.71647],[94.41721,51.7166]],[[94.4169,51.71686],[94.41666,51.71647]],[[94.41789,51.6976],[94.41751,51.69744]],[[94.41751,51.69744],[94.41793,51.69737]],[[94.41817,51.69784],[94.41796,51.69763]],[[94.41808,51.69734],[94.41855,51.69728]],[[94.41817,51.69784],[94.41766,51.7001],[94.41873,51.70134],[94.41831,51.70287],[94.41717,51.70683],[94.41712,51.70696],[94.41708,51.7071],[94.41642,51.70946],[94.42336,51.71028]],[[94.41826,51.6976],[94.41817,51.69784]],[[94.41824,51.71403],[94.42414,51.7176],[94.42573,51.71164],[94.42312,51.71135],[94.42404,51.70782]],[[94.41833,51.69751],[94.41804,51.69765],[94.41789,51.6976],[94.41783,51.6975],[94.41833,51.69751]],[[94.41855,51.69728],[94.41833,51.69751]],[[94.43468,51.69769],[94.4206,51.69669],[94.41855,51.69728]],[[94.45176,51.69191],[94.4516,51.70872],[94.45158,51.70881],[94.45153,51.70889],[94.45148,51.70895],[94.45145,51.70901],[94.45108,51.71052],[94.45069,51.71198],[94.45047,51.7128],[94.44995,51.71465],[94.44804,51.72171],[94.44453,51.72134],[94.44437,51.72132],[94.44101,51.72097],[94.44087,51.72095],[94.43777,51.72063],[94.43734,51.72058],[94.43647,51.7205],[94.43512,51.72035],[94.43405,51.72024],[94.4331,51.72014],[94.43192,51.72001],[94.43057,51.71988],[94.42738,51.71955],[94.42065,51.71883],[94.42107,51.71729]],[[94.44567,51.71703],[94.42487,51.71508]],[[94.42716,51.7082],[94.43346,51.70899],[94.43597,51.7082]],[[94.42716,51.7082],[94.42834,51.70433]],[[94.42834,51.70433],[94.42798,51.70391]],[[94.42883,51.704],[94.42834,51.70433]],[[94.4286,51.70383],[94.42853,51.70408]],[[94.43057,51.71988],[94.43099,51.71835]],[[94.43484,51.70649],[94.43422,51.70643]],[[94.43436,51.70579],[94.43484,51.70649]],[[94.43706,51.72196],[94.43367,51.72162],[94.43389,51.72081],[94.43405,51.72024],[94.43414,51.7199],[94.43441,51.71891],[94.4345,51.71873]],[[94.43539,51.70653],[94.43484,51.70649]],[[94.435,51.63816],[94.45809,51.64641],[94.46566,51.64665],[94.51467,51.6353],[94.52371,51.63506],[94.52884,51.63765],[94.53059,51.64067],[94.5342,51.64249],[94.55988,51.6632],[94.56428,51.66489],[94.57488,51.66643],[94.60201,51.65856],[94.62234,51.65866],[94.6278,51.65748],[94.63705,51.66894],[94.63343,51.67469],[94.62649,51.69062]],[[94.43598,51.69043],[94.43519,51.69057]],[[94.4352,51.69013],[94.43598,51.69043]],[[94.43598,51.69043],[94.45176,51.69191],[94.47608,51.69419],[94.47368,51.70349]],[[94.43706,51.72196],[94.44062,51.72236]],[[94.44062,51.72236],[94.4403,51.72239],[94.43706,51.72196]],[[94.43794,51.71092],[94.43845,51.71093]],[[94.43845,51.71093],[94.438,51.71115]],[[94.45792,51.70796],[94.45742,51.70798],[94.45153,51.70889],[94.44495,51.70985],[94.43845,51.71093]],[[94.43936,51.71362],[94.44279,51.71389],[94.44477,51.71409],[94.44642,51.71428],[94.44995,51.71465],[94.45193,51.71486],[94.45283,51.71496],[94.45571,51.71526],[94.45653,51.71529],[94.45663,51.71529],[94.45682,51.71527],[94.46281,51.71554],[94.46545,51.71567],[94.46564,51.71569],[94.46573,51.71571],[94.46579,51.71574],[94.46608,51.71576],[94.47399,51.71533],[94.48713,51.71334]],[[94.44062,51.72236],[94.44416,51.72273],[94.44426,51.72239],[94.44451,51.72143],[94.44453,51.72134],[94.44456,51.72125],[94.44487,51.72006],[94.44496,51.71973],[94.44565,51.71713],[94.44567,51.71703],[94.4457,51.71693],[94.44594,51.71607],[94.44642,51.71428],[94.44714,51.71167],[94.44749,51.70948]],[[94.44062,51.72236],[94.44101,51.72097],[94.44142,51.71953]],[[94.44495,51.70985],[94.44377,51.70297]],[[94.60631,51.48535],[94.58703,51.4741],[94.56419,51.45153],[94.55866,51.44768],[94.55651,51.43463],[94.55901,51.42692],[94.55426,51.41608],[94.5521,51.41345],[94.47363,51.37268],[94.46439,51.36737],[94.45224,51.35761],[94.4453,51.35658]],[[94.44714,51.71167],[94.45069,51.71198],[94.45358,51.71221],[94.45678,51.71252],[94.45712,51.71259],[94.45726,51.71263],[94.45746,51.71264],[94.46455,51.71256],[94.46805,51.71244],[94.47259,51.71169],[94.48569,51.70984]],[[94.45615,51.8014],[94.47326,51.8013],[94.47895,51.8063],[94.46795,51.81142]],[[94.45621,51.71965],[94.45596,51.71886],[94.45645,51.71635],[94.45663,51.71529],[94.45684,51.71411],[94.45697,51.71345],[94.45712,51.71259],[94.45729,51.71167],[94.45778,51.7092],[94.45792,51.70796]],[[94.45746,51.81093],[94.46795,51.81142],[94.46956,51.81142]],[[94.45792,51.70796],[94.46301,51.70814]],[[94.47047,51.89072],[94.45991,51.88861],[94.46012,51.88673]],[[94.46301,51.70814],[94.46282,51.70267]],[[94.46682,51.7186],[94.46671,51.71831],[94.46647,51.71768],[94.46608,51.71665],[94.46573,51.71571],[94.46553,51.71519],[94.46527,51.71449],[94.46455,51.71256],[94.46301,51.70814]],[[94.47465,51.71703],[94.47424,51.71598],[94.47399,51.71533],[94.4736,51.71431],[94.47336,51.71381],[94.47273,51.71215],[94.47259,51.71169],[94.47208,51.71038],[94.47151,51.70868],[94.47007,51.70492],[94.46973,51.70322]],[[94.47047,51.89072],[94.48093,51.89528],[94.48157,51.89839],[94.48389,51.90161],[94.50193,51.90348],[94.52577,51.89999],[94.55678,51.89772],[94.57908,51.89449],[94.57978,51.89116],[94.59168,51.89133]],[[94.4731,51.71712],[94.47465,51.71703]],[[94.47478,51.71739],[94.47465,51.71703]],[[94.48637,51.15436],[94.4964,51.1618],[94.54468,51.18026],[94.55707,51.18324],[94.58482,51.18552],[94.59438,51.18908],[94.67073,51.25232],[94.67511,51.25776],[94.72311,51.34567],[94.73322,51.37215]],[[94.48637,51.15436],[94.4924,51.15219],[94.50429,51.14559],[94.50713,51.14761],[94.51885,51.14646],[94.5164,51.14072],[94.52562,51.14177],[94.53151,51.14036],[94.53814,51.13568],[94.54227,51.13453],[94.54996,51.12841],[94.57473,51.11675],[94.59097,51.11143],[94.62545,51.09489],[94.64366,51.08352],[94.66237,51.05593],[94.67588,51.05187],[94.72013,51.04472],[94.75191,51.05638],[94.77048,51.04838],[94.80146,51.04416],[94.86697,51.02919],[94.90523,51.03899],[94.92777,51.03625],[94.9437,51.03596],[94.96472,51.04037],[94.99274,51.04116],[95.00764,51.03853],[95.03287,51.02769],[95.04885,51.01119],[95.06112,51.00597],[95.0758,51.00586],[95.11764,50.99601],[95.14232,50.99329],[95.15611,50.99398]],[[94.48796,51.71538],[94.48741,51.714],[94.4854,51.70912],[94.49112,51.70797],[94.49097,51.70323]],[[94.50371,51.71301],[94.50047,51.70325]],[[94.52099,51.70308],[94.52258,51.70791]],[[94.52222,51.70743],[94.52203,51.708]],[[94.54179,51.70181],[94.54785,51.70027]],[[94.54747,51.69984],[94.54862,51.70106],[94.54961,51.70233],[94.56106,51.70184],[94.56079,51.69598],[94.55399,51.6862],[94.55948,51.68234],[94.56771,51.68892],[94.58406,51.68776],[94.58425,51.69233]],[[94.79513,51.32629],[94.8064,51.32868]],[[94.85373,51.65546],[94.85935,51.66445]],[[94.93193,51.24237],[94.96566,51.24491],[94.9759,51.24835],[94.98638,51.24659],[94.99802,51.24621],[95.00997,51.24789],[95.05783,51.24439],[95.07517,51.24194],[95.0828,51.24297],[95.09331,51.23938]],[[95.01568,50.60863],[95.01158,50.60547],[95.00669,50.60152],[94.9983,50.5949],[94.98129,50.57578],[94.97238,50.57099],[94.96784,50.57472],[94.96321,50.57631]],[[95.09727,50.30092],[95.12212,50.29911]],[[95.1421,50.27328],[95.15297,50.2773],[95.19591,50.28461],[95.22208,50.28585],[95.26652,50.30479],[95.28068,50.30646],[95.30587,50.31157],[95.31928,50.31561],[95.32743,50.31473],[95.32912,50.3105],[95.3325,50.31005],[95.3465,50.31455],[95.36424,50.31368],[95.37362,50.31545]],[[95.18161,51.57279],[95.18561,51.57561]],[[95.18932,50.92993],[95.20061,50.92983]],[[95.22293,50.22197],[95.23773,50.21436],[95.26036,50.21529],[95.27297,50.21296],[95.27809,50.21333],[95.29832,50.21852],[95.31174,50.21948],[95.32346,50.21697],[95.34557,50.21537],[95.35735,50.21295],[95.37081,50.21407],[95.39141,50.21333],[95.4223,50.21638],[95.42878,50.21201],[95.44243,50.21074],[95.46024,50.20665],[95.47396,50.20526],[95.50598,50.2118],[95.51796,50.20835],[95.52362,50.20794],[95.5275,50.20948],[95.53331,50.20869],[95.5574,50.20007],[95.56841,50.19941]],[[95.30703,50.99718],[95.29875,50.99765],[95.29945,51.00223],[95.29566,51.00689],[95.2928,51.00862],[95.28843,51.01244],[95.28814,51.01278],[95.28662,51.0146]],[[95.28718,51.01444],[95.28694,51.01421]],[[96.12668,52.45808],[96.11994,52.4596],[96.11725,52.46086],[96.11629,52.46278],[96.11374,52.46243],[96.11389,52.4614],[96.11096,52.46023],[96.10885,52.45664],[96.10267,52.45361],[96.10463,52.45116],[96.09932,52.44631],[96.10374,52.44207],[96.10489,52.4374],[96.10368,52.43501],[96.09816,52.43294],[96.0819,52.43283],[96.07761,52.4291],[96.07876,52.42481],[96.08549,52.41708],[96.08686,52.41371],[96.08718,52.406],[96.09338,52.39166],[96.10071,52.37883],[96.09978,52.37285],[96.0931,52.36414],[96.09828,52.36015],[96.10022,52.35617],[96.09794,52.34872],[96.10187,52.34246],[96.09828,52.33612],[96.09909,52.33068],[96.10275,52.32745],[96.09347,52.32232],[96.08829,52.32315],[96.08092,52.32188],[96.07679,52.31822],[96.07358,52.31086],[96.07077,52.3101],[96.06733,52.30607],[96.06311,52.30415],[96.06145,52.29883],[96.05533,52.29232],[96.04816,52.28949],[96.02529,52.28607],[96.02396,52.28224],[96.02212,52.28128],[96.02366,52.27786],[96.02254,52.27542],[96.01794,52.2739],[96.01712,52.27218],[96.01063,52.27089],[96.00878,52.26926],[96.00564,52.26919],[96.00138,52.26672],[95.99118,52.26712],[95.99128,52.263],[95.99333,52.25989],[95.99288,52.25688],[95.99198,52.2546],[95.98801,52.25294],[95.98903,52.24934],[95.98736,52.24403],[95.98592,52.2427],[95.98754,52.24115],[95.986,52.23574],[95.98651,52.23061],[95.98836,52.2284],[95.98359,52.22642],[95.98638,52.22291],[95.97885,52.22253],[95.97276,52.22043],[95.97183,52.21921],[95.97248,52.21717],[95.98386,52.21399],[95.99019,52.20877],[95.99354,52.20758],[95.99446,52.20499],[95.99382,52.20307],[95.99727,52.20055],[95.99696,52.19786],[95.99938,52.19674],[95.99824,52.19061],[95.9969,52.18915],[95.99734,52.18714],[96.00262,52.18035],[96.00672,52.17873],[96.00418,52.17446],[95.99957,52.17113],[95.99919,52.16711],[96.00158,52.16054],[95.99994,52.15438],[95.99097,52.1447],[95.99362,52.14224],[95.99275,52.13942],[95.99564,52.1351],[96.00341,52.13392],[96.00836,52.12944],[96.00801,52.12596],[96.00409,52.12433],[96.00391,52.11958],[95.99552,52.11629],[95.99126,52.11331],[95.99132,52.11584],[95.98405,52.10901],[95.98287,52.11066],[95.97948,52.10932],[95.98092,52.10805],[95.98194,52.1041],[95.97889,52.10156],[95.9879,52.09308],[95.98953,52.08633],[95.97829,52.08673],[95.97627,52.08412],[95.96254,52.08192],[95.95558,52.0791],[95.94992,52.08012],[95.93662,52.07878],[95.93332,52.07676],[95.93262,52.07439],[95.9301,52.0733],[95.9018,52.06471],[95.8812,52.06002],[95.86687,52.05908],[95.85038,52.06054],[95.83533,52.05916],[95.83097,52.05991],[95.82878,52.06165],[95.82016,52.07121],[95.79473,52.07742],[95.78878,52.07789],[95.7792,52.07553],[95.77317,52.07584],[95.75957,52.0788],[95.75457,52.08089],[95.73779,52.08327],[95.72763,52.08248],[95.71733,52.08498],[95.69174,52.08868],[95.68751,52.08825],[95.67874,52.08313],[95.67202,52.08136],[95.66929,52.07809],[95.6655,52.0762],[95.66353,52.07044],[95.66295,52.06363],[95.64818,52.05821],[95.64532,52.05399],[95.63724,52.05346],[95.63489,52.05518],[95.62933,52.05335],[95.6201,52.0543],[95.61144,52.05224],[95.6066,52.0497],[95.59322,52.04823],[95.58881,52.04678],[95.58356,52.03424],[95.58299,52.03004],[95.57775,52.02434],[95.57895,52.01987],[95.57831,52.01718],[95.57987,52.01476],[95.57468,52.0066],[95.57787,52.00407],[95.58939,52.00224],[95.57602,51.99997],[95.5743,51.99858],[95.57352,51.99498],[95.57176,51.99502],[95.57008,51.99263],[95.5667,51.99202],[95.56619,51.99062],[95.56048,51.98774],[95.55886,51.98445],[95.55661,51.98267],[95.55709,51.97988],[95.55354,51.97277],[95.55515,51.96798],[95.55182,51.96433],[95.5522,51.96157],[95.55108,51.9587],[95.54763,51.9565],[95.54929,51.95368],[95.53906,51.95066],[95.53921,51.9482],[95.53689,51.9455],[95.53195,51.94473],[95.52214,51.94724],[95.51526,51.94641],[95.50395,51.93944],[95.49442,51.9397],[95.48609,51.93427],[95.47514,51.93304],[95.47034,51.92559],[95.46016,51.91928],[95.45507,51.91302],[95.45518,51.90952],[95.45761,51.90366],[95.46622,51.89586],[95.46761,51.89224],[95.4671,51.88535],[95.45725,51.87861],[95.43629,51.86868],[95.43831,51.86416],[95.42896,51.85681],[95.42776,51.84922],[95.42559,51.84601],[95.42323,51.83769],[95.42486,51.83381],[95.42176,51.82787],[95.41148,51.82366],[95.40752,51.82009],[95.40589,51.81112],[95.40112,51.80158],[95.40191,51.79751],[95.39877,51.78884],[95.40156,51.78476],[95.40178,51.78137],[95.4045,51.77735],[95.40565,51.7725],[95.40836,51.7694],[95.40851,51.76677],[95.41075,51.76476],[95.41307,51.75988],[95.42105,51.75202],[95.42378,51.74511],[95.42746,51.74145],[95.42742,51.72968],[95.42593,51.72581],[95.42717,51.72253],[95.42807,51.7124],[95.4276,51.69953],[95.42515,51.6972],[95.41449,51.69288],[95.38624,51.68337],[95.3757,51.67758],[95.37388,51.6753],[95.36529,51.67039],[95.3603,51.66475],[95.3509,51.65768],[95.34379,51.64848],[95.34167,51.64387],[95.34148,51.64143],[95.34281,51.63864],[95.34235,51.63396],[95.34551,51.63013],[95.34516,51.62628],[95.34652,51.62487],[95.34511,51.61998],[95.3477,51.61621],[95.3459,51.61145],[95.34254,51.60832],[95.34372,51.60668],[95.34325,51.60418],[95.3469,51.59635],[95.35796,51.58575],[95.3635,51.57568],[95.36386,51.57302],[95.36577,51.57176],[95.36481,51.56455],[95.36054,51.55795],[95.35743,51.55566],[95.35732,51.55347],[95.35885,51.55125],[95.35788,51.54884],[95.35845,51.54586]],[[95.60127,51.44919],[95.59885,51.45189],[95.59315,51.45516],[95.58092,51.45617],[95.51585,51.49987],[95.49268,51.51071],[95.4853,51.51262]],[[95.61415,51.45789],[95.61952,51.45565],[95.62517,51.44622],[95.63188,51.44349],[95.6342,51.43842],[95.64304,51.42832],[95.647,51.42181],[95.66331,51.40609],[95.67074,51.3948],[95.68059,51.38433],[95.68688,51.3801],[95.69398,51.37749],[95.70801,51.37521],[95.71627,51.37622],[95.71902,51.37441],[95.73103,51.371],[95.74245,51.3658],[95.75393,51.3557],[95.7534,51.35348],[95.75747,51.34374],[95.75529,51.33467],[95.74905,51.33254],[95.74404,51.32909],[95.74244,51.32588],[95.73503,51.32101],[95.73369,51.31759],[95.734,51.31286],[95.74556,51.30183],[95.7579,51.29356],[95.76786,51.29194],[95.77819,51.29114],[95.79145,51.29351],[95.79676,51.29336],[95.79913,51.29396],[95.79942,51.29406],[95.80022,51.29439],[95.80099,51.29467],[95.80123,51.29476],[95.80151,51.29482],[95.8062,51.29544],[95.81513,51.29807],[95.82271,51.29694],[95.82993,51.29825],[95.83148,51.29473],[95.83624,51.29323]],[[95.62724,49.95606],[95.62994,49.95583]],[[95.80099,51.29467],[95.80218,51.29397]],[[95.8033,51.29266],[95.80819,51.28963],[95.8126,51.28957],[95.8212,51.29166],[95.82413,51.29349],[95.83234,51.29223],[95.8383,51.29358],[95.84555,51.29788],[95.86359,51.30445],[95.89705,51.3191],[95.89867,51.3232],[95.90208,51.3263],[95.91233,51.32861],[95.91777,51.3269],[95.9382,51.32517],[95.94239,51.3202]],[[96.11299,52.46784],[96.10961,52.46869],[96.09853,52.47529],[96.08884,52.48417],[96.08986,52.49943],[96.08613,52.51469],[96.08031,52.52588],[96.07805,52.53279],[96.07715,52.54114],[96.07051,52.54454],[96.05851,52.54663],[96.05133,52.54995],[96.04564,52.55659],[96.04562,52.5591],[96.0473,52.5612],[96.04118,52.56593],[96.04078,52.56756],[96.03275,52.56993]],[[96.12668,52.45808],[96.11808,52.46653],[96.11757,52.4682],[96.11299,52.46784]],[[96.11299,52.46784],[96.11495,52.4626]],[[96.12668,52.45808],[96.14237,52.45193],[96.16701,52.4495],[96.17265,52.45039],[96.18572,52.45605],[96.19032,52.45947],[96.19339,52.45991],[96.2073,52.45335],[96.2487,52.44794],[96.25893,52.44316],[96.27421,52.44411],[96.29648,52.44083],[96.30464,52.43852],[96.32489,52.43945],[96.35061,52.43786],[96.35391,52.43673],[96.35856,52.43244],[96.36978,52.42527],[96.37192,52.42051],[96.39057,52.41498],[96.3969,52.41107],[96.40356,52.40921],[96.41365,52.40432],[96.42937,52.40337],[96.43657,52.39911],[96.46426,52.40287],[96.46575,52.40523],[96.46461,52.40673]]]}},{"type":"Feature","properties":{"roadClass":"trunk"},"geometry":{"type":"MultiLineString","coordinates":[[[91.49266,51.28833],[91.49161,51.28857]],[[91.49251,51.28764],[91.49266,51.28833]],[[91.49251,51.28764],[91.49191,51.28834],[91.49266,51.28833]],[[92.06967,50.7011],[92.07229,50.70804],[92.08773,50.7279],[92.03493,50.74847],[92.0143,50.76394],[92.00051,50.77581],[91.9914,50.77904],[91.97169,50.7829],[91.96153,50.78075],[91.90223,50.77835],[91.89663,50.77959],[91.88228,50.78676],[91.87839,50.7909],[91.8764,50.79778],[91.87838,50.80847],[91.87706,50.81267],[91.86968,50.82009],[91.86301,50.8212],[91.85842,50.82355],[91.85734,50.82856],[91.86092,50.83715],[91.86169,50.84236],[91.85938,50.85655],[91.85347,50.86281],[91.83735,50.87102],[91.82189,50.87639],[91.8089,50.88313],[91.80363,50.88996],[91.79901,50.89303],[91.75911,50.90018],[91.74127,50.90225],[91.72903,50.9059],[91.72256,50.91141],[91.70628,50.92046],[91.70091,50.92736],[91.69142,50.93118],[91.68475,50.93711],[91.667,50.9476],[91.65977,50.95583],[91.65275,50.95995],[91.64167,50.98149],[91.63888,50.98503],[91.64057,50.99229],[91.63958,51.00312],[91.6277,51.01562],[91.61827,51.02914],[91.61917,51.0369],[91.61821,51.05575],[91.61132,51.0633],[91.61679,51.0689],[91.62066,51.07612],[91.61707,51.08951],[91.59885,51.11759],[91.58041,51.14015],[91.57157,51.14983],[91.55308,51.16655],[91.52804,51.18739],[91.52089,51.19679],[91.51932,51.20099],[91.51959,51.20784],[91.51486,51.21552],[91.5151,51.22116],[91.50619,51.2381],[91.50635,51.24902],[91.5045,51.25387],[91.50386,51.26121],[91.49251,51.28764]],[[91.49266,51.28833],[91.49566,51.28831],[91.50052,51.28837],[91.50673,51.28865],[91.57996,51.29242],[91.59252,51.29125],[91.60846,51.29511],[91.74805,51.33877],[91.81148,51.32864],[91.84993,51.33741],[91.85961,51.33809],[91.8676,51.33709],[91.88942,51.33085],[91.95593,51.306],[91.95848,51.30424],[91.95934,51.29993],[91.962,51.29828],[91.97147,51.29747],[91.98625,51.29276],[91.99768,51.29148],[92.0188,51.2834],[92.03445,51.28354],[92.05521,51.27898],[92.06118,51.27925],[92.08422,51.28482],[92.09747,51.2899],[92.14313,51.30136],[92.16009,51.31195],[92.19706,51.36644],[92.19575,51.37403],[92.19843,51.38041],[92.21314,51.39321],[92.23262,51.40049],[92.2582,51.40382],[92.27951,51.40217],[92.35613,51.40024],[92.38445,51.40217],[92.40365,51.3944],[92.41393,51.38664],[92.42062,51.3835],[92.44593,51.38058],[92.48146,51.38531],[92.52699,51.39842],[92.59399,51.43706],[92.62711,51.44821],[92.73454,51.45669],[92.7575,51.46042],[92.77872,51.45812],[92.86989,51.48361],[92.87907,51.48884],[92.91257,51.51623],[92.97917,51.54209],[93.02676,51.54505],[93.07018,51.55731],[93.14525,51.5595],[93.2528,51.55625],[93.33093,51.55773],[93.36708,51.56276],[93.39407,51.5629],[93.40927,51.56011],[93.45867,51.55413],[93.48075,51.55345],[93.5014,51.5564],[93.51383,51.5567],[93.51915,51.55424],[93.52731,51.55347],[93.53471,51.54991],[93.54024,51.55021],[93.5471,51.55281],[93.56523,51.55524],[93.57729,51.55881],[93.58331,51.5594],[93.59413,51.55821],[93.76829,51.55683],[93.78624,51.55457],[93.79368,51.55183],[93.80475,51.55364],[93.81808,51.54923],[93.82197,51.54516],[93.83089,51.54278],[93.84956,51.54214],[93.86557,51.5434],[93.87998,51.5431],[93.92087,51.5387],[93.94685,51.53813],[94.03556,51.54485],[94.04178,51.54671],[94.06313,51.56068],[94.07501,51.56437],[94.08844,51.56623],[94.11936,51.57358],[94.14656,51.58388],[94.18023,51.6039],[94.21847,51.61495],[94.33955,51.67329],[94.34717,51.67825]],[[92.06735,50.69549],[92.06903,50.69918]],[[92.06903,50.69918],[92.06967,50.7011]],[[92.06967,50.7011],[92.06912,50.70015],[92.06903,50.69918]],[[93.57417,52.34407],[93.5723,52.34052],[93.57476,52.33006],[93.57468,52.32146],[93.57925,52.31407],[93.59433,52.29921],[93.61914,52.28829],[93.63124,52.28509],[93.64188,52.2843],[93.66254,52.28735],[93.6684,52.28677],[93.67128,52.28434],[93.67055,52.28075],[93.67224,52.27546],[93.68915,52.27058],[93.68964,52.26628],[93.69266,52.26101],[93.68119,52.25631],[93.67992,52.25422],[93.68215,52.25031],[93.68011,52.24636],[93.66779,52.23873],[93.66946,52.22997],[93.67122,52.22821],[93.6759,52.22698],[93.68056,52.22808],[93.68615,52.22547],[93.68968,52.22915],[93.69921,52.23105],[93.70601,52.23435],[93.72065,52.23311],[93.8781,52.14503],[93.89069,52.14307],[93.9135,52.1359],[93.92228,52.12995],[93.92594,52.12571],[93.9621,52.10784],[93.98633,52.09394],[94.02055,52.08647],[94.04123,52.07773],[94.06644,52.05984],[94.06761,52.05842],[94.06774,52.05529],[94.06983,52.0531],[94.08096,52.0519],[94.11347,52.05322],[94.14904,52.05932],[94.1596,52.05829],[94.17093,52.05362],[94.18767,52.04127],[94.21578,52.031],[94.23607,51.99936],[94.24363,51.99161],[94.2511,51.99021],[94.26204,51.99161],[94.28045,51.98955],[94.31607,51.97594],[94.3368,51.96555],[94.33804,51.96325],[94.33718,51.96087],[94.32594,51.95066],[94.3153,51.94651],[94.31255,51.94415],[94.31431,51.94087],[94.32203,51.93918],[94.32596,51.93428],[94.33611,51.93024],[94.33929,51.92404],[94.34105,51.90498],[94.34461,51.89434],[94.34448,51.89013],[94.34152,51.88337],[94.34796,51.87288],[94.3483,51.86358],[94.34194,51.84929],[94.33629,51.84485],[94.33687,51.84094],[94.3415,51.83777],[94.34229,51.83594],[94.33555,51.83147],[94.33578,51.82864],[94.32947,51.82118],[94.3254,51.80132],[94.32702,51.79769],[94.33331,51.79093],[94.33775,51.78132],[94.34695,51.7691],[94.35096,51.76198]],[[94.32909,51.82015],[94.32766,51.82149]],[[94.35204,51.75875],[94.34145,51.75643],[94.32982,51.74627],[94.31362,51.71417],[94.31227,51.70919],[94.31272,51.70497],[94.31463,51.7009],[94.32522,51.6901],[94.33334,51.68537],[94.34579,51.68204]],[[94.34579,51.68204],[94.34814,51.68032],[94.34775,51.67865]],[[94.34579,51.68204],[94.35043,51.68092]],[[94.34717,51.67825],[94.35545,51.67972]],[[94.34717,51.67825],[94.34775,51.67865]],[[94.34775,51.67865],[94.34835,51.67905],[94.35046,51.68046],[94.35078,51.68067]],[[94.35046,51.68046],[94.34843,51.68041],[94.34982,51.68106]],[[94.35043,51.68092],[94.34972,51.6816],[94.35066,51.68198],[94.35111,51.6809]],[[94.35043,51.68092],[94.35151,51.68067]],[[94.35111,51.6809],[94.35078,51.68067]],[[94.35151,51.68067],[94.35195,51.67992],[94.35094,51.67948],[94.35078,51.68067]],[[94.35096,51.76198],[94.35303,51.75989]],[[94.3542,51.76029],[94.35096,51.76198]],[[94.35151,51.68067],[94.35288,51.68052],[94.35351,51.68121],[94.35111,51.6809]],[[94.35204,51.75875],[94.35398,51.75943]],[[94.35305,51.75979],[94.35204,51.75875]],[[94.35303,51.75989],[94.35305,51.75979],[94.35311,51.75967],[94.35321,51.75958],[94.35382,51.75941],[94.35457,51.75991],[94.35303,51.75989]],[[94.3541,51.75945],[94.35692,51.75889]]]}}],"provenance":{"sources":[{"id":"osm-siberian-260916","url":"https://download.geofabrik.de/russia/siberian-fed-district-260916.osm.pbf","snapshot":"2026-09-16T20:21:21Z","sha256":"37e12e429cc8617419edd3853f299c1e752a4d89b6dee4456a3a98ed62fc99a1","md5":"c5850699d3c22a686d229498cdc55b31","bytes":583874472,"license":"ODbL-1.0","attribution":"© OpenStreetMap contributors, Geofabrik","downloadDate":"2026-09-17"}],"attribution":"© OpenStreetMap contributors, Geofabrik; ODbL-1.0","geometryMethod":"Actual OSM road ways, merged by class and endpoint, display simplification 0.0007 degrees; not routing geometry","sourceWayCount":1073,"routingUse":false}}