{"type":"FeatureCollection","features":[{"type":"Feature","properties":{"roadClass":"primary"},"geometry":{"type":"MultiLineString","coordinates":[[[42.09569,45.95678],[42.0985,45.98239],[42.09084,45.98818],[42.07337,45.99578],[42.07443,46.04205],[42.0695,46.05176],[42.06802,46.08673],[42.06462,46.08779],[42.00832,46.08783],[41.98559,46.08381],[41.92513,46.08341],[41.92498,46.17034],[41.91387,46.19113],[41.90135,46.19542],[41.8332,46.21279],[41.79861,46.22853]],[[42.09565,45.95646],[42.09646,45.95395],[42.12398,45.93849]],[[42.27307,46.33412],[42.26086,46.33504],[42.25705,46.33865],[42.24964,46.34147],[42.1526,46.34109]],[[42.27307,46.33412],[42.27323,46.33394]],[[42.27331,46.33405],[42.27307,46.33412]],[[42.27331,46.33383],[42.27341,46.33351]],[[42.27341,46.33351],[42.27349,46.33382]],[[42.77188,46.11548],[42.77029,46.13974],[42.78283,46.15497],[42.66647,46.20843],[42.66197,46.22083],[42.632,46.22346],[42.6266,46.22261],[42.5593,46.2282],[42.56015,46.23585],[42.54834,46.23958],[42.54745,46.24101],[42.54024,46.24184],[42.50643,46.2368],[42.4376,46.24218],[42.41833,46.24961],[42.39964,46.26379],[42.38238,46.27489],[42.36764,46.28039],[42.34928,46.28593],[42.31372,46.28612],[42.30401,46.28854],[42.28859,46.30298],[42.2716,46.3088],[42.27537,46.32428],[42.27341,46.33351]],[[43.94033,46.37378],[43.94784,46.37342],[43.9587,46.37079],[43.96878,46.36451],[43.97684,46.35356],[43.98771,46.34834],[44.02951,46.34108],[44.03582,46.33388],[44.06015,46.33435],[44.10736,46.32612],[44.12298,46.31734],[44.16525,46.30747],[44.18919,46.30365]],[[44.2525,45.7216],[44.24538,45.71908],[44.2102,45.71681],[44.16909,45.70637],[44.12239,45.70465]],[[44.18812,46.30339],[44.18805,46.30303]],[[44.18906,46.30325],[44.18919,46.30365]],[[44.18919,46.30365],[44.2042,46.31177],[44.21593,46.31339]],[[44.21593,46.31339],[44.23357,46.31194]],[[44.25537,46.30802],[44.24219,46.31086],[44.23359,46.31202],[44.23053,46.31242],[44.22809,46.31266],[44.21888,46.3135],[44.21593,46.31339]],[[44.22803,46.29017],[44.22834,46.28839]],[[44.22834,46.28839],[44.22968,46.28976]],[[44.22834,46.28839],[44.22808,46.2792],[44.23333,46.24594],[44.22531,46.20907],[44.22938,46.2033],[44.2453,46.19088],[44.25229,46.17761],[44.25658,46.16483],[44.25542,46.16217],[44.23765,46.1449],[44.23434,46.13716],[44.23429,46.11531],[44.23518,46.11035],[44.25092,46.08563],[44.25252,46.07922],[44.24614,45.92015],[44.24991,45.91123],[44.24933,45.88709],[44.24757,45.88406],[44.23312,45.87441]],[[44.23312,45.87441],[44.23179,45.874]],[[44.23312,45.87441],[44.21308,45.86036],[44.20993,45.83531],[44.26199,45.75332],[44.26226,45.74852],[44.25594,45.72603],[44.2525,45.7216]],[[44.23359,46.31202],[44.23357,46.31194]],[[44.23357,46.31194],[44.25538,46.30782]],[[44.25265,45.72085],[44.2525,45.7216]],[[44.25537,46.30802],[44.25538,46.30782],[44.25575,46.30784],[44.25567,46.30801],[44.25552,46.30804],[44.25537,46.30802]],[[44.25541,46.30865],[44.25537,46.30802]],[[44.25541,46.30865],[44.25483,46.31102],[44.25796,46.31748]],[[44.25573,46.30797],[44.25541,46.30865]],[[44.25568,46.30776],[44.25677,46.30748]],[[44.25677,46.30748],[44.25576,46.30792]],[[44.25677,46.30748],[44.25971,46.30701],[44.3013,46.3134],[44.3059,46.31228],[44.30772,46.31179],[44.31278,46.31049],[44.31351,46.31029],[44.31592,46.30967],[44.31758,46.30922],[44.31824,46.30905],[44.31893,46.30886],[44.31949,46.30872],[44.31963,46.30868],[44.32012,46.30856]],[[44.25819,46.31846],[44.25791,46.318]],[[44.25791,46.318],[44.25796,46.31748]],[[44.25791,46.318],[44.25838,46.31787]],[[44.25796,46.31748],[44.25838,46.31787]],[[44.25854,46.31873],[44.25819,46.31846]],[[44.25866,46.3183],[44.25819,46.31846]],[[44.25838,46.31787],[44.25866,46.3183]],[[44.25934,46.33531],[44.25961,46.33294],[44.26116,46.32636],[44.26119,46.3246],[44.25854,46.31873]],[[44.25866,46.3183],[44.25854,46.31873]],[[44.26602,46.28405],[44.25918,46.28344]],[[44.2594,46.33482],[44.25987,46.33487]],[[44.30384,46.30449],[44.29897,46.30577],[44.28796,46.29824],[44.27663,46.29715],[44.27597,46.29332],[44.27098,46.28631],[44.26602,46.28405]],[[44.26602,46.28405],[44.26517,46.28302],[44.26613,46.28231]],[[44.30424,46.30441],[44.31586,46.30137],[44.31756,46.30364],[44.31845,46.30579],[44.31944,46.30711],[44.31965,46.30747],[44.32012,46.30856]],[[44.32026,46.3089],[44.31949,46.30872],[44.31992,46.30812]],[[44.32012,46.30856],[44.32026,46.3089],[44.32072,46.31001],[44.32096,46.3106],[44.32284,46.31569],[44.3232,46.31594],[44.33759,46.31629]],[[45.34008,46.16415],[45.34099,46.16291]],[[45.34075,46.16397],[45.34099,46.16291]],[[45.34099,46.16291],[45.34278,46.16407]],[[45.34099,46.16291],[45.34292,46.15538],[45.39188,46.08728],[45.43,46.01488],[45.52538,45.90556],[45.58643,45.85591],[45.61285,45.82109],[45.63355,45.80334],[45.6781,45.76963],[45.72907,45.71463],[45.81929,45.64108],[45.8643,45.61795],[45.91679,45.53947],[45.92379,45.48844],[45.95693,45.44526],[45.98698,45.41013],[46.00645,45.35836],[46.03436,45.33785],[46.04704,45.33874],[46.05294,45.34036],[46.05879,45.34361],[46.06538,45.33583],[46.06519,45.33232],[46.05878,45.32385],[46.05512,45.32159],[46.04503,45.31842],[46.03781,45.21955],[46.08448,45.14588],[46.09251,45.14005],[46.13871,45.11774],[46.14468,45.11294],[46.15488,45.10063],[46.19053,45.07697],[46.20604,45.06539],[46.22458,45.05422],[46.23435,45.05005],[46.26521,45.04069],[46.32232,45.0163],[46.34186,45.01256],[46.35739,45.01244],[46.36644,45.01118],[46.41972,44.99659],[46.45542,44.9816],[46.57204,44.95512],[46.59259,44.95345],[46.62579,44.94614],[46.64527,44.93967],[46.64897,44.93716],[46.65093,44.93398]],[[42.27362,46.33396],[42.27343,46.33408],[42.27331,46.33405],[42.27323,46.33394],[42.27331,46.33383],[42.27343,46.33381],[42.27362,46.33396]],[[44.3037,46.30423],[44.30407,46.30407],[44.30441,46.30479],[44.30404,46.30486],[44.30392,46.30467],[44.30384,46.30449],[44.3037,46.30423]]]}},{"type":"Feature","properties":{"roadClass":"secondary"},"geometry":{"type":"MultiLineString","coordinates":[[[41.90041,46.07478],[41.92656,46.07489]],[[41.92939,46.08349],[41.92948,46.08014],[41.92656,46.07489]],[[41.92656,46.07489],[41.92562,46.06635],[41.92722,45.97844],[41.93625,45.96419]],[[42.00832,46.08783],[42.00967,46.08821],[42.0131,46.08978],[42.03578,46.09888],[42.04604,46.10621],[42.05321,46.11353],[42.06333,46.11516],[42.09719,46.13947],[42.09821,46.14153],[42.09756,46.16287],[42.09981,46.16511],[42.13588,46.1705],[42.14905,46.17034],[42.16574,46.17481],[42.18352,46.1763],[42.20947,46.18775],[42.24065,46.17935],[42.26372,46.17955],[42.26333,46.27353],[42.25862,46.28178],[42.25828,46.29062],[42.2716,46.3088]],[[42.0131,46.08978],[42.01261,46.08863],[42.01348,46.08785]],[[44.50912,47.77228],[44.50436,47.77182],[44.49597,47.76399],[44.48598,47.74236],[44.48361,47.74034],[44.42527,47.71445],[44.36571,47.69841],[44.32924,47.66711],[44.28594,47.65416],[44.25664,47.6511],[44.24162,47.63864],[44.23758,47.63676],[44.12063,47.6088],[44.08617,47.60798],[44.07009,47.60448],[44.06678,47.60259],[44.06156,47.59375],[44.05072,47.58774],[44.02044,47.57697],[43.99091,47.57484],[43.97206,47.56065],[43.93003,47.53448],[43.91283,47.51536],[43.89536,47.49326],[43.88641,47.49004],[43.88332,47.49036],[43.86631,47.49954],[43.86768,47.5012],[43.85732,47.50288],[43.85208,47.50496],[43.83498,47.51554],[43.83094,47.51602],[43.81037,47.5357],[43.7823,47.54527],[43.78063,47.54803],[43.75147,47.57594],[43.73943,47.57973],[43.72156,47.58338],[43.67742,47.58376]],[[44.12883,48.14842],[44.23265,48.15023],[44.25702,48.15813],[44.2584,48.16175],[44.25474,48.16706],[44.25924,48.16935],[44.26436,48.18082],[44.2679,48.18565],[44.27249,48.18788],[44.29082,48.19301],[44.31777,48.19767],[44.39077,48.19829],[44.40396,48.20427],[44.43467,48.20902],[44.44186,48.20673],[44.46173,48.20739],[44.47003,48.2117],[44.49865,48.21837],[44.5003,48.21956]],[[44.25738,46.31837],[44.25127,46.31984],[44.24905,46.3187],[44.23091,46.32286],[44.22948,46.3208],[44.22696,46.32121],[44.22168,46.31321]],[[44.24995,46.31958],[44.24913,46.32286],[44.24625,46.32381]],[[44.2543,46.17333],[44.2534,46.1745]],[[44.25367,46.17372],[44.2543,46.17333]],[[44.25396,46.17293],[44.25457,46.17315]],[[44.2543,46.17333],[44.25457,46.17315]],[[44.25457,46.17315],[44.37827,46.09494],[44.39545,46.07772],[44.43497,46.05049],[44.46967,46.02333],[44.52903,45.99442],[44.53941,45.98393],[44.54032,45.96853],[44.56669,45.92876],[44.61241,45.88066],[44.6354,45.85327],[44.65439,45.82389]],[[44.25538,46.30782],[44.25568,46.30776]],[[44.25549,46.30752],[44.258,46.30377],[44.26425,46.29954],[44.27633,46.29681]],[[44.25738,46.31837],[44.25786,46.31808]],[[44.25803,46.31841],[44.25766,46.31836],[44.25738,46.31837]],[[44.25853,46.31792],[44.25907,46.31789]],[[44.25907,46.31789],[44.25871,46.31821]],[[44.25907,46.31789],[44.26162,46.31732],[44.26596,46.31799]],[[44.26481,46.36765],[44.26565,46.36763]],[[44.26565,46.36763],[44.2649,46.36816]],[[44.26494,46.36727],[44.26565,46.36763]],[[44.26565,46.36763],[44.325,46.36586],[44.32844,46.36677],[44.33,46.3687]],[[44.26596,46.31799],[44.26665,46.3181]],[[44.26636,46.31835],[44.26596,46.31799]],[[44.26693,46.31871],[44.26636,46.31835]],[[44.26636,46.31835],[44.26708,46.31813],[44.26693,46.31871]],[[44.27258,46.31916],[44.27044,46.31905],[44.26873,46.31896],[44.26769,46.31887],[44.26693,46.31871]],[[44.26695,46.31809],[44.26997,46.30861]],[[44.26727,46.31847],[44.27046,46.31891]],[[44.27046,46.31891],[44.27044,46.31905]],[[44.27046,46.31891],[44.27211,46.319],[44.2726,46.31903],[44.27413,46.31911],[44.2749,46.31915],[44.27771,46.31931],[44.27813,46.31913]],[[44.27271,46.30676],[44.27203,46.30892]],[[44.27814,46.31958],[44.27258,46.31916]],[[44.27258,46.31916],[44.2726,46.31903]],[[44.27818,46.31908],[44.28114,46.30799]],[[44.28141,46.31036],[44.27902,46.31914]],[[44.28267,46.30821],[44.28202,46.31045]],[[44.28358,46.29816],[44.28354,46.29793]],[[44.2844,46.29795],[44.28358,46.29816],[44.27164,46.30363],[44.27074,46.30643],[44.27192,46.30664],[44.27271,46.30676],[44.27914,46.30769],[44.28267,46.30821],[44.28744,46.30893],[44.28908,46.3092],[44.29114,46.30951],[44.29343,46.30986],[44.29724,46.31046],[44.29879,46.31067]],[[44.2905,46.31177],[44.29093,46.31024],[44.29114,46.30951],[44.29139,46.3086],[44.29185,46.30697],[44.29897,46.30577]],[[44.29943,46.31086],[44.29879,46.31067]],[[44.29879,46.31067],[44.29951,46.31056]],[[44.29943,46.31086],[44.29945,46.3106],[44.29982,46.31057],[44.29981,46.3108],[44.29964,46.31088],[44.29943,46.31086]],[[44.30061,46.31047],[44.29981,46.3108]],[[44.29982,46.31057],[44.30061,46.31047]],[[44.30061,46.31047],[44.30581,46.30909]],[[44.30616,46.30875],[44.30404,46.30486]],[[44.30441,46.30479],[44.30654,46.30864]],[[44.30581,46.30909],[44.30616,46.30889]],[[44.30625,46.30908],[44.30581,46.30909]],[[44.30772,46.31179],[44.30636,46.30916]],[[44.30669,46.30873],[44.30711,46.30874]],[[44.30676,46.30908],[44.3081,46.31169]],[[44.30711,46.30874],[44.30676,46.30894]],[[44.30711,46.30874],[44.31845,46.30579]],[[44.3159,46.32683],[44.30846,46.3116]],[[44.36408,47.86204],[44.41094,47.8537],[44.52359,47.81729]],[[44.50912,47.77228],[44.52833,47.78818],[44.53416,47.7938],[44.53639,47.79811],[44.5364,47.8026],[44.53483,47.80601],[44.52797,47.81394],[44.52359,47.81729]],[[44.53409,47.73989],[44.52691,47.75923],[44.52265,47.76145],[44.50912,47.77228]],[[44.52359,47.81729],[44.53972,47.81027],[44.54917,47.80416]],[[44.53431,47.73726],[44.53409,47.73989]],[[44.53497,47.73996],[44.53453,47.73981],[44.53409,47.73989]],[[44.57292,47.29879],[44.61711,47.29448],[44.62856,47.2923],[44.68085,47.27717],[44.79427,47.24065],[44.85215,47.23961],[44.8756,47.2459],[44.90471,47.25922],[44.93786,47.27818],[44.9513,47.28362],[44.96543,47.28524],[44.99306,47.28322],[45.05776,47.28461],[45.11358,47.29669],[45.13762,47.3044],[45.18644,47.33153],[45.19116,47.33834],[45.19687,47.35856],[45.21214,47.3735],[45.21749,47.37644],[45.25689,47.37444],[45.27393,47.37726],[45.37531,47.40083],[45.38357,47.40111],[45.43763,47.39746],[45.55893,47.41445],[45.56741,47.41932],[45.59541,47.44907],[45.60474,47.49842],[45.65301,47.55505],[45.66838,47.56548],[45.67305,47.56908],[45.81958,47.69098],[45.82166,47.69624],[45.82313,47.75025]],[[44.69167,47.97588],[44.69462,47.97661]],[[44.69375,47.97747],[44.69462,47.97661]],[[44.69462,47.97661],[44.69729,47.976]],[[44.69729,47.976],[44.69488,47.97845]],[[44.69729,47.976],[44.71258,47.96559],[44.72715,47.96003],[44.76561,47.96715],[44.79704,47.96467],[44.81889,47.96963],[44.88041,47.97009],[44.90753,47.96648],[44.94914,47.97304],[44.97846,47.97123],[45.02513,47.95073],[45.05669,47.93339],[45.10162,47.92296],[45.10629,47.92059],[45.11894,47.90939],[45.15743,47.89347],[45.20776,47.87683],[45.21521,47.87751],[45.31829,47.90269],[45.36835,47.90544],[45.38861,47.90347],[45.39352,47.90201],[45.40812,47.89336],[45.4173,47.86249],[45.42102,47.85637],[45.41974,47.85274],[45.42056,47.85042],[45.4187,47.84671],[45.42025,47.84455],[45.42519,47.84553],[45.42575,47.84404],[45.49546,47.80598],[45.49636,47.79828],[45.49305,47.78736],[45.49456,47.77896],[45.50793,47.75085],[45.539,47.70173],[45.5365,47.6892],[45.52035,47.6416],[45.52012,47.61371],[45.52132,47.61084],[45.52795,47.60709],[45.55287,47.60257],[45.56699,47.59416],[45.56832,47.59066],[45.56952,47.56755],[45.57092,47.5648],[45.57372,47.56289],[45.60206,47.56248],[45.64257,47.56483],[45.64737,47.56451],[45.66031,47.56004]],[[45.55041,45.14135],[45.57558,45.157],[45.68958,45.2085],[45.70241,45.2153],[45.77631,45.2345],[45.81748,45.24213],[45.82303,45.24591],[45.83622,45.26195],[45.8467,45.26735],[45.88912,45.28209],[45.89488,45.28229],[45.90569,45.27992],[45.91152,45.28047],[45.9427,45.29041],[45.96122,45.2976],[45.97575,45.30145],[45.9813,45.30485],[45.99118,45.31387],[46.00499,45.31846],[46.01021,45.32144],[46.02278,45.33606],[46.02809,45.33773],[46.03436,45.33785]],[[46.71166,47.55907],[46.66814,47.53437],[46.59452,47.48721],[46.48935,47.37399],[46.43694,47.35109],[46.35562,47.3256],[46.30362,47.30154],[46.29837,47.29768],[46.29602,47.29452],[46.29395,47.28702],[46.31212,47.11817],[46.31039,47.11312],[46.29806,47.09805],[46.2909,47.04094],[46.29808,47.00965],[46.306,46.95267],[46.2895,46.85524],[46.28729,46.85232],[46.27347,46.84475],[46.20609,46.79013],[46.19146,46.78117],[46.16825,46.76171],[46.15545,46.74889],[46.16049,46.73527],[46.1637,46.72995],[46.21805,46.68159],[46.22295,46.6761],[46.22582,46.6699],[46.23343,46.63899],[46.23338,46.63597],[46.21825,46.59565],[46.19133,46.57361],[46.15861,46.53805],[46.12551,46.49102],[46.07955,46.44832],[46.04043,46.41545],[46.03722,46.40733],[46.03841,46.37372],[46.03587,46.36954],[46.02372,46.35877]],[[46.88575,45.43007],[46.86351,45.42893],[46.84595,45.43349],[46.8131,45.42873],[46.66357,45.42364],[46.55455,45.42964],[46.54586,45.42873],[46.52381,45.41937],[46.51104,45.41677],[46.41208,45.41228],[46.35145,45.4142],[46.30884,45.41288],[46.20783,45.39274],[46.1366,45.37032],[46.09067,45.35351],[46.06491,45.34637],[46.05879,45.34361]],[[46.89808,45.42837],[46.89684,45.42765],[46.88991,45.43],[46.8874,45.43021],[46.88575,45.43007]],[[46.88575,45.43007],[46.89124,45.42815],[46.89246,45.42583],[46.89205,45.42393]],[[46.90203,45.43132],[46.8874,45.43021]],[[46.89586,45.42916],[46.89808,45.42837]],[[46.89808,45.42837],[46.90043,45.43036],[46.90512,45.43152]],[[47.04588,45.43041],[47.03954,45.42832]],[[47.04072,45.42818],[47.05451,45.42666]],[[47.05914,45.42619],[47.05219,45.42729],[47.04762,45.43038],[47.04671,45.43063],[47.04588,45.43041]],[[47.04749,45.42885],[47.0457,45.42927],[47.04588,45.43041]],[[47.05914,45.42619],[47.0555,45.4272],[47.05393,45.42904],[47.05592,45.43423]],[[47.18465,45.7026],[47.22535,45.67642],[47.24132,45.66481],[47.26458,45.65436],[47.28938,45.64623],[47.3261,45.64189],[47.35036,45.63291],[47.39143,45.62307],[47.41881,45.61334],[47.42035,45.60626],[47.42244,45.60402],[47.43516,45.59816],[47.46832,45.57668],[47.46704,45.55467],[47.45955,45.52082],[47.43566,45.50242],[47.41543,45.49334],[47.40467,45.4859],[47.38938,45.48009],[47.37633,45.46799],[47.35881,45.40936],[47.35861,45.40061],[47.34224,45.40103],[47.34167,45.3985],[47.33998,45.39819],[47.33941,45.39516],[47.32628,45.39746],[47.30325,45.39937],[47.25804,45.40708],[47.17199,45.41368],[47.05914,45.42619]],[[44.27845,46.31898],[44.27902,46.31914],[44.27898,46.31959],[44.27856,46.31972],[44.27826,46.31965],[44.27814,46.31958],[44.27806,46.31949],[44.27808,46.31917],[44.27813,46.31913],[44.27818,46.31908],[44.27845,46.31898]],[[44.30623,46.30905],[44.30613,46.30883],[44.30615,46.30876],[44.30616,46.30875],[44.30619,46.3087],[44.30669,46.30873],[44.30671,46.30914],[44.30644,46.30919],[44.30635,46.30916],[44.30625,46.30908],[44.30623,46.30905]]]}},{"type":"Feature","properties":{"roadClass":"tertiary"},"geometry":{"type":"MultiLineString","coordinates":[[[41.67042,46.18283],[41.67295,46.17969],[41.68779,46.17606]],[[41.67542,46.12864],[41.67562,46.12848],[41.67587,46.12826],[41.67614,46.12796],[41.67754,46.12626],[41.67857,46.12571],[41.80723,46.09617]],[[41.67547,46.12636],[41.67542,46.12864],[41.66881,46.13508],[41.66571,46.14754],[41.68779,46.17606]],[[41.67556,46.12825],[41.6758,46.12832]],[[41.68779,46.17606],[41.69352,46.18346]],[[41.69352,46.18346],[41.69663,46.18806],[41.69591,46.19087]],[[41.69352,46.18346],[41.75913,46.16231],[41.76956,46.15432],[41.77906,46.1487],[41.78458,46.1393],[41.78288,46.13698],[41.78547,46.12715],[41.7808,46.11244],[41.78342,46.10999],[41.80563,46.105],[41.80709,46.10349],[41.80723,46.09617],[41.90041,46.07478],[41.87508,46.06485],[41.86008,46.06111],[41.83583,46.05747],[41.8135,46.05807],[41.81093,46.05666],[41.80333,46.05714],[41.7998,46.05881],[41.75224,46.06961],[41.75034,46.061],[41.75179,46.05304],[41.75036,46.04712],[41.74168,46.02863],[41.74561,46.02653],[41.75088,45.99229],[41.75901,45.98554],[41.75832,45.98266]],[[41.90135,46.19542],[41.91105,46.20645],[41.91209,46.21324],[41.91558,46.21574],[41.9618,46.21588],[41.96382,46.24355],[41.9666,46.24464],[41.98271,46.24492],[42.01865,46.26447],[42.01966,46.2684],[42.01971,46.28166],[42.02063,46.28322],[42.05224,46.28902],[42.05338,46.2905],[42.05325,46.29362],[42.07126,46.29372]],[[41.9595,46.13574],[41.94647,46.13054],[41.93516,46.13026],[41.9251,46.12633]],[[42.01677,46.09124],[42.01625,46.09652],[42.01886,46.0999]],[[42.20597,46.45149],[42.09106,46.45807],[42.08584,46.4625]],[[42.19076,46.53825],[42.19925,46.53135],[42.20913,46.53079],[42.2064,46.50971],[42.20742,46.50815],[42.20597,46.45149]],[[42.20597,46.45149],[42.20027,46.43386],[42.20335,46.4217],[42.20921,46.41328],[42.22218,46.40496],[42.22944,46.39508],[42.26125,46.35823],[42.27219,46.35088],[42.27305,46.3485],[42.27245,46.34373],[42.27964,46.34343]],[[42.22364,46.45288],[42.21556,46.45103],[42.20597,46.45149]],[[42.29933,46.49849],[42.28315,46.50158],[42.20742,46.50815]],[[42.23391,46.19943],[42.2375,46.20068],[42.26388,46.20139]],[[42.27985,46.3387],[42.25954,46.33637]],[[42.26477,46.17665],[42.26372,46.17955]],[[42.27287,46.3362],[42.27388,46.33624],[42.2799,46.33614],[42.27985,46.3387]],[[42.27362,46.33427],[42.27343,46.33408]],[[42.2736,46.33401],[42.27362,46.33427]],[[42.27362,46.33427],[42.27388,46.33624]],[[42.34934,46.40954],[42.35054,46.40605],[42.35001,46.40468],[42.33964,46.39746],[42.33849,46.39238],[42.32502,46.37645],[42.29951,46.36111],[42.2804,46.34597],[42.27985,46.3387]],[[42.35131,46.10915],[42.36031,46.10906],[42.36319,46.11107],[42.36497,46.11408],[42.36821,46.13582],[42.37243,46.13893],[42.37311,46.14169],[42.37287,46.17846],[42.3715,46.18941],[42.37237,46.21656],[42.37101,46.2262],[42.37158,46.27896]],[[42.51812,46.23859],[42.51767,46.22778],[42.52251,46.22082],[42.53612,46.18861],[42.53542,46.18689],[42.52526,46.17819],[42.52473,46.17511],[42.52802,46.17004],[42.5531,46.1514],[42.55566,46.14389],[42.55728,46.14222]],[[42.5514,46.2261],[42.5593,46.2282]],[[42.55939,46.14632],[42.55728,46.14222]],[[42.55728,46.14222],[42.62762,46.08865],[42.63516,46.07804],[42.63485,46.06613],[42.6357,46.06444],[42.64641,46.05987],[42.65608,46.04753],[42.65587,46.0451],[42.66219,46.037],[42.6742,46.02896],[42.67962,46.0276],[42.68362,46.02467],[42.71101,45.99166],[42.71993,45.98748]],[[42.69491,46.09536],[42.69342,46.11447],[42.69415,46.11659],[42.72248,46.14846],[42.74582,46.17217]],[[42.77124,46.16037],[42.78114,46.17119],[42.78339,46.1747],[42.78339,46.17653]],[[42.9042,46.41293],[42.90338,46.41187],[42.90427,46.41021],[42.91031,46.41139],[42.92351,46.41027],[42.96048,46.38629],[42.9755,46.38311],[43.01659,46.36839],[43.036,46.36022],[43.06665,46.34322],[43.08527,46.3223],[43.10254,46.31101],[43.1034,46.30908],[43.10088,46.30616],[43.10212,46.3044],[43.11219,46.30121],[43.11508,46.29759]],[[43.11508,46.29759],[43.12047,46.30945],[43.12793,46.32017],[43.1362,46.3277],[43.13928,46.32923]],[[43.11508,46.29759],[43.11672,46.28735],[43.13959,46.2522],[43.14925,46.24196],[43.15177,46.23334],[43.24028,46.19787],[43.24323,46.19827],[43.25739,46.20633],[43.26385,46.20845],[43.26807,46.20786],[43.29623,46.18891],[43.29906,46.17237],[43.31125,46.14442],[43.32571,46.1352],[43.34498,46.11667],[43.35816,46.11549],[43.42347,46.10384],[43.45695,46.09471],[43.48731,46.09097]],[[43.14377,46.21016],[43.15713,46.21272],[43.15879,46.22235],[43.16183,46.22898]],[[43.52208,46.10048],[43.51566,46.11785],[43.50835,46.15837]],[[43.58024,47.6011],[43.58606,47.5986],[43.59603,47.59756],[43.59938,47.59549],[43.62419,47.59297],[43.67742,47.58376]],[[44.04544,47.58588],[44.03828,47.59811],[44.02411,47.60281],[43.91909,47.62922],[43.84528,47.64372],[43.76216,47.66272],[43.76102,47.66442],[43.75144,47.66902],[43.72987,47.67324],[43.72653,47.67304],[43.70933,47.67762],[43.69565,47.67546],[43.6769,47.68197],[43.65445,47.68438],[43.64864,47.68976]],[[43.77805,46.12539],[43.76935,46.17197],[43.76768,46.17433],[43.75728,46.18203],[43.75525,46.18646],[43.7545,46.19245],[43.75761,46.2065]],[[43.76811,46.12319],[43.76926,46.12769],[43.77642,46.12708],[43.77676,46.12498]],[[43.85889,46.11155],[43.84543,46.1211],[43.82543,46.14948]],[[43.85889,46.11155],[43.86718,46.11512],[43.88386,46.11555]],[[44.19433,45.88086],[44.19614,45.88297],[44.19634,45.88502],[44.19441,45.89197],[44.19348,45.90134],[44.1337,45.91091],[44.08141,45.95254],[44.1049,45.98918],[44.10598,45.99463],[44.10529,45.9956],[44.08032,46.00891],[44.02431,46.03335],[43.99226,46.05095],[43.95293,46.0647],[43.94627,46.06842],[43.91525,46.08115],[43.90434,46.08219],[43.85889,46.11155]],[[44.25611,46.49253],[44.19558,46.48773],[44.13862,46.49973],[44.13298,46.50226],[44.12509,46.50795],[44.08367,46.5232],[44.0822,46.52506],[44.08019,46.53719],[44.08364,46.54897],[44.08642,46.5537],[44.08576,46.55763],[44.06275,46.60302],[44.04728,46.62936],[44.0249,46.64792],[44.02179,46.65837],[43.98275,46.71573],[43.97562,46.72447]],[[44.04768,46.33407],[44.04647,46.3223],[44.04306,46.31917],[44.0414,46.31466],[44.0298,46.31416],[44.02481,46.31547]],[[44.07374,46.28999],[44.0692,46.29453],[44.07451,46.30071],[44.07964,46.304],[44.08658,46.3075],[44.09597,46.30639],[44.09816,46.30988],[44.1087,46.31182],[44.12298,46.31734]],[[44.12464,46.34711],[44.11919,46.34744],[44.11522,46.34036],[44.11016,46.3247]],[[44.15278,46.23792],[44.13723,46.23761],[44.11083,46.2518]],[[44.23235,45.8739],[44.23155,45.87405],[44.22532,45.87524],[44.21057,45.87795],[44.19433,45.88086],[44.18789,45.88255]],[[44.19189,48.08062],[44.24575,48.08801],[44.29293,48.08648],[44.34831,48.09985],[44.39292,48.11899],[44.41519,48.13775]],[[44.20375,46.31186],[44.20361,46.31149]],[[44.20396,46.31227],[44.20385,46.31204]],[[44.20464,46.31191],[44.20436,46.31199],[44.20415,46.31205],[44.20405,46.31206],[44.20385,46.31204],[44.20375,46.31186],[44.20394,46.31166]],[[44.22386,46.31745],[44.21898,46.31842],[44.21595,46.31902],[44.21075,46.32003],[44.21008,46.32018],[44.20356,46.31511],[44.20396,46.31227]],[[44.20415,46.31205],[44.20396,46.31227]],[[44.20439,46.31183],[44.20436,46.31199]],[[44.21063,45.83428],[44.21001,45.83481]],[[44.21063,45.83428],[44.21016,45.83418]],[[44.21031,45.83377],[44.21063,45.83428]],[[44.2442,46.27202],[44.21049,46.27403]],[[44.23463,45.8354],[44.2246,45.83714],[44.21063,45.83428]],[[44.21519,46.3133],[44.21595,46.31902]],[[44.21864,46.31351],[44.21764,46.30873],[44.22786,46.30605],[44.22854,46.30697],[44.23093,46.30669],[44.23137,46.30748],[44.2322,46.30928],[44.23357,46.31194]],[[44.21887,46.31344],[44.22065,46.31808]],[[44.21985,46.32367],[44.22602,46.32013]],[[44.22002,46.42895],[44.23207,46.42566],[44.24846,46.42322],[44.25038,46.41996]],[[44.23848,46.33815],[44.23335,46.33094],[44.22784,46.33035],[44.22821,46.32601],[44.22636,46.32278],[44.22722,46.32143]],[[44.2467,46.31327],[44.23289,46.31766],[44.23363,46.31901],[44.22948,46.3208]],[[44.23155,45.87405],[44.23079,45.87287]],[[44.24625,46.32381],[44.24471,46.3266],[44.23412,46.32663],[44.23171,46.32617],[44.23091,46.32286]],[[44.24335,46.30195],[44.23146,46.30332],[44.23137,46.30748]],[[44.24313,46.30689],[44.23229,46.30944]],[[44.23665,46.28827],[44.23549,46.28868]],[[44.2433,46.30171],[44.2407,46.28959],[44.23755,46.29055],[44.23607,46.28848]],[[44.24465,46.30946],[44.24313,46.30689]],[[44.24426,46.30652],[44.24313,46.30689]],[[44.2433,46.30171],[44.24335,46.30195]],[[44.2433,46.30171],[44.26133,46.29914],[44.265,46.29821],[44.26508,46.29675]],[[44.24438,46.30569],[44.24335,46.30195]],[[44.24426,46.30652],[44.24446,46.30603]],[[44.2447,46.30606],[44.24426,46.30652]],[[44.24438,46.30569],[44.24463,46.30584]],[[44.24444,46.30594],[44.24438,46.30569]],[[44.24491,46.31077],[44.24451,46.30998]],[[44.24451,46.30998],[44.24465,46.30946]],[[44.24451,46.30998],[44.24495,46.30993]],[[44.24465,46.30946],[44.24495,46.30993]],[[44.24467,46.30585],[44.24506,46.30579]],[[44.24506,46.30579],[44.24477,46.30602]],[[44.24495,46.30993],[44.24535,46.31071],[44.24508,46.31084],[44.24491,46.31077]],[[44.24526,46.31124],[44.24491,46.31077]],[[44.24499,46.42031],[44.25038,46.41996]],[[44.25893,46.30305],[44.25656,46.30229],[44.25598,46.30246],[44.25508,46.30285],[44.2542,46.30316],[44.24914,46.30428],[44.24506,46.30579]],[[44.2467,46.31327],[44.24526,46.31124]],[[44.24535,46.31071],[44.24526,46.31124]],[[44.24944,46.31876],[44.2467,46.31327]],[[44.25503,46.31152],[44.2467,46.31327]],[[44.25038,46.41996],[44.25589,46.41958],[44.25843,46.41969],[44.26053,46.4213],[44.28868,46.42055],[44.31869,46.42162],[44.3404,46.42618],[44.37281,46.42899],[44.4323,46.42844],[44.4455,46.4326],[44.48133,46.41674],[44.48453,46.4204],[44.49008,46.41984],[44.51666,46.42674],[44.52951,46.4269],[44.54476,46.4215],[44.58927,46.41254],[44.63451,46.4009],[44.65623,46.39737],[44.68117,46.4085],[44.69336,46.41892],[44.71992,46.42398],[44.74276,46.42244],[44.75486,46.42278],[44.76902,46.43423],[44.77885,46.45174],[44.7757,46.46765],[44.79695,46.48569],[44.7997,46.48768],[44.81216,46.49182],[44.86678,46.51547],[44.87389,46.52002],[44.8766,46.53633],[44.8931,46.53668]],[[44.25366,46.41976],[44.25757,46.42905],[44.26932,46.42919]],[[44.25508,46.30285],[44.25404,46.30067]],[[44.26508,46.29675],[44.2557,46.29814],[44.25521,46.29646],[44.25448,46.28427]],[[44.27207,46.2878],[44.25494,46.29032]],[[44.25521,46.31186],[44.25574,46.31214]],[[44.26856,46.42086],[44.26846,46.41816],[44.27082,46.41801],[44.27103,46.41459],[44.26896,46.41447],[44.26253,46.41358],[44.25533,46.41277]],[[44.25559,46.31215],[44.25535,46.31213]],[[44.25574,46.31214],[44.25559,46.31215],[44.25546,46.31234]],[[44.26805,46.3147],[44.26166,46.3122],[44.25974,46.31468],[44.25574,46.31214]],[[44.25721,46.40619],[44.27024,46.40764],[44.27213,46.40051]],[[44.2607,46.39637],[44.25973,46.39729]],[[44.26006,46.39614],[44.2607,46.39637],[44.26125,46.39657],[44.26268,46.39708],[44.26523,46.39803],[44.26811,46.39903],[44.27756,46.40249],[44.28483,46.40507],[44.28999,46.40422]],[[44.26211,46.42094],[44.26253,46.41358]],[[44.27151,46.30377],[44.27089,46.30314],[44.27027,46.30302],[44.26942,46.30287],[44.26798,46.30263],[44.26647,46.30235],[44.2667,46.30059],[44.26383,46.2998]],[[44.27626,46.29446],[44.26508,46.29675]],[[44.27298,46.29913],[44.2667,46.30059]],[[44.26752,46.30822],[44.2686,46.30519]],[[44.26798,46.30263],[44.26712,46.30491],[44.2686,46.30519]],[[44.2686,46.30519],[44.2722,46.30555],[44.27696,46.30307],[44.28426,46.29936],[44.2844,46.29795]],[[44.2686,46.30519],[44.26942,46.30287],[44.27024,46.30038],[44.27012,46.2999]],[[44.27203,46.30892],[44.27176,46.30957],[44.27151,46.31039],[44.27113,46.31163],[44.27108,46.31169],[44.26892,46.3119]],[[44.28003,46.31154],[44.27622,46.31103],[44.27421,46.31074],[44.27289,46.31059],[44.27151,46.31039],[44.26953,46.31003]],[[44.27116,46.32445],[44.2718,46.31898]],[[44.28078,46.32543],[44.27746,46.32612],[44.27126,46.32407]],[[44.27244,46.29742],[44.27298,46.29913],[44.27564,46.30173],[44.27696,46.30307],[44.27821,46.3043],[44.27832,46.30444]],[[44.27622,46.31103],[44.27763,46.3064],[44.27832,46.30444]],[[44.2787,46.30471],[44.27825,46.30467]],[[44.27832,46.30444],[44.2787,46.30471]],[[44.28013,46.32252],[44.28054,46.32338],[44.28098,46.32426],[44.28158,46.32525],[44.28167,46.32542],[44.28179,46.3257],[44.28307,46.3264],[44.28057,46.3269],[44.28145,46.32576],[44.28141,46.32564],[44.28137,46.32555],[44.28121,46.32523],[44.28066,46.32405],[44.28035,46.32343],[44.28032,46.32337],[44.27994,46.32256],[44.27868,46.31996],[44.2784,46.3197]],[[44.28003,46.30491],[44.27843,46.30993]],[[44.28347,46.30543],[44.28198,46.30522],[44.28003,46.30491],[44.27937,46.3048],[44.2787,46.30471]],[[44.27898,46.31959],[44.28013,46.32252]],[[44.27994,46.32256],[44.28013,46.32252]],[[44.28035,46.32343],[44.28054,46.32338]],[[44.28171,46.32552],[44.28144,46.32556],[44.28137,46.32555],[44.28105,46.32546],[44.28078,46.32543]],[[44.28078,46.32543],[44.28111,46.32529],[44.28121,46.32523],[44.28126,46.32519],[44.28134,46.32516],[44.28153,46.32516]],[[44.28114,46.30799],[44.28198,46.30522]],[[44.28116,46.30094],[44.28393,46.3034],[44.28347,46.30543],[44.28267,46.30821]],[[44.2822,47.73055],[44.30514,47.70984],[44.30915,47.70768],[44.31761,47.70591],[44.34018,47.70556],[44.35248,47.70363],[44.3678,47.6991]],[[44.41338,47.02958],[44.37891,47.0319],[44.33964,47.02876],[44.33701,47.02751],[44.28512,47.02672]],[[44.29936,46.31105],[44.29872,46.31302]],[[44.29936,46.31105],[44.29915,46.31078]],[[44.29936,46.31105],[44.29943,46.31086]],[[44.29964,46.31088],[44.29936,46.31105]],[[44.29963,46.31053],[44.29982,46.31031]],[[44.29982,46.31031],[44.29982,46.31057]],[[44.29982,46.31031],[44.29992,46.30687]],[[44.29992,46.30687],[44.29968,46.30664],[44.29897,46.30577],[44.29934,46.30603],[44.29992,46.30687]],[[44.53199,46.66415],[44.5216,46.66875],[44.52047,46.66793],[44.52005,46.6648],[44.50758,46.66212],[44.416,46.67595],[44.3663,46.67933],[44.32716,46.6778],[44.31337,46.67982]],[[44.31446,46.84703],[44.32978,46.84546],[44.363,46.85064],[44.37353,46.84996]],[[44.31984,46.70845],[44.35167,46.71092],[44.38444,46.70259],[44.38897,46.70233],[44.39637,46.70543],[44.4051,46.71094],[44.41427,46.72103]],[[44.32865,46.27929],[44.35878,46.2803],[44.3623,46.27885],[44.36426,46.27326],[44.35166,46.26981],[44.34822,46.25429]],[[44.33056,46.91381],[44.36351,46.90984],[44.37831,46.9121],[44.39932,46.92097],[44.40388,46.9298],[44.40411,46.93424],[44.41247,46.93439]],[[44.79632,46.85638],[44.79809,46.86548],[44.76753,46.89559],[44.76358,46.90815],[44.74676,46.93559],[44.74508,46.9367],[44.62783,46.94235],[44.61314,46.94209],[44.59491,46.93631],[44.5594,46.9447],[44.53933,46.95361],[44.49127,46.95803],[44.4697,46.9732],[44.38258,46.97785],[44.36763,46.98281]],[[44.46144,47.83762],[44.43284,47.81087],[44.40252,47.81103],[44.39151,47.8087],[44.38881,47.80974],[44.38608,47.81313]],[[44.39321,46.07978],[44.39851,46.08616],[44.4034,46.09638],[44.42208,46.10493],[44.42522,46.10988],[44.43515,46.10901],[44.45396,46.09915],[44.46406,46.1064],[44.48249,46.10808],[44.53879,46.1235],[44.59036,46.12295],[44.60199,46.12397]],[[44.40566,47.01662],[44.44346,47.01765]],[[44.54013,45.97012],[44.53766,45.96978],[44.53145,45.96574],[44.52009,45.96245],[44.50167,45.95238],[44.44585,45.92663],[44.43177,45.92167],[44.41325,45.92008],[44.41178,45.91585]],[[44.41384,47.51299],[44.41285,47.50893],[44.41366,47.50782],[44.43271,47.50456],[44.44923,47.50323],[44.46034,47.50748],[44.49993,47.50398],[44.51015,47.49991],[44.55592,47.49449],[44.57315,47.49459],[44.59006,47.49264],[44.60469,47.48825],[44.61239,47.48283],[44.62069,47.48121]],[[44.43587,48.13908],[44.43866,48.13592],[44.44935,48.12873],[44.46454,48.12145],[44.47604,48.12025],[44.49589,48.12068],[44.50675,48.12367],[44.54619,48.12157],[44.58367,48.11148],[44.59105,48.10755],[44.62139,48.10402],[44.63672,48.09668],[44.67544,48.09802]],[[44.44266,47.72978],[44.45895,47.72879]],[[44.50196,47.23612],[44.52089,47.2462],[44.54893,47.23332]],[[44.53409,47.77287],[44.52158,47.77391],[44.51903,47.77474],[44.51562,47.77782]],[[44.51808,47.30969],[44.52359,47.30827]],[[44.51961,47.30352],[44.52362,47.30808]],[[44.52408,47.30817],[44.5279,47.30726],[44.52936,47.30489],[44.54317,47.30175],[44.57292,47.29879]],[[44.52443,47.39903],[44.52471,47.39457],[44.54048,47.39253],[44.59331,47.39446],[44.61527,47.39119]],[[44.53205,45.97735],[44.53378,45.97902],[44.5398,45.97845]],[[44.53784,45.64883],[44.53888,45.65551],[44.54516,45.66413],[44.56553,45.68102],[44.5849,45.7062],[44.59151,45.73101],[44.59978,45.74777],[44.62064,45.77884],[44.62879,45.78848],[44.64147,45.80061],[44.66003,45.81517]],[[44.53941,45.98393],[44.59523,45.99771]],[[44.6777,47.96828],[44.68597,47.95811],[44.67608,47.95179],[44.67619,47.94312],[44.64531,47.93988],[44.60859,47.94117]],[[44.6354,45.85327],[44.64262,45.85608],[44.66817,45.85178],[44.73993,45.83383],[44.76225,45.83147],[44.84718,45.82711],[44.8514,45.82887],[44.87095,45.84459],[44.88079,45.86714],[44.88582,45.87381],[44.90235,45.87723]],[[44.65439,45.82389],[44.66806,45.80357],[44.70254,45.7781],[44.70958,45.77008],[44.75456,45.72696],[44.76228,45.7115],[44.77185,45.69093],[44.77457,45.68516],[44.78288,45.66809],[44.79472,45.63549],[44.79733,45.63153],[44.80432,45.62517],[44.82288,45.61612],[44.8362,45.60815]],[[44.8362,45.60815],[44.81934,45.599],[44.80657,45.59885],[44.80152,45.5973],[44.77436,45.5822],[44.71147,45.53691],[44.70613,45.53494],[44.69592,45.53408],[44.69347,45.5325],[44.69232,45.52955]],[[44.86861,47.70188],[44.86279,47.70378],[44.86248,47.70846],[44.86078,47.71189],[44.8371,47.73716],[44.80973,47.761],[44.7772,47.7959],[44.75019,47.83756],[44.72735,47.8854],[44.72126,47.93723],[44.70197,47.96289],[44.70142,47.97304]],[[44.76328,47.8172],[44.73566,47.81617],[44.72019,47.81972]],[[44.77185,45.69093],[44.80898,45.67666],[44.82257,45.66844],[44.83614,45.66631],[44.92114,45.63595],[44.99449,45.63193],[45.00764,45.63441],[45.05362,45.62894],[45.14552,45.61389],[45.16214,45.61302],[45.19625,45.60359],[45.21722,45.599],[45.23629,45.59107],[45.26039,45.58521]],[[44.8362,45.60815],[44.84947,45.59962],[44.8527,45.59422],[44.84888,45.52237],[44.84547,45.50873],[44.84658,45.50427],[44.85046,45.50261]],[[44.97744,47.63508],[44.96723,47.64214],[44.95655,47.64448],[44.93996,47.65921],[44.89589,47.68889],[44.86192,47.69958],[44.86228,47.70454]],[[44.86606,46.28228],[44.85734,46.30993],[44.85465,46.31459],[44.87286,46.33531],[44.87972,46.34048],[45.03659,46.42272],[45.05525,46.44531],[45.05589,46.44846],[45.05439,46.4629],[45.05496,46.46456],[45.06099,46.47731],[45.06117,46.47772],[45.06187,46.47924],[45.06238,46.48033],[45.06345,46.48283]],[[44.89251,46.34711],[44.89713,46.34271]],[[45.20556,48.04413],[45.1687,48.03801],[45.14733,48.04266],[45.13076,48.0399],[45.10182,48.04442],[45.06568,48.05215],[45.03478,48.02733],[45.01345,48.01529],[44.9786,47.97119]],[[45.06272,48.05034],[45.03828,48.06421],[45.02131,48.08609],[45.01159,48.11],[45.00489,48.14509],[45.00897,48.14736],[45.01838,48.14796],[45.02099,48.14976],[45.02234,48.17201],[45.01792,48.18002],[45.0192,48.18365]],[[45.03679,46.23731],[45.04085,46.25304],[45.04024,46.25545],[45.04356,46.26405],[45.04519,46.28102]],[[45.04347,47.28422],[45.0224,47.33861],[45.0451,47.39491],[45.0514,47.39692]],[[45.0522,46.48059],[45.05281,46.47717],[45.04884,46.47746],[45.0485,46.48027],[45.0522,46.48059],[45.05231,46.4806],[45.05473,46.48074],[45.06238,46.48033]],[[45.06117,46.47772],[45.08557,46.48185],[45.10092,46.4827],[45.14629,46.47985],[45.23953,46.49973],[45.25625,46.5045],[45.35702,46.52344],[45.38,46.52376],[45.44582,46.51912],[45.46983,46.52732],[45.50766,46.54254],[45.52078,46.54323],[45.57006,46.54143],[45.59493,46.54285],[45.61145,46.54467],[45.62248,46.54716],[45.67929,46.56214],[45.70784,46.56162],[45.72546,46.55954],[45.72873,46.56112]],[[45.09717,46.21894],[45.09822,46.23983]],[[45.10007,46.10229],[45.09171,46.10491],[45.09008,46.11574],[45.10158,46.13422],[45.11515,46.14655],[45.11957,46.15192],[45.13746,46.18769],[45.14759,46.20361],[45.15716,46.23187]],[[45.22762,47.37612],[45.22765,47.37102]],[[47.12021,47.11765],[47.11986,47.11538],[47.12198,47.1116],[47.11814,47.10754],[47.12043,47.10428],[47.1192,47.10031],[47.10763,47.0827],[47.09775,47.07848],[47.05893,47.0658],[47.01051,47.02439],[47.00702,47.02016],[46.99911,46.97065],[46.99736,46.96553],[46.97379,46.92714],[46.96596,46.90427],[46.95905,46.8919],[46.95266,46.875],[46.95456,46.86281],[46.95346,46.85835],[46.94954,46.85403],[46.93923,46.84614],[46.93103,46.84797],[46.91258,46.85635],[46.91033,46.85931],[46.87939,46.87827],[46.85915,46.89346],[46.83847,46.89937],[46.79545,46.90928],[46.74271,46.92435],[46.70587,46.94985],[46.6592,46.99894],[46.61772,47.01206],[46.60479,47.01023],[46.59118,47.01433],[46.4986,47.04915],[46.41368,47.07713],[46.40558,47.08149],[46.38815,47.09893],[46.38463,47.10118],[46.32001,47.12032],[46.29611,47.12097],[46.29116,47.12319],[46.24575,47.12765],[46.22292,47.13186],[46.18522,47.1332],[46.14205,47.13168],[46.09356,47.12702],[46.04653,47.12465],[45.96827,47.1078],[45.94053,47.10679],[45.84156,47.10548],[45.80048,47.11255],[45.67613,47.11544],[45.62555,47.11561],[45.59034,47.11222],[45.56337,47.10677],[45.51476,47.09288],[45.50168,47.08786],[45.50183,47.08579],[45.49223,47.08604],[45.49287,47.09062],[45.49587,47.09808],[45.49491,47.11002],[45.49353,47.11287],[45.49023,47.11474],[45.46044,47.12167],[45.45242,47.12489],[45.40592,47.17529],[45.39195,47.22618],[45.39141,47.23059],[45.38988,47.24526],[45.39161,47.2657],[45.39045,47.26858],[45.34588,47.31522],[45.27088,47.34806],[45.26396,47.35303],[45.2486,47.35996],[45.24718,47.36208],[45.25058,47.37485]],[[45.26947,45.89197],[45.26992,45.93445],[45.26734,45.94926],[45.26522,46.03648],[45.28901,46.05441],[45.39061,46.08928]],[[45.27869,47.89301],[45.29184,47.88052]],[[45.33071,46.16737],[45.33713,46.17604]],[[45.33713,46.17604],[45.34087,46.18315],[45.35345,46.17949],[45.35333,46.17826],[45.35868,46.17593]],[[45.3512,46.17016],[45.34379,46.17437],[45.33713,46.17604]],[[45.36396,46.17939],[45.36761,46.17725],[45.38218,46.17535],[45.45534,46.18175],[45.47969,46.1779],[45.4962,46.17406],[45.54232,46.1678],[45.59011,46.15529],[45.61738,46.14337],[45.66218,46.13235],[45.67283,46.12851],[45.73713,46.09632],[45.79602,46.05988],[45.86268,46.0338],[45.8906,46.02706],[45.91425,46.02532]],[[45.3972,47.23124],[45.39141,47.23059]],[[45.43251,47.85608],[45.4173,47.86249]],[[45.42102,47.85637],[45.42942,47.8529],[45.43251,47.85608]],[[45.43251,47.85608],[45.43293,47.85651],[45.44833,47.84974],[45.4534,47.84666],[45.45387,47.84395],[45.44769,47.83238]],[[45.47793,45.82197],[45.47718,45.82498],[45.47179,45.83028],[45.47138,45.83284],[45.47237,45.83466],[45.50043,45.84913],[45.54133,45.89227]],[[45.51004,47.79366],[45.49653,47.80183]],[[45.53688,47.43359],[45.52914,47.42624],[45.56315,47.40969],[45.58472,47.41674],[45.68118,47.40516]],[[45.68132,47.57598],[45.74276,47.58121],[45.75359,47.57911],[45.76771,47.58135],[45.79478,47.58265],[45.79991,47.57952],[45.80293,47.57121],[45.81717,47.56819]],[[45.68201,47.57657],[45.68245,47.57614]],[[45.72086,46.57553],[45.72411,46.57295],[45.72376,46.57092],[45.72873,46.56112],[45.74041,46.54594],[45.76075,46.51162],[45.81824,46.46493],[45.82753,46.45376],[45.83889,46.44357],[45.85026,46.43925],[45.86792,46.43475],[45.89383,46.42381],[45.90273,46.4169],[45.95466,46.38508],[45.9779,46.36658],[45.9855,46.3524]],[[45.75559,47.65433],[45.76236,47.65411],[45.77024,47.65003]],[[45.80273,47.57146],[45.80714,47.55743]],[[45.81717,47.56819],[45.8215,47.56703],[45.82455,47.56475]],[[45.81717,47.56819],[45.82088,47.56731],[45.8215,47.56703],[45.82243,47.56658],[45.82317,47.56619],[45.82449,47.56501],[45.82547,47.56295],[45.82666,47.55334],[45.89502,47.53414],[45.9082,47.5292],[45.92256,47.52115],[45.93247,47.51371],[45.96509,47.49663],[45.97847,47.48633],[45.98143,47.48188],[45.99119,47.47738],[46.02432,47.46609],[46.08346,47.44174],[46.10245,47.43154],[46.11437,47.42364],[46.13416,47.4081],[46.16755,47.38454],[46.18299,47.38279],[46.19707,47.38265],[46.22037,47.38551],[46.30597,47.3803],[46.35324,47.37476],[46.43243,47.3565],[46.43588,47.35077]],[[46.03436,45.33785],[46.03889,45.33469],[46.04043,45.33214],[46.04344,45.33305]],[[46.04344,45.33305],[46.0482,45.33462],[46.04845,45.33675],[46.05115,45.33976]],[[46.04344,45.33305],[46.04573,45.32938],[46.04268,45.32846],[46.04533,45.32364],[46.04512,45.31863]],[[46.06811,44.98159],[46.07093,44.9933],[46.06976,45.00051],[46.0638,45.00982],[46.05965,45.02317],[46.05473,45.03075],[46.0513,45.04328],[46.07364,45.06791],[46.08013,45.07278],[46.09304,45.0793],[46.0914,45.09173],[46.09234,45.09561],[46.09544,45.10141],[46.10774,45.11328],[46.11475,45.12951]],[[46.16761,47.02679],[46.1755,47.02485],[46.23594,47.02796],[46.29208,47.05031]],[[46.29392,47.28813],[46.27547,47.28866],[46.26987,47.28607]],[[46.4361,47.35114],[46.43654,47.35097]],[[46.66686,44.95349],[46.66554,44.95339],[46.66482,44.95153],[46.66702,44.94946],[46.66396,44.93939],[46.66572,44.93383]],[[47.13694,46.11115],[47.13465,46.10746],[47.1333,46.09163],[47.13093,46.07914],[47.12608,46.0709],[47.12969,46.06853],[47.12752,46.05884],[47.12108,46.0411],[47.09007,46.00612],[47.0951,45.99246],[47.09634,45.97554],[47.09076,45.95986],[47.09132,45.95249],[47.09852,45.94379],[47.11512,45.93187]],[[47.36977,45.44398],[47.34513,45.44431],[47.33331,45.44621]],[[47.36131,45.38858],[47.36041,45.38767],[47.36299,45.38375],[47.36001,45.38012],[47.34485,45.37647],[47.3386,45.371],[47.34048,45.36699],[47.33965,45.36417],[47.33607,45.35969],[47.33302,45.35901],[47.33177,45.36108],[47.33012,45.37073],[47.33068,45.37483],[47.32919,45.37512],[47.32908,45.37737],[47.33315,45.39227],[47.33568,45.39313],[47.33742,45.39552]],[[47.36455,45.39166],[47.35534,45.39425],[47.33941,45.39516]],[[47.34171,45.39474],[47.34061,45.39116],[47.35417,45.39125],[47.36131,45.38858]],[[47.36131,45.38858],[47.36455,45.39166],[47.37631,45.40007],[47.35864,45.40475]],[[47.52422,45.63967],[47.52061,45.63918],[47.51872,45.6379],[47.50859,45.62996],[47.50852,45.62988],[47.50696,45.62904],[47.47557,45.6186],[47.4455,45.61168],[47.44358,45.60758],[47.43942,45.60736],[47.43107,45.6096],[47.42927,45.60699],[47.42897,45.60414],[47.43263,45.60373],[47.43161,45.60006]],[[47.50139,45.66419],[47.50222,45.65963],[47.4933,45.6418],[47.49367,45.63947],[47.49524,45.6379],[47.50859,45.62996],[47.5204,45.62278],[47.52206,45.61988],[47.52028,45.6172]],[[44.24445,46.30601],[44.24444,46.30596],[44.24444,46.30594],[44.24445,46.3059],[44.24457,46.30584],[44.24478,46.30594],[44.24445,46.30601]],[[44.52357,47.30822],[44.52376,47.30802],[44.52408,47.30817],[44.5239,47.30836],[44.52357,47.30822]]]}},{"type":"Feature","properties":{"roadClass":"trunk"},"geometry":{"type":"MultiLineString","coordinates":[[[42.09569,45.95678],[42.09565,45.95646]],[[43.43172,46.00526],[43.43549,46.01206],[43.43699,46.0265],[43.45369,46.03901],[43.46701,46.06629],[43.47337,46.07551],[43.47843,46.08681],[43.4818,46.08944],[43.53481,46.10336],[43.63375,46.09824],[43.77579,46.12472],[43.78173,46.12693],[43.92844,46.20249],[43.98173,46.22017]],[[43.98173,46.22017],[44.01044,46.22954],[44.01372,46.23062],[44.02162,46.2334],[44.03297,46.23714],[44.03518,46.23777],[44.04538,46.23847],[44.05503,46.2368],[44.06128,46.23598],[44.06846,46.23603],[44.07277,46.23675],[44.07666,46.23788],[44.08965,46.24356]],[[44.08965,46.24356],[44.07587,46.23783],[44.06841,46.23627],[44.0613,46.23619],[44.05256,46.23771],[44.04623,46.23865],[44.03507,46.23792],[44.01912,46.23277],[44.01331,46.23108],[44.01125,46.2304],[43.98173,46.22017]],[[44.01153,46.2299],[44.01245,46.23051],[44.01125,46.2304]],[[44.01331,46.23108],[44.01253,46.23054],[44.01372,46.23062]],[[44.05322,46.23712],[44.05421,46.23719],[44.05344,46.23755]],[[44.05517,46.23723],[44.05428,46.23719],[44.05503,46.2368]],[[44.08965,46.24356],[44.1547,46.26921],[44.15938,46.27301],[44.17085,46.28665],[44.17615,46.2964],[44.17677,46.29685],[44.18857,46.30332],[44.19127,46.30298],[44.20179,46.30014],[44.22569,46.29202]],[[44.18774,46.30286],[44.18906,46.30325]],[[44.22569,46.29202],[44.22793,46.29034]],[[44.22865,46.291],[44.22569,46.29202]],[[44.22865,46.291],[44.22788,46.29066],[44.22856,46.28977],[44.22994,46.29056]],[[44.22994,46.29056],[44.22865,46.291]],[[44.2299,46.28985],[44.23224,46.28979]],[[44.23224,46.28979],[44.22994,46.29056]],[[44.33759,46.31629],[44.32851,46.27924],[44.26613,46.28231],[44.2409,46.28687],[44.23224,46.28979]],[[44.25933,46.33562],[44.25946,46.34339],[44.26059,46.34737],[44.26441,46.36444],[44.26494,46.36765],[44.26282,46.38629],[44.26039,46.39531]],[[44.26015,46.39582],[44.26272,46.38625],[44.26481,46.36725],[44.25933,46.34339],[44.25933,46.33562]],[[44.33759,46.31629],[44.33796,46.31866],[44.33678,46.32011],[44.32088,46.32609],[44.28382,46.33049],[44.28052,46.32914],[44.26722,46.33206],[44.25933,46.33562]],[[44.31894,46.87878],[44.31111,46.82059],[44.31977,46.70242],[44.2499,46.47183],[44.25027,46.42946],[44.26015,46.39582]],[[44.26039,46.39531],[44.26015,46.39582]],[[44.26039,46.39531],[44.2607,46.39637]],[[44.31894,46.87878],[44.32048,46.88644],[44.32691,46.90401],[44.32831,46.9073],[44.32844,46.90765],[44.32916,46.91004],[44.33042,46.91348],[44.33261,46.91921],[44.33333,46.92046],[44.33364,46.92105],[44.33417,46.9221],[44.34285,46.94019]],[[44.34285,46.94019],[44.33587,46.92605],[44.33368,46.92219],[44.33318,46.92114],[44.33291,46.92054],[44.32784,46.90738],[44.32037,46.88645],[44.31894,46.87878]],[[44.32784,46.90738],[44.32831,46.9073]],[[44.33042,46.91348],[44.33079,46.91361]],[[44.33364,46.92105],[44.33318,46.92114]],[[46.91845,46.28885],[46.89752,46.28831],[46.85855,46.28473],[46.75637,46.28624],[46.74268,46.28738],[46.71567,46.29303],[46.6632,46.29728],[46.60418,46.29424],[46.52814,46.29611],[46.51551,46.29782],[46.48619,46.3062],[46.43315,46.3167],[46.37572,46.31696],[46.33073,46.3232],[46.23564,46.32314],[46.16397,46.33038],[46.11383,46.34082],[46.07493,46.34458],[46.03289,46.3571],[46.02372,46.35877],[46.01619,46.35849],[45.93468,46.34148],[45.8457,46.31002],[45.80051,46.29604],[45.76985,46.28797],[45.72643,46.27905],[45.64111,46.27156],[45.6211,46.26883],[45.60418,46.2644],[45.53206,46.24299],[45.47545,46.22438],[45.36595,46.18039],[45.34158,46.16378],[45.31801,46.17164],[45.28873,46.17968],[45.23228,46.20778],[45.12943,46.24081],[45.11738,46.24191],[45.09822,46.23983],[45.08129,46.23643],[45.0475,46.23624],[45.0136,46.24108],[44.91713,46.2832],[44.90963,46.28532],[44.89999,46.28557],[44.75046,46.27094],[44.66756,46.2643],[44.50528,46.28847],[44.49308,46.29306],[44.39763,46.31318],[44.36796,46.31696],[44.33759,46.31629]],[[44.54167,47.64762],[44.556,47.62506],[44.59516,47.59945],[44.60043,47.58151],[44.62338,47.5514],[44.62539,47.54707],[44.6197,47.46873],[44.61909,47.42099],[44.62017,47.41224],[44.61666,47.40168],[44.61195,47.36676],[44.60787,47.36023],[44.59224,47.3477],[44.5881,47.34088],[44.56922,47.28877],[44.55357,47.25608],[44.54276,47.20247],[44.53457,47.18747],[44.53097,47.18275],[44.51757,47.17088],[44.50497,47.15367],[44.48439,47.11205],[44.46993,47.10068],[44.44661,47.07905],[44.44448,47.07403],[44.4449,47.06827],[44.44392,47.06532],[44.43695,47.05832],[44.4084,47.02344],[44.40205,47.00999],[44.36532,46.98101],[44.36087,46.97641],[44.34285,46.94019]],[[44.5253,47.67596],[44.52474,47.67578]],[[44.53669,47.77958],[44.53373,47.77046],[44.5351,47.74076],[44.5257,47.71182]],[[44.5257,47.71182],[44.51909,47.6923],[44.51879,47.68972],[44.51911,47.68684],[44.52043,47.68332],[44.52419,47.67672],[44.53209,47.66322],[44.54167,47.64762]],[[44.54167,47.64762],[44.53271,47.66332],[44.52726,47.67216],[44.52554,47.67556],[44.5253,47.67596],[44.52474,47.67689],[44.52317,47.67904],[44.52096,47.68275],[44.51933,47.68686],[44.51933,47.6923],[44.5257,47.71182]],[[44.53186,47.66365],[44.5324,47.6638]],[[44.53669,47.77958],[44.5423,47.79055]],[[44.5423,47.79055],[44.53679,47.77992],[44.53669,47.77958]],[[44.54267,47.79124],[44.5423,47.79055]],[[44.54267,47.79124],[44.5473,47.79977]],[[44.54676,47.79988],[44.54267,47.79124]],[[44.55343,47.81277],[44.54676,47.79988]],[[44.54676,47.79988],[44.5473,47.79977]],[[44.5473,47.79977],[44.55389,47.81269]],[[44.55389,47.81269],[44.55373,47.8129],[44.55343,47.81277]],[[44.60638,47.88342],[44.60226,47.87516],[44.59693,47.86083],[44.59474,47.85702],[44.56094,47.82462],[44.55889,47.82219],[44.55746,47.82014],[44.55343,47.81277]],[[44.55389,47.81269],[44.56103,47.8246],[44.59481,47.85699],[44.59707,47.86082],[44.60638,47.88342]],[[44.6874,48.1854],[44.67094,48.14976],[44.67046,48.14667],[44.67577,48.09521],[44.68102,48.08072],[44.6993,47.99214],[44.69923,47.98533],[44.69683,47.98057],[44.69225,47.97628],[44.66863,47.96342],[44.66365,47.95937],[44.65325,47.94417],[44.61318,47.89607],[44.60638,47.88342]],[[46.32576,47.77487],[46.3412,47.77204],[46.38852,47.75444],[46.39324,47.75004],[46.40321,47.73053],[46.42459,47.70247],[46.4464,47.68629],[46.46991,47.67673],[46.51702,47.66351],[46.58019,47.64399],[46.64545,47.62673],[46.6533,47.62264],[46.68936,47.58263],[46.70413,47.57014],[46.72639,47.53628],[46.73617,47.51565],[46.75248,47.49604],[46.75816,47.49138],[46.79044,47.47202],[46.82344,47.44],[46.82775,47.43286],[46.83846,47.40939],[46.8392,47.40484],[46.83842,47.38952],[46.84034,47.38366],[46.85205,47.37143],[46.87075,47.34406],[46.87959,47.33717],[46.90203,47.33292],[46.91326,47.32709],[46.91642,47.32303],[46.92122,47.31311],[46.93313,47.30424],[46.93881,47.29169],[46.95281,47.27092],[46.97735,47.2544],[46.98485,47.24723],[47.00588,47.20725],[47.01577,47.192],[47.02618,47.18004],[47.0388,47.16912],[47.05255,47.16145],[47.08348,47.13382],[47.09384,47.12819],[47.11478,47.11824],[47.13528,47.11743],[47.15961,47.11398],[47.16853,47.11147],[47.20379,47.09737],[47.22348,47.0817]],[[47.14533,45.6106],[47.13617,45.58652],[47.13228,45.56343],[47.12878,45.55425],[47.11203,45.53164],[47.10176,45.50893],[47.08531,45.48732],[47.0707,45.45735],[47.05592,45.43423],[47.0532,45.4315],[47.04825,45.42907],[47.04207,45.42814],[46.92606,45.43304],[46.90006,45.431],[46.89412,45.42748],[46.87134,45.39163],[46.85803,45.36394],[46.84605,45.33021],[46.83842,45.30229],[46.83003,45.28502],[46.82227,45.26308],[46.79152,45.18731],[46.78175,45.15933],[46.77019,45.13091],[46.76016,45.10076],[46.72483,45.01231],[46.7144,44.97751],[46.70446,44.95128],[46.69792,44.94336],[46.68745,44.93721],[46.67273,44.93387],[46.64889,44.9336],[46.6444,44.93143],[46.63562,44.92444],[46.63005,44.91799],[46.6108,44.87517]]]}}],"provenance":{"sources":[{"id":"osm-south-260916","url":"https://download.geofabrik.de/russia/south-fed-district-260916.osm.pbf","snapshot":"2026-09-16T20:21:21Z","sha256":"3ccca698671dbc4d23d4a4fbc8f83bca9ea620c541d0f15c2d60ac03919f99d7","md5":"3ba975cd945a4f9f637abd451290e6d7","bytes":313497295,"license":"ODbL-1.0","attribution":"© OpenStreetMap contributors, Geofabrik","downloadDate":"2026-09-17"}],"attribution":"© OpenStreetMap contributors, Geofabrik; ODbL-1.0","geometryMethod":"Actual OSM road ways, merged by class and endpoint, display simplification 0.0007 degrees; not routing geometry","sourceWayCount":1136,"routingUse":false}}