{"type":"FeatureCollection","features":[{"type":"Feature","properties":{"roadClass":"primary"},"geometry":{"type":"MultiLineString","coordinates":[[[85.88033,51.97961],[85.87256,51.97792],[85.86167,51.97853],[85.8583,51.9782],[85.85561,51.9774],[85.85375,51.9765],[85.85196,51.97517],[85.85075,51.97365]],[[85.85214,51.9751],[85.85348,51.97615],[85.85434,51.97668],[85.85489,51.97695],[85.85521,51.9771],[85.85944,51.97828],[85.87218,51.97777],[85.88033,51.97961]],[[85.85507,51.97582],[85.85489,51.97695]],[[85.88033,51.97961],[85.88113,51.98015]],[[85.89445,51.98372],[85.89392,51.98334]],[[85.90201,52.00381],[85.89805,51.99545],[85.89445,51.98372]],[[85.91887,51.95751],[85.90183,51.96924],[85.8929,51.97726],[85.89445,51.98372]],[[85.90138,52.00414],[85.90201,52.00381]],[[85.90201,52.00381],[85.90282,52.00434]],[[85.90201,52.00381],[85.90227,52.00427]],[[85.90596,52.00476],[85.9062,52.0043]],[[85.9062,52.0043],[85.90703,52.00505]],[[85.90643,52.00486],[85.9062,52.0043]],[[85.9062,52.0043],[85.89982,51.9902],[85.89917,51.98363],[85.90277,51.97934],[85.90307,51.97447],[85.9087,51.97021],[85.91526,51.96851],[85.92434,51.96344],[85.92878,51.95831],[85.93116,51.95708]],[[85.91887,51.95751],[85.92429,51.95392],[85.92522,51.95356],[85.92604,51.95344],[85.92844,51.95368],[85.92953,51.95386],[85.93195,51.95423],[85.93232,51.95429],[85.93239,51.9543],[85.93369,51.95449],[85.9342,51.95459],[85.9497,51.95867],[85.96881,51.95863]],[[85.93229,51.95435],[85.92521,51.95366],[85.91887,51.95751]],[[85.93116,51.95708],[85.93229,51.95435]],[[85.93236,51.95436],[85.93116,51.95708]],[[85.93236,51.95436],[85.93229,51.95435]],[[85.93229,51.95435],[85.93232,51.95429],[85.93245,51.95402],[85.93257,51.95384],[85.93289,51.95357],[85.93346,51.95342],[85.93433,51.95347],[85.941,51.95427],[85.95051,51.95712],[85.95564,51.95709]],[[85.96881,51.95863],[85.94957,51.95875],[85.93236,51.95436]],[[85.95564,51.95709],[85.95092,51.95721],[85.95004,51.95711],[85.93432,51.95352],[85.93291,51.95361],[85.93264,51.95384],[85.93251,51.95404],[85.93239,51.9543],[85.93236,51.95436]],[[85.96881,51.95863],[85.96876,51.95696],[85.95998,51.95701],[85.95585,51.95709],[85.95564,51.95709]],[[85.95564,51.95709],[85.96158,51.95301],[85.96848,51.95199],[85.97415,51.94888],[85.9756,51.9459],[85.97506,51.94209],[85.98161,51.93896],[85.98322,51.93694],[85.98452,51.93],[85.98597,51.92785],[85.98589,51.92366],[85.98972,51.91801],[85.98998,51.91532],[85.99253,51.9109],[85.99229,51.90473],[85.99433,51.90138],[85.99427,51.89663],[86.00062,51.88115],[86.00416,51.8775],[86.00532,51.87177],[86.007,51.87077],[86.01501,51.87069],[86.02228,51.86911]],[[86.02228,51.86911],[86.02439,51.86996],[86.02368,51.87338],[86.02439,51.87488],[86.03145,51.88098],[86.04124,51.8838],[86.06086,51.88548],[86.07279,51.88082],[86.10293,51.87817],[86.11386,51.87259],[86.11688,51.86263],[86.11947,51.85993],[86.13699,51.8543],[86.14842,51.84723],[86.15181,51.84628],[86.15969,51.84697],[86.16458,51.84999],[86.16886,51.85562],[86.17172,51.86036],[86.17113,51.86366],[86.17201,51.86567],[86.17794,51.87011],[86.1806,51.87507],[86.18559,51.87799],[86.18858,51.88138],[86.19349,51.89174],[86.19007,51.89569],[86.19056,51.89721],[86.19532,51.89863],[86.20028,51.89865],[86.20511,51.90092],[86.21802,51.89907],[86.22121,51.89958],[86.2251,51.9026],[86.2269,51.90737],[86.23064,51.91231],[86.24945,51.92095],[86.2624,51.93337],[86.26534,51.94287],[86.2754,51.94843],[86.28327,51.95111],[86.28774,51.955],[86.29172,51.95625],[86.30398,51.95704],[86.31923,51.94851],[86.32478,51.94716],[86.33485,51.94798],[86.34093,51.94242],[86.34657,51.93995],[86.3499,51.94006],[86.35634,51.94408],[86.3604,51.94401],[86.37218,51.94793],[86.37483,51.95116],[86.3856,51.95521],[86.40392,51.96519],[86.40844,51.96855],[86.41012,51.97307],[86.41755,51.98205],[86.42422,51.98456],[86.42907,51.98856],[86.44516,51.99153],[86.44932,51.99339],[86.45108,51.99701],[86.45998,52.00396],[86.46063,52.00688],[86.46587,52.01018],[86.48425,52.01519],[86.501,52.01261],[86.50999,52.00828],[86.51884,52.00748],[86.52198,52.00552],[86.54753,52.00531],[86.54938,52.00979],[86.54777,52.01359],[86.5485,52.0185],[86.55463,52.01816],[86.56468,52.02206],[86.58411,52.02737],[86.60368,52.02797],[86.60536,52.02973],[86.61335,52.0327],[86.61768,52.03667],[86.62268,52.03744],[86.62736,52.04022],[86.63457,52.03932],[86.65514,52.03138],[86.67237,52.03144],[86.67731,52.03314],[86.69081,52.03015],[86.69591,52.03128],[86.70048,52.03411],[86.717,52.0359],[86.71945,52.0382],[86.72255,52.03899],[86.72929,52.03758],[86.73859,52.03865],[86.74555,52.03736],[86.74998,52.03454],[86.7521,52.03451],[86.7595,52.03715],[86.76296,52.04136],[86.76922,52.0453],[86.78316,52.04872],[86.80201,52.04764],[86.81,52.04445],[86.82133,52.0421],[86.86395,52.04591],[86.87207,52.04298],[86.8786,52.03699],[86.89751,52.03488],[86.90934,52.03571],[86.91997,52.02867],[86.9288,52.02499],[86.94898,52.03207],[86.95345,52.03175],[86.96079,52.02568],[86.97897,52.01722],[86.98046,52.01581],[86.98084,52.01111],[86.98279,52.00848],[86.99228,52.00512],[86.99548,52.00159],[87.00087,52.00044],[87.00258,51.99813],[87.01063,51.99488],[87.01218,51.99666],[87.01617,51.99517],[87.02214,51.9969],[87.02246,52.00561],[87.02694,52.01285],[87.03729,52.01338],[87.04424,52.01697],[87.05368,52.02562],[87.07463,52.03317],[87.07552,52.03478],[87.07362,52.04137],[87.07455,52.04284],[87.09418,52.04787],[87.10045,52.04667]],[[86.02228,51.86911],[86.02412,51.86849],[86.02358,51.86933]],[[86.48045,50.78408],[86.46762,50.77907],[86.46149,50.77512],[86.45316,50.77694],[86.44494,50.77206],[86.43788,50.77242],[86.43338,50.77137],[86.42444,50.7649],[86.42473,50.75937],[86.42382,50.75822],[86.41923,50.75676],[86.40884,50.75718],[86.40482,50.74961],[86.40962,50.74688],[86.41036,50.74508],[86.39806,50.73922],[86.39235,50.73813],[86.38548,50.74136],[86.38368,50.73973],[86.38917,50.73663],[86.38915,50.73573],[86.38265,50.73734],[86.37727,50.73501],[86.37201,50.73483],[86.36856,50.73711],[86.36208,50.73892],[86.35962,50.73618],[86.35483,50.73441],[86.35444,50.73011],[86.35276,50.72904],[86.34481,50.73082],[86.33962,50.72924],[86.31132,50.72792],[86.30884,50.72641],[86.30414,50.71774],[86.2975,50.71093],[86.29513,50.71044]],[[86.38399,51.95455],[86.38525,51.95457]],[[87.0836,51.9295],[87.07713,51.93286],[87.06512,51.94295],[87.06413,51.94935],[87.06895,51.95419],[87.07481,51.95741],[87.12578,51.96808],[87.13313,51.9747]],[[87.24703,51.78849],[87.243,51.78755],[87.22496,51.78922],[87.21879,51.79438],[87.2026,51.81371],[87.19258,51.8132],[87.17334,51.81496],[87.16114,51.8201],[87.15876,51.82218],[87.15171,51.8375],[87.14304,51.84472],[87.12281,51.84861],[87.11844,51.85296],[87.10812,51.85766],[87.09668,51.87713],[87.09574,51.88586],[87.10534,51.90601],[87.1036,51.91883],[87.09517,51.92009],[87.08364,51.92944]],[[87.10075,52.04692],[87.10045,52.04667]],[[87.10045,52.04667],[87.10062,52.04665]],[[87.10062,52.04665],[87.101,52.04678]],[[87.10062,52.04665],[87.10146,52.04653]],[[87.101,52.04678],[87.10068,52.04676]],[[87.53013,52.48424],[87.52217,52.48215],[87.51474,52.48175],[87.47313,52.48711],[87.46463,52.48612],[87.44229,52.48081],[87.42819,52.48041],[87.41526,52.48645],[87.41093,52.48687],[87.40673,52.48626],[87.39401,52.48082],[87.3877,52.47478],[87.3868,52.47155],[87.38472,52.47007],[87.38406,52.46676],[87.3816,52.464],[87.3918,52.44925],[87.39041,52.44339],[87.39113,52.43894],[87.39291,52.43618],[87.39146,52.42965],[87.38722,52.42631],[87.3815,52.41894],[87.3757,52.41646],[87.37209,52.41634],[87.3691,52.41445],[87.36854,52.40588],[87.37023,52.40389],[87.37058,52.40138],[87.36425,52.39044],[87.35794,52.38712],[87.35597,52.38496],[87.35752,52.38046],[87.36116,52.37769],[87.36088,52.37589],[87.34391,52.37441],[87.33785,52.37116],[87.33605,52.36816],[87.3309,52.36467],[87.32084,52.36197],[87.30174,52.36323],[87.29732,52.36055],[87.28795,52.35874],[87.28584,52.35571],[87.2863,52.35303],[87.28388,52.35069],[87.282,52.34649],[87.28281,52.34216],[87.27964,52.33988],[87.27924,52.33595],[87.27454,52.33442],[87.27384,52.33195],[87.2756,52.32941],[87.26878,52.32],[87.26975,52.31628],[87.26208,52.31324],[87.26144,52.30597],[87.25794,52.30131],[87.24803,52.29572],[87.24652,52.28792],[87.24031,52.28482],[87.22386,52.2809],[87.21519,52.2717],[87.20968,52.2695],[87.20238,52.2689],[87.20114,52.26616],[87.19338,52.26326],[87.1877,52.25729],[87.1804,52.25322],[87.1741,52.24679],[87.16007,52.24666],[87.15208,52.25021],[87.13711,52.25311],[87.11557,52.2555],[87.11492,52.24873],[87.10554,52.23206],[87.11486,52.22554],[87.11805,52.22186],[87.1207,52.20551],[87.1175,52.19998],[87.11511,52.19832],[87.11254,52.19092],[87.09896,52.18353],[87.09122,52.17727],[87.08553,52.16143],[87.08295,52.15761],[87.08042,52.14837],[87.09264,52.11078],[87.09276,52.09848],[87.09746,52.05059],[87.10075,52.04692]],[[87.101,52.04678],[87.10075,52.04692]],[[87.10146,52.04653],[87.101,52.04678]],[[87.1332,51.97478],[87.13613,51.97821],[87.13622,51.97979],[87.12871,51.98463],[87.12829,51.99167],[87.13019,51.99476],[87.15405,52.01545],[87.15406,52.02115],[87.1521,52.02392],[87.15134,52.03058],[87.14827,52.03595],[87.14071,52.04136],[87.13374,52.04228],[87.13046,52.04409],[87.11359,52.04419],[87.10146,52.04653]],[[87.11593,52.25572],[87.11568,52.25586]]]}},{"type":"Feature","properties":{"roadClass":"secondary"},"geometry":{"type":"MultiLineString","coordinates":[[[84.68238,51.39125],[84.69488,51.3827],[84.70104,51.38064],[84.70899,51.37605],[84.71088,51.37312],[84.71588,51.36995],[84.73301,51.34804],[84.74174,51.33113],[84.75263,51.32335],[84.75087,51.3207],[84.75083,51.31546],[84.75384,51.30739],[84.75802,51.30028],[84.75801,51.29815],[84.75053,51.28117],[84.74788,51.27034],[84.74525,51.26623],[84.74582,51.26247],[84.74435,51.2573],[84.74652,51.25343],[84.74811,51.24682],[84.75235,51.24013],[84.7541,51.23516],[84.75442,51.21211],[84.75874,51.20155],[84.75994,51.1874],[84.75147,51.17507],[84.74987,51.16909],[84.74912,51.1562],[84.7446,51.15016],[84.74321,51.14385],[84.744,51.14122],[84.74846,51.13608],[84.75765,51.13205],[84.7569,51.12909],[84.7618,51.12133],[84.77446,51.11297],[84.78227,51.10918],[84.78677,51.1041],[84.80555,51.09071],[84.81291,51.08318],[84.8169,51.07732],[84.81945,51.071],[84.82733,51.06171],[84.8341,51.05793],[84.85969,51.04743],[84.86789,51.04222],[84.87215,51.03203],[84.87725,51.02451],[84.87672,51.01276],[84.87057,50.99009],[84.87142,50.98576],[84.85366,50.96617],[84.83487,50.95121]],[[85.43162,51.58043],[85.43992,51.57484],[85.44537,51.57266],[85.45035,51.56791],[85.46395,51.56956],[85.4723,51.56858],[85.48193,51.56584],[85.48462,51.56303],[85.4948,51.56066],[85.49859,51.56324],[85.50632,51.56415],[85.51047,51.56789],[85.51878,51.57126],[85.52379,51.57055],[85.52751,51.56858],[85.53388,51.56894],[85.53837,51.56623],[85.54974,51.56345],[85.55374,51.56351],[85.56578,51.57029],[85.56543,51.57146],[85.57662,51.57573]],[[85.76226,51.64178],[85.75209,51.63925],[85.75001,51.6331],[85.73947,51.6296]],[[85.76131,51.65543],[85.76157,51.65506]],[[85.76157,51.65506],[85.76186,51.65552]],[[85.76157,51.65506],[85.76013,51.65082],[85.76226,51.64178]],[[85.76231,51.6414],[85.76195,51.64136]],[[85.76226,51.64178],[85.76231,51.6414],[85.76235,51.63984],[85.76299,51.63749],[85.76587,51.63125],[85.77427,51.62257],[85.7848,51.6189],[85.79901,51.61126],[85.8052,51.60952],[85.81756,51.59977],[85.82603,51.59575],[85.82903,51.59235],[85.84473,51.58148],[85.87571,51.57122],[85.89369,51.56936],[85.90364,51.57173],[85.91177,51.5684],[85.91541,51.56157],[85.91639,51.55542],[85.9156,51.55257],[85.90793,51.54608],[85.90358,51.54396],[85.90268,51.54112],[85.913,51.53682],[85.9212,51.53512],[85.94259,51.52576],[85.94036,51.52283],[85.94013,51.51832],[85.94161,51.51173],[85.94413,51.50814],[85.95854,51.5005],[85.96805,51.49882],[85.9844,51.48892],[85.98701,51.48603],[85.99218,51.47219],[85.988,51.46304],[85.9878,51.45908],[85.98911,51.4569],[85.98726,51.45506],[85.98535,51.44963],[85.98503,51.43656],[86.00109,51.40823],[86.00942,51.40383]],[[85.83163,51.88164],[85.82506,51.88737]],[[85.83108,51.88196],[85.83093,51.88123]],[[85.8439,50.85547],[85.84477,50.85503]],[[85.84462,50.85543],[85.8439,50.85547],[85.84302,50.85552],[85.83567,50.85606],[85.83491,50.85601],[85.82187,50.84915],[85.79342,50.83897],[85.7856,50.84118],[85.76909,50.84269],[85.75152,50.8469],[85.72655,50.84825],[85.70265,50.84318],[85.67099,50.84043],[85.65817,50.83759],[85.65149,50.83779],[85.643,50.83993],[85.63525,50.83897],[85.60179,50.82304],[85.59681,50.81938],[85.58304,50.81656],[85.57669,50.80999],[85.57646,50.80446],[85.57986,50.79644],[85.5825,50.79314],[85.57957,50.78826],[85.57783,50.78081],[85.5657,50.77829],[85.55503,50.77755],[85.53919,50.77995],[85.53678,50.78122],[85.53396,50.78571],[85.53136,50.78752],[85.52728,50.78686],[85.52398,50.78284],[85.51723,50.78011],[85.50375,50.77974],[85.4912,50.78095],[85.47248,50.78749],[85.44338,50.79289],[85.4264,50.7908],[85.40608,50.79012],[85.38696,50.79711],[85.37278,50.79031],[85.36095,50.78894],[85.34388,50.79574],[85.34165,50.79837],[85.33502,50.80189],[85.30947,50.82017],[85.30769,50.82263],[85.29282,50.83131],[85.27557,50.83843],[85.25537,50.83721],[85.24874,50.83948],[85.24219,50.84815],[85.24552,50.85753],[85.24118,50.87166],[85.24096,50.87553],[85.24259,50.88046],[85.23892,50.8824],[85.23727,50.88711],[85.23305,50.88891],[85.2353,50.89296],[85.23337,50.89447],[85.21979,50.89133],[85.19617,50.89238],[85.18293,50.89684],[85.16962,50.8997],[85.14409,50.9023],[85.14163,50.90393],[85.12032,50.90735],[85.10334,50.90764],[85.07345,50.91159],[85.05602,50.92231],[85.02926,50.94131],[85.00532,50.94607],[84.99787,50.94648],[84.9547,50.93236],[84.94125,50.93074],[84.91614,50.93289],[84.89837,50.93631],[84.87716,50.93418],[84.86218,50.9359],[84.85136,50.94066],[84.8392,50.94976],[84.83234,50.95189],[84.81083,50.94474],[84.80103,50.94476],[84.78992,50.9386],[84.78588,50.93778],[84.78141,50.93931],[84.77735,50.93863],[84.76812,50.93526],[84.76575,50.9319],[84.76981,50.93056],[84.77665,50.92428],[84.80635,50.91159],[84.83108,50.90449],[84.8446,50.89765],[84.85281,50.89207],[84.85932,50.88217],[84.87515,50.86399],[84.87579,50.85873],[84.88208,50.85267],[84.8928,50.83707],[84.90268,50.83076],[84.90759,50.82311],[84.93554,50.8061],[84.94298,50.79805],[84.94448,50.79169],[84.93924,50.78674],[84.93696,50.77482],[84.9169,50.75994],[84.91525,50.75627],[84.91965,50.74305],[84.92639,50.73645],[84.931,50.73365],[84.93764,50.72593],[84.93964,50.72137],[84.94573,50.71706],[84.9549,50.70631],[84.96333,50.6989],[84.96924,50.69059],[84.97288,50.68056],[84.97348,50.67562],[84.98117,50.67125],[84.98879,50.66002],[84.98671,50.65822],[84.98245,50.65911],[84.98033,50.65157],[84.97076,50.6387],[84.96193,50.62273],[84.95115,50.61791],[84.94743,50.60281],[84.94859,50.59878],[84.94743,50.5944],[84.95489,50.56411],[84.96395,50.55322],[84.9644,50.5445],[84.97913,50.52231],[84.99509,50.48547],[85.05257,50.43801],[85.06924,50.42827],[85.08903,50.42073],[85.12601,50.41584],[85.14172,50.41204],[85.21372,50.37785],[85.22524,50.36961],[85.23426,50.36816],[85.25265,50.35938],[85.25539,50.35672],[85.25904,50.34898],[85.26815,50.33664],[85.28135,50.32782],[85.2888,50.31945],[85.2966,50.3149],[85.30015,50.31042],[85.30058,50.30595],[85.30207,50.30424],[85.3365,50.29677],[85.3429,50.29243],[85.34952,50.29148],[85.3528,50.29234],[85.36002,50.2968],[85.37259,50.3014],[85.41044,50.30587],[85.41192,50.3066],[85.41354,50.30979],[85.4235,50.31245],[85.42686,50.31087],[85.42911,50.30529],[85.44113,50.29966],[85.45752,50.30001],[85.47045,50.29451],[85.4782,50.29268],[85.48336,50.29338],[85.48782,50.29195],[85.49637,50.292],[85.50571,50.28563],[85.51555,50.28364],[85.53746,50.28671],[85.54251,50.2926],[85.5512,50.29608],[85.56154,50.29916],[85.56671,50.29921],[85.5673,50.30086],[85.57498,50.30037],[85.58063,50.29784],[85.58379,50.29439],[85.58623,50.28902],[85.58508,50.28478],[85.58996,50.27963],[85.60316,50.27322],[85.61525,50.26959],[85.64467,50.27041],[85.66618,50.26756],[85.67558,50.26755],[85.68158,50.26461],[85.88781,50.2251],[85.99365,50.20824],[86.01374,50.19498],[86.02311,50.18717],[86.02291,50.18585],[86.01971,50.18327],[86.02533,50.18152],[86.03034,50.17735],[86.02734,50.17385],[86.02906,50.17339],[86.03468,50.15514],[86.04237,50.15099],[86.04327,50.14743],[86.04642,50.1453],[86.04802,50.14178],[86.05508,50.13904],[86.0789,50.13412],[86.08474,50.13454],[86.10151,50.14041],[86.1215,50.13868],[86.12752,50.13609],[86.1313,50.13604],[86.14163,50.13916],[86.14476,50.13804],[86.15047,50.14224],[86.15433,50.14294],[86.1618,50.14991],[86.16541,50.15058],[86.17715,50.14824],[86.17952,50.14629],[86.18002,50.14333],[86.18367,50.14133],[86.18466,50.13829],[86.19657,50.13254],[86.20038,50.13172],[86.23154,50.13608],[86.24051,50.13504],[86.24968,50.13564],[86.25507,50.13661],[86.27733,50.14757],[86.28486,50.15277],[86.29063,50.15842],[86.29672,50.16098],[86.30374,50.162]],[[87.11557,52.2555],[87.11749,52.26006],[87.13203,52.27485],[87.13041,52.28421],[87.13088,52.28751],[87.12506,52.29156],[87.11945,52.29346],[87.10825,52.29423],[87.10002,52.29257],[87.08795,52.28787],[87.07038,52.28618],[87.05673,52.28772],[87.04275,52.28419],[87.03952,52.28428],[87.03826,52.28524],[87.03641,52.29188],[87.01302,52.31283],[87.00626,52.32347],[87.00655,52.32871],[87.00322,52.33152],[86.99706,52.33361],[86.99277,52.333],[86.98856,52.33014],[86.98607,52.33005],[86.97564,52.33695],[86.96252,52.34175],[86.95274,52.34854],[86.94843,52.35536],[86.93827,52.36064],[86.93542,52.36758],[86.92523,52.37777],[86.92461,52.37973],[86.92672,52.39804],[86.92966,52.4024],[86.92334,52.41314],[86.92399,52.42143],[86.92644,52.4276],[86.92501,52.42989],[86.91922,52.43315],[86.91138,52.4418],[86.89898,52.45062],[86.89265,52.45337],[86.89143,52.45801],[86.88587,52.45893],[86.87256,52.45603],[86.8439,52.45343],[86.83373,52.45381],[86.82557,52.45621],[86.81366,52.45717],[86.77951,52.45468],[86.7638,52.45171],[86.76026,52.45371],[86.74721,52.46843],[86.74183,52.47176],[86.74017,52.47674],[86.73377,52.48062],[86.72983,52.48454],[86.71514,52.4919],[86.69511,52.49451],[86.69284,52.49705],[86.68854,52.49832],[86.68497,52.50122],[86.66432,52.50929],[86.6596,52.51221],[86.65724,52.51634],[86.64792,52.51922],[86.6443,52.52269],[86.64428,52.52472]],[[87.08364,51.92944],[87.0836,51.9295]],[[87.13313,51.9747],[87.1332,51.97478]],[[87.15236,52.02382],[87.15215,52.02378]],[[87.60691,50.31594],[87.60326,50.30845]],[[87.60589,50.30823],[87.60796,50.31324],[87.60691,50.31594]],[[87.60691,50.31594],[87.6157,50.32323],[87.64191,50.3335],[87.64195,50.34107],[87.64423,50.34401],[87.64202,50.34646],[87.64272,50.3491],[87.64147,50.35188],[87.6354,50.35825],[87.63443,50.36214],[87.6322,50.36349],[87.63389,50.36492],[87.63224,50.36743],[87.62524,50.37252],[87.61747,50.38719],[87.61186,50.39217],[87.61006,50.3962],[87.6015,50.40569],[87.59863,50.4117],[87.58802,50.42363],[87.58867,50.42758],[87.58744,50.43029],[87.58836,50.43187],[87.58774,50.43315],[87.59261,50.43533],[87.5942,50.43761],[87.59664,50.43837],[87.61198,50.44962],[87.61312,50.45174],[87.6113,50.45611],[87.61259,50.45949],[87.61118,50.46134],[87.61475,50.46814],[87.6169,50.47121],[87.62939,50.47825],[87.62973,50.48254],[87.6333,50.48691],[87.63376,50.49049],[87.63571,50.49133],[87.6418,50.49872],[87.64762,50.49896],[87.6488,50.50036],[87.65588,50.49971],[87.65931,50.50402],[87.66511,50.50307],[87.67137,50.50616],[87.67588,50.5065],[87.67983,50.51057],[87.68533,50.51096],[87.69858,50.51559],[87.70042,50.51908],[87.69942,50.52061],[87.70103,50.52158],[87.70795,50.52215],[87.7198,50.52725],[87.74239,50.53211],[87.75096,50.53544],[87.75931,50.54133],[87.76556,50.54068],[87.76819,50.54186],[87.77369,50.54066],[87.7772,50.54188],[87.78378,50.54653],[87.79218,50.54944],[87.80099,50.55869],[87.80981,50.55896],[87.8177,50.56136],[87.83095,50.56234],[87.8419,50.56893],[87.84429,50.57159],[87.85116,50.57177],[87.85999,50.57686],[87.86919,50.58353],[87.89227,50.60558],[87.90202,50.61196],[87.90994,50.61366],[87.91272,50.61592],[87.91961,50.61675],[87.93057,50.6203],[87.93685,50.6241],[87.94062,50.62817],[87.95236,50.63249],[87.963,50.63124],[87.96485,50.63417],[87.96762,50.636],[87.97083,50.64133],[87.97055,50.64337],[87.97343,50.64896],[87.97868,50.65431],[87.98061,50.65862],[88.00165,50.67859],[88.01438,50.6939],[88.01555,50.69662],[88.01355,50.69968],[88.01253,50.70419],[88.02096,50.70965],[88.02379,50.71659],[88.0298,50.72246],[88.032,50.72622],[88.03261,50.73068],[88.03709,50.73896],[88.03621,50.74565],[88.03716,50.74953]]]}},{"type":"Feature","properties":{"roadClass":"tertiary"},"geometry":{"type":"MultiLineString","coordinates":[[[84.76576,50.93197],[84.76551,50.93174],[84.76502,50.93142],[84.76326,50.93023],[84.76231,50.92956],[84.76195,50.92927],[84.75956,50.92667],[84.75807,50.9263],[84.73115,50.93446],[84.72476,50.94085],[84.71889,50.9417],[84.70964,50.94066],[84.69217,50.94477],[84.68459,50.94943],[84.65307,50.95141],[84.61605,50.95167],[84.59371,50.95576],[84.58625,50.96072],[84.56547,50.96888],[84.54875,50.97119],[84.53193,50.97826],[84.51707,50.97897],[84.51069,50.98288],[84.49475,50.98579],[84.47884,50.99563],[84.46385,51.00025],[84.46096,51.00328],[84.44996,51.00685],[84.44438,51.00756],[84.44188,51.00955],[84.42898,51.01023],[84.42058,51.0124],[84.41238,51.01311],[84.39202,51.01832],[84.38747,51.01546],[84.36673,51.01402],[84.35206,51.01108],[84.34592,51.01576],[84.33464,51.01873],[84.32376,51.01722],[84.31882,51.01811],[84.31166,51.0159],[84.30677,51.01716],[84.30228,51.02146],[84.28944,51.02962],[84.27376,51.03514],[84.26463,51.03574],[84.25664,51.03799],[84.22297,51.04331],[84.22097,51.044],[84.22039,51.0462],[84.21619,51.04707],[84.2023,51.04755],[84.1954,51.04959],[84.18948,51.04894],[84.17072,51.05054],[84.16639,51.05261],[84.16513,51.05522],[84.1623,51.05723],[84.14831,51.05134],[84.14254,51.05311],[84.13073,51.05437],[84.12124,51.06112],[84.11072,51.07092],[84.10971,51.07668],[84.10677,51.08082],[84.09766,51.08646],[84.09127,51.08841],[84.08926,51.09206],[84.08694,51.09382],[84.08213,51.09275],[84.0815,51.08774],[84.07899,51.08285],[84.07731,51.08024],[84.07313,51.07721],[84.06887,51.07596],[84.06083,51.07696],[84.04725,51.0758],[84.04437,51.08148],[84.04528,51.09002],[84.04263,51.09594],[84.03513,51.10098]],[[84.99472,50.48512],[84.97518,50.48373],[84.97242,50.48272],[84.95765,50.48445],[84.91838,50.46823],[84.9118,50.46641],[84.90563,50.46803],[84.90064,50.46765],[84.89689,50.46964],[84.89239,50.46967],[84.88226,50.45844],[84.8837,50.45206],[84.87418,50.4488],[84.86678,50.44833],[84.8546,50.44076],[84.8486,50.4405],[84.82851,50.43303],[84.82197,50.43484],[84.81429,50.43449],[84.8031,50.43572],[84.79129,50.43813],[84.78137,50.44237],[84.75975,50.4445],[84.75226,50.43699],[84.74536,50.43323],[84.7365,50.43051],[84.70814,50.42492],[84.69272,50.4192],[84.67736,50.40816],[84.6715,50.39666],[84.66553,50.39439],[84.65474,50.38492],[84.64662,50.38694],[84.64513,50.38925],[84.6414,50.38983],[84.63214,50.39426],[84.62756,50.39494],[84.61804,50.39516],[84.61735,50.39273],[84.6044,50.39406],[84.58282,50.3913],[84.57148,50.39337],[84.55667,50.39438],[84.55035,50.39712],[84.52558,50.39624],[84.51645,50.40051],[84.49766,50.39728],[84.47308,50.40002],[84.47083,50.40268],[84.45133,50.40165],[84.44254,50.40385],[84.44131,50.40181],[84.43573,50.39835],[84.43456,50.39577],[84.42818,50.39007],[84.4229,50.38925],[84.41475,50.39265],[84.40731,50.39875],[84.40256,50.40092],[84.39852,50.40127],[84.38988,50.39974],[84.38261,50.40524],[84.37865,50.40651],[84.37711,50.41056],[84.37422,50.4093],[84.36599,50.41062],[84.36068,50.4134],[84.3562,50.41183],[84.35344,50.41307],[84.34827,50.40932],[84.34332,50.40752],[84.31199,50.40681],[84.30312,50.40546],[84.30107,50.40383],[84.29694,50.3937],[84.29193,50.39021],[84.28805,50.39],[84.28553,50.38467],[84.28227,50.38206],[84.28107,50.37823],[84.27094,50.37589],[84.25507,50.36952]],[[84.69676,51.38175],[84.69036,51.38254],[84.68533,51.37958],[84.67969,51.36957],[84.68113,51.36628],[84.68036,51.36195],[84.68273,51.36096],[84.69235,51.34595],[84.69448,51.33612],[84.69457,51.33042],[84.69135,51.32052],[84.68166,51.31136],[84.66276,51.3032],[84.63786,51.29953],[84.62425,51.2996],[84.59275,51.29156],[84.58103,51.29009]],[[84.66453,51.19364],[84.68804,51.19834],[84.70204,51.20331],[84.72185,51.2165],[84.72862,51.21914],[84.73411,51.21934],[84.74847,51.22842],[84.75389,51.22985]],[[84.68684,50.94844],[84.68837,50.95155],[84.68871,50.95577],[84.68727,50.95843],[84.68436,50.95971],[84.68575,50.96618]],[[84.75195,51.32444],[84.79076,51.30446],[84.79855,51.29601],[84.80877,51.28761],[84.84699,51.26494],[84.87751,51.2444],[84.8943,51.23092],[84.90763,51.22321],[84.9211,51.20467],[84.92196,51.20037],[84.92609,51.19226],[84.92897,51.18949],[84.92911,51.18488],[84.9334,51.17228],[84.93755,51.16694],[84.94332,51.16175],[84.94904,51.15938],[84.95264,51.15923],[84.96684,51.15188],[84.97643,51.14906],[84.99243,51.13942],[84.99567,51.13531],[85.00185,51.12258],[85.00979,51.11588],[85.02159,51.10877],[85.02329,51.10151],[85.0297,51.09583],[85.02551,51.09384],[85.02335,51.08908],[85.02111,51.08748],[85.01619,51.08876],[85.01608,51.08492],[85.01226,51.0823],[84.99915,51.07829],[84.98626,51.07708],[84.98053,51.07801],[84.9708,51.07752],[84.95846,51.07924],[84.94617,51.07706],[84.92364,51.06936],[84.9083,51.06214],[84.89408,51.05349],[84.88255,51.05177],[84.87343,51.04767],[84.86691,51.04286]],[[84.75261,51.32308],[84.7543,51.32312]],[[84.76231,50.92956],[84.77142,50.92244],[84.77842,50.91886],[84.78192,50.922]],[[84.76522,50.93155],[84.76597,50.93167]],[[84.87864,50.85554],[84.87429,50.85271],[84.86842,50.84658],[84.84721,50.81616],[84.83725,50.81198],[84.83048,50.80614],[84.8128,50.7958],[84.813,50.79484]],[[84.93554,50.8061],[84.93949,50.80753],[84.94841,50.80787],[84.95519,50.802]],[[85.16464,51.39866],[85.15089,51.40184],[85.15062,51.40522],[85.14743,51.41194],[85.13989,51.41406],[85.13958,51.42368],[85.13398,51.42868],[85.11863,51.43721],[85.10886,51.44474],[85.10196,51.44859],[85.09947,51.44852],[85.09607,51.4454],[85.08483,51.45355],[85.07792,51.45709],[85.07132,51.46351],[85.04585,51.48001],[85.04545,51.48168],[85.0477,51.48667],[85.04792,51.49296],[85.04516,51.49728],[85.04021,51.49981],[85.03581,51.49487],[85.03493,51.49022],[85.02677,51.48248],[85.02548,51.47813],[85.02674,51.47562],[85.02619,51.47049],[85.02998,51.46171],[85.03055,51.45682],[85.0282,51.44669],[85.02507,51.44246],[85.02116,51.43946],[85.01813,51.43981],[85.00789,51.43717],[84.99026,51.43032],[84.96162,51.41133],[84.95752,51.40458]],[[84.99509,50.48547],[84.99472,50.48512]],[[84.99472,50.48512],[84.99563,50.48498]],[[85.16464,51.39866],[85.16679,51.39684],[85.16701,51.39232],[85.16416,51.38845],[85.17143,51.37535],[85.17036,51.36981],[85.174,51.3591],[85.17367,51.3566],[85.17819,51.35188],[85.17746,51.35023],[85.17229,51.34654],[85.17087,51.34304],[85.181,51.33577],[85.1851,51.33479],[85.18851,51.33226],[85.19683,51.32169],[85.19775,51.31432],[85.19353,51.30037],[85.19486,51.29433],[85.2102,51.2818],[85.21174,51.27801],[85.23464,51.26372],[85.26119,51.24395],[85.26653,51.235],[85.26976,51.23171],[85.26636,51.22616],[85.26649,51.22024],[85.27313,51.20787],[85.28107,51.2026],[85.2819,51.1987],[85.27562,51.1928],[85.2669,51.18866],[85.25914,51.18158],[85.2472,51.17308],[85.24514,51.16588],[85.23906,51.15523],[85.23695,51.14652],[85.23855,51.13435],[85.23808,51.13035],[85.24168,51.12272],[85.24055,51.11763],[85.24169,51.11364],[85.23843,51.10493],[85.22799,51.09546],[85.21968,51.09162],[85.21407,51.08997],[85.20516,51.09002],[85.19482,51.08844],[85.1772,51.08101],[85.16525,51.07467],[85.15527,51.06267],[85.15163,51.04822],[85.14629,51.0393],[85.13128,51.03251],[85.1272,51.02881],[85.12704,51.02563],[85.12241,51.02559],[85.11987,51.02445],[85.12029,51.01907],[85.12192,51.01681],[85.10781,51.00139],[85.10311,50.98998],[85.07631,50.9766],[85.05801,50.96112],[85.04717,50.95396],[85.04119,50.9451],[85.03273,50.93906]],[[85.49545,51.56066],[85.49422,51.55611],[85.49548,51.55211],[85.4871,51.54854],[85.48267,51.54471],[85.47454,51.54115],[85.4674,51.53512],[85.4637,51.52808],[85.46252,51.51878],[85.45541,51.51373],[85.45237,51.50905],[85.44629,51.50672],[85.43481,51.50503],[85.42949,51.50209],[85.42461,51.49404],[85.4243,51.48755],[85.42209,51.48576],[85.40427,51.48431],[85.39129,51.48074],[85.37635,51.47066],[85.36559,51.46166],[85.36258,51.4604],[85.34966,51.45941],[85.33445,51.46375],[85.32341,51.4654],[85.30927,51.46315],[85.29753,51.45745],[85.29026,51.45595],[85.25361,51.46022],[85.24449,51.45728],[85.23693,51.45685],[85.22915,51.45486],[85.22643,51.45179],[85.22393,51.44319],[85.21333,51.43153],[85.21009,51.41687],[85.21157,51.4161],[85.21096,51.41449],[85.21213,51.41365],[85.20961,51.40965],[85.2,51.40513],[85.18945,51.40716],[85.18448,51.40664],[85.17185,51.40269],[85.16464,51.39866]],[[85.26979,51.23143],[85.27702,51.22519],[85.28085,51.21627],[85.28937,51.20797],[85.29102,51.19814],[85.28515,51.19435],[85.27822,51.19164],[85.27479,51.19233]],[[85.46341,51.52689],[85.45657,51.51785],[85.43875,51.50877],[85.43764,51.5062],[85.43541,51.50519]],[[85.61164,51.27825],[85.61297,51.28183],[85.61146,51.28275],[85.60636,51.28148],[85.59009,51.28194],[85.57924,51.28391],[85.57088,51.28898],[85.57084,51.29285],[85.57371,51.29872],[85.57317,51.3038],[85.57806,51.31665],[85.57758,51.32002],[85.58041,51.32526],[85.58076,51.32578],[85.58181,51.32707],[85.57967,51.32965],[85.57394,51.33282],[85.57028,51.33167],[85.56711,51.3329],[85.56255,51.33214],[85.56293,51.33784],[85.55103,51.34296],[85.54192,51.343],[85.51225,51.35045],[85.50362,51.34928],[85.49751,51.34572],[85.4964,51.3464],[85.49669,51.34914],[85.49501,51.35025],[85.49436,51.3489],[85.49214,51.3505],[85.48733,51.34909],[85.49097,51.35691],[85.48765,51.36069],[85.47983,51.36647],[85.47376,51.36945],[85.46743,51.3712],[85.45965,51.37083],[85.45834,51.37173]],[[85.59823,50.27531],[85.59547,50.27055],[85.59036,50.27097],[85.58894,50.26635],[85.59247,50.26286],[85.58388,50.25669],[85.58,50.25157],[85.56461,50.24764],[85.5551,50.24905],[85.54912,50.24798],[85.54578,50.24584],[85.5401,50.24624],[85.52317,50.23582],[85.51944,50.23125],[85.51567,50.23075],[85.50761,50.2269],[85.50541,50.22278],[85.49823,50.21928],[85.47279,50.18765],[85.46401,50.17263],[85.46264,50.164],[85.46609,50.1533],[85.46582,50.1433],[85.46839,50.13957],[85.47207,50.13837],[85.47361,50.13518],[85.47186,50.12904],[85.46171,50.11551]],[[85.55908,50.76701],[85.55812,50.77072],[85.55865,50.77589],[85.56067,50.77795]],[[85.57199,51.55174],[85.569,51.56176],[85.56961,51.57285]],[[85.57148,51.51829],[85.57797,51.51382],[85.58905,51.50963],[85.60004,51.5071],[85.61427,51.50844],[85.62184,51.51283],[85.63291,51.51666],[85.64399,51.51782],[85.65879,51.51661],[85.67253,51.52395]],[[85.58076,51.32578],[85.58574,51.32486],[85.58942,51.32258],[85.59167,51.3233],[85.59491,51.32654],[85.60223,51.3258],[85.61148,51.32883]],[[85.61164,51.27825],[85.60493,51.27239],[85.60586,51.27024]],[[85.66627,51.27921],[85.65907,51.28032],[85.65324,51.27706],[85.64754,51.27651],[85.61164,51.27825]],[[85.64178,50.27039],[85.65052,50.27716],[85.65399,50.2816],[85.6743,50.28565],[85.71255,50.28804],[85.71584,50.29179],[85.72193,50.30342],[85.73086,50.31179],[85.73457,50.31711],[85.7364,50.31777],[85.73971,50.31719],[85.74194,50.31549],[85.74858,50.31522],[85.7589,50.31892],[85.76476,50.31896]],[[85.66627,51.27921],[85.6607,51.26828]],[[85.6713,51.32197],[85.67575,51.30824],[85.67873,51.3039],[85.6793,51.29687],[85.6682,51.28781],[85.6687,51.28475],[85.66627,51.27921]],[[85.67838,51.29578],[85.68808,51.28866],[85.71772,51.27406],[85.72608,51.27592],[85.73762,51.27439],[85.74298,51.27646],[85.74519,51.27484],[85.75129,51.27592],[85.75499,51.27515],[85.75749,51.27253],[85.7624,51.27113],[85.76376,51.26752],[85.77209,51.26571],[85.77692,51.25797],[85.77919,51.25606],[85.78174,51.25618],[85.78028,51.25484],[85.78175,51.25082],[85.78105,51.24925],[85.79063,51.24395],[85.7908,51.24199],[85.79921,51.23891],[85.81671,51.23576],[85.81533,51.23759],[85.81794,51.24145],[85.83647,51.2424],[85.84698,51.24605],[85.85412,51.24502],[85.86998,51.24026],[85.87372,51.23844],[85.87559,51.2355],[85.87803,51.23431],[85.90702,51.23283],[85.9135,51.23387],[85.91329,51.22997],[85.91565,51.22741],[85.91522,51.22482],[85.91671,51.22002],[85.91555,51.21679],[85.91561,51.21084],[85.92171,51.20263],[85.92302,51.2021],[85.92511,51.20343],[85.92478,51.20021],[85.92684,51.19522],[85.92693,51.18851],[85.92959,51.1793],[85.93326,51.1774],[85.93732,51.17331],[85.94009,51.16586],[85.93985,51.16031],[85.93615,51.15452],[85.93434,51.14164],[85.93679,51.13616],[85.93558,51.13272],[85.93654,51.12818],[85.9419,51.12426],[85.94962,51.12399],[85.94892,51.12207],[85.94992,51.11737],[85.95297,51.11501],[85.9661,51.11083],[85.98161,51.11096]],[[85.72923,50.2557],[85.72861,50.23683],[85.72397,50.22641],[85.7206,50.22161],[85.7303,50.21568],[85.73849,50.21527],[85.74845,50.21261],[85.75615,50.21743],[85.76398,50.21009],[85.76988,50.20674],[85.79694,50.20244],[85.80063,50.19903],[85.80404,50.19776],[85.82284,50.1974],[85.83378,50.19849],[85.84606,50.19704],[85.8516,50.19453],[85.85943,50.19454],[85.86695,50.19033],[85.88082,50.18557],[85.88715,50.18102],[85.90257,50.17672],[85.91046,50.17222],[85.95897,50.16902]],[[85.74262,51.78681],[85.7464,51.78696]],[[85.78575,51.82127],[85.78881,51.81809],[85.79659,51.82145],[85.80203,51.8196],[85.79846,51.81547]],[[85.93646,50.81659],[85.93071,50.81173],[85.93115,50.81033],[85.92291,50.79932],[85.91213,50.79539],[85.90648,50.79146],[85.90145,50.78405],[85.87689,50.76684],[85.86592,50.76097],[85.85506,50.7617],[85.85387,50.75907],[85.83989,50.75413],[85.83175,50.74786],[85.82485,50.74506],[85.81574,50.73931],[85.80994,50.73099],[85.80339,50.7279],[85.79508,50.72118],[85.78627,50.71254],[85.78222,50.70641],[85.77676,50.69525],[85.78366,50.68715],[85.78705,50.68673]],[[85.83537,50.22171],[85.83959,50.23474]],[[85.85443,51.97963],[85.85465,51.9796]],[[85.85465,51.9796],[85.85452,51.97973]],[[85.85465,51.9796],[85.87173,51.97812],[85.88774,51.98164],[85.8924,51.98224],[85.89392,51.98334]],[[85.87753,51.97927],[85.87774,51.97898]],[[85.88003,51.97991],[85.88033,51.97961]],[[85.89249,52.0318],[85.90484,52.04653],[85.90917,52.05676],[85.90932,52.06005]],[[85.89392,51.98334],[85.89437,51.98339]],[[85.89392,51.98334],[85.89428,51.98307]],[[85.9072,51.96574],[85.91154,51.96914]],[[85.93098,52.07198],[85.91059,52.06972]],[[85.913,51.53682],[85.91142,51.53495],[85.91385,51.53198],[85.92558,51.52526],[85.92815,51.5213],[85.9336,51.51631],[85.93859,51.50569],[85.94256,51.50128],[85.94984,51.49831],[85.95231,51.49994],[85.96488,51.49561],[85.96491,51.49427],[85.97755,51.48751],[85.98179,51.48404],[85.98412,51.47661],[85.98441,51.46504],[85.98239,51.459],[85.98252,51.4521],[85.97863,51.44904],[85.97718,51.44232]],[[85.91334,51.95029],[85.91431,51.94943],[85.91453,51.94467],[85.91905,51.93429],[85.91594,51.92961],[85.91068,51.9313],[85.90999,51.936],[85.91223,51.94085],[85.91176,51.94783],[85.91383,51.9516],[85.91327,51.9546],[85.9167,51.95869]],[[85.92439,52.0504],[85.93367,52.04948],[85.94198,52.05111],[85.94963,52.04969],[85.9619,52.0543],[85.98459,52.05371],[85.98964,52.05193],[85.99667,52.05129],[86.00042,52.0488],[86.03082,52.04223],[86.03901,52.04328],[86.04407,52.0479],[86.04416,52.05177],[86.04586,52.05406],[86.04868,52.05524],[86.05585,52.05522],[86.06498,52.04921]],[[85.93172,52.07355],[85.93098,52.07198]],[[85.93098,52.07198],[85.93159,52.07097]],[[85.93213,50.21798],[85.9482,50.24325],[85.95176,50.25376],[85.95233,50.26033]],[[85.95567,51.9588],[85.95564,51.95709]],[[85.95897,50.16902],[85.9561,50.15845]],[[85.98167,50.21034],[85.98027,50.20792],[85.96969,50.20102],[85.96487,50.1948],[85.95925,50.19135],[85.96028,50.18329],[85.95701,50.18118],[85.96,50.17636],[85.95897,50.16902]],[[85.9629,50.81598],[85.97492,50.81956],[85.97876,50.82572],[85.97782,50.83531],[85.97405,50.847],[85.97563,50.85031],[85.97478,50.85349],[85.97641,50.85635]],[[85.96876,51.95696],[85.96845,51.94569],[85.97142,51.93961],[85.97825,51.93057],[85.97857,51.92617]],[[85.99606,51.96616],[85.98627,51.96196],[85.98074,51.96147],[85.97869,51.95939],[85.96881,51.95863],[85.96788,51.96076],[85.99237,51.9715],[86.0037,51.97375]],[[86.00368,51.98738],[86.00199,51.97996],[86.0037,51.97375]],[[86.0037,51.97375],[86.01471,51.97296]],[[86.00942,51.40383],[86.01613,51.40284],[86.0225,51.39906],[86.02311,51.3964],[86.02181,51.3929],[86.01441,51.38786],[86.01324,51.38344],[86.01988,51.37278],[86.02695,51.36972],[86.03175,51.36562],[86.03524,51.35443],[86.0321,51.34894],[86.01899,51.33762],[86.01817,51.33385],[86.01916,51.32669],[86.02351,51.32],[86.03596,51.30942],[86.044,51.29973],[86.04602,51.29557],[86.0519,51.29109],[86.05216,51.28901],[86.04945,51.28104],[86.0518,51.27424],[86.06931,51.26177],[86.07034,51.25527],[86.06441,51.24223],[86.06527,51.23861],[86.07376,51.2335],[86.08286,51.23238],[86.09112,51.2272],[86.09227,51.22417],[86.09209,51.22016],[86.0869,51.21246],[86.08433,51.19748],[86.08701,51.18879],[86.09327,51.18263],[86.09794,51.17972],[86.12504,51.16728],[86.13919,51.16349],[86.17257,51.16348],[86.18519,51.15844],[86.18952,51.15373],[86.18888,51.15074],[86.17317,51.13128],[86.17073,51.12511],[86.16522,51.12041],[86.16243,51.11565],[86.15409,51.1077],[86.15345,51.10643],[86.15479,51.10375],[86.17125,51.0955],[86.19102,51.10436],[86.20029,51.1052],[86.21078,51.11175],[86.22741,51.11169],[86.23128,51.1136],[86.24225,51.11124],[86.24767,51.11213],[86.25977,51.11105]],[[86.02119,51.96268],[86.02103,51.96276]],[[86.02412,51.86849],[86.02365,51.86936]],[[86.02412,51.86849],[86.02439,51.86996]],[[86.02412,51.86849],[86.03118,51.86112],[86.03141,51.85538],[86.0252,51.85206],[86.02926,51.84292],[86.03235,51.84075],[86.0324,51.82962],[86.03532,51.82633],[86.04617,51.80489],[86.04863,51.79583],[86.05235,51.79201],[86.05233,51.78531],[86.05495,51.78273],[86.05509,51.77869],[86.05709,51.7743],[86.06112,51.77228],[86.07454,51.77084],[86.08624,51.76405],[86.09158,51.75779],[86.09866,51.75403],[86.11303,51.74209],[86.12052,51.73309],[86.1208,51.72974],[86.12352,51.72739],[86.12479,51.72385],[86.13467,51.72139],[86.1428,51.71772],[86.1624,51.71833],[86.18152,51.71561],[86.18684,51.71378],[86.19701,51.70467],[86.20043,51.69804],[86.20636,51.6905],[86.20983,51.68885],[86.20937,51.68793]],[[86.12962,50.7588],[86.13308,50.75541],[86.13761,50.75316],[86.13379,50.74967],[86.14958,50.73782],[86.15341,50.73664],[86.16287,50.73718],[86.16914,50.73636]],[[86.13761,50.75285],[86.14379,50.7515],[86.14568,50.75229]],[[86.20439,51.69296],[86.20148,51.6881],[86.20171,51.68511],[86.20932,51.66406],[86.20739,51.65678],[86.20571,51.65462],[86.20668,51.65072],[86.20492,51.64526],[86.20639,51.64245],[86.21115,51.64056],[86.2179,51.64542],[86.22663,51.64414],[86.244,51.64578],[86.2543,51.64935],[86.26309,51.64813],[86.26845,51.65001],[86.27359,51.65017],[86.27719,51.64895],[86.28187,51.63974],[86.28744,51.63485],[86.2947,51.63279],[86.29908,51.62661],[86.30575,51.62596],[86.31505,51.629],[86.31583,51.62613],[86.32061,51.62309],[86.32531,51.61816],[86.33101,51.61553],[86.33562,51.60898],[86.35212,51.59571],[86.35511,51.58778],[86.35811,51.5837],[86.35951,51.5738],[86.36167,51.57035],[86.36275,51.56412],[86.36934,51.55789],[86.37302,51.54769],[86.37683,51.54142],[86.38063,51.52912]],[[86.34887,51.93399],[86.34757,51.93459],[86.34754,51.93654],[86.34549,51.93881],[86.34628,51.94005]],[[86.54806,52.00548],[86.54902,52.00163],[86.54186,51.99301],[86.5386,51.98634],[86.53967,51.97893],[86.53406,51.96677],[86.53931,51.96786],[86.5597,51.96263],[86.56244,51.95944],[86.57076,51.95517],[86.57382,51.94637],[86.58284,51.93807],[86.58667,51.91872],[86.58879,51.91362],[86.59172,51.91003],[86.59195,51.90698],[86.59398,51.9034],[86.60247,51.89829],[86.60597,51.89791],[86.61596,51.89941],[86.63245,51.89886],[86.63557,51.90037],[86.63946,51.89998],[86.64376,51.90345],[86.64719,51.90178],[86.65399,51.90367],[86.6617,51.90077],[86.66714,51.90139],[86.66969,51.8982],[86.6747,51.89643],[86.67703,51.89985],[86.67838,51.89754],[86.68302,51.89691],[86.69192,51.8996],[86.70069,51.90044],[86.70742,51.89819],[86.72046,51.89683],[86.72392,51.89216],[86.73333,51.88636],[86.73558,51.87932],[86.73692,51.87821],[86.73584,51.87715],[86.73692,51.87602],[86.73677,51.87178],[86.73907,51.86762],[86.73869,51.86352],[86.74264,51.86105],[86.74827,51.853],[86.74626,51.84637],[86.74738,51.84286],[86.75129,51.84215],[86.75579,51.83906],[86.75778,51.83519],[86.76435,51.82947],[86.77405,51.82847],[86.77981,51.82658],[86.7834,51.82411],[86.79222,51.82384],[86.79335,51.82179],[86.79289,51.81865],[86.79059,51.81572],[86.78619,51.81353],[86.78348,51.81002],[86.78554,51.80896],[86.79109,51.81122],[86.79446,51.8104],[86.79318,51.80714],[86.78752,51.80045],[86.78625,51.79616],[86.78002,51.794],[86.76899,51.78703],[86.7505,51.78706],[86.73955,51.77926],[86.73862,51.77563],[86.7217,51.76073],[86.71335,51.76044],[86.70443,51.76423],[86.69167,51.76723],[86.68977,51.76144],[86.69049,51.75802],[86.68677,51.7573],[86.68122,51.76346],[86.67854,51.76498],[86.6762,51.76585],[86.67317,51.76509],[86.65673,51.77366],[86.62623,51.78326],[86.62041,51.78343],[86.60595,51.78039],[86.59114,51.781],[86.57022,51.77838],[86.52128,51.78912],[86.50904,51.79372],[86.50035,51.80107],[86.48181,51.80217],[86.48027,51.80425],[86.48073,51.80736],[86.47786,51.81144],[86.47315,51.82376],[86.47454,51.82627],[86.47344,51.82948],[86.46726,51.83982],[86.458,51.85056],[86.45565,51.85218],[86.44661,51.85375],[86.44443,51.85721],[86.43975,51.85891],[86.41975,51.86164],[86.40995,51.86111],[86.40365,51.86286],[86.39418,51.8719],[86.3948,51.87567],[86.39235,51.88831],[86.38697,51.89667],[86.38851,51.90213],[86.38657,51.93514],[86.39021,51.94682],[86.38497,51.95492]],[[86.38525,51.95457],[86.3856,51.95521]],[[86.48284,50.7849],[86.48045,50.78408]],[[86.48884,52.06074],[86.49194,52.0574],[86.49003,52.05595],[86.48961,52.05416],[86.49426,52.05241],[86.50112,52.05278],[86.50259,52.04843],[86.50813,52.04806],[86.51126,52.04527],[86.51471,52.04734],[86.51799,52.04736],[86.522,52.04465],[86.5275,52.04656],[86.53301,52.04369],[86.53983,52.03852],[86.53936,52.03512],[86.54135,52.03222],[86.53897,52.02918],[86.54145,52.02516],[86.54088,52.02132],[86.54586,52.01807],[86.54829,52.01839]],[[86.54785,52.01816],[86.54815,52.01811]],[[86.62793,50.4554],[86.63147,50.45803],[86.63454,50.45553],[86.63533,50.45346],[86.64312,50.45108],[86.64943,50.45236],[86.65538,50.45162],[86.66143,50.45304],[86.66604,50.45254],[86.67504,50.44856],[86.67753,50.44848]],[[87.09964,52.04679],[87.09467,52.04393],[87.09307,52.03882],[87.08891,52.03613]],[[87.0909,51.85973],[87.09615,51.86291],[87.10178,51.8682]],[[87.09281,52.10907],[87.09693,52.1065],[87.1032,52.11093],[87.11229,52.11324],[87.11129,52.1234]],[[87.10428,51.90938],[87.10679,51.90975],[87.10787,51.9118],[87.11214,51.91278],[87.11859,51.91323],[87.1251,51.91214]],[[87.64753,51.93904],[87.6453,51.94043],[87.64193,51.94025],[87.62671,51.9488],[87.61616,51.96844],[87.61262,51.96982],[87.6059,51.97138],[87.59208,51.96907],[87.58237,51.97021],[87.57143,51.96859],[87.56093,51.96918],[87.55893,51.96991],[87.55697,51.97256],[87.55271,51.97264],[87.54537,51.97883],[87.5383,51.98092],[87.53478,51.98112],[87.52657,51.97826],[87.51963,51.97778],[87.51832,51.97928],[87.51816,51.98255],[87.51969,51.987],[87.51764,51.99358],[87.51808,51.99883],[87.51434,52.0017],[87.51265,52.00485],[87.50584,52.00892],[87.48609,52.00854],[87.47559,52.00458],[87.47213,52.00647],[87.46907,52.0116],[87.4654,52.01353],[87.46065,52.0139],[87.45911,52.01541],[87.45743,52.01482],[87.45339,52.00939],[87.45154,52.00876],[87.44746,52.01057],[87.44639,52.0123],[87.44225,52.01224],[87.43343,52.01499],[87.42642,52.01498],[87.41968,52.01665],[87.41274,52.02134],[87.40524,52.01842],[87.3991,52.02014],[87.38231,52.02052],[87.37496,52.01819],[87.36104,52.00758],[87.3449,52.00436],[87.33927,51.99844],[87.3316,51.9973],[87.3281,51.99524],[87.3213,51.99744],[87.31532,51.99718],[87.31037,51.99559],[87.30541,51.99659],[87.30097,51.99491],[87.29416,51.9889],[87.28093,51.98383],[87.27289,51.984],[87.26828,51.98277],[87.26052,51.98505],[87.23904,51.9865],[87.22724,51.98581],[87.21966,51.98772],[87.21285,51.98755],[87.20949,51.99535],[87.18914,52.00533],[87.18911,52.00708],[87.1871,52.00887],[87.17878,52.00872],[87.17233,52.01262],[87.16877,52.01657],[87.16233,52.02091],[87.15207,52.02406]],[[87.25185,51.79014],[87.25406,51.78941]],[[87.31802,51.79057],[87.31327,51.79272],[87.29892,51.79426],[87.29814,51.7967],[87.29488,51.79652],[87.29217,51.7977],[87.28536,51.79517],[87.27925,51.79514],[87.26696,51.79382],[87.26251,51.79286],[87.25051,51.7898],[87.24703,51.78849],[87.24922,51.78385],[87.24934,51.77662],[87.25271,51.77472]],[[87.26965,51.79393],[87.2698,51.79312]],[[87.36026,52.37475],[87.35981,52.3748],[87.35924,52.37475],[87.35867,52.37473],[87.35448,52.37442],[87.35236,52.37407]],[[87.35905,52.37535],[87.35924,52.37475]],[[88.66596,49.99514],[88.65369,49.99845],[88.65273,49.99706],[88.65268,49.99698],[88.65264,49.9968],[88.65178,49.98851],[88.64694,49.98621],[88.63791,49.97951],[88.63709,49.97605],[88.6316,49.9702],[88.61577,49.96388],[88.57763,49.93926],[88.53858,49.90716],[88.53621,49.89724],[88.5354,49.88613],[88.49384,49.79716],[88.49575,49.79237],[88.49458,49.78917],[88.48336,49.77896],[88.47253,49.77862],[88.45777,49.77315],[88.43488,49.7625],[88.42342,49.75085],[88.42185,49.74643],[88.42419,49.74085],[88.4218,49.73744],[88.42144,49.73307],[88.42301,49.72719],[88.41972,49.71933],[88.42004,49.71621],[88.42812,49.70784],[88.42829,49.70395],[88.43133,49.70272],[88.43974,49.69267],[88.44375,49.69048],[88.453,49.68208],[88.45672,49.67666],[88.45748,49.67312],[88.46245,49.66671],[88.46477,49.66078],[88.4724,49.65001],[88.47358,49.64563],[88.47289,49.64352],[88.46841,49.63972],[88.46831,49.63637],[88.45939,49.63188],[88.4569,49.62634],[88.45285,49.62277],[88.45366,49.61879],[88.446,49.60868],[88.43328,49.5967],[88.42809,49.59471],[88.42494,49.59078],[88.42156,49.58279],[88.40838,49.57787],[88.39714,49.5777],[88.39303,49.57413],[88.38931,49.57363],[88.36391,49.58245],[88.34302,49.58297],[88.31349,49.5798],[88.3075,49.58005],[88.30009,49.58166],[88.2836,49.58844],[88.2605,49.58844],[88.25401,49.59356],[88.24511,49.60538],[88.23497,49.61379],[88.2345,49.6199],[88.23693,49.62397],[88.23544,49.62509],[88.22141,49.6284],[88.21343,49.62886],[88.19752,49.62665],[88.19433,49.62828],[88.17865,49.62938],[88.17267,49.63309],[88.16668,49.63459],[88.15268,49.63221],[88.11445,49.6313],[88.09913,49.62963],[88.06227,49.64371],[88.04874,49.65205],[88.02712,49.65912],[88.00705,49.66062],[87.99532,49.66005],[87.98941,49.65638],[87.98227,49.65462],[87.97896,49.65083],[87.97059,49.64786],[87.95728,49.6478],[87.95075,49.64989],[87.94636,49.64925],[87.94031,49.64566],[87.93161,49.64468],[87.91439,49.63725],[87.89874,49.63517],[87.8957,49.63582],[87.89147,49.63454],[87.87192,49.6343],[87.85821,49.63662],[87.85122,49.6396],[87.83127,49.64057],[87.82981,49.64143],[87.8001,49.63883],[87.79248,49.63688],[87.78706,49.63831],[87.76366,49.64045],[87.76007,49.63886],[87.74456,49.6405],[87.73187,49.64428],[87.72746,49.64284],[87.72286,49.64288],[87.71314,49.64678],[87.70695,49.64569],[87.69331,49.64806],[87.68695,49.64742],[87.67355,49.65225],[87.66789,49.65305],[87.66464,49.65989],[87.65897,49.66222],[87.64694,49.66508],[87.63324,49.66517],[87.6301,49.66735],[87.62275,49.66952],[87.61373,49.66906],[87.60481,49.67141],[87.59893,49.67108],[87.56366,49.6743],[87.54958,49.68016],[87.54465,49.68492],[87.53707,49.68899],[87.53008,49.68876],[87.5212,49.69223],[87.51829,49.69232],[87.51376,49.6904],[87.50558,49.69058],[87.50228,49.69167],[87.49985,49.69433],[87.48122,49.69133],[87.47576,49.69208],[87.46934,49.69061],[87.46688,49.69145],[87.45675,49.69036],[87.43172,49.69889],[87.41943,49.70911],[87.4161,49.70997]],[[87.51963,51.97778],[87.51763,51.97402],[87.51095,51.96947],[87.50891,51.96678],[87.50686,51.96643]],[[87.59889,50.30881],[87.60277,50.31285]],[[87.60117,50.31433],[87.60277,50.31285],[87.60818,50.31161]],[[87.6064,51.76956],[87.60325,51.76915],[87.59798,51.77114],[87.59177,51.77575],[87.59391,51.7775],[87.59324,51.77983],[87.59014,51.7806],[87.59368,51.78739],[87.59873,51.78648],[87.60153,51.78782],[87.60488,51.79808],[87.61284,51.80236],[87.61555,51.80763],[87.62213,51.81447],[87.62324,51.81891],[87.6266,51.8226],[87.62648,51.82745],[87.6237,51.83281],[87.61838,51.83381],[87.62031,51.83733],[87.61967,51.84458],[87.62277,51.84788],[87.62351,51.85526],[87.62538,51.85712],[87.62489,51.85903],[87.62987,51.86197],[87.62931,51.86655],[87.62637,51.87294],[87.62638,51.88108],[87.62999,51.88458],[87.62917,51.88855],[87.63329,51.89449],[87.63761,51.89841],[87.63759,51.90114],[87.65249,51.91254],[87.65487,51.91911],[87.65955,51.92138],[87.66028,51.92445],[87.65929,51.92595],[87.65487,51.92653],[87.65716,51.93251],[87.65351,51.93405],[87.64753,51.93904]],[[87.64726,51.93921],[87.64762,51.9393]],[[87.64753,51.93904],[87.6476,51.93921],[87.64789,51.94014],[87.64793,51.94052],[87.64755,51.94232],[87.64891,51.94898],[87.65201,51.95757],[87.65173,51.9619],[87.65807,51.96733],[87.65761,51.97698],[87.65503,51.9809],[87.64393,51.985],[87.63507,51.99089],[87.62532,51.99218],[87.61981,51.99435],[87.61698,51.99982],[87.62157,52.00346],[87.62345,52.00671],[87.61791,52.01115],[87.61846,52.01297],[87.61128,52.01901],[87.60891,52.02268],[87.61499,52.02842],[87.62143,52.04396],[87.6289,52.04905],[87.63017,52.05336],[87.63271,52.0567],[87.63954,52.0611],[87.64506,52.06724],[87.64589,52.0713],[87.64428,52.07601],[87.64772,52.07959],[87.654,52.09074],[87.65747,52.0945],[87.65825,52.10132],[87.66351,52.10861],[87.66207,52.11929]],[[87.71272,51.29568],[87.72032,51.28491],[87.72221,51.28024],[87.72223,51.27561],[87.72433,51.27061],[87.72699,51.26796],[87.72696,51.26632],[87.73178,51.26104],[87.74039,51.25633],[87.74744,51.25078],[87.74737,51.24821],[87.74307,51.24509],[87.74411,51.24076],[87.74652,51.2378],[87.74717,51.23104],[87.74962,51.22935],[87.75933,51.22687],[87.75987,51.22439],[87.75757,51.22256],[87.75979,51.22112],[87.76029,51.21949],[87.75716,51.21826],[87.75363,51.21403],[87.75406,51.2115],[87.75225,51.20735],[87.74594,51.20239],[87.74882,51.19877],[87.74729,51.19521],[87.74781,51.17704],[87.74847,51.17578],[87.75146,51.17494],[87.74997,51.17309],[87.75303,51.1683],[87.75498,51.16745],[87.76042,51.16826],[87.76835,51.17207],[87.77418,51.17197],[87.78414,51.16794],[87.79396,51.15997],[87.79543,51.15764],[87.80369,51.15558],[87.81058,51.1557],[87.82248,51.14926],[87.83054,51.14682],[87.83315,51.14316],[87.83346,51.14002],[87.84049,51.1351],[87.84599,51.12935],[87.85086,51.12122],[87.85232,51.11526],[87.85594,51.11345],[87.85741,51.10986],[87.86135,51.10811],[87.86976,51.10674],[87.87936,51.09964],[87.88188,51.09576],[87.89815,51.09836],[87.90447,51.09839],[87.91141,51.0955],[87.9196,51.09406],[87.92421,51.09638],[87.93521,51.09648],[87.94762,51.09881],[87.96277,51.09642],[87.98701,51.09501],[88.00012,51.08012],[88.0051,51.07269],[88.00495,51.06421],[88.00354,51.06196],[88.0052,51.05843],[88.00494,51.05383],[88.01005,51.0458],[88.01092,51.04122],[88.01016,51.03876],[88.01259,51.03435],[88.0141,51.02013],[88.01958,51.01409],[88.02158,51.00969],[88.03254,51.00415],[88.03781,50.99985],[88.05368,51.00046],[88.07105,50.9954],[88.07983,50.9882],[88.08487,50.98],[88.09631,50.97417],[88.10352,50.96615],[88.11555,50.96385],[88.12581,50.95835],[88.13176,50.95893],[88.13902,50.95388],[88.14804,50.95255],[88.15062,50.9489],[88.17314,50.93942],[88.17571,50.93664],[88.17877,50.93033],[88.18328,50.92658],[88.21162,50.92185],[88.2227,50.91449],[88.22324,50.91167],[88.22451,50.91068],[88.22278,50.91089],[88.22503,50.90778],[88.22275,50.90878],[88.22442,50.90714],[88.21998,50.90974],[88.22214,50.90707],[88.21655,50.91103],[88.21303,50.90941],[88.20809,50.90898],[88.20536,50.90493],[88.20529,50.90168],[88.20074,50.898],[88.20032,50.89415],[88.19814,50.89022],[88.20272,50.8824],[88.19718,50.88137],[88.19376,50.87949],[88.18864,50.87096],[88.18194,50.86698],[88.1794,50.85982],[88.18001,50.85596],[88.17838,50.85407],[88.17856,50.85227],[88.17956,50.84946],[88.18166,50.84855],[88.18173,50.84484],[88.18496,50.83982],[88.19043,50.82039],[88.1897,50.8173],[88.18552,50.81416],[88.1818,50.80939],[88.1827,50.80244],[88.18628,50.79964],[88.18324,50.79564],[88.18057,50.79425],[88.18123,50.79194],[88.17838,50.78661],[88.17971,50.77939],[88.17845,50.77612],[88.1748,50.7745],[88.17198,50.77082],[88.16289,50.76684],[88.15712,50.76598],[88.1525,50.76125],[88.14197,50.75455],[88.1313,50.75374],[88.1152,50.74983],[88.0907,50.75496],[88.08072,50.75445],[88.07645,50.74956],[88.06336,50.74546],[88.05764,50.74638],[88.05562,50.74858],[88.03716,50.74953],[88.04127,50.7634],[88.03762,50.77097],[88.03528,50.78139],[88.03154,50.78774],[88.02585,50.793],[88.01138,50.80156],[88.00312,50.80584],[87.99302,50.80819],[87.98332,50.80419],[87.97853,50.79996],[87.97437,50.79853],[87.95869,50.80206],[87.95035,50.8026],[87.94559,50.80619],[87.94501,50.80902],[87.94041,50.81177],[87.93644,50.81712],[87.92774,50.82271],[87.92532,50.82517],[87.92356,50.83064],[87.91798,50.8347],[87.91112,50.8369],[87.89632,50.83856],[87.88746,50.83675]],[[87.91549,50.62355],[87.91036,50.63224],[87.89854,50.64385],[87.88469,50.64654],[87.87114,50.64391],[87.8652,50.6468],[87.85871,50.64762],[87.85649,50.64636],[87.841,50.65998],[87.83641,50.66046],[87.83293,50.66664],[87.82486,50.66974],[87.82433,50.67285]],[[87.91272,50.61592],[87.91262,50.62124],[87.91035,50.62288],[87.91145,50.62448],[87.91549,50.62355]],[[87.91549,50.62355],[87.91999,50.62195],[87.9262,50.62211],[87.93755,50.62725],[87.93837,50.62747],[87.94007,50.62802],[87.94062,50.62817]],[[87.92593,50.23605],[87.92613,50.23541],[87.92623,50.23517],[87.92714,50.23359],[87.92898,50.23121],[87.9331,50.22882],[87.9385,50.2223],[87.94184,50.2158],[87.94089,50.21358]],[[87.92613,50.23541],[87.92669,50.23567]],[[87.94007,50.62802],[87.94032,50.62788]],[[87.94264,50.62876],[87.9552,50.62443],[87.96021,50.62428]],[[87.95305,50.63257],[87.95787,50.63649],[87.96211,50.64303],[87.96935,50.64166],[87.96978,50.64001]],[[87.96191,50.6313],[87.96021,50.62428]],[[87.96021,50.62428],[87.97131,50.61967],[87.97848,50.61348],[87.98221,50.60616],[87.98225,50.59717],[87.98503,50.59484],[87.99433,50.59246],[88.00849,50.58638],[88.01444,50.58193],[88.01599,50.58352],[88.0177,50.57996],[88.02094,50.5781],[88.04129,50.57627],[88.05271,50.56482],[88.06318,50.55933],[88.06975,50.55177],[88.07705,50.54892],[88.09178,50.5456],[88.09551,50.54361],[88.09584,50.54135],[88.10188,50.53743],[88.11342,50.53618],[88.13054,50.53726],[88.14624,50.54032],[88.15618,50.5392],[88.16788,50.53995],[88.17137,50.5376],[88.17882,50.5294],[88.18521,50.52523],[88.18861,50.5249],[88.2084,50.52609],[88.21365,50.52736],[88.22822,50.52721],[88.23519,50.52902],[88.24489,50.52918],[88.2599,50.52497],[88.26786,50.51925],[88.27348,50.51736],[88.29617,50.50523],[88.3062,50.50271],[88.30801,50.50024],[88.31099,50.50073],[88.31792,50.49922],[88.33211,50.49299],[88.33958,50.48633],[88.34242,50.47977],[88.34981,50.47332],[88.35173,50.46844],[88.35997,50.45856],[88.36196,50.44805],[88.36017,50.44302],[88.36417,50.43239],[88.36856,50.42796],[88.38319,50.41885],[88.38684,50.41529],[88.39911,50.41097],[88.4437,50.427],[88.45595,50.434],[88.46648,50.43817],[88.50173,50.44721],[88.51336,50.45154],[88.52213,50.45702],[88.53363,50.46062],[88.54564,50.46842],[88.54524,50.46951],[88.54682,50.47219],[88.55405,50.4808],[88.55669,50.48251],[88.55805,50.48615],[88.57649,50.49339],[88.58098,50.49727],[88.58378,50.50337],[88.58815,50.50764],[88.6001,50.51212],[88.60558,50.51989],[88.60676,50.5201],[88.60953,50.52592],[88.61396,50.52628],[88.62659,50.53046],[88.63045,50.53309],[88.63978,50.53535],[88.64372,50.53941],[88.64818,50.53932],[88.65468,50.54135],[88.66763,50.5518],[88.67362,50.55925],[88.67386,50.5615],[88.67908,50.56292],[88.68645,50.56747],[88.69706,50.57074],[88.72641,50.57572],[88.7306,50.58428],[88.73312,50.58708],[88.73311,50.5896],[88.73826,50.59414],[88.74074,50.59845],[88.74154,50.599],[88.74188,50.59789],[88.74426,50.60098],[88.74746,50.60274],[88.74867,50.60485],[88.74803,50.60662],[88.75247,50.60583],[88.75226,50.60773],[88.7478,50.61047],[88.74899,50.614],[88.75006,50.61424],[88.75355,50.61127],[88.75355,50.61218],[88.75643,50.6118],[88.75515,50.61408],[88.76501,50.61364],[88.77451,50.61601]],[[88.33982,52.36845],[88.33719,52.36726],[88.33382,52.36209],[88.33099,52.36061],[88.31779,52.36334],[88.29742,52.36057],[88.28169,52.3625],[88.26452,52.35943],[88.25167,52.35309],[88.24472,52.35153],[88.23271,52.35585],[88.22592,52.35391],[88.21658,52.35524],[88.21605,52.35312],[88.2133,52.35053],[88.19974,52.34512],[88.19271,52.33641],[88.18551,52.33327],[88.17834,52.33301],[88.1778,52.32976],[88.17509,52.3278],[88.16569,52.32941],[88.14699,52.32981],[88.13482,52.33343],[88.11941,52.33567]],[[88.51135,50.039],[88.51075,50.03556],[88.50731,50.03261],[88.50201,50.0302],[88.50242,50.02654],[88.50382,50.02484],[88.50353,50.02238],[88.49763,50.01783],[88.4732,50.01687],[88.4569,50.01854],[88.44247,50.01837],[88.4128,50.01531],[88.39412,50.00924],[88.38122,50.00249],[88.37695,49.99784],[88.37193,49.99889],[88.3618,49.99682],[88.3567,49.99797],[88.34493,50.00472],[88.32639,50.00816],[88.31088,50.00373],[88.29044,50.00159],[88.25954,50.00335],[88.23169,49.99334],[88.21688,49.98666],[88.19183,49.97992],[88.16318,49.97651],[88.16081,49.97492]],[[88.5071,52.29189],[88.49432,52.29461],[88.48175,52.29981],[88.47215,52.30188],[88.4619,52.3062],[88.43883,52.31304],[88.43227,52.31737],[88.42959,52.32057],[88.42275,52.31917],[88.41576,52.32145],[88.41037,52.32476],[88.40869,52.32939],[88.40505,52.33138],[88.39594,52.33382],[88.37028,52.33614],[88.36304,52.33898],[88.36125,52.3447],[88.36178,52.3485],[88.35986,52.35035],[88.35755,52.35634],[88.35529,52.35873],[88.34435,52.36291],[88.34161,52.36731],[88.33982,52.36845],[88.33953,52.36862],[88.33911,52.36904],[88.34054,52.37527],[88.33661,52.38343],[88.33615,52.3862],[88.33742,52.39164],[88.33144,52.40239],[88.32729,52.40745],[88.3237,52.40981],[88.32181,52.41339],[88.31176,52.41731],[88.30531,52.42297],[88.29957,52.42452],[88.2958,52.42757],[88.29263,52.43836],[88.27801,52.46463],[88.27484,52.46957],[88.27274,52.47073],[88.27575,52.47694],[88.27512,52.48289],[88.27124,52.48287],[88.26019,52.48654],[88.25094,52.48703],[88.24374,52.49338],[88.23292,52.4955],[88.22537,52.49574],[88.21238,52.4996],[88.20078,52.49915],[88.19059,52.49645],[88.18492,52.49781],[88.1789,52.49747]],[[88.36704,50.0982],[88.37242,50.10119]],[[88.49875,50.03361],[88.50157,50.04004]],[[88.53601,49.98933],[88.54208,49.98963],[88.54725,49.99347],[88.557,49.99316],[88.55831,49.98675],[88.56109,49.98352],[88.57543,49.9775],[88.59757,49.96595],[88.60916,49.96478],[88.62207,49.96667]],[[88.58989,49.94711],[88.60265,49.92999]],[[88.65299,49.99744],[88.65344,49.99747]],[[88.76096,50.01027],[88.74759,50.01336],[88.73686,50.01923],[88.7248,50.02206],[88.71157,50.01838],[88.70691,50.01408],[88.69405,50.00709],[88.66938,50.00935]],[[88.73405,49.95045],[88.76992,49.93803],[88.82626,49.92076],[88.82942,49.92087],[88.84099,49.9261],[88.84429,49.92654],[88.87333,49.92179],[88.90427,49.91454],[88.91393,49.91658],[88.92497,49.9142],[88.98033,49.91118],[88.98993,49.9125],[89.00307,49.91764]],[[88.77886,49.89755],[88.78207,49.90115],[88.79408,49.90644],[88.79605,49.91229],[88.79549,49.91348],[88.78887,49.91636],[88.78357,49.92109]],[[88.91327,49.84054],[88.91696,49.84392],[88.9253,49.84554]]]}},{"type":"Feature","properties":{"roadClass":"trunk"},"geometry":{"type":"MultiLineString","coordinates":[[[85.76037,51.65541],[85.76108,51.65552]],[[85.76102,51.65589],[85.76037,51.65541]],[[85.76037,51.65541],[85.74542,51.64978],[85.7425,51.64767],[85.74172,51.6446],[85.74501,51.63602],[85.74268,51.63155],[85.7387,51.62932],[85.72717,51.62639],[85.7191,51.62016],[85.71582,51.62028],[85.70904,51.62365],[85.6984,51.63141],[85.69191,51.63276],[85.68505,51.62974],[85.65882,51.62213],[85.65099,51.61871],[85.64272,51.61273],[85.63399,51.6113],[85.62976,51.60904],[85.62688,51.61222],[85.62489,51.61274],[85.61466,51.61239],[85.61103,51.61126],[85.60446,51.60815],[85.59918,51.602],[85.59464,51.60009],[85.59386,51.59162],[85.58375,51.58398],[85.5735,51.57087],[85.57199,51.55174],[85.57546,51.53345],[85.57211,51.51927],[85.55916,51.50726],[85.55605,51.50053],[85.55615,51.49196],[85.55833,51.48622],[85.56515,51.47912],[85.56976,51.46133],[85.58483,51.4572],[85.60028,51.45474],[85.60825,51.44904],[85.61107,51.44563],[85.61796,51.43046],[85.61809,51.42159],[85.62161,51.41676],[85.63692,51.40937],[85.64717,51.40272],[85.65788,51.39207],[85.6664,51.36664],[85.67408,51.3556],[85.67143,51.34335],[85.66765,51.33825],[85.66818,51.33165],[85.67154,51.32148],[85.68291,51.30731],[85.68743,51.29194],[85.68376,51.28806],[85.67077,51.28311],[85.667,51.27548],[85.65929,51.26674],[85.65374,51.25752],[85.65034,51.2435],[85.64214,51.23769],[85.63814,51.2328],[85.63895,51.2297],[85.63749,51.22467],[85.63452,51.22185],[85.63053,51.21127],[85.62477,51.20904],[85.62064,51.20587],[85.61144,51.20256],[85.60629,51.1986],[85.59289,51.1865],[85.58708,51.17845],[85.58343,51.17543],[85.57855,51.16711],[85.57947,51.16411],[85.58261,51.16019],[85.58389,51.15546],[85.58781,51.15041],[85.58736,51.1441],[85.58911,51.13997],[85.58762,51.12825],[85.59258,51.12495],[85.59507,51.12102],[85.59771,51.11908],[85.59897,51.11186],[85.59504,51.10997],[85.58982,51.10334],[85.5885,51.09591],[85.59003,51.09108],[85.58981,51.08688],[85.58667,51.07575],[85.59041,51.06653],[85.59036,51.05354],[85.5943,51.04993],[85.60435,51.04522],[85.61277,51.03919],[85.61366,51.02964],[85.61788,51.02574],[85.61923,51.0236],[85.61986,51.0188],[85.62379,51.01494],[85.6301,51.01421],[85.6349,51.0122],[85.63734,51.00871],[85.64242,51.00602],[85.64455,51.00196],[85.65063,50.99825],[85.67057,50.99063],[85.6813,50.989],[85.71337,50.97322],[85.7251,50.96486],[85.73371,50.94875],[85.74453,50.94228],[85.76203,50.93787],[85.76784,50.93155],[85.78445,50.92055],[85.80967,50.9119],[85.81304,50.90968],[85.81945,50.90825],[85.83059,50.90061],[85.83542,50.89187],[85.83874,50.87713],[85.84145,50.87088],[85.84115,50.86538],[85.84447,50.85584]],[[85.76181,51.6564],[85.76129,51.65604]],[[85.76504,51.72063],[85.76867,51.71598],[85.7671,51.70621],[85.76958,51.69843],[85.77796,51.68715],[85.78196,51.67739],[85.7789,51.67238],[85.77199,51.6679],[85.76181,51.6564]],[[85.76191,51.6559],[85.76181,51.6564]],[[85.76191,51.6559],[85.76129,51.65604],[85.76102,51.65589],[85.76095,51.6557],[85.76191,51.6559]],[[85.8688,51.90523],[85.86853,51.89973],[85.8655,51.89197],[85.86008,51.88789],[85.85011,51.88469],[85.84332,51.88602],[85.83812,51.88558],[85.8307,51.8811],[85.82831,51.88011],[85.77609,51.86861],[85.76583,51.86487],[85.76117,51.86247],[85.75683,51.85841],[85.74603,51.85471],[85.73566,51.84945],[85.72915,51.84361],[85.72973,51.839],[85.73654,51.83437],[85.74915,51.83341],[85.76147,51.83103],[85.76809,51.83322],[85.78002,51.83369],[85.78979,51.82513],[85.78878,51.82297],[85.77715,51.81562],[85.76386,51.81212],[85.75229,51.80676],[85.74435,51.7989],[85.74366,51.79477],[85.74589,51.79099],[85.74594,51.7814],[85.74013,51.77549],[85.73901,51.76965],[85.73231,51.76191],[85.72758,51.75379],[85.72703,51.74001],[85.73454,51.73079],[85.74246,51.72703],[85.74954,51.7262],[85.76317,51.72157]],[[85.76317,51.72157],[85.76504,51.72063]],[[85.76504,51.72063],[85.76447,51.72107],[85.76317,51.72157]],[[85.83236,51.88217],[85.83108,51.88196]],[[85.83949,51.93771],[85.8401,51.93772]],[[85.85376,51.97945],[85.84774,51.96776],[85.84676,51.96497],[85.8467,51.96477],[85.84654,51.96409],[85.8464,51.96353],[85.84625,51.96288],[85.84622,51.96272],[85.84669,51.95646],[85.84828,51.94819],[85.84802,51.94643],[85.841,51.94021],[85.8395,51.93809],[85.83949,51.93771],[85.83963,51.93721],[85.84205,51.93264],[85.84074,51.92756]],[[85.84074,51.92756],[85.84051,51.92736],[85.84075,51.92717]],[[85.84074,51.92756],[85.84075,51.92717]],[[85.84075,51.92717],[85.84096,51.92717],[85.84104,51.9272],[85.84118,51.92736],[85.84104,51.92753],[85.84095,51.92756],[85.84074,51.92756]],[[85.84075,51.92717],[85.84113,51.92442],[85.84221,51.92273],[85.84292,51.9222],[85.85862,51.91835],[85.8588,51.9182],[85.85917,51.91789],[85.86633,51.91067],[85.8688,51.90523]],[[85.84447,50.85584],[85.8439,50.85547]],[[85.84447,50.85584],[85.84659,50.85125],[85.84602,50.84792],[85.84745,50.84613],[85.85854,50.84624],[85.87113,50.84162],[85.89289,50.83776],[85.9033,50.83365],[85.90972,50.82807],[85.93176,50.8176],[85.94336,50.81589],[85.95922,50.81646],[85.96829,50.81514],[85.98728,50.80845],[86.00516,50.80502],[86.0188,50.79886],[86.05412,50.79101],[86.057,50.78838],[86.06308,50.78599],[86.07361,50.78473],[86.07813,50.78181],[86.0872,50.77248],[86.09723,50.76726],[86.11268,50.76223],[86.12893,50.75917],[86.1326,50.7568],[86.14219,50.75537],[86.15054,50.74767],[86.16123,50.74335],[86.16914,50.73636],[86.19039,50.72952],[86.19776,50.72484],[86.20957,50.71993],[86.21589,50.71876],[86.22029,50.71982],[86.2236,50.72307],[86.22602,50.72888],[86.23074,50.73145],[86.23912,50.73072],[86.25466,50.72318],[86.27453,50.72307],[86.28297,50.72483],[86.29294,50.7212],[86.29618,50.71653],[86.29392,50.69798],[86.2918,50.69514],[86.28996,50.68554],[86.28522,50.68003],[86.28892,50.67274],[86.2872,50.66315],[86.28913,50.65413],[86.29839,50.64648],[86.30042,50.64636],[86.30165,50.64757],[86.29841,50.64963],[86.29861,50.65196],[86.29563,50.65534],[86.29716,50.6569],[86.3073,50.65237],[86.31059,50.64934],[86.31302,50.64922],[86.31346,50.64784],[86.31215,50.64681],[86.31306,50.64435],[86.31741,50.64521],[86.31757,50.64718],[86.32035,50.64953],[86.32326,50.64768],[86.32581,50.64936],[86.32879,50.64456],[86.32991,50.64495],[86.32916,50.64708],[86.33017,50.64768],[86.33466,50.64465],[86.3489,50.64181],[86.36532,50.64267],[86.37759,50.64718],[86.3857,50.64792],[86.40154,50.64419],[86.41046,50.63877],[86.41423,50.63325],[86.41927,50.6292],[86.42495,50.62228],[86.42527,50.61877],[86.42898,50.61579],[86.43176,50.61544],[86.44031,50.61799],[86.44939,50.61833],[86.45384,50.61957],[86.46189,50.61861],[86.46752,50.61511],[86.46942,50.61271],[86.47846,50.61041],[86.48429,50.60644],[86.49283,50.60356],[86.50247,50.59793],[86.52053,50.58224],[86.5447,50.56789],[86.55813,50.56075],[86.56881,50.55979],[86.57316,50.55717],[86.57663,50.54885],[86.57689,50.54474],[86.57356,50.53239],[86.56894,50.52845],[86.56557,50.52304],[86.56168,50.5214],[86.56169,50.51489],[86.56588,50.50585],[86.56333,50.50007],[86.56766,50.49751],[86.5766,50.497],[86.58507,50.50134],[86.60546,50.49903],[86.61241,50.4971],[86.62437,50.49105],[86.62949,50.48102],[86.63036,50.47567],[86.62482,50.46372],[86.6279,50.45524],[86.62247,50.44689],[86.62265,50.43726],[86.6267,50.42558],[86.63712,50.41299],[86.64055,50.41084],[86.66024,50.40517],[86.66427,50.40298],[86.67315,50.40228],[86.67435,50.40134],[86.67467,50.39873],[86.68796,50.40099],[86.69075,50.40299],[86.69938,50.40484],[86.72085,50.406],[86.73917,50.40895],[86.74668,50.40723],[86.76906,50.40613],[86.77509,50.40848],[86.7878,50.40581],[86.7997,50.40479],[86.80652,50.40557],[86.81799,50.40051],[86.82527,50.40344],[86.83231,50.40344],[86.84044,50.39916],[86.84809,50.39812],[86.85738,50.4001],[86.88662,50.41065],[86.89376,50.41418],[86.89893,50.4145],[86.91678,50.41269],[86.93796,50.40785],[86.97055,50.40442],[86.97609,50.40097],[86.97914,50.39542],[86.99241,50.38578],[86.99876,50.38542],[87.00366,50.38743],[87.01777,50.38294],[87.02238,50.37989],[87.0343,50.36972],[87.04383,50.36431],[87.04906,50.35836],[87.05559,50.35494],[87.05627,50.35298],[87.05544,50.35095],[87.05892,50.34147],[87.06823,50.33642],[87.07547,50.33723],[87.08353,50.33419],[87.09137,50.33315],[87.10055,50.3358],[87.11843,50.33266],[87.12283,50.33394],[87.13767,50.34165],[87.14426,50.34299],[87.14801,50.34142],[87.15077,50.33413],[87.15778,50.33144],[87.16999,50.33036],[87.17725,50.32858],[87.18994,50.32882],[87.19503,50.32782],[87.20456,50.33],[87.21001,50.33272],[87.21802,50.34014],[87.22292,50.34641],[87.22649,50.34807],[87.22971,50.35247],[87.24189,50.35848],[87.25848,50.35628],[87.26707,50.3584],[87.27403,50.36226],[87.28221,50.36468],[87.29741,50.36473],[87.31399,50.36183],[87.32684,50.36316],[87.34026,50.36164],[87.34202,50.36004],[87.34665,50.3602],[87.34938,50.35786],[87.35266,50.35775],[87.35501,50.35973],[87.35919,50.36022],[87.3646,50.3588],[87.37017,50.35286],[87.37466,50.35256],[87.3812,50.35421],[87.39362,50.35146],[87.4074,50.35186],[87.41533,50.34932],[87.421,50.34496],[87.42591,50.34346],[87.44581,50.34296],[87.45609,50.33753],[87.46016,50.33311],[87.46485,50.33064],[87.47671,50.32902],[87.4876,50.33055],[87.50852,50.32173],[87.52894,50.31994],[87.53219,50.3174],[87.53581,50.31687],[87.559,50.31456],[87.56533,50.31524],[87.57884,50.31056],[87.62116,50.30679],[87.64225,50.30868],[87.65712,50.3047],[87.66433,50.30116],[87.67329,50.29104],[87.67985,50.28632],[87.68248,50.28302],[87.68131,50.27956],[87.67638,50.27627],[87.66995,50.27471],[87.66358,50.26935],[87.66095,50.26554],[87.66113,50.26233],[87.66736,50.25675],[87.67966,50.25283],[87.68805,50.25503],[87.69032,50.25723],[87.7006,50.25739],[87.70653,50.25499],[87.70884,50.25099],[87.70884,50.24678],[87.7055,50.24227],[87.69972,50.24087],[87.69791,50.23731],[87.70382,50.23372],[87.71103,50.23233],[87.71812,50.22792],[87.73013,50.22669],[87.73916,50.2311],[87.77272,50.23515],[87.7844,50.23451],[87.79196,50.23157],[87.79638,50.23113],[87.80238,50.23355],[87.80814,50.23417],[87.81233,50.23602],[87.814,50.23848],[87.82466,50.24076],[87.8502,50.25606],[87.85895,50.25757],[87.86841,50.2511],[87.88691,50.2507],[87.89208,50.24829],[87.89457,50.24585],[87.90139,50.24376],[87.90794,50.23967],[87.91675,50.23919],[87.92744,50.23546],[87.94929,50.23388],[87.97546,50.24262],[87.97798,50.24255],[87.98405,50.23794],[87.99352,50.23396],[88.04494,50.20732],[88.05455,50.20405],[88.0785,50.19318],[88.08766,50.19022],[88.11283,50.18839],[88.12736,50.18173],[88.16071,50.17613],[88.16565,50.17273],[88.17254,50.17075],[88.20557,50.16884],[88.23173,50.17226],[88.2495,50.16797],[88.2777,50.16547],[88.29365,50.1617],[88.31194,50.15574],[88.31473,50.15222],[88.31613,50.14649],[88.33267,50.13315],[88.33599,50.12807],[88.34365,50.12142],[88.34607,50.11665],[88.35251,50.11198],[88.35794,50.10997],[88.38585,50.09372],[88.40021,50.09014],[88.40716,50.08664],[88.40807,50.07882],[88.41293,50.07241],[88.41258,50.07103],[88.41509,50.06743],[88.42925,50.06206],[88.44563,50.05392],[88.46392,50.04942],[88.47507,50.04856],[88.48552,50.0457],[88.49566,50.04071],[88.51237,50.03899],[88.51921,50.04165],[88.55633,50.03309],[88.59932,50.0179],[88.61124,50.01192],[88.62648,50.01192],[88.64441,50.01874],[88.65036,50.01897],[88.6614,50.01534],[88.66962,50.00896],[88.66514,49.99671],[88.66545,49.99596],[88.66582,49.99543],[88.66588,49.9953],[88.66596,49.99514],[88.6661,49.99495],[88.66623,49.99474],[88.66624,49.99471],[88.66734,49.99314],[88.66752,49.99285],[88.66777,49.9924],[88.67121,49.98718],[88.67159,49.98674],[88.68655,49.97718],[88.71784,49.96191],[88.73295,49.95146],[88.73648,49.9478],[88.73614,49.93988],[88.73914,49.93325],[88.76985,49.90298],[88.78702,49.89279],[88.79588,49.88795],[88.85847,49.86179],[88.93588,49.8313],[88.95923,49.81548],[89.14781,49.73686],[89.17658,49.72381],[89.18709,49.72142],[89.21109,49.7039],[89.22524,49.69659],[89.2302,49.69138],[89.24312,49.68639],[89.25104,49.67895],[89.26519,49.67703],[89.27518,49.67252],[89.2865,49.67132],[89.30379,49.66545],[89.31326,49.66025],[89.33082,49.65309],[89.35364,49.65041],[89.36323,49.65205],[89.39994,49.65133],[89.43302,49.64656],[89.44258,49.64322]],[[85.84698,51.96346],[85.8464,51.96353]],[[85.84654,51.96409],[85.84712,51.96404]],[[85.85376,51.97945],[85.854,51.97965]],[[85.85391,51.97983],[85.85376,51.97945]],[[85.85399,51.97945],[85.8543,51.9796]],[[85.85405,51.97963],[85.85399,51.97945]],[[85.8688,51.90523],[85.86649,51.91072],[85.85942,51.91784],[85.8593,51.91796],[85.85896,51.91826],[85.85875,51.91842],[85.84758,51.92187],[85.84325,51.92219],[85.84112,51.92513],[85.84225,51.93237],[85.83999,51.93691],[85.84035,51.93904],[85.84819,51.9464],[85.84845,51.94819],[85.8464,51.96166],[85.84683,51.96283],[85.84698,51.96346],[85.84729,51.96471],[85.84737,51.96592],[85.84781,51.96748],[85.85114,51.97389],[85.85282,51.97555],[85.85614,51.97624],[85.85399,51.97945]],[[85.8543,51.9796],[85.8543,51.97995],[85.854,51.97994],[85.85391,51.97983],[85.854,51.97965]],[[85.854,51.97965],[85.85405,51.97963]],[[85.85508,51.98089],[85.854,51.97994]],[[85.85405,51.97963],[85.8543,51.9796]],[[85.85445,51.9799],[85.85508,51.98089]],[[85.9238,52.04878],[85.92006,52.03991],[85.91461,52.03312],[85.91869,52.02356],[85.91492,52.01464],[85.90793,52.00571],[85.89847,52.00313],[85.88156,51.99278],[85.87085,51.98761],[85.85761,51.98291],[85.85508,51.98089]],[[85.9238,52.04878],[85.92764,52.05682],[85.92777,52.05714],[85.92785,52.05736],[85.92858,52.05955],[85.93086,52.06507],[85.93193,52.0734],[85.93179,52.0741],[85.9309,52.07784],[85.92849,52.08482],[85.9206,52.0993],[85.92024,52.10524],[85.92043,52.09928],[85.92832,52.0848],[85.93026,52.07771],[85.93175,52.07339],[85.93068,52.06509],[85.92702,52.05699],[85.9238,52.04878]],[[85.92714,52.05722],[85.92777,52.05714]],[[85.93116,52.07673],[85.93044,52.07719]],[[88.66518,49.9965],[88.66536,49.99613]],[[88.66574,49.99554],[88.66614,49.99546],[88.6661,49.99495]],[[88.66623,49.99474],[88.66645,49.99488]],[[88.66743,49.99299],[88.66764,49.99309],[88.66727,49.99325]],[[88.66752,49.99285],[88.66721,49.99261],[88.66777,49.9924]],[[89.44258,49.64322],[89.45776,49.635],[89.46335,49.63371],[89.47317,49.62908],[89.47379,49.62046],[89.47372,49.62012],[89.47339,49.61929],[89.47309,49.61855],[89.4724,49.61669],[89.47233,49.61384],[89.46849,49.60905],[89.47236,49.60936],[89.47517,49.61553],[89.47409,49.619],[89.47376,49.61922],[89.47339,49.61929],[89.47235,49.61949],[89.47218,49.61955],[89.47189,49.61989],[89.472,49.62822],[89.44914,49.63806],[89.44258,49.64322]],[[85.8588,51.9182],[85.85891,51.91789],[85.85917,51.91789],[85.8593,51.91796],[85.85935,51.91801],[85.85919,51.91824],[85.85896,51.91826],[85.8588,51.9182]]]}}],"provenance":{"sources":[{"id":"osm-siberian-260916","url":"https://download.geofabrik.de/russia/siberian-fed-district-260916.osm.pbf","snapshot":"2026-09-16T20:21:21Z","sha256":"37e12e429cc8617419edd3853f299c1e752a4d89b6dee4456a3a98ed62fc99a1","md5":"c5850699d3c22a686d229498cdc55b31","bytes":583874472,"license":"ODbL-1.0","attribution":"© OpenStreetMap contributors, Geofabrik","downloadDate":"2026-09-17"}],"attribution":"© OpenStreetMap contributors, Geofabrik; ODbL-1.0","geometryMethod":"Actual OSM road ways, merged by class and endpoint, display simplification 0.0007 degrees; not routing geometry","sourceWayCount":1545,"routingUse":false}}