{"type":"FeatureCollection","features":[{"type":"Feature","properties":{"roadClass":"primary"},"geometry":{"type":"MultiLineString","coordinates":[[[44.87877,54.09333],[44.88067,54.09276]],[[44.8806,54.09515],[44.87877,54.09333]],[[44.88459,54.09231],[44.87952,54.09246],[44.87877,54.09333]],[[44.88009,54.09064],[44.88459,54.09231]],[[44.88459,54.09231],[44.88065,54.09421]],[[44.9315,54.11062],[44.91857,54.11091],[44.91302,54.10959],[44.89487,54.09455],[44.89033,54.09276],[44.88819,54.09241],[44.88627,54.0923],[44.88459,54.09231]],[[44.99189,54.07414],[44.99602,54.07999],[44.99817,54.0913],[44.99714,54.09503],[44.99312,54.09927],[44.94792,54.10934],[44.93247,54.11059]],[[44.99189,54.07414],[44.9916,54.07319]],[[44.99206,54.07315],[44.99189,54.07414]],[[44.99208,54.07288],[44.99544,54.0729]],[[44.99544,54.0729],[44.99209,54.07313]],[[44.99544,54.0729],[45.00576,54.0728],[45.01045,54.07366],[45.02544,54.08265],[45.03104,54.08441],[45.09435,54.08892],[45.10481,54.09188],[45.11186,54.09635],[45.12078,54.12345],[45.13241,54.13178]],[[45.01772,54.22859],[45.01917,54.22893]],[[45.01917,54.22893],[45.01843,54.22912]],[[45.01917,54.22893],[45.01895,54.2295]],[[45.13713,54.20296],[45.13527,54.2058],[45.12713,54.20826],[45.10112,54.20892],[45.08263,54.20661],[45.06838,54.20952],[45.04174,54.22219],[45.01917,54.22893]],[[45.13241,54.13178],[45.13614,54.13396],[45.14093,54.13467]],[[45.14093,54.13467],[45.1405,54.13475],[45.13753,54.13493],[45.13588,54.13504],[45.13544,54.13507],[45.13529,54.13571],[45.1368,54.13524],[45.13666,54.13511],[45.13591,54.13436],[45.13588,54.13433],[45.13578,54.13421],[45.1351,54.13365],[45.13241,54.13178]],[[45.13719,54.20207],[45.13713,54.20296]],[[45.13713,54.20296],[45.13768,54.20289]],[[45.13719,54.20207],[45.13768,54.20289]],[[45.17219,54.18981],[45.16141,54.19025],[45.14265,54.19498],[45.13713,54.19805],[45.13719,54.20207]],[[45.13768,54.20289],[45.14687,54.21841]],[[45.22464,54.15852],[45.16769,54.13673],[45.15466,54.13456],[45.14093,54.13467]],[[45.14618,54.24303],[45.14745,54.24299],[45.14787,54.24295],[45.14909,54.24261],[45.15036,54.24128]],[[45.1475,54.22051],[45.14679,54.21933]],[[45.14679,54.21933],[45.14687,54.21841]],[[45.14679,54.21933],[45.14738,54.2193]],[[45.14687,54.21841],[45.14738,54.2193]],[[45.14738,54.2193],[45.148,54.22031]],[[45.148,54.22031],[45.14794,54.22047],[45.14775,54.22051],[45.1475,54.22051]],[[45.14859,54.22123],[45.1475,54.22051]],[[45.14784,54.24811],[45.14838,54.24661],[45.14766,54.24409],[45.14767,54.2436],[45.14769,54.24336],[45.14777,54.2427],[45.14779,54.24259],[45.15052,54.23854]],[[45.148,54.22031],[45.14859,54.22123]],[[45.14859,54.22123],[45.14886,54.22158]],[[45.14912,54.2229],[45.14871,54.22228]],[[45.14871,54.22228],[45.14886,54.22158]],[[45.14871,54.22228],[45.14979,54.22227]],[[45.14886,54.22158],[45.14979,54.22227]],[[45.15067,54.22296],[45.14912,54.2229]],[[45.15071,54.22387],[45.14912,54.2229]],[[45.14957,54.24296],[45.15024,54.24204]],[[45.14979,54.22227],[45.15118,54.2225]],[[45.15024,54.24204],[45.15031,54.24301]],[[45.15036,54.24128],[45.15024,54.24204]],[[45.15037,54.24112],[45.15036,54.24128]],[[45.15037,54.24112],[45.15105,54.24273],[45.15358,54.24351]],[[45.15052,54.23854],[45.15037,54.24112]],[[45.15071,54.22387],[45.15203,54.22604],[45.15261,54.23108],[45.15052,54.23854]],[[45.15067,54.22296],[45.15071,54.22387]],[[45.15093,54.22294],[45.15067,54.22296]],[[45.15118,54.2225],[45.15093,54.22294]],[[45.15271,54.22285],[45.15093,54.22294]],[[45.15118,54.2225],[45.15271,54.22285]],[[45.21309,54.22321],[45.18824,54.22335],[45.1803,54.22061],[45.15904,54.22069],[45.15271,54.22285]],[[45.18748,54.18413],[45.18524,54.18426],[45.18383,54.18436],[45.1824,54.18445],[45.18226,54.18446],[45.18208,54.18447],[45.18048,54.18454],[45.1772,54.18467],[45.1771,54.18467],[45.17666,54.18469],[45.17653,54.18469],[45.17429,54.18479],[45.17204,54.18485],[45.17169,54.18479]],[[45.17219,54.18981],[45.17169,54.18479]],[[45.17169,54.18479],[45.18746,54.18401]],[[45.17219,54.18981],[45.18805,54.18932]],[[45.17666,54.18469],[45.17665,54.18455]],[[45.17709,54.18453],[45.1771,54.18467]],[[45.18224,54.18433],[45.18226,54.18446]],[[45.18524,54.18426],[45.18522,54.18415]],[[45.18748,54.18413],[45.18746,54.18401]],[[45.18746,54.18401],[45.19311,54.18388]],[[45.18805,54.18932],[45.18748,54.18413]],[[45.19312,54.18401],[45.18748,54.18413]],[[45.18946,54.20291],[45.18805,54.18932]],[[45.18946,54.20291],[45.18996,54.20315]],[[45.18955,54.20333],[45.18946,54.20291]],[[45.18991,54.20374],[45.18955,54.20333]],[[45.18955,54.20333],[45.18996,54.20315]],[[45.19033,54.20358],[45.19016,54.20372],[45.19009,54.20374],[45.18991,54.20374]],[[45.19033,54.20392],[45.18991,54.20374]],[[45.18996,54.20315],[45.19033,54.20358]],[[45.21309,54.22321],[45.20272,54.2152],[45.20261,54.21235],[45.19123,54.20803],[45.19033,54.20392]],[[45.19033,54.20358],[45.19033,54.20392]],[[45.19311,54.18388],[45.19312,54.18401]],[[45.19311,54.18388],[45.20341,54.18365],[45.20452,54.18384],[45.21419,54.18603]],[[45.21422,54.18622],[45.20862,54.18498],[45.20659,54.18451],[45.20399,54.18387],[45.20338,54.18377],[45.19312,54.18401]],[[45.20579,54.18415],[45.20577,54.1843]],[[45.20627,54.18442],[45.2064,54.18429]],[[45.25334,54.20461],[45.21309,54.22321]],[[45.21419,54.18603],[45.22136,54.1856]],[[45.21419,54.18603],[45.21422,54.18622]],[[45.22152,54.18591],[45.21744,54.18652],[45.21422,54.18622]],[[45.21593,54.17572],[45.21529,54.17598]],[[45.22148,54.18548],[45.2206,54.1796],[45.21529,54.17598]],[[45.21529,54.17598],[45.2156,54.17536]],[[45.2156,54.17536],[45.21594,54.17567]],[[45.2156,54.17536],[45.21659,54.17513]],[[45.21593,54.17572],[45.21619,54.17591]],[[45.21594,54.17567],[45.21593,54.17572]],[[45.21659,54.17513],[45.21594,54.17567]],[[45.21619,54.17591],[45.22085,54.17955],[45.22215,54.18544]],[[45.21688,54.17497],[45.21619,54.17591]],[[45.21659,54.17513],[45.21688,54.17497]],[[45.22708,54.16372],[45.22597,54.16743],[45.21688,54.17497]],[[45.22152,54.18591],[45.22136,54.1856]],[[45.22136,54.1856],[45.22148,54.18548]],[[45.22148,54.18548],[45.22215,54.18544]],[[45.22236,54.18571],[45.22202,54.18596],[45.22152,54.18591]],[[45.22215,54.18544],[45.22226,54.1855]],[[45.22226,54.1855],[45.22273,54.18553]],[[45.22226,54.1855],[45.22236,54.18571]],[[45.22273,54.18553],[45.22236,54.18571]],[[45.22273,54.18553],[45.22561,54.18512],[45.23573,54.18569],[45.23644,54.19132]],[[45.22464,54.15852],[45.22699,54.15879],[45.23156,54.15763]],[[45.22801,54.15985],[45.22464,54.15852]],[[45.22715,54.16347],[45.22723,54.16191],[45.22464,54.15852]],[[45.22715,54.16347],[45.22708,54.16372]],[[45.23254,54.16173],[45.22827,54.16228],[45.22708,54.16372]],[[45.2284,54.16088],[45.22715,54.16347]],[[45.22963,54.16048],[45.22956,54.16045],[45.22815,54.1599],[45.22801,54.15985]],[[45.22801,54.15985],[45.22658,54.16055],[45.22861,54.16054]],[[45.22923,54.15979],[45.22839,54.15869],[45.22801,54.15985]],[[45.2284,54.16088],[45.22953,54.1617],[45.22997,54.16061]],[[45.22861,54.16054],[45.2284,54.16088]],[[45.22923,54.15979],[45.22901,54.16004],[45.22861,54.16054]],[[45.23156,54.15763],[45.22923,54.15979]],[[45.22963,54.16048],[45.23026,54.16053],[45.23086,54.16041],[45.23121,54.15983],[45.23027,54.1594],[45.22923,54.15979]],[[45.22997,54.16061],[45.22963,54.16048]],[[45.23254,54.16173],[45.22997,54.16061]],[[45.23156,54.15763],[45.23254,54.16173]],[[45.35791,53.86982],[45.36096,53.88917],[45.351,53.90397],[45.3625,53.91325],[45.3811,53.92032],[45.37789,53.92521],[45.37609,53.93141],[45.39304,53.94235],[45.38222,53.94825],[45.37931,53.94854],[45.37936,53.95046],[45.37479,53.95439],[45.37544,53.95792],[45.37215,53.9744],[45.37255,53.97638],[45.38781,53.99319],[45.41231,54.01544],[45.42431,54.0249],[45.43963,54.02167],[45.45279,54.0261],[45.45458,54.02956],[45.45144,54.03799],[45.44507,54.03945],[45.44039,54.04937],[45.40216,54.07269],[45.3894,54.08297],[45.38011,54.09298],[45.3735,54.09519],[45.33021,54.10153],[45.32034,54.1046],[45.27681,54.12674],[45.23156,54.15763]],[[45.2963,54.19541],[45.29102,54.18548],[45.28506,54.18072],[45.25459,54.17265],[45.23254,54.16173]],[[45.23636,54.19244],[45.23623,54.19189]],[[45.23623,54.19189],[45.23644,54.19132]],[[45.23623,54.19189],[45.23705,54.19187]],[[45.2371,54.19238],[45.23668,54.19249],[45.23636,54.19244]],[[45.24739,54.19985],[45.23872,54.19482],[45.23824,54.19447],[45.23798,54.19428],[45.23771,54.19403],[45.23636,54.19244]],[[45.23644,54.19132],[45.23705,54.19187]],[[45.23705,54.19187],[45.2371,54.19238]],[[45.2371,54.19238],[45.23707,54.19301],[45.23769,54.19382],[45.23811,54.19422],[45.23835,54.19441],[45.23874,54.1947],[45.24753,54.19977]],[[45.23824,54.19447],[45.23835,54.19441]],[[45.24238,54.1968],[45.24225,54.19687]],[[45.2499,54.20126],[45.24739,54.19985]],[[45.24753,54.19977],[45.24739,54.19985]],[[45.24753,54.19977],[45.25001,54.2012]],[[45.25382,54.20405],[45.2499,54.20126]],[[45.2499,54.20126],[45.25001,54.2012]],[[45.25001,54.2012],[45.25462,54.20379]],[[45.25334,54.20461],[45.25381,54.20417]],[[45.2543,54.2044],[45.25334,54.20461]],[[45.2543,54.2044],[45.25381,54.20417]],[[45.25381,54.20417],[45.25382,54.20405]],[[45.25382,54.20405],[45.25462,54.20379]],[[45.25443,54.2044],[45.2543,54.2044]],[[45.25481,54.20389],[45.25443,54.2044]],[[45.25601,54.20458],[45.25564,54.20442],[45.25547,54.2044],[45.25443,54.2044]],[[45.25462,54.20379],[45.25481,54.20389]],[[45.25481,54.20389],[45.25601,54.20458]],[[45.25601,54.20458],[45.27319,54.21232]],[[45.27319,54.21232],[45.27408,54.21267]],[[45.27392,54.21268],[45.27319,54.21232]],[[45.27864,54.215],[45.27781,54.21432],[45.27392,54.21268]],[[45.28323,54.21686],[45.27861,54.21521],[45.27392,54.21268]],[[45.27408,54.21267],[45.27606,54.21332],[45.27875,54.2137],[45.27945,54.21386],[45.27995,54.21402],[45.28024,54.21414],[45.28051,54.21428],[45.28078,54.21443],[45.28128,54.21479],[45.28342,54.21685]],[[45.27408,54.21267],[45.2783,54.21421],[45.27923,54.21422],[45.27951,54.21418],[45.2799,54.21412],[45.28024,54.21404],[45.28174,54.21336]],[[45.27933,54.21524],[45.27864,54.215]],[[45.27864,54.215],[45.27889,54.21463],[45.27986,54.21441],[45.28007,54.21433],[45.28046,54.21413]],[[45.28323,54.21686],[45.27933,54.21524]],[[45.28046,54.21413],[45.2801,54.21443],[45.27999,54.21454],[45.27968,54.21506],[45.27933,54.21524]],[[45.28046,54.21413],[45.28174,54.21336]],[[45.28174,54.21336],[45.28072,54.21427],[45.28065,54.2144],[45.28061,54.21451],[45.28057,54.21479],[45.28069,54.2152],[45.28342,54.21685]],[[45.28174,54.21336],[45.29291,54.20631],[45.29607,54.19771]],[[45.28513,54.21787],[45.28323,54.21686]],[[45.28342,54.21685],[45.28455,54.21742]],[[45.28455,54.21742],[45.28838,54.21901],[45.29132,54.22143]],[[45.28455,54.21742],[45.28577,54.21817]],[[45.28577,54.21817],[45.28513,54.21787]],[[45.28528,54.22066],[45.28656,54.21922],[45.28513,54.21787]],[[45.28577,54.21817],[45.28668,54.21866]],[[45.28668,54.21866],[45.28768,54.21895]],[[45.2872,54.21923],[45.28668,54.21866]],[[45.29607,54.19771],[45.29606,54.19693]],[[45.29668,54.19707],[45.29607,54.19771]],[[45.29626,54.19645],[45.2963,54.19541]],[[45.2963,54.19541],[45.29696,54.19651]],[[46.52999,54.70189],[46.52042,54.69747],[46.51844,54.69462],[46.52593,54.64761]],[[46.52604,54.64698],[46.5276,54.64289],[46.53337,54.63588],[46.54716,54.59655]],[[44.93166,54.11039],[44.93225,54.11037],[44.93245,54.11068],[44.93168,54.11082],[44.9315,54.11062],[44.93166,54.11039]],[[44.99171,54.07281],[44.99208,54.07288],[44.99214,54.07308],[44.99151,54.07314],[44.99171,54.07281]],[[45.29665,54.19642],[45.29695,54.19698],[45.29601,54.19687],[45.29612,54.19652],[45.29621,54.19647],[45.29626,54.19645],[45.2963,54.19644],[45.29639,54.19642],[45.29665,54.19642]]]}},{"type":"Feature","properties":{"roadClass":"secondary"},"geometry":{"type":"MultiLineString","coordinates":[[[42.33417,54.75655],[42.34927,54.75267],[42.35843,54.75348],[42.38414,54.76937],[42.43206,54.78401],[42.43912,54.78494],[42.45135,54.78889],[42.48261,54.80537],[42.52024,54.8214],[42.54789,54.83012],[42.56044,54.83062],[42.6257,54.82218],[42.64099,54.8214],[42.64831,54.82408]],[[42.66579,54.81163],[42.67686,54.80388],[42.68194,54.80216],[42.72228,54.77019],[42.70465,54.7605],[42.70576,54.75972],[42.71148,54.75703],[42.71812,54.75832],[42.74093,54.75797],[42.77912,54.74709],[42.78099,54.74596],[42.78232,54.74216],[42.78529,54.73936],[42.79735,54.73046],[42.80507,54.72833],[42.81295,54.72056],[42.83407,54.65531],[42.83149,54.62504],[42.84135,54.60591],[42.84993,54.59943],[42.85362,54.58469],[42.86678,54.5733],[42.86622,54.54017],[42.87044,54.53805],[42.89239,54.53783]],[[42.85517,54.06661],[42.85234,54.0654]],[[42.85517,54.06661],[42.85476,54.06593]],[[42.85519,54.0668],[42.85517,54.06661]],[[42.89239,54.53783],[42.89064,54.5359],[42.87521,54.52968],[42.88005,54.52605],[42.87848,54.52116],[42.83117,54.49919],[42.82962,54.42326],[42.82631,54.41862],[42.84582,54.41464],[42.85217,54.41557],[42.8576,54.41353],[42.86091,54.41064],[42.85756,54.37244],[42.85685,54.3435],[42.85483,54.31882],[42.85513,54.31235],[42.85671,54.30684],[42.86024,54.30212],[42.86054,54.29833],[42.85936,54.29548],[42.85315,54.29006],[42.85233,54.28398],[42.85567,54.27902],[42.88215,54.26221],[42.88114,54.24345],[42.88445,54.24104],[42.89429,54.23816],[42.89607,54.23653],[42.89418,54.21176],[42.92563,54.17666],[42.92113,54.12838],[42.90682,54.12689],[42.90525,54.12244],[42.90531,54.11643],[42.90273,54.11675],[42.89675,54.1141],[42.89945,54.11064],[42.8936,54.10613],[42.87489,54.08438],[42.86422,54.08093],[42.85271,54.07412],[42.85203,54.0731],[42.85519,54.0668]],[[42.85533,54.06654],[42.85519,54.0668]],[[42.8552,54.06587],[42.85533,54.06654]],[[42.85658,54.06524],[42.85533,54.06654]],[[43.2322,54.62261],[43.23459,54.61418],[43.2317,54.60896],[43.21693,54.6017],[43.20233,54.59787],[43.18385,54.58987],[43.17233,54.57896],[43.15661,54.56887],[43.13946,54.56584],[43.1162,54.55975],[43.05067,54.55376],[42.90845,54.54482],[42.8959,54.53791],[42.89517,54.53778],[42.89239,54.53783]],[[43.21432,54.08499],[43.19793,54.0794],[43.17088,54.07337],[43.14933,54.06511],[43.14177,54.0637],[43.14232,54.06177],[43.14855,54.05749]],[[43.1869,54.06828],[43.19675,54.06944]],[[43.19533,54.07002],[43.19503,54.07031]],[[43.19533,54.07002],[43.19598,54.07055]],[[43.19559,54.06977],[43.19533,54.07002]],[[43.19553,54.0694],[43.19559,54.06977]],[[43.19675,54.06944],[43.19559,54.06977]],[[43.91572,54.03195],[43.90704,54.01819],[43.90454,54.01231],[43.90473,54.00508],[43.89937,53.9961],[43.89192,53.98945],[43.87924,53.9829],[43.86031,53.97106],[43.85187,53.96782],[43.81708,53.96198],[43.80062,53.96385],[43.78414,53.97215],[43.78019,53.97298],[43.77378,53.97268],[43.76673,53.96997],[43.7555,53.9684],[43.73013,53.96966],[43.67916,53.96752],[43.66301,53.97241],[43.64611,53.97587],[43.61248,53.98619],[43.57716,54.00522],[43.55853,54.01815],[43.53374,54.02973],[43.49915,54.04276],[43.48374,54.04342],[43.47377,54.04696],[43.46181,54.04816],[43.42554,54.04917],[43.40857,54.05079],[43.39406,54.04845],[43.37762,54.04424],[43.35131,54.04707],[43.33513,54.04375],[43.3256,54.04351],[43.27909,54.0594],[43.23892,54.06539],[43.2055,54.06922],[43.20199,54.06946],[43.19675,54.06944]],[[43.23151,54.62331],[43.2322,54.62261]],[[43.23212,54.62397],[43.23165,54.62365]],[[43.23199,54.62353],[43.23212,54.62397]],[[43.2322,54.62261],[43.232,54.62342]],[[43.69192,54.53434],[43.68221,54.5346],[43.67583,54.53647],[43.63219,54.55982],[43.62501,54.5652],[43.59847,54.61331],[43.54808,54.66048],[43.54539,54.6707],[43.55103,54.67479],[43.54803,54.67607],[43.54751,54.67761],[43.54867,54.67963],[43.54795,54.68234],[43.55033,54.68484],[43.54357,54.69059],[43.54298,54.6941],[43.54005,54.696],[43.54005,54.69927],[43.53792,54.70042],[43.52276,54.701],[43.51949,54.70382],[43.51223,54.70501],[43.49933,54.70339],[43.4598,54.70936],[43.42579,54.71133],[43.42246,54.71288],[43.41039,54.71028],[43.334,54.70057],[43.30328,54.68809],[43.27018,54.66966],[43.26769,54.66659],[43.27089,54.65979],[43.26997,54.65843],[43.23507,54.64983],[43.22611,54.64444],[43.2256,54.64271],[43.22957,54.63232],[43.23294,54.62767],[43.23212,54.62397]],[[43.24885,54.0885],[43.25077,54.08889]],[[43.25663,54.07882],[43.24982,54.08867]],[[43.25663,54.07882],[43.25885,54.08045],[43.266,54.09459],[43.26583,54.09479],[43.26508,54.09503],[43.26456,54.09521]],[[43.25802,54.06276],[43.25553,54.06979],[43.25561,54.07274],[43.25761,54.07725],[43.25663,54.07882]],[[43.2639,54.09469],[43.26529,54.09582]],[[43.32019,54.92533],[43.31862,54.92287],[43.33509,54.91962]],[[43.69754,54.43173],[43.69954,54.43125],[43.70246,54.42962],[43.70391,54.42926]],[[43.71679,54.4307],[43.70326,54.43094]],[[43.70391,54.42926],[43.70311,54.43016],[43.70491,54.43037]],[[43.70391,54.42926],[43.70606,54.42925],[43.71343,54.4304]],[[43.71218,54.42711],[43.71133,54.42914],[43.71343,54.4304]],[[43.71343,54.4304],[43.71679,54.4307]],[[43.77796,54.43092],[43.76293,54.43269],[43.74025,54.43344],[43.72459,54.43055],[43.71679,54.4307]],[[43.72714,53.90161],[43.75615,53.91992],[43.76885,53.92957],[43.80714,53.96271]],[[43.74435,54.40306],[43.74563,54.40429],[43.74694,54.40537],[43.74774,54.40596],[43.74803,54.40617],[43.74863,54.4066]],[[43.91595,54.03286],[43.89905,54.04189],[43.8273,54.06123],[43.82515,54.0633],[43.81669,54.08117],[43.81867,54.08513],[43.82283,54.08826],[43.79926,54.10296],[43.79344,54.10416],[43.78175,54.10428],[43.75779,54.11303],[43.73479,54.12499],[43.7408,54.14847],[43.74078,54.16486],[43.73422,54.2061],[43.73941,54.21226],[43.74453,54.22898],[43.7424,54.23212],[43.74176,54.24014],[43.73763,54.25294],[43.73798,54.26532],[43.72488,54.29991],[43.71715,54.30668],[43.70537,54.34468],[43.70831,54.35227],[43.70692,54.37396],[43.73092,54.39603],[43.74145,54.40044],[43.74435,54.40306]],[[43.74804,54.40414],[43.74628,54.40295],[43.74435,54.40306]],[[43.74684,54.40487],[43.74804,54.40414]],[[43.74926,54.40513],[43.74714,54.40493]],[[43.74803,54.40617],[43.74911,54.40638],[43.74898,54.40684]],[[43.74804,54.40414],[43.7498,54.40425]],[[43.74863,54.4066],[43.74887,54.40676],[43.74898,54.40684],[43.74917,54.40697],[43.75024,54.40765],[43.76647,54.41728],[43.77804,54.42159],[43.78086,54.4203],[43.78796,54.424],[43.77824,54.43028]],[[43.74926,54.40513],[43.74978,54.4059],[43.74952,54.40616],[43.74917,54.40635],[43.74911,54.40638],[43.74863,54.4066]],[[43.74994,54.40434],[43.74926,54.40513]],[[43.77824,54.43028],[43.77728,54.4308]],[[43.77796,54.43092],[43.77444,54.44504],[43.75934,54.45909],[43.75438,54.47349],[43.7529,54.48499],[43.70749,54.49705],[43.69996,54.52117],[43.69931,54.5224],[43.6951,54.52909],[43.69192,54.53434],[43.68625,54.54339],[43.68605,54.54529],[43.68811,54.54772],[43.71414,54.56196],[43.75715,54.57426],[43.76923,54.58428],[43.80508,54.59886],[43.83378,54.60801],[43.8455,54.6131],[43.84409,54.61735],[43.86145,54.6327],[43.87342,54.63871],[43.88851,54.63986],[43.92539,54.67782],[43.93045,54.69305],[43.92999,54.69997],[43.90962,54.71881],[43.89601,54.73599],[43.89737,54.79496],[43.89274,54.80618]],[[43.77824,54.43028],[43.77796,54.43092]],[[43.91572,54.03195],[43.91625,54.03237]],[[43.91599,54.03248],[43.91572,54.03195]],[[43.91595,54.03286],[43.91602,54.03254]],[[43.91632,54.03257],[43.91595,54.03286]],[[43.91599,54.03248],[43.9162,54.03236],[43.91639,54.03248],[43.91621,54.0326],[43.91599,54.03248]],[[43.91629,54.03238],[43.91679,54.03251]],[[43.91679,54.03251],[43.91636,54.03255]],[[43.91679,54.03251],[43.93912,54.03716],[43.94894,54.03603],[43.99461,54.02252],[44.0121,54.01847],[44.03385,54.00828],[44.12307,53.98767],[44.15264,53.98629],[44.17135,53.98333],[44.23632,53.9779],[44.24586,53.97281],[44.26628,53.95844],[44.3117,53.96058],[44.34019,53.96372],[44.36516,53.95826],[44.38192,53.952],[44.39358,53.95371],[44.4215,53.95508],[44.46488,53.95441],[44.48797,53.94895],[44.50154,53.95346],[44.51512,53.95622],[44.54926,53.9615],[44.56266,53.96073],[44.61493,53.97067],[44.65833,53.98172],[44.7045,53.99078],[44.72533,54.00011],[44.78033,54.00707],[44.83131,54.02233],[44.86176,54.02733],[44.88189,54.02852],[44.90985,54.03936],[44.92314,54.04234]],[[44.26529,53.95878],[44.26628,53.95844]],[[44.26574,53.9586],[44.26483,53.95715],[44.28136,53.9399],[44.29821,53.91401],[44.33267,53.88823],[44.35105,53.87761]],[[44.35105,53.87761],[44.3632,53.87096],[44.38257,53.86856],[44.38404,53.87228],[44.38808,53.87656],[44.35291,53.87827],[44.35105,53.87761]],[[44.92314,54.04234],[44.9243,54.0424]],[[44.92394,54.04272],[44.92314,54.04234]],[[44.92438,54.04321],[44.92403,54.0428]],[[44.92438,54.04321],[44.93006,54.04986],[44.939,54.05239],[44.93758,54.05402],[44.93799,54.05793]],[[44.92455,54.0428],[44.92438,54.04321]],[[44.93799,54.05793],[44.93959,54.05797],[44.93944,54.05983]],[[44.93944,54.05983],[44.93787,54.05978],[44.93799,54.05793]],[[44.96531,54.07247],[44.93867,54.07262],[44.93944,54.05983]],[[45.0179,54.22926],[44.99652,54.23229],[44.95797,54.2543]],[[44.96602,54.07251],[44.96531,54.07247]],[[44.96531,54.07247],[44.96594,54.0723]],[[44.96602,54.07251],[44.96594,54.0723]],[[44.96594,54.0723],[44.96619,54.07228]],[[44.96607,54.07252],[44.96602,54.07251]],[[44.96802,54.07275],[44.96607,54.07252]],[[44.96619,54.07228],[44.96607,54.07252]],[[44.96619,54.07228],[44.96802,54.07275]],[[44.98759,54.07301],[44.96802,54.07275]],[[44.99156,54.07317],[44.98759,54.07301]],[[44.98759,54.07301],[44.99153,54.07287]],[[45.0179,54.22926],[45.01772,54.22859]],[[45.01843,54.22912],[45.0179,54.22926]],[[45.01895,54.2295],[45.0185,54.22933],[45.01818,54.22927],[45.01804,54.22926],[45.0179,54.22926]],[[45.1182,54.21336],[45.11817,54.2114],[45.11815,54.20911]],[[45.11815,54.20911],[45.11823,54.20854]],[[45.11832,54.20911],[45.11815,54.20911]],[[45.11817,54.2114],[45.11832,54.2114]],[[45.11819,54.21293],[45.11835,54.21294]],[[45.1182,54.21336],[45.11835,54.21336]],[[45.11837,54.21495],[45.1182,54.21336]],[[45.11823,54.20854],[45.11832,54.20911],[45.11832,54.2114],[45.11835,54.21294],[45.11835,54.21336]],[[45.11823,54.20854],[45.1187,54.20415],[45.13277,54.1769]],[[45.11835,54.21336],[45.11838,54.21435],[45.11853,54.21493],[45.11867,54.21518],[45.12318,54.22035]],[[45.11863,54.21535],[45.11837,54.21495]],[[45.11837,54.21495],[45.11853,54.21493]],[[45.12242,54.2205],[45.11863,54.21535]],[[45.11881,54.21534],[45.11863,54.21535]],[[45.11942,54.21612],[45.11928,54.21616]],[[45.1205,54.21745],[45.12029,54.21748]],[[45.12128,54.21846],[45.12113,54.2185]],[[45.12311,54.22106],[45.12242,54.2205]],[[45.12242,54.2205],[45.12318,54.22035]],[[45.12381,54.22099],[45.12355,54.22105],[45.12336,54.22106],[45.12311,54.22106]],[[45.14881,54.22275],[45.14792,54.22276],[45.14439,54.22401],[45.14414,54.22408],[45.14216,54.2244],[45.13998,54.22482],[45.13569,54.22609],[45.13469,54.22626],[45.13419,54.22629],[45.13338,54.2263],[45.13284,54.22628],[45.13038,54.22596],[45.1285,54.22536],[45.12785,54.22506],[45.12605,54.22381],[45.12311,54.22106]],[[45.12318,54.22035],[45.12377,54.22044]],[[45.12377,54.22044],[45.12483,54.22059]],[[45.12377,54.22044],[45.12397,54.22085]],[[45.12381,54.22099],[45.12378,54.22138],[45.12607,54.22367],[45.12617,54.22376],[45.12689,54.22433],[45.12736,54.22469],[45.13285,54.22622],[45.13337,54.22624],[45.1337,54.22624],[45.13418,54.22623],[45.13514,54.22615],[45.13998,54.22475],[45.14213,54.22433],[45.1442,54.22399],[45.14866,54.22232]],[[45.12397,54.22085],[45.12381,54.22099]],[[45.12483,54.22059],[45.12397,54.22085]],[[45.14564,54.22031],[45.13033,54.22054],[45.12547,54.22059],[45.12483,54.22059]],[[45.12605,54.22381],[45.12617,54.22376]],[[45.12858,54.2253],[45.1285,54.22536]],[[45.13044,54.22589],[45.13038,54.22596]],[[45.13268,54.1768],[45.13277,54.1769]],[[45.16602,54.16198],[45.14792,54.16389],[45.12775,54.17082],[45.13268,54.1768]],[[45.13268,54.1768],[45.14372,54.17311]],[[45.14384,54.1732],[45.13826,54.17506],[45.13277,54.1769]],[[45.13338,54.2263],[45.13337,54.22624]],[[45.13379,54.13265],[45.1351,54.1335]],[[45.13418,54.22623],[45.13419,54.22629]],[[45.1351,54.1335],[45.13631,54.13443],[45.13701,54.13511],[45.13768,54.13582],[45.13809,54.13631]],[[45.13809,54.13631],[45.13783,54.13613],[45.13677,54.13512],[45.13603,54.13437],[45.13579,54.13413],[45.1351,54.1335]],[[45.13552,54.13367],[45.13634,54.13436],[45.13679,54.13479],[45.13745,54.13546],[45.13896,54.13718]],[[45.13588,54.13433],[45.13404,54.1347],[45.13473,54.135],[45.13586,54.13493],[45.13753,54.13482],[45.13832,54.13477],[45.13954,54.1347]],[[45.13896,54.13718],[45.1368,54.13524]],[[45.13708,54.22566],[45.13703,54.2256]],[[45.13809,54.13631],[45.13896,54.13718]],[[45.14009,54.13477],[45.13813,54.13619]],[[45.13841,54.17501],[45.13831,54.17492]],[[45.13896,54.13718],[45.15372,54.15064],[45.16239,54.15412],[45.16602,54.16198]],[[45.13998,54.22482],[45.13998,54.22475]],[[45.14213,54.22433],[45.14216,54.2244]],[[45.14384,54.1732],[45.14372,54.17311]],[[45.14372,54.17311],[45.14485,54.17274]],[[45.14494,54.17283],[45.14384,54.1732]],[[45.14485,54.17274],[45.14494,54.17283]],[[45.14485,54.17274],[45.14991,54.17106]],[[45.15,54.17124],[45.14494,54.17283]],[[45.14745,54.22048],[45.14564,54.22031]],[[45.14564,54.22031],[45.14589,54.2203],[45.14621,54.22027],[45.1466,54.22019],[45.14698,54.21975]],[[45.14589,54.2203],[45.14678,54.21936]],[[45.15,54.17124],[45.14991,54.17106]],[[45.14991,54.17106],[45.15148,54.17053]],[[45.15233,54.17105],[45.15,54.17124]],[[45.15148,54.17053],[45.15221,54.17031],[45.15223,54.17046]],[[45.15148,54.17053],[45.15223,54.17046]],[[45.15223,54.17046],[45.1523,54.17089]],[[45.1523,54.17089],[45.15264,54.17096]],[[45.1523,54.17089],[45.15233,54.17105]],[[45.15592,54.18551],[45.15415,54.18299],[45.15233,54.17105]],[[45.15233,54.17105],[45.15264,54.17096]],[[45.15264,54.17096],[45.1583,54.17063]],[[45.16234,54.19454],[45.16124,54.19331],[45.16095,54.19297],[45.15592,54.18551]],[[45.15592,54.18551],[45.16003,54.18534],[45.16062,54.1853],[45.16118,54.18527],[45.16137,54.18526],[45.16155,54.18525],[45.16207,54.18522],[45.16685,54.18495],[45.17169,54.18479],[45.16832,54.17065]],[[45.1583,54.17063],[45.15894,54.17305],[45.16079,54.18254],[45.16125,54.18457],[45.16135,54.18516],[45.16137,54.18526],[45.16147,54.1857],[45.16264,54.19472]],[[45.1583,54.17063],[45.16679,54.17016]],[[45.16247,54.19422],[45.16215,54.19432]],[[45.16234,54.19454],[45.16264,54.19472]],[[45.16254,54.19499],[45.16234,54.19454]],[[45.16254,54.19507],[45.16254,54.19499]],[[45.16254,54.19499],[45.16287,54.19487]],[[45.16283,54.19519],[45.16254,54.19507]],[[45.16256,54.19542],[45.16254,54.19507]],[[45.16256,54.19542],[45.16311,54.20051],[45.16616,54.20591],[45.16648,54.21999]],[[45.16283,54.19519],[45.16256,54.19542]],[[45.16264,54.19472],[45.16287,54.19487]],[[45.16299,54.19516],[45.16283,54.19519]],[[45.16287,54.19487],[45.16308,54.19498]],[[45.16308,54.19498],[45.16299,54.19516]],[[45.16348,54.1951],[45.16299,54.19516]],[[45.16308,54.19498],[45.16348,54.1951]],[[45.17274,54.1949],[45.16348,54.1951]],[[45.16592,54.22065],[45.16639,54.22041]],[[45.16602,54.16198],[45.16804,54.16946]],[[45.16653,54.2204],[45.16639,54.22041]],[[45.16639,54.22041],[45.16648,54.21999]],[[45.16648,54.21999],[45.16653,54.2204]],[[45.16653,54.2204],[45.16719,54.22065]],[[45.16781,54.17024],[45.16679,54.17016]],[[45.16679,54.17016],[45.1678,54.16996]],[[45.16781,54.17024],[45.1678,54.16996]],[[45.1678,54.16996],[45.16795,54.16986]],[[45.16801,54.17035],[45.16781,54.17024]],[[45.16795,54.16986],[45.16804,54.16946]],[[45.16795,54.16986],[45.16828,54.16982],[45.16851,54.16988]],[[45.16853,54.1703],[45.16828,54.17037],[45.16801,54.17035]],[[45.16832,54.17065],[45.16801,54.17035]],[[45.16804,54.16946],[45.16851,54.16988]],[[45.16853,54.1703],[45.16832,54.17065]],[[45.16851,54.16988],[45.16859,54.16993]],[[45.16862,54.17023],[45.16853,54.1703]],[[45.16859,54.16993],[45.16926,54.17005]],[[45.16859,54.16993],[45.16862,54.17023]],[[45.16926,54.17005],[45.16862,54.17023]],[[45.16926,54.17005],[45.19227,54.16957]],[[45.17274,54.1949],[45.17219,54.18981]],[[45.18856,54.19434],[45.17274,54.1949]],[[45.21859,54.17784],[45.21108,54.17396],[45.20552,54.17006],[45.19227,54.16957]],[[45.19227,54.16957],[45.20589,54.17007],[45.21936,54.17818]],[[45.23575,54.24603],[45.23451,54.24243],[45.21949,54.23192],[45.21309,54.22321]],[[45.22401,54.19264],[45.22377,54.19257],[45.22174,54.18597]],[[45.22214,54.18592],[45.22398,54.19254]],[[45.22377,54.19257],[45.22398,54.19254]],[[45.22398,54.19254],[45.22401,54.19264]],[[45.22398,54.19254],[45.22576,54.19242],[45.22678,54.19238],[45.22807,54.19233],[45.22815,54.19232],[45.22961,54.19228],[45.23159,54.1922],[45.23182,54.19219],[45.23293,54.19215],[45.23507,54.19206],[45.23617,54.19193]],[[45.22961,54.19238],[45.22816,54.19244],[45.22806,54.19244],[45.22674,54.1925],[45.22547,54.19254],[45.22401,54.19264]],[[45.22674,54.1925],[45.22678,54.19238]],[[45.22815,54.19232],[45.22816,54.19244]],[[45.22961,54.19238],[45.22961,54.19228]],[[45.2316,54.1923],[45.22961,54.19238]],[[45.23159,54.1922],[45.2316,54.1923]],[[45.23623,54.19238],[45.23557,54.19214],[45.23527,54.19215],[45.23202,54.19228],[45.23183,54.19229],[45.2316,54.1923]],[[45.23183,54.19229],[45.23182,54.19219]],[[45.23295,54.19224],[45.23293,54.19215]],[[45.23499,54.24669],[45.23575,54.24615]],[[45.23574,54.24693],[45.23515,54.24665]],[[45.31499,54.42551],[45.3039,54.41059],[45.24909,54.34422],[45.23469,54.26404],[45.23573,54.247]],[[45.23573,54.247],[45.23574,54.24693]],[[45.23639,54.2464],[45.23573,54.247]],[[45.23574,54.24693],[45.23575,54.24615]],[[45.23575,54.24603],[45.23655,54.24637]],[[45.23575,54.24615],[45.23575,54.24603]],[[45.23709,54.1919],[45.23793,54.19209]],[[45.23793,54.19209],[45.23717,54.19232]],[[45.2949,54.19629],[45.28413,54.19325],[45.25874,54.19052],[45.23793,54.19209]],[[45.2949,54.19629],[45.29525,54.19635],[45.29621,54.19647]],[[45.29601,54.19687],[45.2949,54.19629]],[[45.29559,54.19639],[45.29632,54.19596]],[[45.2982,54.1972],[45.29687,54.19702]],[[45.29708,54.19663],[45.2982,54.1972]],[[45.96348,54.17328],[45.95657,54.17284],[45.9392,54.1678],[45.79995,54.14303],[45.75277,54.1449],[45.72102,54.13897],[45.67406,54.14646],[45.66149,54.14963],[45.61988,54.13659],[45.6046,54.13696],[45.5868,54.13458],[45.55405,54.13387],[45.54501,54.13618],[45.50859,54.15106],[45.48883,54.15015],[45.48365,54.15119],[45.47134,54.15872],[45.46512,54.16759],[45.45972,54.17134],[45.45538,54.18319],[45.45045,54.18618],[45.42482,54.18925],[45.39518,54.19443],[45.37637,54.19477],[45.36062,54.19183],[45.33471,54.19873],[45.2982,54.1972]],[[45.31499,54.42551],[45.31755,54.43076],[45.34751,54.45167],[45.35045,54.45527],[45.35443,54.51355],[45.36627,54.55486],[45.35789,54.58636],[45.30101,54.67301],[45.29847,54.67501],[45.28747,54.67866],[45.27318,54.68813],[45.27935,54.69245],[45.28103,54.69932],[45.28467,54.70629],[45.28307,54.71281],[45.28725,54.7232],[45.31591,54.7499],[45.31689,54.75413],[45.32046,54.76019],[45.36226,54.80256],[45.39905,54.82007],[45.41448,54.82536],[45.42255,54.8296],[45.42743,54.83635],[45.43458,54.85832],[45.44689,54.86456],[45.45704,54.88011],[45.4672,54.89187],[45.47758,54.93636],[45.50343,54.96022],[45.50566,54.96829],[45.50483,54.97415],[45.51496,54.98901],[45.5263,54.99993],[45.55297,55.00818],[45.56071,55.01165],[45.56356,55.01026],[45.57735,55.01804],[45.59086,55.02171],[45.59668,55.02221],[45.61138,55.02011],[45.64141,55.02184],[45.65608,55.02011],[45.66548,55.01779],[45.70545,54.99661],[45.7111,54.99465]],[[45.46412,54.31541],[45.46461,54.33495],[45.47499,54.345],[45.47319,54.36207],[45.44438,54.39482],[45.43598,54.39685],[45.38089,54.40138],[45.37009,54.40655],[45.35831,54.4165],[45.34537,54.41468],[45.33068,54.42155],[45.31499,54.42551]],[[45.42431,54.0249],[45.43183,54.03535],[45.43336,54.03505],[45.44434,54.04004]],[[45.49765,54.9549],[45.4736,54.95673],[45.44595,54.96224]],[[45.7111,54.99465],[45.71129,54.9946]],[[45.71181,54.99478],[45.71151,54.99466],[45.71137,54.99465],[45.7111,54.99465]],[[45.71129,54.9946],[45.71168,54.99412],[45.71238,54.99429]],[[45.71129,54.9946],[45.71169,54.99448]],[[45.71169,54.99448],[45.71181,54.99478]],[[45.71204,54.99439],[45.71169,54.99448]],[[45.71181,54.99478],[45.71266,54.99682]],[[45.71204,54.99439],[45.71181,54.99478]],[[45.71238,54.99429],[45.71204,54.99439]],[[46.26213,54.84568],[46.26865,54.85366],[46.26789,54.85727],[46.24762,54.87171],[46.23449,54.87759],[46.22807,54.88921],[46.21608,54.90271],[46.20669,54.9102],[46.1874,54.91924],[46.18208,54.92583],[46.17772,54.9359],[46.16845,54.93933],[46.16459,54.93969],[46.14216,54.93691],[46.1076,54.92317],[46.10064,54.92297],[46.07565,54.93021],[46.06844,54.93384],[46.06386,54.9381],[46.05256,54.95692],[46.04912,54.96039],[46.03835,54.96393],[45.9972,54.97277],[45.98554,54.97865],[45.96606,54.99081],[45.95178,54.99528],[45.85079,54.98187],[45.82346,54.97579],[45.76089,54.98098],[45.71238,54.99429]],[[45.79624,54.39107],[45.79801,54.39166]],[[45.79702,54.39185],[45.79624,54.39107]],[[45.79624,54.39107],[45.7922,54.38794],[45.79167,54.38537],[45.79898,54.37607],[45.7984,54.36133],[45.80924,54.32564],[45.812,54.32101],[45.86689,54.25461],[45.87419,54.2332],[45.88875,54.22375],[45.92379,54.19496],[45.95821,54.18104],[45.96012,54.17787],[45.96322,54.17585]],[[45.79841,54.39343],[45.79731,54.39258]],[[45.79828,54.39253],[45.79841,54.39343]],[[45.79841,54.39343],[45.79588,54.40456],[45.7932,54.40912],[45.78784,54.41192],[45.79672,54.42208],[45.81049,54.42849],[45.82794,54.44018],[45.83197,54.44543]],[[45.83197,54.44543],[45.86517,54.48699],[45.89294,54.51818],[45.90322,54.52581],[45.92375,54.53418],[45.93031,54.53836],[46.0042,54.57317],[46.08536,54.5946],[46.0893,54.5906],[46.08752,54.58846],[46.08987,54.58799],[46.10068,54.59155],[46.11193,54.58917],[46.12105,54.59193]],[[45.83197,54.44543],[45.84906,54.43786],[45.85621,54.4293],[45.86764,54.41189],[45.88014,54.40228],[45.88101,54.40062],[45.88051,54.39713]],[[45.96322,54.17585],[45.97303,54.17622],[45.9733,54.17825],[46.03518,54.21298],[46.0499,54.23161],[46.05264,54.23704],[46.06023,54.2424],[46.09185,54.25918],[46.09177,54.26066],[46.09923,54.27051],[46.13483,54.28679],[46.14306,54.28556],[46.15787,54.29314],[46.18693,54.30087],[46.19968,54.30259],[46.2025,54.30504],[46.20465,54.30902],[46.22047,54.32104],[46.24446,54.33375],[46.24823,54.33957],[46.25526,54.34654],[46.2557,54.37311],[46.30431,54.40991],[46.31073,54.421],[46.30822,54.42432]],[[45.96322,54.17585],[45.96348,54.17328]],[[45.96348,54.17328],[45.96427,54.16732]],[[46.12105,54.59193],[46.13445,54.59634],[46.13462,54.59966],[46.13693,54.60465],[46.18958,54.61915],[46.21829,54.63697],[46.23484,54.64276],[46.2392,54.64635],[46.24011,54.649],[46.23872,54.65657],[46.2305,54.67358],[46.23614,54.6876],[46.23512,54.70249],[46.23638,54.71342],[46.24154,54.7207],[46.2444,54.72693],[46.27057,54.75009],[46.274,54.75441],[46.26602,54.7637],[46.26412,54.76457],[46.25718,54.77642],[46.24128,54.81704]],[[46.29686,54.42377],[46.29552,54.43011],[46.29561,54.43955],[46.29388,54.44496],[46.30565,54.44533],[46.30584,54.44824],[46.31441,54.46325],[46.31125,54.46422],[46.31435,54.47483],[46.30426,54.47709],[46.28545,54.48423],[46.27177,54.48657],[46.2566,54.4955],[46.24669,54.50513],[46.23796,54.50928],[46.23294,54.51427],[46.2167,54.52346],[46.19342,54.5354],[46.17365,54.54165],[46.16509,54.54956],[46.15891,54.55719],[46.1441,54.57052],[46.13966,54.57251],[46.1391,54.57387],[46.12784,54.58214],[46.12464,54.5862],[46.12513,54.58753],[46.12358,54.59101],[46.12105,54.59193]],[[46.14209,55.02398],[46.1356,55.02095],[46.12673,55.01129],[46.12348,55.01209],[46.11164,54.99925],[46.10202,54.99717],[46.10791,54.98965],[46.13165,54.97751],[46.13408,54.95897],[46.13564,54.95674],[46.14492,54.9503],[46.16486,54.93971]],[[46.24128,54.81704],[46.24161,54.81812]],[[46.24161,54.81812],[46.24113,54.81761],[46.24128,54.81704]],[[46.24161,54.81812],[46.24786,54.82483],[46.24934,54.83066],[46.26213,54.84568]],[[46.40827,54.85464],[46.40344,54.85485],[46.35269,54.84273],[46.34751,54.84534],[46.32946,54.84664],[46.32509,54.84549],[46.31355,54.84783],[46.26549,54.84522],[46.26213,54.84568]],[[46.29686,54.42377],[46.29581,54.42333]],[[46.29694,54.42343],[46.29686,54.42377]],[[46.29781,54.42351],[46.29686,54.42377]],[[43.23159,54.62364],[43.23144,54.62335],[43.23151,54.62331],[43.2316,54.62329],[43.2318,54.62329],[43.232,54.62342],[43.23159,54.62364]],[[44.89939,54.03483],[44.90031,54.03485],[44.90048,54.03532],[44.89957,54.03537],[44.89939,54.03483]],[[44.92441,54.04284],[44.92403,54.0428],[44.92394,54.04272],[44.92392,54.04255],[44.92441,54.04284]]]}},{"type":"Feature","properties":{"roadClass":"tertiary"},"geometry":{"type":"MultiLineString","coordinates":[[[42.70465,54.7605],[42.69785,54.75741],[42.65378,54.74611],[42.65095,54.74424],[42.64391,54.73369],[42.62849,54.72912],[42.59538,54.73135],[42.57695,54.73589],[42.56699,54.73433],[42.5586,54.73535],[42.55155,54.73457],[42.54993,54.73222],[42.55246,54.72978],[42.54849,54.72722],[42.54364,54.71791],[42.52832,54.7078],[42.52018,54.70817],[42.47398,54.71885],[42.45661,54.72695],[42.45222,54.7336],[42.45443,54.74304],[42.45122,54.74813],[42.44508,54.75274],[42.44027,54.75473],[42.43848,54.75833],[42.43,54.7605],[42.42008,54.77032],[42.42016,54.77232],[42.42213,54.77361],[42.41858,54.77967]],[[42.5812,54.16518],[42.57728,54.16012],[42.58051,54.15762],[42.58968,54.15501],[42.58733,54.15451],[42.57638,54.1577],[42.57475,54.15379],[42.57288,54.13079],[42.57848,54.1268]],[[42.58267,54.58186],[42.60025,54.58616],[42.61198,54.58778],[42.61594,54.58413],[42.62681,54.58039],[42.63086,54.57629],[42.63528,54.56806],[42.6372,54.55615],[42.63182,54.55365],[42.63163,54.5522],[42.63315,54.55],[42.63703,54.54873],[42.65219,54.55016],[42.70733,54.5495],[42.73156,54.53937],[42.75003,54.53934],[42.75953,54.53911],[42.81261,54.53868],[42.82796,54.53849],[42.85431,54.53824],[42.86368,54.53811],[42.86791,54.53807],[42.87044,54.53805]],[[42.59009,54.17202],[42.59242,54.17647],[42.59689,54.18119],[42.60301,54.18455],[42.61285,54.19364],[42.61354,54.20181],[42.6062,54.21557],[42.59908,54.22145],[42.57397,54.23185],[42.56008,54.24077],[42.55659,54.24539],[42.56938,54.24961],[42.61622,54.27197],[42.62117,54.27523],[42.62749,54.27651],[42.63353,54.27229]],[[42.65119,54.17325],[42.64194,54.19159],[42.63962,54.19387],[42.64072,54.19578],[42.64451,54.19821],[42.63919,54.201],[42.6482,54.20727],[42.65012,54.21148],[42.64873,54.21314],[42.65079,54.21495],[42.65263,54.21966],[42.65026,54.22271],[42.6407,54.24522],[42.64182,54.24755],[42.66078,54.26036],[42.6617,54.26422],[42.66768,54.27036],[42.66968,54.27627],[42.6643,54.27672],[42.6542,54.28039],[42.6452,54.28106]],[[42.81737,54.70668],[42.80188,54.70699],[42.77811,54.69982],[42.76204,54.69662],[42.734,54.69568],[42.7319,54.6842],[42.71972,54.67605],[42.71776,54.67301],[42.7187,54.66712],[42.71578,54.66406],[42.70226,54.65979],[42.69435,54.65604],[42.68141,54.65395],[42.66352,54.65277],[42.65579,54.64089],[42.65118,54.63818]],[[42.69148,54.11329],[42.68597,54.11507],[42.6748,54.11359],[42.67134,54.1112],[42.67093,54.09834],[42.67331,54.09616],[42.67887,54.09391],[42.67341,54.09012],[42.67284,54.08861],[42.67025,54.08863],[42.67038,54.08743],[42.67474,54.08614],[42.67437,54.08419],[42.67068,54.08119],[42.67425,54.07891],[42.67416,54.0777],[42.66306,54.06852],[42.6603,54.06419],[42.66409,54.06077],[42.66041,54.05882],[42.66107,54.05673],[42.65844,54.05541],[42.6577,54.05371],[42.65475,54.05276]],[[42.73276,53.83493],[42.71551,53.83941],[42.70531,53.83899],[42.70171,53.84147],[42.68933,53.83425],[42.67447,53.82805]],[[42.69148,54.11329],[42.69136,54.1091]],[[42.69148,54.11329],[42.6927,54.11371]],[[42.69754,54.11751],[42.6927,54.11371]],[[42.6927,54.11371],[42.69854,54.11092]],[[42.70151,53.88819],[42.70275,53.88679],[42.71812,53.88196],[42.71916,53.87015],[42.72175,53.869],[42.72227,53.86478],[42.72566,53.8602],[42.72999,53.85795],[42.73602,53.85698],[42.74417,53.86007],[42.7516,53.86073],[42.76335,53.85942],[42.78047,53.86073]],[[42.72227,54.77],[42.72244,54.77002]],[[42.75935,54.78544],[42.73701,54.77031],[42.72505,54.7684],[42.72228,54.77019]],[[42.73276,53.83493],[42.75005,53.84469],[42.77897,53.85186]],[[42.73276,53.83493],[42.73096,53.83324],[42.72516,53.81586],[42.72522,53.8112],[42.72125,53.80461],[42.73837,53.79577],[42.74063,53.79353],[42.7504,53.78953],[42.77067,53.78543],[42.77218,53.78402]],[[42.73453,53.79777],[42.73471,53.79791]],[[42.77674,54.09511],[42.77399,54.09639]],[[42.77674,54.09511],[42.77585,54.09537],[42.77536,54.09533]],[[42.77621,54.09452],[42.77674,54.09511]],[[42.82684,54.08109],[42.82179,54.08367],[42.81663,54.0844],[42.81577,54.08518],[42.8171,54.08632],[42.79761,54.08853],[42.77674,54.09511]],[[42.79483,53.85569],[42.78338,53.85378],[42.77897,53.85186]],[[42.78047,53.86073],[42.77736,53.85673],[42.77897,53.85186]],[[42.83775,54.06146],[42.82786,54.04904],[42.82722,54.04677],[42.8295,54.03798],[42.84474,54.01313],[42.84551,54.00995],[42.83046,53.98184],[42.82528,53.9486],[42.81647,53.93493],[42.79304,53.87813],[42.78047,53.86073]],[[42.8024,53.90006],[42.82485,53.89858],[42.84987,53.8951],[42.858,53.89239],[42.8613,53.88986],[42.86571,53.89142],[42.8769,53.88033],[42.88609,53.876],[42.89629,53.87911]],[[42.81282,54.72071],[42.82626,54.71356],[42.84264,54.71258],[42.87503,54.70508],[42.88214,54.7044],[42.93681,54.70947],[42.94974,54.71777],[42.962,54.71865],[42.95718,54.72012]],[[42.83093,54.07474],[42.81686,54.06858]],[[42.81746,54.06817],[42.81767,54.06887]],[[42.85309,54.07069],[42.84364,54.08088],[42.83151,54.08058],[42.82761,54.08163],[42.82684,54.08109]],[[42.83093,54.07474],[42.82489,54.07838],[42.82684,54.08109]],[[42.845,54.07912],[42.83985,54.07759],[42.83093,54.07474]],[[42.83775,54.06215],[42.83775,54.06146]],[[42.83775,54.06146],[42.8388,54.06201]],[[42.83929,54.06318],[42.83821,54.06272]],[[42.83921,54.06261],[42.83929,54.06318]],[[42.83985,54.07759],[42.84242,54.07184],[42.84245,54.07028],[42.84238,54.06894],[42.84235,54.06697],[42.83929,54.06318]],[[42.85003,54.07373],[42.84665,54.07024],[42.84238,54.06894]],[[42.86086,54.40591],[42.85844,54.40863],[42.86108,54.41008]],[[42.86087,54.40624],[42.86105,54.40882]],[[42.86809,54.53845],[42.86791,54.53807]],[[42.8751,54.08462],[42.87733,54.0844],[42.88246,54.08665],[42.89207,54.08766],[42.91592,54.08623],[42.94389,54.05853],[42.95283,54.05184],[42.96946,54.04166],[42.99032,54.03474],[42.99687,54.01351]],[[42.96591,53.8792],[42.94789,53.87469],[42.93975,53.87444],[42.89629,53.87911]],[[42.89629,53.87911],[42.89471,53.86867],[42.89598,53.86582],[42.89354,53.85465],[42.89596,53.85253],[42.89667,53.84395],[42.89098,53.84274],[42.88292,53.83567],[42.89263,53.81717],[42.9013,53.81806],[42.90387,53.81192],[42.93639,53.81341],[42.93876,53.81231],[42.93925,53.81012]],[[42.91192,54.73577],[42.91215,54.72799],[42.91895,54.70782]],[[42.99089,53.96946],[42.9907,53.96909],[42.99056,53.96882],[42.99013,53.96843],[42.98788,53.96758],[42.98633,53.9569],[42.98763,53.95512],[42.99164,53.9398],[42.97113,53.92467],[42.98406,53.91553],[42.99715,53.91026],[42.99401,53.90709],[42.99439,53.90275],[42.99209,53.89839],[42.96591,53.8792]],[[43.01783,53.82798],[43.01508,53.83381],[43.01337,53.84214],[43.00846,53.84988],[42.97894,53.86704],[42.9781,53.86814],[42.97921,53.87102],[42.97682,53.87365],[42.9774,53.87627],[42.96591,53.8792]],[[43.24262,54.07337],[43.24044,54.07414],[43.24068,54.0802],[43.23953,54.08202],[43.23614,54.0847],[43.23371,54.08654],[43.23327,54.08687],[43.23283,54.0872],[43.23241,54.08752],[43.22031,54.09694],[43.20485,54.10969],[43.19938,54.11354],[43.17267,54.11825],[43.16866,54.12403],[43.1551,54.13272],[43.15023,54.13478],[43.13094,54.13912],[43.12224,54.15725],[43.11468,54.16283],[43.11356,54.16483],[43.10737,54.16687],[43.10907,54.17526],[43.10011,54.18762],[43.07579,54.21617],[43.07151,54.21805],[43.05478,54.22025],[43.03875,54.22539],[43.01613,54.22774],[43.01422,54.23032],[43.00095,54.2396],[42.99933,54.24459],[42.98733,54.25683]],[[42.99034,53.96965],[42.9907,53.96909],[42.9916,53.96934]],[[43.01461,54.55151],[43.01628,54.5454],[43.02075,54.54531],[43.02678,54.54347],[43.03237,54.53911],[43.0333,54.53196],[43.03542,54.52891],[43.03045,54.5264],[43.03086,54.51643],[43.03695,54.50456],[43.03753,54.50094],[43.04458,54.49491]],[[43.14177,54.0637],[43.14196,54.0739],[43.13367,54.07615],[43.09117,54.07005],[43.07487,54.07115],[43.07418,54.0741]],[[43.15013,54.62993],[43.16216,54.61226],[43.17435,54.60571],[43.18497,54.59696],[43.18434,54.59124],[43.18437,54.59096],[43.18445,54.59073],[43.18453,54.59053],[43.18463,54.59029]],[[43.15075,54.5678],[43.15476,54.56132]],[[43.15582,53.80134],[43.14213,53.80782],[43.12857,53.83144],[43.11943,53.84221],[43.13183,53.85019],[43.13945,53.84923],[43.13897,53.85209],[43.1407,53.855],[43.13859,53.85573],[43.14261,53.86225],[43.15066,53.86008],[43.15503,53.8621],[43.16614,53.88536],[43.16962,53.88928]],[[43.23892,54.06539],[43.2375,54.06433],[43.23658,54.06367],[43.22796,54.058],[43.21018,54.04435],[43.2055,54.04172],[43.19433,54.02551],[43.18982,54.02303],[43.17036,54.01902],[43.16183,54.01545]],[[43.16251,54.57228],[43.16304,54.5724]],[[43.16397,54.57243],[43.16273,54.57243]],[[43.16397,54.57243],[43.16352,54.57295]],[[43.22327,54.5697],[43.21848,54.57399],[43.20959,54.57728],[43.18151,54.57307],[43.16397,54.57243]],[[43.30281,54.16563],[43.28036,54.17413],[43.23574,54.1691],[43.23473,54.17345],[43.2368,54.17749],[43.235,54.18011],[43.2391,54.18573],[43.23003,54.19276],[43.22686,54.20029],[43.2189,54.20953],[43.20513,54.21999],[43.18796,54.22782],[43.17892,54.23523]],[[43.18501,54.59046],[43.18345,54.58963]],[[43.20057,54.63292],[43.19795,54.63675],[43.19179,54.63503],[43.19566,54.62978],[43.20061,54.62973]],[[43.20095,54.63263],[43.20057,54.63292]],[[43.2012,54.63301],[43.20087,54.63292],[43.20057,54.63292]],[[43.20336,54.63043],[43.20061,54.62973]],[[43.23071,54.62377],[43.21486,54.6245],[43.20061,54.62973]],[[43.20095,54.63263],[43.2012,54.63301]],[[43.20336,54.63043],[43.20095,54.63263]],[[43.2012,54.63301],[43.20265,54.63336],[43.20216,54.63476],[43.20499,54.63496]],[[43.20336,54.63043],[43.20468,54.63043],[43.20499,54.63496]],[[43.20499,54.63496],[43.209,54.63618],[43.22058,54.64392],[43.2248,54.64336]],[[43.21876,54.62451],[43.21605,54.62657],[43.21491,54.62834],[43.21411,54.62912],[43.21389,54.62929],[43.21377,54.62937],[43.21322,54.63012],[43.20848,54.63395],[43.20706,54.63525]],[[43.21417,54.62938],[43.21389,54.62929],[43.21336,54.62912],[43.20959,54.62692]],[[43.21115,54.63231],[43.21057,54.6323]],[[43.21096,54.63197],[43.21115,54.63231]],[[43.21417,54.62938],[43.21923,54.63064],[43.21816,54.63179],[43.21597,54.63431],[43.21115,54.63231]],[[43.21411,54.62912],[43.21417,54.62938]],[[43.21703,54.63309],[43.22173,54.63466],[43.22852,54.63513]],[[43.21721,54.62594],[43.23063,54.63051]],[[43.33799,54.30684],[43.33786,54.30699],[43.33783,54.30708],[43.33781,54.3072],[43.3377,54.3172],[43.3368,54.32088],[43.33733,54.33364],[43.33558,54.34437],[43.3367,54.35619],[43.34278,54.37474],[43.34155,54.38656],[43.32939,54.39876],[43.32711,54.40504],[43.33143,54.42919],[43.32973,54.44229],[43.31925,54.45482],[43.30862,54.46202],[43.30801,54.46533],[43.30443,54.46889],[43.29308,54.47654],[43.27539,54.49251],[43.27111,54.50115],[43.27225,54.50356],[43.26809,54.50549],[43.26508,54.5071],[43.26475,54.50737],[43.25557,54.51971],[43.23198,54.5338],[43.22059,54.5636],[43.22039,54.56755],[43.22327,54.5697]],[[43.33098,54.58295],[43.2635,54.55859],[43.25703,54.55895],[43.22849,54.56726],[43.22327,54.5697]],[[43.2242,54.62441],[43.2234,54.62618],[43.23221,54.62846]],[[43.2248,54.64336],[43.22552,54.6431]],[[43.22551,54.6436],[43.22525,54.64341],[43.22501,54.64335],[43.2248,54.64336]],[[43.2308,54.63062],[43.23063,54.63051]],[[43.23063,54.63051],[43.23091,54.63048]],[[43.23071,54.62377],[43.2314,54.62339]],[[43.23153,54.62363],[43.23071,54.62377]],[[43.23237,54.62866],[43.23221,54.62846]],[[43.23221,54.62846],[43.23254,54.62844]],[[43.23462,54.08698],[43.23283,54.0872],[43.23259,54.08681],[43.23371,54.08654],[43.23416,54.08694]],[[43.23443,54.61551],[43.2418,54.61703],[43.24975,54.61504],[43.2836,54.61676]],[[43.24982,54.08867],[43.24964,54.08888],[43.24926,54.08935],[43.24458,54.09601],[43.24017,54.10347],[43.23712,54.10603],[43.23459,54.11144],[43.23381,54.11729],[43.22616,54.13123],[43.22622,54.13414],[43.228,54.13675],[43.23759,54.14648],[43.2313,54.16755],[43.23533,54.16963]],[[43.23852,54.06544],[43.23863,54.06518]],[[43.24262,54.07337],[43.24472,54.07587],[43.24332,54.07817],[43.24076,54.07831]],[[43.25577,54.06916],[43.24917,54.06998],[43.24262,54.07337]],[[43.24347,54.07807],[43.24815,54.0792],[43.25663,54.07882]],[[43.25077,54.08889],[43.24964,54.08888],[43.24885,54.0885]],[[43.2557,54.06939],[43.329,54.0772],[43.35114,54.07687],[43.38037,54.07444],[43.4042,54.07003],[43.44022,54.07186],[43.44046,54.07003],[43.45055,54.06993],[43.47333,54.04939],[43.47123,54.04726]],[[43.26445,54.65693],[43.2909,54.65052],[43.31779,54.64113],[43.32692,54.63637],[43.33348,54.63916],[43.33624,54.63864],[43.34099,54.63055],[43.337,54.62736],[43.33184,54.62612]],[[43.2665,54.50638],[43.28342,54.50866],[43.28494,54.50997],[43.29198,54.50862],[43.31245,54.50749],[43.33135,54.50432],[43.33865,54.50595],[43.34571,54.50357],[43.3489,54.50121],[43.37041,54.49368],[43.38342,54.48693],[43.37996,54.48161],[43.38157,54.4788],[43.37665,54.47492]],[[43.29842,54.9352],[43.29248,54.9282],[43.29113,54.92474],[43.29269,54.92058],[43.29747,54.92179]],[[43.29876,54.61191],[43.29804,54.60846],[43.31106,54.60145],[43.30163,54.58791],[43.29918,54.58257],[43.31116,54.57597]],[[43.32419,54.92064],[43.31863,54.92173],[43.31862,54.92287]],[[43.32419,54.92064],[43.32479,54.92168]],[[43.32905,54.90314],[43.32839,54.91582],[43.32419,54.92064]],[[43.32905,54.90314],[43.3347,54.90328],[43.34092,54.90056]],[[43.36377,54.8108],[43.3638,54.8115],[43.36331,54.81317],[43.36244,54.81426],[43.3546,54.81901],[43.33351,54.81921],[43.32905,54.90314]],[[43.33098,54.58295],[43.33186,54.58315],[43.33239,54.58293]],[[43.54691,54.66722],[43.54108,54.66665],[43.54063,54.66536],[43.53572,54.66311],[43.51961,54.64786],[43.51346,54.6422],[43.50709,54.63482],[43.50262,54.6316],[43.49534,54.63078],[43.46524,54.61125],[43.44851,54.60215],[43.43795,54.60024],[43.41462,54.60035],[43.40994,54.5969],[43.3774,54.59375],[43.35073,54.58912],[43.34819,54.5885],[43.33216,54.58335],[43.33098,54.58295]],[[43.33216,54.58335],[43.33239,54.58293]],[[43.33239,54.58293],[43.3334,54.58372]],[[43.65232,54.42726],[43.65222,54.42736],[43.65204,54.42759],[43.65103,54.42887],[43.65049,54.42954],[43.65029,54.42971],[43.64226,54.43322],[43.57328,54.46042],[43.54265,54.4793],[43.53493,54.48037],[43.47977,54.47956],[43.47455,54.48082],[43.44934,54.49243],[43.43225,54.50485],[43.42179,54.52447],[43.41523,54.52936],[43.40678,54.54206],[43.39754,54.54704],[43.37211,54.55555],[43.3577,54.55871],[43.34042,54.57148],[43.33239,54.58293]],[[43.33865,54.30709],[43.33783,54.30708],[43.33732,54.30659]],[[43.3449,54.90723],[43.34391,54.90613],[43.34526,54.90443],[43.34092,54.90056]],[[43.34092,54.90056],[43.34465,54.89983],[43.35636,54.90053],[43.37605,54.89542],[43.39446,54.89338],[43.39945,54.89177]],[[43.39945,54.89177],[43.40041,54.89659],[43.39445,54.89987],[43.38781,54.90127],[43.36512,54.90094],[43.3579,54.9044],[43.34528,54.90826]],[[43.36377,54.8108],[43.36353,54.81211]],[[43.40725,54.71024],[43.38611,54.73169],[43.37378,54.74835],[43.36377,54.8108]],[[43.39924,54.89225],[43.39867,54.89213]],[[43.39945,54.89177],[43.40296,54.88975],[43.41069,54.88846],[43.41955,54.88344],[43.43381,54.87837],[43.44328,54.88007],[43.45005,54.88282],[43.5494,54.88464],[43.59479,54.88993],[43.60346,54.8939]],[[43.51837,54.64673],[43.50402,54.65045],[43.50066,54.65364],[43.45986,54.65811]],[[43.46811,54.01211],[43.46951,54.02244],[43.47222,54.02783],[43.47636,54.03042],[43.48107,54.03092],[43.48397,54.04043],[43.48367,54.04281],[43.48149,54.04398]],[[43.86033,54.63177],[43.85757,54.6379],[43.85262,54.64366],[43.84818,54.66105],[43.84713,54.6839],[43.8382,54.6935],[43.8233,54.70203],[43.76887,54.71824],[43.75015,54.72563],[43.74403,54.72815],[43.73502,54.73537],[43.72557,54.73936],[43.72126,54.73926],[43.72061,54.73778],[43.72076,54.73606],[43.72452,54.73214],[43.72436,54.71457],[43.72267,54.71088],[43.70106,54.70471],[43.67596,54.70311],[43.65878,54.70614],[43.52987,54.71045],[43.52506,54.70966],[43.51921,54.70393]],[[43.78557,54.10389],[43.7784,54.10227],[43.76601,54.09744],[43.76,54.09391],[43.74824,54.09032],[43.72593,54.08537],[43.71932,54.08474],[43.71448,54.08605],[43.69491,54.07797],[43.66282,54.07316],[43.66149,54.07131],[43.64845,54.07058],[43.63744,54.06834],[43.62285,54.07025]],[[43.65305,54.42747],[43.65204,54.42759],[43.65163,54.42707]],[[43.71643,54.56284],[43.69899,54.6125],[43.6999,54.62043],[43.69926,54.62721],[43.6902,54.63864],[43.68934,54.64112],[43.68875,54.64702],[43.69699,54.65987]],[[43.78604,54.62439],[43.77224,54.62503],[43.76109,54.62733],[43.74476,54.63551]],[[43.84704,54.01548],[43.83468,54.02351],[43.78551,54.01601],[43.78051,54.0176],[43.77824,54.01975],[43.76586,54.02187],[43.74971,54.01908],[43.74718,54.02031]],[[43.77816,54.43212],[43.77759,54.43234]],[[43.82376,54.39453],[43.82144,54.3989],[43.8209,54.4152],[43.81652,54.41986],[43.80718,54.42657],[43.80287,54.43546],[43.7943,54.43776],[43.78541,54.43491],[43.78313,54.43408],[43.77816,54.43212],[43.77768,54.43196]],[[43.80008,54.59692],[43.79653,54.60327],[43.79265,54.60577],[43.78725,54.6164],[43.78022,54.62061],[43.78038,54.62215],[43.78604,54.62439]],[[43.78604,54.62439],[43.83714,54.62164],[43.84772,54.61995]],[[43.81925,54.09014],[43.83104,54.09998],[43.84001,54.10295],[43.88577,54.10417],[43.89089,54.10657],[43.89441,54.10619],[43.89889,54.10803],[43.90296,54.10808],[43.90336,54.11001],[43.90825,54.11204],[43.91073,54.11178],[43.91872,54.11682],[43.93581,54.12404],[43.96563,54.12317],[43.97368,54.12559],[43.97528,54.13089],[43.98623,54.1301],[43.99334,54.13291],[43.99956,54.13165],[44.00604,54.13677],[44.02683,54.14618],[44.03203,54.1468],[44.04879,54.15299]],[[43.82193,54.00111],[43.84704,54.01548]],[[43.82227,54.39103],[43.82021,54.39116],[43.82205,54.39186]],[[43.82346,54.39382],[43.82227,54.39103]],[[43.82227,54.39103],[43.824,54.38945],[43.82715,54.39052]],[[43.82335,54.39501],[43.8236,54.39419]],[[43.82346,54.39382],[43.82432,54.39404]],[[43.8236,54.39419],[43.82346,54.39382]],[[43.8236,54.39419],[43.82376,54.39453]],[[43.82755,54.39225],[43.82376,54.39453]],[[43.82648,54.39281],[43.82673,54.39172],[43.82458,54.39168]],[[43.82755,54.39225],[43.82686,54.3918]],[[43.82691,54.39117],[43.82715,54.39052]],[[43.82715,54.39052],[43.82851,54.3908]],[[43.83334,54.38923],[43.82755,54.39225]],[[43.8455,54.6131],[43.85351,54.62022],[43.85794,54.61898],[43.8634,54.62094]],[[43.84704,54.01548],[43.8808,54.03406],[43.8908,54.03162],[43.89494,54.03249]],[[44.07345,54.50208],[44.06756,54.50451],[44.06038,54.51233],[44.03627,54.52239],[44.02141,54.53248],[43.98274,54.55347],[43.98072,54.55434],[43.95285,54.56519],[43.92922,54.57456],[43.91431,54.57954],[43.87522,54.59551],[43.86707,54.60037],[43.86847,54.6065],[43.86037,54.61234],[43.86026,54.6195]],[[43.86361,54.62106],[43.89672,54.62426],[43.91556,54.62828],[43.93224,54.63022],[43.94997,54.63071],[43.98641,54.63516],[44.02262,54.63258],[44.06489,54.63387]],[[43.87312,54.62232],[43.88851,54.63986]],[[43.90682,54.03817],[43.89494,54.03249]],[[43.91306,54.02803],[43.90436,54.03003],[43.89499,54.03242],[43.89494,54.03249]],[[43.90427,54.03005],[43.91183,54.03559]],[[43.90533,54.039],[43.93185,54.04463],[43.93699,54.04839],[43.94103,54.04698]],[[43.90766,54.03773],[43.91685,54.04006]],[[43.91295,54.03495],[43.91651,54.03577],[43.9182,54.03612],[43.91922,54.03632],[43.92159,54.0368],[43.92206,54.03687],[43.92726,54.03794]],[[43.91685,54.04006],[43.92486,54.0417],[43.92502,54.04156],[43.92577,54.0403],[43.92708,54.03825],[43.92777,54.03711],[43.93912,54.03716]],[[43.91685,54.04006],[43.91868,54.0372],[43.91922,54.03632],[43.91975,54.03543],[43.92103,54.03344]],[[43.92993,54.59566],[43.93557,54.59594],[43.94212,54.5925],[43.94615,54.59219],[43.9621,54.58515],[43.96042,54.58275],[43.9591,54.57252],[43.95285,54.56519]],[[44.02319,54.68292],[44.01957,54.68293],[44.01147,54.68664],[43.99049,54.68758],[43.9759,54.69209],[43.96285,54.69654],[43.93045,54.69851]],[[43.94103,54.04698],[43.94351,54.05276],[43.95071,54.05759],[43.97292,54.06027],[43.98262,54.06449],[43.98648,54.06876],[43.98858,54.07578],[43.99152,54.07878],[44.00056,54.08305],[44.00083,54.08726],[44.0023,54.08897],[44.01555,54.09411],[44.03174,54.09739],[44.03484,54.10009],[44.04183,54.11021],[44.04546,54.12297],[44.04713,54.12386],[44.04382,54.13],[44.05015,54.14703],[44.04879,54.15299]],[[43.94133,54.03695],[43.94427,54.03882],[43.94103,54.04698]],[[43.97661,54.55592],[43.97082,54.53934],[43.94432,54.52004],[43.95089,54.51296],[43.95527,54.51221]],[[43.97465,54.69256],[43.98131,54.70033],[43.9917,54.7089],[44.00003,54.72099],[43.99932,54.72538]],[[44.04879,54.15299],[44.0466,54.16248],[44.0459,54.19868],[44.04442,54.20466],[44.0457,54.21051],[44.04147,54.22574],[44.03878,54.24136],[44.03528,54.241],[43.98288,54.25943],[43.9693,54.26487],[43.95947,54.27293],[43.95924,54.28342],[43.96124,54.29501],[43.978,54.29309],[43.98041,54.29417],[43.98148,54.29599],[43.97414,54.31537],[43.95851,54.33469],[43.93149,54.33853],[43.9166,54.34372],[43.91918,54.3649],[43.94716,54.38841],[43.97375,54.40496],[43.97548,54.40929],[43.98243,54.41876]],[[44.04256,54.00625],[44.05309,54.01408],[44.04814,54.01794],[44.05268,54.0226],[44.06543,54.02782],[44.08077,54.03775],[44.08502,54.03794],[44.0875,54.04476],[44.08936,54.0454],[44.09107,54.04868],[44.11002,54.06739],[44.10895,54.07061],[44.1073,54.07182],[44.11136,54.07448],[44.10465,54.0816],[44.12032,54.08718],[44.12168,54.08888],[44.12086,54.09145],[44.1219,54.09223],[44.13325,54.09194],[44.13676,54.09343],[44.14695,54.09291],[44.14905,54.10237],[44.15245,54.1059],[44.15089,54.10754],[44.1475,54.10854]],[[44.08127,54.35607],[44.08032,54.36456],[44.08333,54.37399],[44.08375,54.39162],[44.0821,54.40154],[44.08631,54.40649],[44.11418,54.42375],[44.11758,54.42823],[44.12356,54.44202],[44.12431,54.45181],[44.11853,54.45677]],[[44.20751,53.9804],[44.22249,54.00743],[44.22495,54.01707]],[[44.2481,54.36049],[44.25202,54.35621],[44.25058,54.35363],[44.25098,54.35049],[44.24692,54.34981],[44.24431,54.34739],[44.24437,54.34106],[44.24688,54.33479],[44.24467,54.33142],[44.2444,54.32898]],[[44.36211,53.86779],[44.36913,53.86719],[44.37307,53.86677],[44.37708,53.86646],[44.37744,53.8678],[44.38234,53.86734],[44.38257,53.86856],[44.38388,53.8684],[44.39298,53.865],[44.39556,53.8626],[44.38922,53.85866],[44.38063,53.85234],[44.3785,53.85128],[44.34812,53.83833],[44.32677,53.82514],[44.31264,53.81814],[44.28029,53.80534],[44.25967,53.79252]],[[44.26032,54.0252],[44.25979,54.02337],[44.26785,54.02202],[44.27051,54.02001],[44.26828,54.01347],[44.27589,54.01191],[44.28378,54.00573],[44.29103,53.99792],[44.29333,53.99731],[44.30406,53.99919],[44.30525,53.99674],[44.3078,53.99509],[44.33262,53.99157],[44.34267,53.98158],[44.33727,53.97025],[44.33584,53.96357]],[[44.2893,54.06813],[44.29086,54.06833],[44.30535,54.05385],[44.31363,54.05543],[44.33415,54.06265],[44.34743,54.06044],[44.36207,54.07796],[44.36892,54.08932],[44.37498,54.09113],[44.37941,54.08736],[44.38334,54.07287],[44.38686,54.06609],[44.40519,54.04494],[44.40504,54.0378],[44.41333,54.03559],[44.41589,54.03103],[44.41952,54.02929],[44.42446,54.02462],[44.41172,54.02078],[44.40316,54.02121],[44.40243,54.01968],[44.41066,54.01687],[44.41953,54.01866]],[[44.34046,53.868],[44.35089,53.86816],[44.35245,53.8676],[44.35321,53.86756],[44.35694,53.86762],[44.35847,53.86764],[44.36195,53.86728]],[[44.35146,53.86811],[44.35018,53.87641],[44.35105,53.87761]],[[44.35879,53.87316],[44.35795,53.87085],[44.35694,53.86762],[44.35629,53.86527],[44.35524,53.86223],[44.35787,53.86192],[44.35851,53.86004]],[[44.3632,53.87096],[44.36211,53.86779],[44.3608,53.86325],[44.36791,53.86259],[44.36913,53.86719]],[[44.3785,53.85128],[44.36459,53.8567]],[[44.36894,53.85878],[44.38792,53.86364],[44.39101,53.8656]],[[44.38808,53.87656],[44.39603,53.88197],[44.40108,53.88764],[44.40167,53.8897],[44.40219,53.90539],[44.40112,53.93899],[44.39334,53.98095],[44.40005,53.99193],[44.41953,54.01866]],[[44.39374,53.86138],[44.4185,53.84607],[44.43317,53.84047],[44.45522,53.83506],[44.47562,53.82642],[44.50755,53.81567],[44.51924,53.81424],[44.51996,53.81377],[44.52095,53.81307],[44.52338,53.81141],[44.52574,53.80979],[44.53924,53.8012],[44.54635,53.79267],[44.56382,53.78093],[44.58051,53.76371],[44.58761,53.74598],[44.60282,53.73263],[44.65124,53.71959]],[[44.41953,54.01866],[44.41929,54.02136]],[[44.45121,54.31336],[44.45394,54.31351]],[[44.46454,54.30351],[44.46008,54.30603],[44.45884,54.31011],[44.45226,54.3134]],[[44.45945,54.18638],[44.45735,54.19062],[44.45653,54.19852],[44.46198,54.21564],[44.46674,54.24705],[44.4613,54.2936],[44.46928,54.29862],[44.47044,54.30038],[44.46454,54.30351]],[[44.46454,54.30351],[44.47668,54.31248],[44.47433,54.32174]],[[44.4737,54.32174],[44.47433,54.32174]],[[44.47416,54.32219],[44.47433,54.32174]],[[44.49962,54.56361],[44.49532,54.56537],[44.48699,54.56486],[44.48016,54.56328],[44.47776,54.56143],[44.4761,54.5578],[44.46345,54.55826],[44.45549,54.55513],[44.45333,54.54904],[44.43895,54.53862],[44.43396,54.53282],[44.43501,54.52545],[44.43237,54.51588],[44.43225,54.50743],[44.43051,54.50443],[44.43023,54.49921],[44.45091,54.49697],[44.46719,54.49014],[44.47362,54.48876],[44.51437,54.48842],[44.51303,54.4835],[44.52957,54.48681],[44.53665,54.4865],[44.57136,54.47703],[44.58207,54.46821],[44.59153,54.4664],[44.62066,54.46329],[44.68834,54.46206],[44.7056,54.45864],[44.71401,54.45347],[44.73063,54.45698]],[[44.52338,53.81141],[44.53643,53.8156],[44.55987,53.81846],[44.56747,53.8238],[44.60145,53.83505]],[[44.88013,54.10899],[44.84271,54.13899],[44.83295,54.14372],[44.81523,54.14874],[44.78995,54.15877],[44.77124,54.17922],[44.75723,54.1857],[44.74936,54.19353],[44.7411,54.19403],[44.71851,54.19007],[44.70867,54.19607],[44.70088,54.19875],[44.69616,54.19516],[44.69672,54.18935],[44.69262,54.18867],[44.67107,54.18044],[44.65205,54.17526],[44.62082,54.17196],[44.61154,54.17227]],[[44.64968,53.97953],[44.64464,53.96711],[44.6452,53.96211],[44.64833,53.95485],[44.64571,53.94843],[44.64767,53.93497],[44.65247,53.93086],[44.68612,53.91532],[44.69258,53.91051],[44.69691,53.90445],[44.69619,53.89953],[44.69068,53.8891],[44.6907,53.88697]],[[44.70794,53.99213],[44.73153,53.98038],[44.74281,53.97053],[44.74538,53.95591],[44.74089,53.95032]],[[44.74414,54.48369],[44.72737,54.46915],[44.72814,54.46273],[44.72966,54.4614],[44.73063,54.45698]],[[44.73063,54.45698],[44.74363,54.4411],[44.7652,54.42921],[44.76764,54.42685],[44.78007,54.39816],[44.78019,54.39474],[44.77775,54.38548],[44.77459,54.37844],[44.77821,54.37242]],[[44.78228,54.36407],[44.76785,54.36451],[44.74399,54.35737]],[[44.76904,54.42371],[44.77803,54.42329],[44.79837,54.43197],[44.83307,54.45054]],[[44.77821,54.37242],[44.80609,54.37881],[44.82884,54.3932],[44.83991,54.39146]],[[44.77821,54.37242],[44.78228,54.36407]],[[44.79478,54.35347],[44.79486,54.35383],[44.79533,54.35622],[44.79532,54.35656],[44.79471,54.35789],[44.7875,54.36369],[44.78228,54.36407]],[[44.79575,54.35332],[44.79486,54.35383],[44.79345,54.35366]],[[44.88008,54.11028],[44.87919,54.10985]],[[44.88627,54.0923],[44.88223,54.09113],[44.88909,54.08307],[44.89585,54.07236],[44.89735,54.06765],[44.90308,54.06642],[44.90342,54.0635],[44.89875,54.05847],[44.90944,54.05516],[44.91274,54.05511],[44.91792,54.0521],[44.92922,54.04899]],[[44.88813,54.03047],[44.88944,54.01513]],[[44.92585,54.15317],[44.92307,54.15933],[44.91905,54.16413],[44.90575,54.17876],[44.90289,54.17913]],[[44.92454,54.04244],[44.9252,54.04254]],[[44.9252,54.04254],[44.92462,54.04276]],[[45.09985,54.08709],[45.09535,54.08386],[45.09852,54.0772],[45.09129,54.06927],[45.094,54.06859],[45.09282,54.06448],[45.09851,54.06357],[45.09869,54.06209],[45.09105,54.06121],[45.07396,54.05646],[45.06482,54.03791],[45.05231,54.04049],[45.04416,54.0346],[45.02309,54.02734],[45.01879,54.02316],[45.01505,54.0214],[45.00437,54.02589],[44.96285,54.03167],[44.93708,54.03039],[44.93706,54.03724],[44.92991,54.04209],[44.9252,54.04254]],[[44.9261,54.15245],[44.92585,54.15317]],[[44.9262,54.15318],[44.92601,54.15313],[44.92585,54.15317]],[[44.92587,54.15248],[44.9261,54.15245]],[[44.94171,54.12115],[44.93767,54.12716],[44.92297,54.13474],[44.9261,54.15245]],[[44.95974,54.04842],[44.94759,54.04534],[44.9296,54.04489],[44.92704,54.04242]],[[44.93196,54.11032],[44.92942,54.09325],[44.92323,54.08315],[44.92986,54.07278],[44.93867,54.07262]],[[44.94171,54.12115],[44.93284,54.11842],[44.93199,54.11089]],[[44.93959,54.05797],[44.95297,54.05823],[44.95615,54.05834],[44.95645,54.06423],[44.962,54.07061],[44.96551,54.07209]],[[45.10862,54.09362],[45.10826,54.09377],[45.10554,54.09475],[45.09348,54.0989],[45.09238,54.09936],[45.07955,54.10665],[45.06567,54.10672],[45.06023,54.10864],[45.04492,54.10921],[45.02833,54.11641],[45.01899,54.11688],[45.0154,54.12125],[45.01693,54.12556],[45.0108,54.13351],[45.00007,54.13774],[44.98355,54.13125],[44.94171,54.12115]],[[44.95613,54.05877],[44.95563,54.05832]],[[44.96551,54.07209],[44.96616,54.07227]],[[44.96589,54.07243],[44.96551,54.07209]],[[45.02268,54.71335],[45.04045,54.71556],[45.04673,54.71534],[45.05494,54.72207],[45.06252,54.7183],[45.0902,54.72759],[45.10063,54.72876],[45.11218,54.72785],[45.12105,54.72941],[45.12324,54.72815],[45.1245,54.72438],[45.12702,54.70784],[45.13405,54.69793],[45.1572,54.69323],[45.205,54.69508],[45.21589,54.6909],[45.23118,54.68774],[45.25048,54.67928],[45.26211,54.67291],[45.27168,54.6737],[45.28963,54.67777]],[[45.08202,54.29534],[45.08061,54.29615]],[[45.08142,54.29543],[45.08285,54.29521]],[[45.08221,54.29472],[45.08285,54.29521]],[[45.08285,54.29521],[45.11243,54.29071]],[[45.09683,54.08923],[45.09763,54.0891]],[[45.09737,54.08934],[45.09763,54.0891]],[[45.09763,54.0891],[45.09805,54.08949]],[[45.09763,54.0891],[45.09985,54.08709]],[[45.09985,54.08709],[45.11073,54.09149],[45.12154,54.09365]],[[45.10809,54.09383],[45.10809,54.09335]],[[45.10905,54.09384],[45.10826,54.09377]],[[45.11243,54.29071],[45.11295,54.29036]],[[45.11318,54.29061],[45.11243,54.29071]],[[45.11298,54.29033],[45.11345,54.28994]],[[45.11345,54.28994],[45.11341,54.29043]],[[45.12933,54.26088],[45.13821,54.26365],[45.13893,54.26566],[45.12878,54.27658],[45.12216,54.28],[45.12061,54.28455],[45.11345,54.28994]],[[45.11867,54.13938],[45.1196,54.13909]],[[45.1196,54.13909],[45.11915,54.13966]],[[45.13072,54.13541],[45.1196,54.13909]],[[45.12351,54.19557],[45.12304,54.19561]],[[45.12319,54.1953],[45.12351,54.19557]],[[45.14043,54.19605],[45.13806,54.19502],[45.12351,54.19557]],[[45.12933,54.26088],[45.1283,54.26094]],[[45.12866,54.26072],[45.12933,54.26088]],[[45.12921,54.26039],[45.12933,54.26088]],[[45.13072,54.13541],[45.13236,54.13516]],[[45.13172,54.13528],[45.13072,54.13541]],[[45.14093,54.13467],[45.13172,54.13528]],[[45.13369,54.13517],[45.13172,54.13528]],[[45.13236,54.13516],[45.1341,54.1342],[45.13373,54.13274]],[[45.13236,54.13516],[45.13473,54.135]],[[45.13754,54.13596],[45.13369,54.13517]],[[45.13544,54.13507],[45.13369,54.13517]],[[45.13832,54.13477],[45.1365,54.13452]],[[45.13745,54.13546],[45.13914,54.13554],[45.13895,54.13485]],[[45.14372,54.17311],[45.13792,54.16722]],[[45.13898,54.20507],[45.14623,54.20375],[45.15209,54.20528],[45.1795,54.20452]],[[45.13908,54.16685],[45.14485,54.17274]],[[45.15558,54.14791],[45.14535,54.15159]],[[45.15099,54.16351],[45.15109,54.16395]],[[45.15109,54.16395],[45.15133,54.16538]],[[45.15191,54.16334],[45.15109,54.16395]],[[45.15133,54.16538],[45.15221,54.17031]],[[45.15133,54.16538],[45.15769,54.16479],[45.16653,54.16392]],[[45.15758,54.15789],[45.16408,54.1572]],[[45.15758,54.15789],[45.15766,54.15819]],[[45.15766,54.15819],[45.1571,54.15807],[45.15758,54.15789]],[[45.16414,54.15735],[45.15766,54.15819]],[[45.16495,54.15933],[45.15755,54.16005],[45.15883,54.16467]],[[45.17829,54.19503],[45.17812,54.19478]],[[45.1795,54.20452],[45.17829,54.19503]],[[45.17836,54.19477],[45.17829,54.19503]],[[45.17968,54.20593],[45.1795,54.20452]],[[45.18915,54.20363],[45.18517,54.20581],[45.18176,54.20599],[45.17968,54.20593]],[[45.18083,54.21997],[45.17968,54.20593]],[[45.18074,54.22063],[45.18083,54.21997]],[[45.18083,54.21997],[45.19549,54.21451],[45.1967,54.21558],[45.19981,54.21436],[45.20109,54.21548],[45.20253,54.21493]],[[45.25246,54.34938],[45.2361,54.35367],[45.20788,54.35885],[45.18474,54.35923],[45.18066,54.35862],[45.18088,54.35671]],[[45.19332,54.18642],[45.18781,54.18666]],[[45.18805,54.18932],[45.19083,54.18924],[45.19332,54.18642]],[[45.18824,54.16312],[45.18809,54.16963]],[[45.18915,54.20363],[45.18952,54.20337]],[[45.18967,54.20365],[45.18936,54.2036],[45.18915,54.20363]],[[45.19065,54.20349],[45.19034,54.20356]],[[45.19038,54.20334],[45.19065,54.20349]],[[45.19748,54.18436],[45.19378,54.18717],[45.19478,54.1942],[45.19308,54.19566],[45.19343,54.20264],[45.19065,54.20349]],[[45.19312,54.18401],[45.19328,54.18464]],[[45.19328,54.18464],[45.19401,54.18486]],[[45.19338,54.18526],[45.19328,54.18464]],[[45.19347,54.18629],[45.19332,54.18642]],[[45.19343,54.18545],[45.19338,54.18526]],[[45.19338,54.18526],[45.19401,54.18486]],[[45.19434,54.18564],[45.19343,54.18545]],[[45.19347,54.18629],[45.19343,54.18545]],[[45.19434,54.18564],[45.19347,54.18629]],[[45.19538,54.18335],[45.19386,54.18385]],[[45.19401,54.18486],[45.1942,54.18486]],[[45.1942,54.18486],[45.19474,54.18531]],[[45.1942,54.18486],[45.19578,54.18359]],[[45.19474,54.18531],[45.19434,54.18564]],[[45.19643,54.18355],[45.19474,54.18531]],[[45.19505,54.17045],[45.19536,54.1705]],[[45.19505,54.17045],[45.19232,54.16923],[45.19503,54.16851],[45.19556,54.17011]],[[45.19505,54.17045],[45.19556,54.17011]],[[45.19536,54.1705],[45.1957,54.17056]],[[45.19575,54.17075],[45.19536,54.1705]],[[45.19643,54.18355],[45.19538,54.18335]],[[45.19538,54.18335],[45.19652,54.18305]],[[45.1957,54.17056],[45.19556,54.17011]],[[45.19575,54.17075],[45.1957,54.17056]],[[45.19614,54.17233],[45.19575,54.17075]],[[45.19614,54.17233],[45.19651,54.17334]],[[45.19616,54.17344],[45.19614,54.17233]],[[45.19651,54.17334],[45.19646,54.17346],[45.19616,54.17344]],[[45.19645,54.1741],[45.19616,54.17344]],[[45.19668,54.18325],[45.19643,54.18355]],[[45.19645,54.1741],[45.19722,54.18025]],[[45.19651,54.17334],[45.19645,54.1741]],[[45.19652,54.18305],[45.19668,54.18325]],[[45.19652,54.18305],[45.19698,54.18271]],[[45.19698,54.18271],[45.19668,54.18325]],[[45.19722,54.18025],[45.19698,54.18271]],[[45.19703,54.18026],[45.19722,54.18025]],[[45.19722,54.18025],[45.19827,54.18022]],[[45.19748,54.18436],[45.1981,54.18281]],[[45.1981,54.18281],[45.19789,54.18407],[45.19748,54.18436]],[[45.19838,54.18109],[45.1981,54.18281]],[[45.19843,54.18038],[45.19827,54.18022]],[[45.19827,54.18022],[45.19874,54.18023]],[[45.19838,54.18109],[45.19843,54.18042]],[[45.19882,54.18057],[45.19838,54.18109]],[[45.21485,54.17569],[45.21059,54.17363]],[[45.21075,54.17357],[45.2132,54.17467],[45.21544,54.17534]],[[45.21435,54.1405],[45.21394,54.14043]],[[45.21405,54.14094],[45.21394,54.14043]],[[45.21394,54.14043],[45.21347,54.13776],[45.21493,54.13718],[45.21725,54.13919],[45.21435,54.1405]],[[45.22159,54.14902],[45.21552,54.1449],[45.21405,54.14094]],[[45.21435,54.1405],[45.21405,54.14094]],[[45.22358,54.19263],[45.21378,54.19277],[45.21422,54.18622]],[[45.21513,54.17524],[45.21688,54.17497]],[[45.21811,54.15597],[45.21894,54.15579]],[[45.21883,54.15625],[45.21894,54.15579]],[[45.21894,54.15579],[45.22143,54.14931]],[[45.22165,54.17155],[45.21928,54.16404]],[[45.22143,54.14931],[45.22159,54.14902]],[[45.22195,54.14926],[45.22143,54.14931]],[[45.22159,54.14902],[45.22195,54.14926]],[[45.22195,54.14926],[45.23477,54.1555]],[[45.22388,54.19879],[45.22358,54.19263]],[[45.22358,54.19263],[45.22377,54.19257]],[[45.22384,54.19382],[45.22405,54.19382]],[[45.22385,54.19549],[45.22404,54.19549]],[[45.22385,54.19414],[45.22405,54.19414]],[[45.22639,54.19909],[45.22414,54.19904],[45.22388,54.19879]],[[45.22388,54.19879],[45.22431,54.1986]],[[45.22401,54.19264],[45.22431,54.1986]],[[45.22431,54.1986],[45.22538,54.19864]],[[45.22538,54.19864],[45.22521,54.19905]],[[45.22538,54.19864],[45.22639,54.19909]],[[45.23487,54.20284],[45.22639,54.19909]],[[45.23487,54.20284],[45.24285,54.20618],[45.24485,54.20835]],[[45.24739,54.19985],[45.23838,54.2007],[45.23487,54.20284]],[[45.23528,54.26753],[45.23628,54.26609],[45.25749,54.27109],[45.25624,54.25993]],[[45.23573,54.18569],[45.24032,54.18544],[45.23887,54.17501]],[[45.24485,54.20835],[45.2454,54.20848]],[[45.24485,54.20835],[45.24513,54.20862]],[[45.25597,54.14101],[45.25209,54.12855],[45.25184,54.11412],[45.24443,54.08701],[45.24411,54.06609],[45.23885,54.06058],[45.2455,54.05757],[45.25032,54.06098],[45.25342,54.05985],[45.2553,54.05775],[45.25496,54.05538],[45.25874,54.05287],[45.26373,54.03756],[45.26938,54.03292],[45.27679,54.0288]],[[45.27909,54.69205],[45.29643,54.6932],[45.31446,54.6874],[45.32474,54.68176],[45.35524,54.65941],[45.35741,54.65481],[45.3602,54.65192],[45.35221,54.64912],[45.32799,54.63186]],[[45.30168,54.22995],[45.29131,54.23401]],[[45.30168,54.22995],[45.30119,54.22899]],[[45.30208,54.22979],[45.30168,54.22995]],[[45.30271,54.23043],[45.30215,54.22998],[45.30194,54.22991],[45.30168,54.22995]],[[45.32437,54.24755],[45.31183,54.26696]],[[45.33261,54.10906],[45.32861,54.10185]],[[45.43227,54.03606],[45.42903,54.03754],[45.40817,54.03852],[45.35885,54.03521],[45.34922,54.03367],[45.336,54.03985],[45.33333,54.04464],[45.33209,54.04495]],[[45.33377,54.25297],[45.33662,54.25064],[45.33978,54.25101],[45.34265,54.24365],[45.34485,54.23197],[45.34965,54.23066],[45.34951,54.22787],[45.35293,54.22602],[45.35294,54.22403],[45.35453,54.22187],[45.34486,54.19603]],[[45.34069,54.41705],[45.34281,54.42108],[45.3454,54.42246],[45.34707,54.42178]],[[45.34707,54.42178],[45.36405,54.42456],[45.37143,54.42274],[45.37487,54.424],[45.37761,54.42204],[45.37998,54.42235],[45.38445,54.41882],[45.37856,54.41478],[45.37609,54.4109],[45.36987,54.40669]],[[45.34707,54.42178],[45.35618,54.41657]],[[45.41062,54.44982],[45.41168,54.45061],[45.40568,54.45383],[45.3892,54.45424],[45.37311,54.45785],[45.37103,54.45908],[45.37026,54.46757],[45.36618,54.46752],[45.36206,54.46985],[45.35183,54.47273]],[[45.36019,54.57788],[45.36677,54.57843],[45.3833,54.58496],[45.39592,54.58397],[45.42059,54.58867],[45.42017,54.58956],[45.4316,54.59285],[45.46484,54.62067],[45.47207,54.62863],[45.4787,54.63343],[45.48651,54.6433],[45.50793,54.65705],[45.5158,54.65836],[45.53265,54.66529],[45.53728,54.67237],[45.53454,54.68112],[45.5452,54.69008],[45.57114,54.71097],[45.58522,54.71911],[45.61395,54.72832],[45.63915,54.73176],[45.65511,54.7369],[45.65636,54.73892],[45.65548,54.74577],[45.6624,54.75372],[45.66514,54.76062]],[[45.36751,54.09606],[45.36873,54.10645]],[[45.37615,54.40353],[45.35468,54.38098],[45.34152,54.36315],[45.34662,54.35721],[45.36658,54.35206],[45.38008,54.34575],[45.37988,54.34431],[45.38148,54.34331],[45.39107,54.33996],[45.39327,54.33416],[45.39015,54.32587],[45.3929,54.32289],[45.39428,54.3194],[45.38958,54.31964],[45.37967,54.30194],[45.38158,54.29591],[45.38375,54.29241],[45.38925,54.28758],[45.39622,54.27502]],[[45.37904,54.09347],[45.42754,54.09415],[45.43061,54.09664],[45.45966,54.09391],[45.47924,54.0974],[45.49378,54.0987]],[[45.39812,54.4371],[45.40569,54.44298],[45.40706,54.44489],[45.4072,54.448],[45.41062,54.44982]],[[45.41062,54.44982],[45.41441,54.45108],[45.41743,54.45625],[45.4191,54.45724],[45.43294,54.45827],[45.45173,54.45759],[45.45393,54.46245],[45.45917,54.46727],[45.46207,54.46794],[45.46645,54.46515],[45.47652,54.46523],[45.4924,54.4741],[45.50925,54.48536],[45.52179,54.48375]],[[45.46412,54.31541],[45.47285,54.30501],[45.47789,54.30074],[45.48087,54.29618],[45.49285,54.28599],[45.49429,54.27931],[45.4997,54.27236],[45.51623,54.26351],[45.48371,54.25005],[45.46958,54.24652],[45.459,54.24515],[45.45098,54.24165],[45.42885,54.21256],[45.42476,54.20361],[45.41563,54.19092]],[[45.43183,54.03535],[45.43227,54.03606]],[[45.43227,54.03606],[45.4389,54.04116],[45.44215,54.04515]],[[45.4329,54.0349],[45.443,54.02938],[45.45014,54.02252],[45.45,54.01892]],[[45.45117,54.03811],[45.48783,54.03678],[45.51878,54.03211],[45.53737,54.03737],[45.54591,54.03687],[45.56721,54.03919],[45.57187,54.03864],[45.59333,54.03008],[45.65321,53.99992],[45.67729,53.9894],[45.68863,53.98748],[45.69355,53.98983],[45.71404,53.99397],[45.71887,53.97776],[45.72366,53.97256],[45.72529,53.96823],[45.72168,53.96594],[45.71025,53.96414]],[[45.45139,54.18589],[45.47775,54.19478]],[[45.45152,54.03779],[45.45199,54.03805]],[[45.5452,54.69008],[45.55623,54.68606],[45.57281,54.68443],[45.59605,54.67996],[45.60863,54.67403],[45.61946,54.67489],[45.64957,54.6655],[45.67045,54.66325],[45.68612,54.65667],[45.69449,54.65789],[45.70575,54.65495],[45.71874,54.65628],[45.72714,54.65022],[45.7323,54.64385],[45.77759,54.65381],[45.78245,54.65279],[45.80333,54.63685],[45.8118,54.63304],[45.83921,54.63648],[45.85389,54.6401],[45.85982,54.63328],[45.88526,54.61563],[45.90297,54.61202],[45.91822,54.61085],[45.92488,54.61149],[45.94444,54.61674],[45.96331,54.61468],[45.98293,54.61736],[46.01426,54.62398],[46.0321,54.63086]],[[45.57234,54.34963],[45.55353,54.37008],[45.57834,54.37482],[45.57753,54.37671],[45.57951,54.3806],[45.57045,54.41537],[45.59769,54.4206],[45.60278,54.42463],[45.61549,54.42818],[45.64741,54.43155],[45.67077,54.42568],[45.68324,54.43061],[45.68719,54.43111],[45.71333,54.42851],[45.71852,54.42614],[45.72,54.41265],[45.72449,54.39951],[45.73536,54.39966],[45.74861,54.40252]],[[45.58535,55.02038],[45.56399,55.0426],[45.58366,55.05717],[45.59015,55.06024],[45.6656,55.07853],[45.66667,55.08278],[45.68456,55.11868],[45.67646,55.12063],[45.67202,55.1253],[45.66299,55.13104],[45.6535,55.14199],[45.65169,55.15954],[45.65449,55.16522]],[[45.64373,54.43131],[45.64311,54.43647],[45.64548,54.44797],[45.64446,54.45855],[45.64914,54.4593],[45.65712,54.46332],[45.66097,54.46859],[45.67243,54.47806],[45.67292,54.47923],[45.67096,54.48421],[45.68209,54.48294],[45.70086,54.49227],[45.71809,54.48828],[45.746,54.49149],[45.76136,54.50018],[45.76242,54.50336],[45.76419,54.50459],[45.76298,54.50681],[45.77895,54.50808]],[[45.68885,54.31905],[45.69245,54.31389],[45.69414,54.3058],[45.69708,54.30111],[45.7006,54.29686],[45.71175,54.29007],[45.70934,54.28373],[45.69822,54.27857],[45.66351,54.26693],[45.65008,54.25686],[45.64383,54.25535]],[[45.67009,54.36149],[45.66745,54.35854],[45.67055,54.35117],[45.67856,54.35173],[45.69407,54.34791],[45.68896,54.34382],[45.68748,54.33855],[45.68885,54.31905]],[[45.68469,54.14479],[45.68762,54.14796],[45.69123,54.15524],[45.69832,54.16182],[45.69045,54.17001],[45.6951,54.17631],[45.69922,54.18546],[45.70694,54.19201],[45.73619,54.20595],[45.75469,54.21243],[45.80102,54.20292],[45.82506,54.20244],[45.85214,54.21173],[45.86006,54.21835],[45.88438,54.22672]],[[45.68885,54.31905],[45.69852,54.32132],[45.74335,54.31713],[45.74835,54.31828],[45.7704,54.3183],[45.80924,54.32564]],[[45.79636,54.14312],[45.79761,54.13316],[45.80073,54.12131],[45.80899,54.10197],[45.81262,54.09872],[45.81344,54.09615],[45.79702,54.09446],[45.77901,54.0855],[45.75994,54.08164],[45.72338,54.07789],[45.70283,54.0779],[45.69113,54.07423],[45.68661,54.07665],[45.67618,54.07696],[45.67314,54.07951],[45.66286,54.09597],[45.66358,54.09864],[45.66846,54.10357],[45.66913,54.10818],[45.67257,54.11559],[45.68557,54.12433],[45.69921,54.14241]],[[45.74861,54.40252],[45.76096,54.4052],[45.77401,54.40656],[45.78576,54.40974],[45.78784,54.41192]],[[45.74861,54.40252],[45.75152,54.39815],[45.75197,54.3952],[45.75017,54.38567]],[[45.83312,54.44797],[45.78707,54.49726],[45.77984,54.50063],[45.78023,54.50383],[45.77805,54.50573],[45.77902,54.50766],[45.77999,54.52506],[45.74909,54.53719],[45.74964,54.54112],[45.75245,54.54462],[45.75526,54.55579],[45.74396,54.55899],[45.73167,54.55357],[45.72793,54.55003],[45.70807,54.54092],[45.70066,54.53633],[45.70922,54.53222],[45.70901,54.53133],[45.72355,54.52195],[45.73875,54.51672],[45.76746,54.51137],[45.77308,54.50809]],[[45.78602,54.98755],[45.78565,54.98761]],[[45.78636,54.9792],[45.78668,54.98227],[45.78595,54.98692],[45.78593,54.98722],[45.78599,54.9875],[45.78602,54.98755],[45.78604,54.9876],[45.79361,54.98963],[45.7926,54.99634],[45.8061,55.00048]],[[45.79339,54.98937],[45.7937,54.98922]],[[45.83312,54.44797],[45.8335,54.44742]],[[45.83395,54.44799],[45.83353,54.44783],[45.83312,54.44797]],[[45.85665,54.06378],[45.82705,54.07207],[45.82367,54.07889],[45.82381,54.08195],[45.82568,54.08397],[45.82232,54.09697],[45.83645,54.09822],[45.85439,54.10274],[45.9277,54.13566],[45.92978,54.13963],[45.93776,54.14395],[45.94757,54.14754],[45.96427,54.16732],[45.9708,54.16668],[45.97327,54.17482]],[[45.86663,54.87791],[45.87328,54.87387],[45.88445,54.87019],[45.89968,54.87101],[45.91011,54.86884],[45.91577,54.86461],[45.9272,54.86108],[45.93164,54.85703],[45.94046,54.85695],[45.94369,54.85558],[45.96174,54.85385],[46.00156,54.82583],[46.02035,54.82334],[46.04439,54.8166],[46.06434,54.81462],[46.08274,54.80989],[46.10151,54.80256],[46.15663,54.80875],[46.16379,54.8106],[46.18919,54.80543],[46.19284,54.80946],[46.19832,54.81271],[46.22485,54.81422],[46.23829,54.82326]],[[45.92119,54.70638],[45.93487,54.69462],[45.94325,54.69025],[45.95433,54.68732],[45.96165,54.68398],[45.96438,54.67996],[45.97934,54.6652],[45.98863,54.65988],[45.99246,54.65469],[46.00032,54.64882],[46.00822,54.64566],[46.02808,54.63248],[46.05155,54.6233],[46.08536,54.5946]],[[45.98145,54.18295],[45.9761,54.18839],[45.96071,54.19329],[45.95718,54.19993],[45.95222,54.20283]],[[45.95278,54.99513],[45.96033,55.00544]],[[45.95594,54.79422],[45.974,54.79079],[46.01912,54.78761],[46.02385,54.78897],[46.03477,54.7867],[46.04053,54.78505],[46.05036,54.78017],[46.07215,54.76825],[46.07502,54.76466],[46.09546,54.7546],[46.13125,54.74888],[46.1875,54.76549],[46.20298,54.77391],[46.20713,54.77382],[46.22212,54.76898],[46.23012,54.76872],[46.24336,54.77114],[46.25755,54.77572]],[[46.00393,54.7185],[45.96438,54.67996]],[[45.97327,54.17482],[45.97303,54.17622]],[[46.10593,54.13583],[46.09807,54.13814],[46.07816,54.13809],[46.04133,54.14294],[46.02456,54.14308],[46.01195,54.14804],[46.00266,54.1539],[46.00041,54.15926],[45.99593,54.16266],[45.97799,54.17055],[45.97586,54.17383],[45.97327,54.17482]],[[46.0642,54.58905],[46.06903,54.58347],[46.07322,54.58245],[46.0822,54.58467],[46.08752,54.58846]],[[46.10095,54.27133],[46.09435,54.27471],[46.07695,54.30312],[46.08198,54.30952]],[[46.18528,54.24687],[46.17539,54.2555],[46.14735,54.25898],[46.09982,54.27078]],[[46.12447,54.41667],[46.12572,54.40237],[46.12387,54.39702],[46.12555,54.38722],[46.12524,54.37822],[46.12106,54.37263],[46.12768,54.36942],[46.12339,54.36547],[46.12894,54.3626],[46.12837,54.36076],[46.12415,54.35667]],[[46.17692,54.93647],[46.18749,54.94822],[46.18692,54.95165],[46.18792,54.95432],[46.19869,54.9597],[46.2038,54.96906],[46.20916,54.97389],[46.20664,54.99512],[46.21581,54.99664],[46.23367,55.00511],[46.25099,55.02095],[46.24992,55.02339],[46.24357,55.02825],[46.23865,55.02979],[46.23353,55.02942]],[[46.43749,54.63399],[46.40936,54.64556],[46.40447,54.64583],[46.379,54.6398],[46.3193,54.61503],[46.27061,54.59938],[46.25747,54.59668],[46.2362,54.59526],[46.23105,54.59546],[46.22773,54.59683],[46.19295,54.62069]],[[46.2152,54.90345],[46.2165,54.90701],[46.21818,54.90679],[46.22104,54.90373],[46.23998,54.90772],[46.25616,54.91865],[46.27297,54.92653],[46.28636,54.92912],[46.29055,54.92895]],[[46.23248,54.83594],[46.23561,54.8358],[46.24309,54.84372]],[[46.23648,54.84566],[46.2411,54.85086],[46.24769,54.84889]],[[46.24058,54.81846],[46.23097,54.83915],[46.23648,54.84566]],[[46.23648,54.84566],[46.24309,54.84372]],[[46.24088,54.81779],[46.24058,54.81846]],[[46.24175,54.81826],[46.24058,54.81846]],[[46.2411,54.81738],[46.24088,54.81779]],[[46.24088,54.81779],[46.24132,54.81774]],[[46.24224,54.72241],[46.24909,54.71928],[46.25672,54.71758],[46.28879,54.71257],[46.29958,54.7098]],[[46.24309,54.84372],[46.24769,54.84889]],[[46.26213,54.84568],[46.24769,54.84889]],[[46.27385,54.75401],[46.30165,54.75319],[46.30718,54.75744],[46.31076,54.75701]],[[46.31076,54.42198],[46.31489,54.41855],[46.34847,54.40738],[46.38092,54.39362],[46.38176,54.39136],[46.38399,54.39126],[46.38492,54.38841],[46.40698,54.38027],[46.40812,54.37714],[46.44615,54.3587],[46.44955,54.36046],[46.45485,54.35784]],[[46.47226,54.52281],[46.46772,54.51642],[46.46064,54.51261],[46.4554,54.50171],[46.45111,54.5008],[46.44284,54.49569],[46.40635,54.47995],[46.40824,54.47656],[46.40902,54.4712],[46.40612,54.46789],[46.40134,54.46598],[46.39634,54.46506],[46.3938,54.46346],[46.38537,54.46722],[46.35716,54.46174],[46.3246,54.4609],[46.31441,54.46325]],[[46.45485,54.35784],[46.43915,54.34769],[46.4177,54.33146],[46.39351,54.31868],[46.38791,54.31425]],[[46.49549,54.41323],[46.49113,54.40654],[46.4815,54.38385],[46.47233,54.37539],[46.46925,54.37041],[46.46012,54.36407],[46.46218,54.36268],[46.45485,54.35784]],[[46.49475,54.41357],[46.49549,54.41323]],[[46.49567,54.41352],[46.49549,54.41323]],[[46.49567,54.41352],[46.49659,54.41382]],[[46.49578,54.41371],[46.49567,54.41352]],[[45.11332,54.29057],[45.113,54.29058],[45.11291,54.29041],[45.11298,54.29033],[45.11305,54.29031],[45.11331,54.29034],[45.11332,54.29057]],[[45.11882,54.1394],[45.11897,54.13996],[45.11809,54.13984],[45.11822,54.13947],[45.11882,54.1394]],[[45.19883,54.18024],[45.19892,54.18054],[45.19845,54.18047],[45.19843,54.18038],[45.1985,54.18029],[45.19883,54.18024]]]}},{"type":"Feature","properties":{"roadClass":"trunk"},"geometry":{"type":"MultiLineString","coordinates":[[[42.60014,54.17238],[42.64614,54.17398],[42.65119,54.17325],[42.66777,54.1597],[42.67686,54.14104],[42.68504,54.13259],[42.69415,54.11937],[42.70497,54.11412],[42.74512,54.10239],[42.77025,54.09843],[42.7751,54.09557],[42.79071,54.08097],[42.80562,54.07848],[42.81858,54.06752],[42.83614,54.06257]],[[42.83614,54.06257],[42.83767,54.0622]],[[42.8411,54.06249],[42.83845,54.06274],[42.83821,54.06272],[42.83793,54.06267],[42.8376,54.06259],[42.83736,54.06256],[42.83614,54.06257]],[[42.83793,54.06267],[42.83767,54.0622]],[[42.83767,54.0622],[42.83916,54.06208]],[[42.83916,54.06208],[42.8411,54.06249]],[[42.83916,54.06208],[42.83932,54.06256]],[[42.8411,54.06249],[42.85489,54.06592],[42.87849,54.05779],[42.89374,54.04633],[42.90925,54.02651],[42.93749,54.01556],[42.96518,54.00868],[42.97006,54.00363],[42.97489,53.99251],[42.9783,53.98915],[42.98579,53.97337],[42.98987,53.96991],[43.00961,53.96899]],[[43.00961,53.96899],[43.0131,53.96829],[43.01529,53.96778],[43.01755,53.96724],[43.01947,53.96679],[43.02236,53.96612],[43.02533,53.96543]],[[43.02533,53.96543],[43.02015,53.96698],[43.01915,53.96951],[43.01672,53.96769],[43.00961,53.96899]],[[43.01529,53.96778],[43.01625,53.9675],[43.01783,53.96713],[43.01944,53.96675],[43.02259,53.96601],[43.02322,53.96572],[43.02223,53.96461]],[[43.02223,53.96461],[43.02565,53.96528],[43.03082,53.96413]],[[43.21396,54.08436],[43.21052,54.07639],[43.20595,54.07314],[43.1806,54.06661],[43.16156,54.06003],[43.14607,54.05691],[43.14156,54.05317],[43.11564,54.04592],[43.02455,54.00735],[43.02045,54.00353],[43.01866,53.99898],[43.01941,53.97318],[43.01915,53.96951],[43.01904,53.96886],[43.01888,53.96829],[43.01861,53.96723],[43.0184,53.96646],[43.01825,53.96591],[43.01821,53.96557],[43.01962,53.96439],[43.02223,53.96461]],[[43.02533,53.96543],[43.15918,53.93536]],[[43.21396,54.08436],[43.21484,54.08475]],[[43.21442,54.08485],[43.21396,54.08436]],[[43.21515,54.08525],[43.21442,54.08485]],[[43.21442,54.08485],[43.21484,54.08475]],[[43.21484,54.08475],[43.21527,54.08495]],[[43.21599,54.08528],[43.21515,54.08525]],[[43.21527,54.08495],[43.21515,54.08525]],[[43.21527,54.08495],[43.21599,54.08528]],[[43.6907,54.43217],[43.67189,54.43254],[43.64671,54.42562],[43.32783,54.30294],[43.32163,54.2997],[43.31822,54.29595],[43.29968,54.26279],[43.29678,54.25463],[43.29866,54.24929],[43.31351,54.23272],[43.31486,54.21899],[43.31921,54.20261],[43.31759,54.19418],[43.26676,54.09727],[43.2602,54.09231],[43.25171,54.0891],[43.21599,54.08528]],[[43.6907,54.43217],[43.70193,54.43113],[43.71015,54.42823],[43.71396,54.42549],[43.72139,54.41728],[43.72369,54.41512],[43.72576,54.41352],[43.72883,54.41151],[43.73254,54.40953],[43.73619,54.40795],[43.74023,54.40654],[43.74684,54.40487],[43.79446,54.39498],[43.80505,54.39307],[43.81008,54.39236],[43.82483,54.39155],[43.83432,54.38872]],[[43.83432,54.38872],[43.82577,54.3915],[43.80911,54.39256],[43.78874,54.39618],[43.74032,54.40662],[43.72584,54.41361],[43.71407,54.42557],[43.71028,54.42831],[43.70491,54.43051],[43.70076,54.43147],[43.6907,54.43217]],[[45.01897,54.23083],[44.99895,54.23782],[44.98733,54.24538],[44.95797,54.2543],[44.94464,54.2615],[44.94104,54.26473],[44.93737,54.27234],[44.93303,54.27754],[44.92917,54.28],[44.91756,54.28323],[44.90908,54.28727],[44.89209,54.30451],[44.88527,54.30707],[44.86515,54.30921],[44.85932,54.311],[44.83178,54.3276],[44.80203,54.35168],[44.7657,54.35823],[44.75537,54.35886],[44.74399,54.35737],[44.69504,54.34257],[44.66555,54.33197],[44.63611,54.33144],[44.53877,54.32604],[44.49979,54.32924],[44.47946,54.32537],[44.46851,54.31771],[44.45771,54.31398],[44.41474,54.3128],[44.39149,54.31914],[44.38174,54.32064],[44.31308,54.31815],[44.21469,54.33389],[44.1653,54.3404],[44.09737,54.35494],[44.05578,54.35776],[43.91789,54.36668],[43.85993,54.37615],[43.8535,54.37851],[43.83432,54.38872]],[[43.98666,54.36219],[43.98656,54.3617]],[[45.01951,54.22995],[44.98471,54.20504],[44.96352,54.19816],[44.95267,54.19241],[44.94643,54.18376],[44.93425,54.17537],[44.92602,54.15279],[44.9211,54.14625],[44.91031,54.1377],[44.88969,54.1309],[44.88573,54.12856],[44.88315,54.1255],[44.87997,54.1154],[44.88067,54.09276],[44.87888,54.08707],[44.88008,54.07865],[44.87762,54.06552],[44.87798,54.05266],[44.88191,54.04768],[44.91048,54.02771],[44.91216,54.0256],[44.9125,54.02289],[44.89817,54.00277],[44.87286,53.9716],[44.87066,53.9657],[44.87121,53.96212],[44.87335,53.95568],[44.87952,53.94867],[44.88035,53.94567],[44.86581,53.92473],[44.86299,53.91445],[44.85641,53.90471],[44.84943,53.88886]],[[45.14963,54.24519],[45.14419,54.25118],[45.1009,54.27791],[45.07361,54.30246],[45.06934,54.30779],[45.05471,54.35207],[45.05256,54.36386],[45.03726,54.39795],[45.03221,54.42478],[45.03541,54.42994],[45.03381,54.43249],[45.0256,54.43949],[45.02131,54.44768],[45.02147,54.45044],[45.0254,54.45714],[45.02369,54.47191],[45.00188,54.49995]],[[45.01897,54.23083],[45.01951,54.22995]],[[45.02025,54.2306],[45.01897,54.23083]],[[45.01951,54.22995],[45.02129,54.23043]],[[45.02025,54.2306],[45.01951,54.22995]],[[45.02129,54.23043],[45.02025,54.2306]],[[45.14679,54.24306],[45.11977,54.24172],[45.08701,54.23764],[45.05145,54.23066],[45.02878,54.23004],[45.02129,54.23043]],[[45.14758,54.24309],[45.14679,54.24306]],[[45.14963,54.24519],[45.14921,54.24369],[45.14679,54.24306]],[[45.14758,54.24309],[45.14878,54.24309],[45.14957,54.24296]],[[45.14955,54.24342],[45.14758,54.24309]],[[45.1503,54.24341],[45.14988,54.2435],[45.14955,54.24342]],[[45.14991,54.24454],[45.14955,54.24342]],[[45.14955,54.24342],[45.14957,54.24296]],[[45.14957,54.24296],[45.15031,54.24301]],[[45.14969,54.24508],[45.14963,54.24519]],[[45.14991,54.24454],[45.14969,54.24508]],[[45.15308,54.24347],[45.15071,54.24375],[45.14969,54.24508]],[[45.1503,54.24341],[45.14991,54.24454]],[[45.15031,54.24301],[45.1503,54.24341]],[[45.15176,54.24335],[45.1503,54.24341]],[[45.15031,54.24301],[45.15176,54.24335]],[[45.15308,54.24347],[45.15176,54.24335]],[[45.28596,54.22028],[45.27881,54.22445],[45.27327,54.23003],[45.26486,54.23572],[45.23876,54.24583],[45.23307,54.24705],[45.2186,54.24794],[45.15308,54.24347]],[[45.28596,54.22028],[45.28659,54.21992]],[[45.29038,54.22087],[45.28828,54.21996],[45.28596,54.22028]],[[45.28659,54.21992],[45.28719,54.21927]],[[45.28774,54.21961],[45.28659,54.21992]],[[45.28774,54.21961],[45.28719,54.21927]],[[45.28719,54.21927],[45.28832,54.21928]],[[45.2878,54.21961],[45.28774,54.21961]],[[45.28889,54.21994],[45.2878,54.21961]],[[45.28832,54.21928],[45.2878,54.21961]],[[45.28832,54.21928],[45.28889,54.21994]],[[45.29038,54.22087],[45.28889,54.21994]],[[45.79553,54.39224],[45.77407,54.39183],[45.74097,54.38322],[45.73589,54.38127],[45.72337,54.37341],[45.68647,54.3615],[45.67618,54.36093],[45.63275,54.36471],[45.61494,54.3628],[45.52826,54.33583],[45.49584,54.32327],[45.45307,54.31236],[45.44578,54.30892],[45.39198,54.27266],[45.33827,54.25558],[45.31421,54.24149],[45.29869,54.22679],[45.29038,54.22087]],[[45.7971,54.39249],[45.79553,54.39224]],[[45.79553,54.39224],[45.79691,54.39197]],[[45.7971,54.39249],[45.79691,54.39197]],[[45.79691,54.39197],[45.79817,54.3917]],[[45.79846,54.39242],[45.79781,54.39264],[45.7971,54.39249]],[[45.79817,54.3917],[45.80102,54.39206]],[[45.79817,54.3917],[45.79846,54.39242]],[[45.80102,54.39206],[45.79846,54.39242]],[[46.57721,54.43094],[46.54257,54.42014],[46.47788,54.41164],[46.4323,54.411],[46.39964,54.40928],[46.34475,54.41985],[46.31338,54.42436],[46.21779,54.41633],[46.17706,54.41437],[46.07398,54.41876],[45.93272,54.41066],[45.92182,54.4084],[45.90407,54.40011],[45.89374,54.39739],[45.84358,54.39811],[45.81749,54.39276],[45.80966,54.39203],[45.80102,54.39206]]]}}],"provenance":{"sources":[{"id":"osm-volga-260916","url":"https://download.geofabrik.de/russia/volga-fed-district-260916.osm.pbf","snapshot":"2026-09-16T20:21:21Z","sha256":"b743d60f0bc6df6745ab002675bc74bb1b0b0a04b37b15f331a53fa704fad7db","md5":"8e41694055a08e29f9f9e553571956f5","bytes":773336406,"license":"ODbL-1.0","attribution":"© OpenStreetMap contributors, Geofabrik","downloadDate":"2026-09-17"}],"attribution":"© OpenStreetMap contributors, Geofabrik; ODbL-1.0","geometryMethod":"Actual OSM road ways, merged by class and endpoint, display simplification 0.0007 degrees; not routing geometry","sourceWayCount":2896,"routingUse":false}}